<?xml version="1.0" encoding="UTF-8"?>
<kml xmlns="http://www.opengis.net/kml/2.2" xmlns:gx="http://www.google.com/kml/ext/2.2">
    <Document id="1">
        <Folder id="2">
            <Style id="5">
                <IconStyle id="6">
                    <color>ff0000ff</color>
                    <colorMode>normal</colorMode>
                    <scale>1</scale>
                    <heading>0</heading>
                    <Icon id="7">
                        <href>http://maps.google.com/mapfiles/kml/pushpin/ylw-pushpin.png</href>
                    </Icon>
                </IconStyle>
            </Style>
            <Style id="10">
                <IconStyle id="11">
                    <color>ff0000ff</color>
                    <colorMode>normal</colorMode>
                    <scale>1</scale>
                    <heading>0</heading>
                    <Icon id="12">
                        <href>http://maps.google.com/mapfiles/kml/pushpin/ylw-pushpin.png</href>
                    </Icon>
                </IconStyle>
            </Style>
            <Style id="15">
                <IconStyle id="16">
                    <color>ff0000ff</color>
                    <colorMode>normal</colorMode>
                    <scale>1</scale>
                    <heading>0</heading>
                    <Icon id="17">
                        <href>http://maps.google.com/mapfiles/kml/pushpin/ylw-pushpin.png</href>
                    </Icon>
                </IconStyle>
            </Style>
            <Style id="20">
                <IconStyle id="21">
                    <color>ff0000ff</color>
                    <colorMode>normal</colorMode>
                    <scale>1</scale>
                    <heading>0</heading>
                    <Icon id="22">
                        <href>http://maps.google.com/mapfiles/kml/pushpin/ylw-pushpin.png</href>
                    </Icon>
                </IconStyle>
            </Style>
            <Style id="25">
                <IconStyle id="26">
                    <color>ff0000ff</color>
                    <colorMode>normal</colorMode>
                    <scale>1</scale>
                    <heading>0</heading>
                    <Icon id="27">
                        <href>http://maps.google.com/mapfiles/kml/pushpin/ylw-pushpin.png</href>
                    </Icon>
                </IconStyle>
            </Style>
            <Style id="30">
                <IconStyle id="31">
                    <color>ff0000ff</color>
                    <colorMode>normal</colorMode>
                    <scale>1</scale>
                    <heading>0</heading>
                    <Icon id="32">
                        <href>http://maps.google.com/mapfiles/kml/pushpin/ylw-pushpin.png</href>
                    </Icon>
                </IconStyle>
            </Style>
            <Style id="35">
                <IconStyle id="36">
                    <color>ff0000ff</color>
                    <colorMode>normal</colorMode>
                    <scale>1</scale>
                    <heading>0</heading>
                    <Icon id="37">
                        <href>http://maps.google.com/mapfiles/kml/pushpin/ylw-pushpin.png</href>
                    </Icon>
                </IconStyle>
            </Style>
            <Style id="40">
                <IconStyle id="41">
                    <color>ff0000ff</color>
                    <colorMode>normal</colorMode>
                    <scale>1</scale>
                    <heading>0</heading>
                    <Icon id="42">
                        <href>http://maps.google.com/mapfiles/kml/pushpin/ylw-pushpin.png</href>
                    </Icon>
                </IconStyle>
            </Style>
            <Style id="45">
                <IconStyle id="46">
                    <color>ff0000ff</color>
                    <colorMode>normal</colorMode>
                    <scale>1</scale>
                    <heading>0</heading>
                    <Icon id="47">
                        <href>http://maps.google.com/mapfiles/kml/pushpin/ylw-pushpin.png</href>
                    </Icon>
                </IconStyle>
            </Style>
            <Style id="50">
                <IconStyle id="51">
                    <color>ff0000ff</color>
                    <colorMode>normal</colorMode>
                    <scale>1</scale>
                    <heading>0</heading>
                    <Icon id="52">
                        <href>http://maps.google.com/mapfiles/kml/pushpin/ylw-pushpin.png</href>
                    </Icon>
                </IconStyle>
            </Style>
            <Style id="55">
                <IconStyle id="56">
                    <color>ff0000ff</color>
                    <colorMode>normal</colorMode>
                    <scale>1</scale>
                    <heading>0</heading>
                    <Icon id="57">
                        <href>http://maps.google.com/mapfiles/kml/pushpin/ylw-pushpin.png</href>
                    </Icon>
                </IconStyle>
            </Style>
            <Style id="60">
                <IconStyle id="61">
                    <color>ff0000ff</color>
                    <colorMode>normal</colorMode>
                    <scale>1</scale>
                    <heading>0</heading>
                    <Icon id="62">
                        <href>http://maps.google.com/mapfiles/kml/pushpin/ylw-pushpin.png</href>
                    </Icon>
                </IconStyle>
            </Style>
            <Style id="65">
                <IconStyle id="66">
                    <color>ff0000ff</color>
                    <colorMode>normal</colorMode>
                    <scale>1</scale>
                    <heading>0</heading>
                    <Icon id="67">
                        <href>http://maps.google.com/mapfiles/kml/pushpin/ylw-pushpin.png</href>
                    </Icon>
                </IconStyle>
            </Style>
            <Style id="70">
                <IconStyle id="71">
                    <color>ff0000ff</color>
                    <colorMode>normal</colorMode>
                    <scale>1</scale>
                    <heading>0</heading>
                    <Icon id="72">
                        <href>http://maps.google.com/mapfiles/kml/pushpin/ylw-pushpin.png</href>
                    </Icon>
                </IconStyle>
            </Style>
            <Style id="75">
                <IconStyle id="76">
                    <color>ff0000ff</color>
                    <colorMode>normal</colorMode>
                    <scale>1</scale>
                    <heading>0</heading>
                    <Icon id="77">
                        <href>http://maps.google.com/mapfiles/kml/pushpin/ylw-pushpin.png</href>
                    </Icon>
                </IconStyle>
            </Style>
            <Style id="80">
                <IconStyle id="81">
                    <color>ff0000ff</color>
                    <colorMode>normal</colorMode>
                    <scale>1</scale>
                    <heading>0</heading>
                    <Icon id="82">
                        <href>http://maps.google.com/mapfiles/kml/pushpin/ylw-pushpin.png</href>
                    </Icon>
                </IconStyle>
            </Style>
            <Style id="85">
                <IconStyle id="86">
                    <color>ff0000ff</color>
                    <colorMode>normal</colorMode>
                    <scale>1</scale>
                    <heading>0</heading>
                    <Icon id="87">
                        <href>http://maps.google.com/mapfiles/kml/pushpin/ylw-pushpin.png</href>
                    </Icon>
                </IconStyle>
            </Style>
            <Style id="90">
                <IconStyle id="91">
                    <color>ff0000ff</color>
                    <colorMode>normal</colorMode>
                    <scale>1</scale>
                    <heading>0</heading>
                    <Icon id="92">
                        <href>http://maps.google.com/mapfiles/kml/pushpin/ylw-pushpin.png</href>
                    </Icon>
                </IconStyle>
            </Style>
            <Style id="95">
                <IconStyle id="96">
                    <color>ff0000ff</color>
                    <colorMode>normal</colorMode>
                    <scale>1</scale>
                    <heading>0</heading>
                    <Icon id="97">
                        <href>http://maps.google.com/mapfiles/kml/pushpin/ylw-pushpin.png</href>
                    </Icon>
                </IconStyle>
            </Style>
            <Style id="100">
                <IconStyle id="101">
                    <color>ff0000ff</color>
                    <colorMode>normal</colorMode>
                    <scale>1</scale>
                    <heading>0</heading>
                    <Icon id="102">
                        <href>http://maps.google.com/mapfiles/kml/pushpin/ylw-pushpin.png</href>
                    </Icon>
                </IconStyle>
            </Style>
            <Style id="105">
                <IconStyle id="106">
                    <color>ff0000ff</color>
                    <colorMode>normal</colorMode>
                    <scale>1</scale>
                    <heading>0</heading>
                    <Icon id="107">
                        <href>http://maps.google.com/mapfiles/kml/pushpin/ylw-pushpin.png</href>
                    </Icon>
                </IconStyle>
            </Style>
            <Style id="110">
                <IconStyle id="111">
                    <color>ff0000ff</color>
                    <colorMode>normal</colorMode>
                    <scale>1</scale>
                    <heading>0</heading>
                    <Icon id="112">
                        <href>http://maps.google.com/mapfiles/kml/pushpin/ylw-pushpin.png</href>
                    </Icon>
                </IconStyle>
            </Style>
            <Style id="115">
                <IconStyle id="116">
                    <color>ff0000ff</color>
                    <colorMode>normal</colorMode>
                    <scale>1</scale>
                    <heading>0</heading>
                    <Icon id="117">
                        <href>http://maps.google.com/mapfiles/kml/pushpin/ylw-pushpin.png</href>
                    </Icon>
                </IconStyle>
            </Style>
            <Style id="120">
                <IconStyle id="121">
                    <color>ff0000ff</color>
                    <colorMode>normal</colorMode>
                    <scale>1</scale>
                    <heading>0</heading>
                    <Icon id="122">
                        <href>http://maps.google.com/mapfiles/kml/pushpin/ylw-pushpin.png</href>
                    </Icon>
                </IconStyle>
            </Style>
            <Style id="125">
                <IconStyle id="126">
                    <color>ff0000ff</color>
                    <colorMode>normal</colorMode>
                    <scale>1</scale>
                    <heading>0</heading>
                    <Icon id="127">
                        <href>http://maps.google.com/mapfiles/kml/pushpin/ylw-pushpin.png</href>
                    </Icon>
                </IconStyle>
            </Style>
            <Style id="130">
                <IconStyle id="131">
                    <color>ff0000ff</color>
                    <colorMode>normal</colorMode>
                    <scale>1</scale>
                    <heading>0</heading>
                    <Icon id="132">
                        <href>http://maps.google.com/mapfiles/kml/pushpin/ylw-pushpin.png</href>
                    </Icon>
                </IconStyle>
            </Style>
            <Style id="135">
                <IconStyle id="136">
                    <color>ff0000ff</color>
                    <colorMode>normal</colorMode>
                    <scale>1</scale>
                    <heading>0</heading>
                    <Icon id="137">
                        <href>http://maps.google.com/mapfiles/kml/pushpin/ylw-pushpin.png</href>
                    </Icon>
                </IconStyle>
            </Style>
            <Style id="140">
                <IconStyle id="141">
                    <color>ff0000ff</color>
                    <colorMode>normal</colorMode>
                    <scale>1</scale>
                    <heading>0</heading>
                    <Icon id="142">
                        <href>http://maps.google.com/mapfiles/kml/pushpin/ylw-pushpin.png</href>
                    </Icon>
                </IconStyle>
            </Style>
            <Style id="145">
                <IconStyle id="146">
                    <color>ff0000ff</color>
                    <colorMode>normal</colorMode>
                    <scale>1</scale>
                    <heading>0</heading>
                    <Icon id="147">
                        <href>http://maps.google.com/mapfiles/kml/pushpin/ylw-pushpin.png</href>
                    </Icon>
                </IconStyle>
            </Style>
            <Style id="150">
                <IconStyle id="151">
                    <color>ff0000ff</color>
                    <colorMode>normal</colorMode>
                    <scale>1</scale>
                    <heading>0</heading>
                    <Icon id="152">
                        <href>http://maps.google.com/mapfiles/kml/pushpin/ylw-pushpin.png</href>
                    </Icon>
                </IconStyle>
            </Style>
            <Style id="155">
                <IconStyle id="156">
                    <color>ff0000ff</color>
                    <colorMode>normal</colorMode>
                    <scale>1</scale>
                    <heading>0</heading>
                    <Icon id="157">
                        <href>http://maps.google.com/mapfiles/kml/pushpin/ylw-pushpin.png</href>
                    </Icon>
                </IconStyle>
            </Style>
            <Style id="160">
                <IconStyle id="161">
                    <color>ff0000ff</color>
                    <colorMode>normal</colorMode>
                    <scale>1</scale>
                    <heading>0</heading>
                    <Icon id="162">
                        <href>http://maps.google.com/mapfiles/kml/pushpin/ylw-pushpin.png</href>
                    </Icon>
                </IconStyle>
            </Style>
            <Style id="165">
                <IconStyle id="166">
                    <color>ff0000ff</color>
                    <colorMode>normal</colorMode>
                    <scale>1</scale>
                    <heading>0</heading>
                    <Icon id="167">
                        <href>http://maps.google.com/mapfiles/kml/pushpin/ylw-pushpin.png</href>
                    </Icon>
                </IconStyle>
            </Style>
            <Style id="170">
                <IconStyle id="171">
                    <color>ff0000ff</color>
                    <colorMode>normal</colorMode>
                    <scale>1</scale>
                    <heading>0</heading>
                    <Icon id="172">
                        <href>http://maps.google.com/mapfiles/kml/pushpin/ylw-pushpin.png</href>
                    </Icon>
                </IconStyle>
            </Style>
            <Style id="175">
                <IconStyle id="176">
                    <color>ff0000ff</color>
                    <colorMode>normal</colorMode>
                    <scale>1</scale>
                    <heading>0</heading>
                    <Icon id="177">
                        <href>http://maps.google.com/mapfiles/kml/pushpin/ylw-pushpin.png</href>
                    </Icon>
                </IconStyle>
            </Style>
            <Style id="180">
                <IconStyle id="181">
                    <color>ff0000ff</color>
                    <colorMode>normal</colorMode>
                    <scale>1</scale>
                    <heading>0</heading>
                    <Icon id="182">
                        <href>http://maps.google.com/mapfiles/kml/pushpin/ylw-pushpin.png</href>
                    </Icon>
                </IconStyle>
            </Style>
            <Style id="185">
                <IconStyle id="186">
                    <color>ff0000ff</color>
                    <colorMode>normal</colorMode>
                    <scale>1</scale>
                    <heading>0</heading>
                    <Icon id="187">
                        <href>http://maps.google.com/mapfiles/kml/pushpin/ylw-pushpin.png</href>
                    </Icon>
                </IconStyle>
            </Style>
            <Style id="190">
                <IconStyle id="191">
                    <color>ff0000ff</color>
                    <colorMode>normal</colorMode>
                    <scale>1</scale>
                    <heading>0</heading>
                    <Icon id="192">
                        <href>http://maps.google.com/mapfiles/kml/pushpin/ylw-pushpin.png</href>
                    </Icon>
                </IconStyle>
            </Style>
            <name>KATHERINE REBECA DE JESUS CARDOZA LEE</name>
            <Placemark id="4">
                <name>CORDOVA CASTILLO MELVA MAGALY</name>
                <description>MERCADO CAPULLANAS PUESTO 137 Y PUESTO 138
Veintiséis de Octubre
Veintiséis de Octubre
Piura
Perú</description>
                <styleUrl>#5</styleUrl>
                <Point id="3">
                    <coordinates>-80.6698587,-5.1750302,0.0</coordinates>
                </Point>
            </Placemark>
            <Placemark id="9">
                <name>MARIBEL LOPEZ VILELA</name>
                <description>MZ F LT 47 AA. HH NVO. PORVENIR
Piura
Piura
Piura
Perú</description>
                <styleUrl>#10</styleUrl>
                <Point id="8">
                    <coordinates>-80.6441883,-5.2076012,0.0</coordinates>
                </Point>
            </Placemark>
            <Placemark id="14">
                <name>JOSE ALEX CUNYA CANGO</name>
                <description>MERCADO CAPULLANAS PUESTO 179
Veintiséis de Octubre
Veintiséis de Octubre
Piura
Perú</description>
                <styleUrl>#15</styleUrl>
                <Point id="13">
                    <coordinates>-80.6700528,-5.1753173,0.0</coordinates>
                </Point>
            </Placemark>
            <Placemark id="19">
                <name>DENNER CHINCHAY SANTOS</name>
                <description>PUESTO N 72 / MERCADO CAPULLANAS
Veintiséis de Octubre
Veintiséis de Octubre
Piura
Perú</description>
                <styleUrl>#20</styleUrl>
                <Point id="18">
                    <coordinates>-80.6699588,-5.1753257,0.0</coordinates>
                </Point>
            </Placemark>
            <Placemark id="24">
                <name>DENNER CHINCHAY SANTOS</name>
                <description>PUESTO N 72 / MERCADO CAPULLANAS
Veintiséis de Octubre
Veintiséis de Octubre
Piura
Perú</description>
                <styleUrl>#25</styleUrl>
                <Point id="23">
                    <coordinates>-80.6699588,-5.1753257,0.0</coordinates>
                </Point>
            </Placemark>
            <Placemark id="29">
                <name>JAZMIN ESTELA GARCIA HUAMAN</name>
                <description>MERCADO CAPULLANAS PUESTO 13
Veintiséis de Octubre
Veintiséis de Octubre
Piura
Perú</description>
                <styleUrl>#30</styleUrl>
                <Point id="28">
                    <coordinates>-80.6710676,-5.1757973,0.0</coordinates>
                </Point>
            </Placemark>
            <Placemark id="34">
                <name>DALILA HERNANDEZ GARCIA</name>
                <description>PUESTO 59 / MCDO CAPULLANAS
Veintiséis de Octubre
Veintiséis de Octubre
Piura
Perú</description>
                <styleUrl>#35</styleUrl>
                <Point id="33">
                    <coordinates>-80.6698921,-5.1756272,0.0</coordinates>
                </Point>
            </Placemark>
            <Placemark id="39">
                <name>MARIA MERCEDES CASTRO YARLEQUE</name>
                <description>PUESTO 33 / MCDO CAPULLANAS
Veintiséis de Octubre
Veintiséis de Octubre
Piura
Perú</description>
                <styleUrl>#40</styleUrl>
                <Point id="38">
                    <coordinates>-80.6699976,-5.1756049,0.0</coordinates>
                </Point>
            </Placemark>
            <Placemark id="44">
                <name>SANTOS SILVA YNGA</name>
                <description>MERCADO CAPULLANAS PUESTO 44
Veintiséis de Octubre
Veintiséis de Octubre
Piura
Perú</description>
                <styleUrl>#45</styleUrl>
                <Point id="43">
                    <coordinates>-80.6705743,-5.1754491,0.0</coordinates>
                </Point>
            </Placemark>
            <Placemark id="49">
                <name>DINO MARCHENA CHINININ</name>
                <description>CAPULLANAS MAYORISTA PUESTO 12
Veintiséis de Octubre
Veintiséis de Octubre
Piura
Perú</description>
                <styleUrl>#50</styleUrl>
                <Point id="48">
                    <coordinates>-80.671115,-5.1758526,0.0</coordinates>
                </Point>
            </Placemark>
            <Placemark id="54">
                <name>ROSA SEMINARIO RAMOS</name>
                <description>PUESTO 133 / INTERIOR CAPULLANAS
Veintiséis de Octubre
Veintiséis de Octubre
Piura
Perú</description>
                <styleUrl>#55</styleUrl>
                <Point id="53">
                    <coordinates>-80.6717536,-5.1760761,0.0</coordinates>
                </Point>
            </Placemark>
            <Placemark id="59">
                <name>YUNIOR REYES ABAD</name>
                <description>PUESTO A- 105 / C -125 MCDO CAPULLANAS
Veintiséis de Octubre
Veintiséis de Octubre
Piura
Perú</description>
                <styleUrl>#60</styleUrl>
                <Point id="58">
                    <coordinates>-80.6714863,-5.1758542,0.0</coordinates>
                </Point>
            </Placemark>
            <Placemark id="64">
                <name>LUZ MARIA DIOSES ARISMENDIZ</name>
                <description>A.H.ROMULO LEON MZ.B LT.38 PIU
Piura
Piura
Piura
Perú</description>
                <styleUrl>#65</styleUrl>
                <Point id="63">
                    <coordinates>-80.636301,-5.2011756,0.0</coordinates>
                </Point>
            </Placemark>
            <Placemark id="69">
                <name>PETRONILA LEJABO PEÑA</name>
                <description>Mz B LTE 5 AA.HH VICTOR RAUL
Piura
Piura
Piura
Perú</description>
                <styleUrl>#70</styleUrl>
                <Point id="68">
                    <coordinates>-80.6378935,-5.2011621,0.0</coordinates>
                </Point>
            </Placemark>
            <Placemark id="74">
                <name>ROSA ACOSTA VIDAURRE</name>
                <description>Mz J LTE.26-B AA.HH VICTOR RAUL
Piura
Piura
Piura
Perú</description>
                <styleUrl>#75</styleUrl>
                <Point id="73">
                    <coordinates>-80.6388034,-5.2026794,0.0</coordinates>
                </Point>
            </Placemark>
            <Placemark id="79">
                <name>MARIA NOLE ROMERO</name>
                <description>Mz K LTE 15 AA.HH VICTOR RAUL
Piura
Piura
Piura
Perú</description>
                <styleUrl>#80</styleUrl>
                <Point id="78">
                    <coordinates>-80.6402611,-5.2025236,0.0</coordinates>
                </Point>
            </Placemark>
            <Placemark id="84">
                <name>ORFELINDA HUAMAN VELASCO</name>
                <description>MZ C LT 20 LAGUNA AZUL        
Piura
Piura
Piura
Perú</description>
                <styleUrl>#85</styleUrl>
                <Point id="83">
                    <coordinates>-80.6404869,-5.2036186,0.0</coordinates>
                </Point>
            </Placemark>
            <Placemark id="89">
                <name>DOLORES ECA VITE</name>
                <description>MZ E 17 LAGUNA AZUL           
Piura
Piura
Piura
Perú</description>
                <styleUrl>#90</styleUrl>
                <Point id="88">
                    <coordinates>-80.6386305,-5.2055969,0.0</coordinates>
                </Point>
            </Placemark>
            <Placemark id="94">
                <name>ORFELINDA GONZA CHANTA</name>
                <description>MZ B lote 5 CHAVIN DE HUÁNTAR
Piura
Piura
Piura
Perú</description>
                <styleUrl>#95</styleUrl>
                <Point id="93">
                    <coordinates>-80.6409423,-5.2039512,0.0</coordinates>
                </Point>
            </Placemark>
            <Placemark id="99">
                <name>ELMER HUAMAN JIMENEZ</name>
                <description>A.H.MANUEL ESCORZA MZ A LOTE 23
Piura
Piura
Piura
Perú</description>
                <styleUrl>#100</styleUrl>
                <Point id="98">
                    <coordinates>-80.6430734,-5.2039388,0.0</coordinates>
                </Point>
            </Placemark>
            <Placemark id="104">
                <name>ALFREDO RAMIREZ LOPEZ</name>
                <description>MZ B LTE 59 M.SCORZA
Piura
Piura
Piura
Perú</description>
                <styleUrl>#105</styleUrl>
                <Point id="103">
                    <coordinates>-80.643447,-5.204284,0.0</coordinates>
                </Point>
            </Placemark>
            <Placemark id="109">
                <name>HERLINDA GUERRERO VILLEGAS</name>
                <description>MZ.P LT.2 UP.LA VICTORIA      
Veintiséis de Octubre
Piura
Piura
Perú</description>
                <styleUrl>#110</styleUrl>
                <Point id="108">
                    <coordinates>-80.64424,-5.206651,0.0</coordinates>
                </Point>
            </Placemark>
            <Placemark id="114">
                <name>NIDIA EVELYN REQUENA PINEDA</name>
                <description>J-03 UPIS LA VICTORIA PIURA   
Piura
Piura
Piura
Perú</description>
                <styleUrl>#115</styleUrl>
                <Point id="113">
                    <coordinates>-80.6430673,-5.2069659,0.0</coordinates>
                </Point>
            </Placemark>
            <Placemark id="119">
                <name>FELICITA VILELA DOMINGUEZ</name>
                <description>H-12 AH LA VICTORIA  Piura    
Piura
Piura
Piura
Perú</description>
                <styleUrl>#120</styleUrl>
                <Point id="118">
                    <coordinates>-80.6435558,-5.2069047,0.0</coordinates>
                </Point>
            </Placemark>
            <Placemark id="124">
                <name>FLORESMILA AGUST CHINCHAY RIMAYCUNA</name>
                <description>MZ F LT 43 AA. HH NVO. PORVENIR
Piura
Piura
Piura
Perú</description>
                <styleUrl>#125</styleUrl>
                <Point id="123">
                    <coordinates>-80.6446031,-5.2078531,0.0</coordinates>
                </Point>
            </Placemark>
            <Placemark id="129">
                <name>MARIBEL LOPEZ VILELA</name>
                <description>MZ F LT 47 AA. HH NVO. PORVENIR
Piura
Piura
Piura
Perú</description>
                <styleUrl>#130</styleUrl>
                <Point id="128">
                    <coordinates>-80.6441883,-5.2076012,0.0</coordinates>
                </Point>
            </Placemark>
            <Placemark id="134">
                <name>YENNY PAOLA CAMPOVERDE CARHUACHINCHAY</name>
                <description>A-02 ET 1 UPIS JUAN BOSCOPiura
Piura
Piura
Piura
Perú</description>
                <styleUrl>#135</styleUrl>
                <Point id="133">
                    <coordinates>-80.6448488,-5.2084429,0.0</coordinates>
                </Point>
            </Placemark>
            <Placemark id="139">
                <name>JOSE GARCIA TORRES</name>
                <description>A-54 ET 1 UPIS JUAN BOSCOPiura
Piura
Piura
Piura
Perú</description>
                <styleUrl>#140</styleUrl>
                <Point id="138">
                    <coordinates>-80.6444195,-5.2088417,0.0</coordinates>
                </Point>
            </Placemark>
            <Placemark id="144">
                <name>LEYSI MARIELA REYES CALLE</name>
                <description>JUAN BOSCO MZ C LT 30 Piura-Piura
Piura
Piura
Piura
Perú</description>
                <styleUrl>#145</styleUrl>
                <Point id="143">
                    <coordinates>-80.6438971,-5.2084633,0.0</coordinates>
                </Point>
            </Placemark>
            <Placemark id="149">
                <name>LUZMILA MAZA SANTOS</name>
                <description>B-43 ET 1 UPIS JUAN BOSCOPiura
Piura
Piura
Piura
Perú</description>
                <styleUrl>#150</styleUrl>
                <Point id="148">
                    <coordinates>-80.6435376,-5.2088288,0.0</coordinates>
                </Point>
            </Placemark>
            <Placemark id="154">
                <name>TERESA MAGDALENA JIMENEZ VITE</name>
                <description>JUAN BOSCO MZ C LOTE 47 / PRIMERA ETAPA
Piura
Piura
Piura
Perú</description>
                <styleUrl>#155</styleUrl>
                <Point id="153">
                    <coordinates>-80.643212,-5.2091858,0.0</coordinates>
                </Point>
            </Placemark>
            <Placemark id="159">
                <name>MERCEDES TACURE UMBO</name>
                <description>A.H.ANDRES AVELINO CACERES B-1
Piura
Piura
Piura
Perú</description>
                <styleUrl>#160</styleUrl>
                <Point id="158">
                    <coordinates>-80.64235,-5.209565,0.0</coordinates>
                </Point>
            </Placemark>
            <Placemark id="164">
                <name>HUERTAS BENITES VILMA AMONICA</name>
                <description>UP.LA VICTORIA MZ.S LT.24     
Piura
Piura
Piura
Perú</description>
                <styleUrl>#165</styleUrl>
                <Point id="163">
                    <coordinates>-80.64167,-5.209828,0.0</coordinates>
                </Point>
            </Placemark>
            <Placemark id="169">
                <name>YOLANDA DEL SOCORRO SILUPU DE VILCHEZ</name>
                <description>MZ T LTE 11 ASOC. LA VICTORIA
Piura
Piura
Piura
Perú</description>
                <styleUrl>#170</styleUrl>
                <Point id="168">
                    <coordinates>-80.6410413,-5.2093677,0.0</coordinates>
                </Point>
            </Placemark>
            <Placemark id="174">
                <name>ROSA ELVIRA DELGADO HERRERA</name>
                <description>Mz E LTE 13 ASOC. AVELINO CACERES (REF. Frente a San Juan Bosco)
Piura
Piura
Piura
Perú</description>
                <styleUrl>#175</styleUrl>
                <Point id="173">
                    <coordinates>-80.6423676,-5.211036,0.0</coordinates>
                </Point>
            </Placemark>
            <Placemark id="179">
                <name>CURAY CAMPOS GENNY</name>
                <description>MZ D LT 8 APV ANDRES A CACERES
Piura
Piura
Piura
Perú</description>
                <styleUrl>#180</styleUrl>
                <Point id="178">
                    <coordinates>-80.642353,-5.210914,0.0</coordinates>
                </Point>
            </Placemark>
            <Placemark id="184">
                <name>LEIVA EDITA ZURITA JULCA</name>
                <description>Mz F lote 5 Héroes del senepa
Veintiséis de Octubre
Veintiséis de Octubre
Piura
Perú</description>
                <styleUrl>#185</styleUrl>
                <Point id="183">
                    <coordinates>-80.638416,-5.206666,0.0</coordinates>
                </Point>
            </Placemark>
            <Placemark id="189">
                <name>KAREN FAVIOLA HOLGUIN CORDOVA</name>
                <description>MZ F LT 13 AH HEROES DE CENEPA
Piura
Piura
Piura
Perú</description>
                <styleUrl>#190</styleUrl>
                <Point id="188">
                    <coordinates>-80.6386238,-5.2066229,0.0</coordinates>
                </Point>
            </Placemark>
        </Folder>
        <Folder id="193">
            <Style id="196">
                <IconStyle id="197">
                    <color>ffff0000</color>
                    <colorMode>normal</colorMode>
                    <scale>1</scale>
                    <heading>0</heading>
                    <Icon id="198">
                        <href>http://maps.google.com/mapfiles/kml/pushpin/ylw-pushpin.png</href>
                    </Icon>
                </IconStyle>
            </Style>
            <Style id="201">
                <IconStyle id="202">
                    <color>ffff0000</color>
                    <colorMode>normal</colorMode>
                    <scale>1</scale>
                    <heading>0</heading>
                    <Icon id="203">
                        <href>http://maps.google.com/mapfiles/kml/pushpin/ylw-pushpin.png</href>
                    </Icon>
                </IconStyle>
            </Style>
            <Style id="206">
                <IconStyle id="207">
                    <color>ffff0000</color>
                    <colorMode>normal</colorMode>
                    <scale>1</scale>
                    <heading>0</heading>
                    <Icon id="208">
                        <href>http://maps.google.com/mapfiles/kml/pushpin/ylw-pushpin.png</href>
                    </Icon>
                </IconStyle>
            </Style>
            <Style id="211">
                <IconStyle id="212">
                    <color>ffff0000</color>
                    <colorMode>normal</colorMode>
                    <scale>1</scale>
                    <heading>0</heading>
                    <Icon id="213">
                        <href>http://maps.google.com/mapfiles/kml/pushpin/ylw-pushpin.png</href>
                    </Icon>
                </IconStyle>
            </Style>
            <Style id="216">
                <IconStyle id="217">
                    <color>ffff0000</color>
                    <colorMode>normal</colorMode>
                    <scale>1</scale>
                    <heading>0</heading>
                    <Icon id="218">
                        <href>http://maps.google.com/mapfiles/kml/pushpin/ylw-pushpin.png</href>
                    </Icon>
                </IconStyle>
            </Style>
            <Style id="221">
                <IconStyle id="222">
                    <color>ffff0000</color>
                    <colorMode>normal</colorMode>
                    <scale>1</scale>
                    <heading>0</heading>
                    <Icon id="223">
                        <href>http://maps.google.com/mapfiles/kml/pushpin/ylw-pushpin.png</href>
                    </Icon>
                </IconStyle>
            </Style>
            <Style id="226">
                <IconStyle id="227">
                    <color>ffff0000</color>
                    <colorMode>normal</colorMode>
                    <scale>1</scale>
                    <heading>0</heading>
                    <Icon id="228">
                        <href>http://maps.google.com/mapfiles/kml/pushpin/ylw-pushpin.png</href>
                    </Icon>
                </IconStyle>
            </Style>
            <Style id="231">
                <IconStyle id="232">
                    <color>ffff0000</color>
                    <colorMode>normal</colorMode>
                    <scale>1</scale>
                    <heading>0</heading>
                    <Icon id="233">
                        <href>http://maps.google.com/mapfiles/kml/pushpin/ylw-pushpin.png</href>
                    </Icon>
                </IconStyle>
            </Style>
            <Style id="236">
                <IconStyle id="237">
                    <color>ffff0000</color>
                    <colorMode>normal</colorMode>
                    <scale>1</scale>
                    <heading>0</heading>
                    <Icon id="238">
                        <href>http://maps.google.com/mapfiles/kml/pushpin/ylw-pushpin.png</href>
                    </Icon>
                </IconStyle>
            </Style>
            <Style id="241">
                <IconStyle id="242">
                    <color>ffff0000</color>
                    <colorMode>normal</colorMode>
                    <scale>1</scale>
                    <heading>0</heading>
                    <Icon id="243">
                        <href>http://maps.google.com/mapfiles/kml/pushpin/ylw-pushpin.png</href>
                    </Icon>
                </IconStyle>
            </Style>
            <Style id="246">
                <IconStyle id="247">
                    <color>ffff0000</color>
                    <colorMode>normal</colorMode>
                    <scale>1</scale>
                    <heading>0</heading>
                    <Icon id="248">
                        <href>http://maps.google.com/mapfiles/kml/pushpin/ylw-pushpin.png</href>
                    </Icon>
                </IconStyle>
            </Style>
            <Style id="251">
                <IconStyle id="252">
                    <color>ffff0000</color>
                    <colorMode>normal</colorMode>
                    <scale>1</scale>
                    <heading>0</heading>
                    <Icon id="253">
                        <href>http://maps.google.com/mapfiles/kml/pushpin/ylw-pushpin.png</href>
                    </Icon>
                </IconStyle>
            </Style>
            <Style id="256">
                <IconStyle id="257">
                    <color>ffff0000</color>
                    <colorMode>normal</colorMode>
                    <scale>1</scale>
                    <heading>0</heading>
                    <Icon id="258">
                        <href>http://maps.google.com/mapfiles/kml/pushpin/ylw-pushpin.png</href>
                    </Icon>
                </IconStyle>
            </Style>
            <Style id="261">
                <IconStyle id="262">
                    <color>ffff0000</color>
                    <colorMode>normal</colorMode>
                    <scale>1</scale>
                    <heading>0</heading>
                    <Icon id="263">
                        <href>http://maps.google.com/mapfiles/kml/pushpin/ylw-pushpin.png</href>
                    </Icon>
                </IconStyle>
            </Style>
            <Style id="266">
                <IconStyle id="267">
                    <color>ffff0000</color>
                    <colorMode>normal</colorMode>
                    <scale>1</scale>
                    <heading>0</heading>
                    <Icon id="268">
                        <href>http://maps.google.com/mapfiles/kml/pushpin/ylw-pushpin.png</href>
                    </Icon>
                </IconStyle>
            </Style>
            <Style id="271">
                <IconStyle id="272">
                    <color>ffff0000</color>
                    <colorMode>normal</colorMode>
                    <scale>1</scale>
                    <heading>0</heading>
                    <Icon id="273">
                        <href>http://maps.google.com/mapfiles/kml/pushpin/ylw-pushpin.png</href>
                    </Icon>
                </IconStyle>
            </Style>
            <Style id="276">
                <IconStyle id="277">
                    <color>ffff0000</color>
                    <colorMode>normal</colorMode>
                    <scale>1</scale>
                    <heading>0</heading>
                    <Icon id="278">
                        <href>http://maps.google.com/mapfiles/kml/pushpin/ylw-pushpin.png</href>
                    </Icon>
                </IconStyle>
            </Style>
            <Style id="281">
                <IconStyle id="282">
                    <color>ffff0000</color>
                    <colorMode>normal</colorMode>
                    <scale>1</scale>
                    <heading>0</heading>
                    <Icon id="283">
                        <href>http://maps.google.com/mapfiles/kml/pushpin/ylw-pushpin.png</href>
                    </Icon>
                </IconStyle>
            </Style>
            <Style id="286">
                <IconStyle id="287">
                    <color>ffff0000</color>
                    <colorMode>normal</colorMode>
                    <scale>1</scale>
                    <heading>0</heading>
                    <Icon id="288">
                        <href>http://maps.google.com/mapfiles/kml/pushpin/ylw-pushpin.png</href>
                    </Icon>
                </IconStyle>
            </Style>
            <Style id="291">
                <IconStyle id="292">
                    <color>ffff0000</color>
                    <colorMode>normal</colorMode>
                    <scale>1</scale>
                    <heading>0</heading>
                    <Icon id="293">
                        <href>http://maps.google.com/mapfiles/kml/pushpin/ylw-pushpin.png</href>
                    </Icon>
                </IconStyle>
            </Style>
            <Style id="296">
                <IconStyle id="297">
                    <color>ffff0000</color>
                    <colorMode>normal</colorMode>
                    <scale>1</scale>
                    <heading>0</heading>
                    <Icon id="298">
                        <href>http://maps.google.com/mapfiles/kml/pushpin/ylw-pushpin.png</href>
                    </Icon>
                </IconStyle>
            </Style>
            <Style id="301">
                <IconStyle id="302">
                    <color>ffff0000</color>
                    <colorMode>normal</colorMode>
                    <scale>1</scale>
                    <heading>0</heading>
                    <Icon id="303">
                        <href>http://maps.google.com/mapfiles/kml/pushpin/ylw-pushpin.png</href>
                    </Icon>
                </IconStyle>
            </Style>
            <Style id="306">
                <IconStyle id="307">
                    <color>ffff0000</color>
                    <colorMode>normal</colorMode>
                    <scale>1</scale>
                    <heading>0</heading>
                    <Icon id="308">
                        <href>http://maps.google.com/mapfiles/kml/pushpin/ylw-pushpin.png</href>
                    </Icon>
                </IconStyle>
            </Style>
            <Style id="311">
                <IconStyle id="312">
                    <color>ffff0000</color>
                    <colorMode>normal</colorMode>
                    <scale>1</scale>
                    <heading>0</heading>
                    <Icon id="313">
                        <href>http://maps.google.com/mapfiles/kml/pushpin/ylw-pushpin.png</href>
                    </Icon>
                </IconStyle>
            </Style>
            <Style id="316">
                <IconStyle id="317">
                    <color>ffff0000</color>
                    <colorMode>normal</colorMode>
                    <scale>1</scale>
                    <heading>0</heading>
                    <Icon id="318">
                        <href>http://maps.google.com/mapfiles/kml/pushpin/ylw-pushpin.png</href>
                    </Icon>
                </IconStyle>
            </Style>
            <Style id="321">
                <IconStyle id="322">
                    <color>ffff0000</color>
                    <colorMode>normal</colorMode>
                    <scale>1</scale>
                    <heading>0</heading>
                    <Icon id="323">
                        <href>http://maps.google.com/mapfiles/kml/pushpin/ylw-pushpin.png</href>
                    </Icon>
                </IconStyle>
            </Style>
            <Style id="326">
                <IconStyle id="327">
                    <color>ffff0000</color>
                    <colorMode>normal</colorMode>
                    <scale>1</scale>
                    <heading>0</heading>
                    <Icon id="328">
                        <href>http://maps.google.com/mapfiles/kml/pushpin/ylw-pushpin.png</href>
                    </Icon>
                </IconStyle>
            </Style>
            <Style id="331">
                <IconStyle id="332">
                    <color>ffff0000</color>
                    <colorMode>normal</colorMode>
                    <scale>1</scale>
                    <heading>0</heading>
                    <Icon id="333">
                        <href>http://maps.google.com/mapfiles/kml/pushpin/ylw-pushpin.png</href>
                    </Icon>
                </IconStyle>
            </Style>
            <Style id="336">
                <IconStyle id="337">
                    <color>ffff0000</color>
                    <colorMode>normal</colorMode>
                    <scale>1</scale>
                    <heading>0</heading>
                    <Icon id="338">
                        <href>http://maps.google.com/mapfiles/kml/pushpin/ylw-pushpin.png</href>
                    </Icon>
                </IconStyle>
            </Style>
            <Style id="341">
                <IconStyle id="342">
                    <color>ffff0000</color>
                    <colorMode>normal</colorMode>
                    <scale>1</scale>
                    <heading>0</heading>
                    <Icon id="343">
                        <href>http://maps.google.com/mapfiles/kml/pushpin/ylw-pushpin.png</href>
                    </Icon>
                </IconStyle>
            </Style>
            <Style id="346">
                <IconStyle id="347">
                    <color>ffff0000</color>
                    <colorMode>normal</colorMode>
                    <scale>1</scale>
                    <heading>0</heading>
                    <Icon id="348">
                        <href>http://maps.google.com/mapfiles/kml/pushpin/ylw-pushpin.png</href>
                    </Icon>
                </IconStyle>
            </Style>
            <name>ZOILA ALBERTINA DE JESUS MORANTE CARRASCO</name>
            <Placemark id="195">
                <name>NELLY ELIZABETH AVILA RAMIREZ</name>
                <description>AAHH NVA ESPERANZA MZ D1LOTE 4
Veintiséis de Octubre
Veintiséis de Octubre
Piura
Perú</description>
                <styleUrl>#196</styleUrl>
                <Point id="194">
                    <coordinates>-80.6621417,-5.1916999,0.0</coordinates>
                </Point>
            </Placemark>
            <Placemark id="200">
                <name>GUERRERO DELFINA CARRASCO DE</name>
                <description>AV. CIRCUNVALACION 200 S. MARTIN
Veintiséis de Octubre
Piura
Piura
Perú</description>
                <styleUrl>#201</styleUrl>
                <Point id="199">
                    <coordinates>-80.6674176,-5.18871,0.0</coordinates>
                </Point>
            </Placemark>
            <Placemark id="205">
                <name>GILBERTO ALBERTO LLACSAHUANGA CUNYA</name>
                <description>GILBERTO ALBERTO LLACSAHUANGA CUNYA
AV.SAN MARTIN MZ B9 LTE.4 (112) AA.HH SAN MARTIN
Veintiséis de Octubre
Piura
Piura
Perú</description>
                <styleUrl>#206</styleUrl>
                <Point id="204">
                    <coordinates>-80.6658393,-5.1861207,0.0</coordinates>
                </Point>
            </Placemark>
            <Placemark id="210">
                <name>JENY DEL ROCIO DOMINGUEZ YMAN</name>
                <description>B8-2 AVCHULUC 504 AHSAN MARTIN
Veintiséis de Octubre
Piura
Piura
Perú</description>
                <styleUrl>#211</styleUrl>
                <Point id="209">
                    <coordinates>-80.665882,-5.187487,0.0</coordinates>
                </Point>
            </Placemark>
            <Placemark id="215">
                <name>PAULA YESENIA AGUILERA LOZADA</name>
                <description>AV. JOSE CARLOS MARIATEGUI MZ V1 LT8 AA. HHSAN MARTIN
Veintiséis de Octubre
Piura
Piura
Perú</description>
                <styleUrl>#216</styleUrl>
                <Point id="214">
                    <coordinates>-80.6677298,-5.1835318,0.0</coordinates>
                </Point>
            </Placemark>
            <Placemark id="220">
                <name>MARIA DEL SOCORRO CASTRO YOVERA</name>
                <description>Calle Marticorena 136 aahh San Martín
Veintiséis de Octubre
Veintiséis de Octubre
Piura
Perú</description>
                <styleUrl>#221</styleUrl>
                <Point id="219">
                    <coordinates>-80.666963,-5.184965,0.0</coordinates>
                </Point>
            </Placemark>
            <Placemark id="225">
                <name>MILUSKA LISSET QUEZADA MERINO</name>
                <description>MZ B9 LT 9 A.H SN MARTIN      
Veintiséis de Octubre
Veintiséis de Octubre
Piura
Perú</description>
                <styleUrl>#226</styleUrl>
                <Point id="224">
                    <coordinates>-80.665838,-5.186146,0.0</coordinates>
                </Point>
            </Placemark>
            <Placemark id="230">
                <name>DIGNA MILAGROS SANCHEZ YOVERA</name>
                <description>AV. CIRCUNVALACIÓN MZN. B10 LOTE 7 SAN MARTIN
Veintiséis de Octubre
Veintiséis de Octubre
Piura
Perú</description>
                <styleUrl>#231</styleUrl>
                <Point id="229">
                    <coordinates>-80.6697717,-5.1876753,0.0</coordinates>
                </Point>
            </Placemark>
            <Placemark id="235">
                <name>VANESSA FIORELLA ALVARADO BURNEO</name>
                <description>MZ D10 lote 28 AAHH San Martin , calle Vicente García
Veintiséis de Octubre
Veintiséis de Octubre
Piura
Perú</description>
                <styleUrl>#236</styleUrl>
                <Point id="234">
                    <coordinates>-80.6716653,-5.1867478,0.0</coordinates>
                </Point>
            </Placemark>
            <Placemark id="240">
                <name>RAQUEL DEL PILAR MORE SOSA</name>
                <description>CA.V.GARCIA H10 20            
Veintiséis de Octubre
Veintiséis de Octubre
Piura
Perú</description>
                <styleUrl>#241</styleUrl>
                <Point id="239">
                    <coordinates>-80.6714403,-5.1864133,0.0</coordinates>
                </Point>
            </Placemark>
            <Placemark id="245">
                <name>MILAGROS DEL SERNAQUE CHUQUIHUANGA</name>
                <description>INT MCDO SAN MARTIN PSTO 35-36 26 DE OCTUBRE
Veintiséis de Octubre
Piura
Piura
Perú</description>
                <styleUrl>#246</styleUrl>
                <Point id="244">
                    <coordinates>-80.6715639,-5.1847583,0.0</coordinates>
                </Point>
            </Placemark>
            <Placemark id="250">
                <name>ORALIA ROBLEDO ABAD</name>
                <description>MZ A13 LT 24 AAHH SAN MARTIN  
Veintiséis de Octubre
Veintiséis de Octubre
Piura
Perú</description>
                <styleUrl>#251</styleUrl>
                <Point id="249">
                    <coordinates>-80.6731635,-5.1833678,0.0</coordinates>
                </Point>
            </Placemark>
            <Placemark id="255">
                <name>FRANKLIN ANTONIO HUACCHILLO CAMPOS</name>
                <description>CALLE JOSÉ MARTI. MZN D12 LOTE 22 ASENTAMIENTO HUMANO SAN MARTIN
Veintiséis de Octubre
Veintiséis de Octubre
Piura
Perú</description>
                <styleUrl>#256</styleUrl>
                <Point id="254">
                    <coordinates>-80.6736198,-5.1858841,0.0</coordinates>
                </Point>
            </Placemark>
            <Placemark id="260">
                <name>MARIA HAYDEE CERVANTES VALLADOLID</name>
                <description>Mz E12 LTE 20 AA.HH SAN MARTIN
Veintiséis de Octubre
Veintiséis de Octubre
Piura
Perú</description>
                <styleUrl>#261</styleUrl>
                <Point id="259">
                    <coordinates>-80.6750101,-5.1847457,0.0</coordinates>
                </Point>
            </Placemark>
            <Placemark id="265">
                <name>ELIZABETH CAMPOVERDE SAAVEDRA</name>
                <description>MZN.C15 LOTE  19 CA.24 SET
Veintiséis de Octubre
Veintiséis de Octubre
Piura
Perú</description>
                <styleUrl>#266</styleUrl>
                <Point id="264">
                    <coordinates>-80.675408,-5.184273,0.0</coordinates>
                </Point>
            </Placemark>
            <Placemark id="270">
                <name>JOSE DANIEL CAMPOS ZAPATA</name>
                <description>MATEO PUMACAHUA  MZN. V3 LOTE 32.AA.HH SAN MARTIN
Veintiséis de Octubre
Veintiséis de Octubre
Piura
Perú</description>
                <styleUrl>#271</styleUrl>
                <Point id="269">
                    <coordinates>-80.6746497,-5.1832569,0.0</coordinates>
                </Point>
            </Placemark>
            <Placemark id="275">
                <name>LUZ MARIA RIOFRIO LOPEZ</name>
                <description>MZA L15  02  01 DE DICIEMBRE  
Veintiséis de Octubre
Piura
Piura
Perú</description>
                <styleUrl>#276</styleUrl>
                <Point id="274">
                    <coordinates>-80.6756348,-5.1828792,0.0</coordinates>
                </Point>
            </Placemark>
            <Placemark id="280">
                <name>DOLLY ARMANDA ANGELDONIS FARFAN DE TIMOTEO</name>
                <description>AV. TIMOTEO PUMACAHUA B13 LOTE 19  ASENTAMIENTO HUMANO SAN MARTIN
Veintiséis de Octubre

Piura
Perú</description>
                <styleUrl>#281</styleUrl>
                <Point id="279">
                    <coordinates>-80.6742295,-5.1819763,0.0</coordinates>
                </Point>
            </Placemark>
            <Placemark id="285">
                <name>MARIELENA ROMAN HOLGUIN</name>
                <description>URB.PARQUES DE PIURA 2DA ETAPA LOCAL 01 AL COSTADO DE LA SRA. Noriega
Veintiséis de Octubre

Piura
Perú</description>
                <styleUrl>#286</styleUrl>
                <Point id="284">
                    <coordinates>-80.676621,-5.1815207,0.0</coordinates>
                </Point>
            </Placemark>
            <Placemark id="290">
                <name>BALBINA MADRID DE SERRATO</name>
                <description>CA.MIGUEL CORREA MZ E3 LTE.3 MICAELA BASTIDAS
Veintiséis de Octubre
Piura
Piura
Perú</description>
                <styleUrl>#291</styleUrl>
                <Point id="289">
                    <coordinates>-80.674767,-5.178183,0.0</coordinates>
                </Point>
            </Placemark>
            <Placemark id="295">
                <name>MARIA IRENE SOTO CASTILLO</name>
                <description>E3 LOTE 2 A.H MICAELA BASTIDAS
Veintiséis de Octubre
Veintiséis de Octubre
Piura
Perú</description>
                <styleUrl>#296</styleUrl>
                <Point id="294">
                    <coordinates>-80.6747976,-5.17816,0.0</coordinates>
                </Point>
            </Placemark>
            <Placemark id="300">
                <name>MARGOTH SUSANA GARCIA GALINDO</name>
                <description>MICAELA BASTIDAS MZ C-3 L-27 PIURA
Veintiséis de Octubre
Piura
Piura
Perú</description>
                <styleUrl>#301</styleUrl>
                <Point id="299">
                    <coordinates>-80.6743532,-5.1765374,0.0</coordinates>
                </Point>
            </Placemark>
            <Placemark id="305">
                <name>BERTHA GIRON VALLE</name>
                <description>Aahh Micaela bastidas MZ D3 lote 5 tercer sector
Veintiséis de Octubre
Veintiséis de Octubre
Piura
Perú</description>
                <styleUrl>#306</styleUrl>
                <Point id="304">
                    <coordinates>-80.6742538,-5.1770022,0.0</coordinates>
                </Point>
            </Placemark>
            <Placemark id="310">
                <name>MONICA BRANDA BENITES CHUYES</name>
                <description>CALLE ERNESTO CHE GUEVARA D11-21 AH SAN MARTIN
Veintiséis de Octubre
Veintiséis de Octubre
Piura
Perú</description>
                <styleUrl>#311</styleUrl>
                <Point id="309">
                    <coordinates>-80.6709542,-5.1832213,0.0</coordinates>
                </Point>
            </Placemark>
            <Placemark id="315">
                <name>GLADYS MARIA CESPEDES DE MONTOYA</name>
                <description>Mz H3 lote 27
Veintiséis de Octubre
Veintiséis de Octubre
Piura
Perú</description>
                <styleUrl>#316</styleUrl>
                <Point id="314">
                    <coordinates>-80.6736496,-5.1772757,0.0</coordinates>
                </Point>
            </Placemark>
            <Placemark id="320">
                <name>FABIAN MORE VIRGINIA AMELIA</name>
                <description>MZ A3 LOTE 6 AA.HH MICAELA BASTIDAS
Veintiséis de Octubre
Veintiséis de Octubre
Piura
Perú</description>
                <styleUrl>#321</styleUrl>
                <Point id="319">
                    <coordinates>-80.6728434,-5.1772315,0.0</coordinates>
                </Point>
            </Placemark>
            <Placemark id="325">
                <name>DOLARISA SILUPU ARRIOLA</name>
                <description>AA. HH MICAELA BASTIDAS MZ A3 LT 9 PIURA
Veintiséis de Octubre
Piura
Piura
Perú</description>
                <styleUrl>#326</styleUrl>
                <Point id="324">
                    <coordinates>-80.672808,-5.1773104,0.0</coordinates>
                </Point>
            </Placemark>
            <Placemark id="330">
                <name>DILMA GUERRERO ALVERCA</name>
                <description>DILMA GUERRERO ALVERCA
CA.B. HUAMAN MZ11-16 S. MARTIN PI
Veintiséis de Octubre
Piura
Piura
Perú</description>
                <styleUrl>#331</styleUrl>
                <Point id="329">
                    <coordinates>-80.6693793,-5.1842269,0.0</coordinates>
                </Point>
            </Placemark>
            <Placemark id="335">
                <name>GUERRERO DE TRONCOS NERIDA</name>
                <description>GUERRERO DE TRONCOS NERIDA
BENJAMIN HUAMAN 132 MZ A11 LT 09 AA. HHSAN MARTIN - PIURA
Veintiséis de Octubre

Piura
Perú</description>
                <styleUrl>#336</styleUrl>
                <Point id="334">
                    <coordinates>-80.668643,-5.184407,0.0</coordinates>
                </Point>
            </Placemark>
            <Placemark id="340">
                <name>SILVIA ISABEL LESCANO MARQUEZ</name>
                <description>SILVIA ISABEL LESCANO MARQUEZ
CA.JOSE C. MARIATEGUI 521 SAN MARTIN - PIURA
Veintiséis de Octubre
Piura
Piura
Perú</description>
                <styleUrl>#341</styleUrl>
                <Point id="339">
                    <coordinates>-80.6689214,-5.1870892,0.0</coordinates>
                </Point>
            </Placemark>
            <Placemark id="345">
                <name>CIRO LEONARDI BRUNO DIOSES</name>
                <description>AV EX CIRCUNVALACION MZ B8 LT6 SAN MARTIN 26 DE OCTUBRE-Piura
Veintiséis de Octubre
Veintiséis de Octubre
Piura
Perú</description>
                <styleUrl>#346</styleUrl>
                <Point id="344">
                    <coordinates>-80.6657401,-5.1879038,0.0</coordinates>
                </Point>
            </Placemark>
        </Folder>
    </Document>
</kml>
