<?xml version="1.0" encoding="UTF-8"?>
<kml xmlns="http://www.opengis.net/kml/2.2" xmlns:gx="http://www.google.com/kml/ext/2.2">
    <Document id="425">
        <Folder id="426">
            <Style id="429">
                <IconStyle id="430">
                    <color>ff0000ff</color>
                    <colorMode>normal</colorMode>
                    <scale>1</scale>
                    <heading>0</heading>
                    <Icon id="431">
                        <href>http://maps.google.com/mapfiles/kml/pushpin/ylw-pushpin.png</href>
                    </Icon>
                </IconStyle>
            </Style>
            <Style id="434">
                <IconStyle id="435">
                    <color>ff0000ff</color>
                    <colorMode>normal</colorMode>
                    <scale>1</scale>
                    <heading>0</heading>
                    <Icon id="436">
                        <href>http://maps.google.com/mapfiles/kml/pushpin/ylw-pushpin.png</href>
                    </Icon>
                </IconStyle>
            </Style>
            <Style id="439">
                <IconStyle id="440">
                    <color>ff0000ff</color>
                    <colorMode>normal</colorMode>
                    <scale>1</scale>
                    <heading>0</heading>
                    <Icon id="441">
                        <href>http://maps.google.com/mapfiles/kml/pushpin/ylw-pushpin.png</href>
                    </Icon>
                </IconStyle>
            </Style>
            <Style id="444">
                <IconStyle id="445">
                    <color>ff0000ff</color>
                    <colorMode>normal</colorMode>
                    <scale>1</scale>
                    <heading>0</heading>
                    <Icon id="446">
                        <href>http://maps.google.com/mapfiles/kml/pushpin/ylw-pushpin.png</href>
                    </Icon>
                </IconStyle>
            </Style>
            <Style id="449">
                <IconStyle id="450">
                    <color>ff0000ff</color>
                    <colorMode>normal</colorMode>
                    <scale>1</scale>
                    <heading>0</heading>
                    <Icon id="451">
                        <href>http://maps.google.com/mapfiles/kml/pushpin/ylw-pushpin.png</href>
                    </Icon>
                </IconStyle>
            </Style>
            <Style id="454">
                <IconStyle id="455">
                    <color>ff0000ff</color>
                    <colorMode>normal</colorMode>
                    <scale>1</scale>
                    <heading>0</heading>
                    <Icon id="456">
                        <href>http://maps.google.com/mapfiles/kml/pushpin/ylw-pushpin.png</href>
                    </Icon>
                </IconStyle>
            </Style>
            <Style id="459">
                <IconStyle id="460">
                    <color>ff0000ff</color>
                    <colorMode>normal</colorMode>
                    <scale>1</scale>
                    <heading>0</heading>
                    <Icon id="461">
                        <href>http://maps.google.com/mapfiles/kml/pushpin/ylw-pushpin.png</href>
                    </Icon>
                </IconStyle>
            </Style>
            <Style id="464">
                <IconStyle id="465">
                    <color>ff0000ff</color>
                    <colorMode>normal</colorMode>
                    <scale>1</scale>
                    <heading>0</heading>
                    <Icon id="466">
                        <href>http://maps.google.com/mapfiles/kml/pushpin/ylw-pushpin.png</href>
                    </Icon>
                </IconStyle>
            </Style>
            <Style id="469">
                <IconStyle id="470">
                    <color>ff0000ff</color>
                    <colorMode>normal</colorMode>
                    <scale>1</scale>
                    <heading>0</heading>
                    <Icon id="471">
                        <href>http://maps.google.com/mapfiles/kml/pushpin/ylw-pushpin.png</href>
                    </Icon>
                </IconStyle>
            </Style>
            <Style id="474">
                <IconStyle id="475">
                    <color>ff0000ff</color>
                    <colorMode>normal</colorMode>
                    <scale>1</scale>
                    <heading>0</heading>
                    <Icon id="476">
                        <href>http://maps.google.com/mapfiles/kml/pushpin/ylw-pushpin.png</href>
                    </Icon>
                </IconStyle>
            </Style>
            <Style id="479">
                <IconStyle id="480">
                    <color>ff0000ff</color>
                    <colorMode>normal</colorMode>
                    <scale>1</scale>
                    <heading>0</heading>
                    <Icon id="481">
                        <href>http://maps.google.com/mapfiles/kml/pushpin/ylw-pushpin.png</href>
                    </Icon>
                </IconStyle>
            </Style>
            <Style id="484">
                <IconStyle id="485">
                    <color>ff0000ff</color>
                    <colorMode>normal</colorMode>
                    <scale>1</scale>
                    <heading>0</heading>
                    <Icon id="486">
                        <href>http://maps.google.com/mapfiles/kml/pushpin/ylw-pushpin.png</href>
                    </Icon>
                </IconStyle>
            </Style>
            <Style id="489">
                <IconStyle id="490">
                    <color>ff0000ff</color>
                    <colorMode>normal</colorMode>
                    <scale>1</scale>
                    <heading>0</heading>
                    <Icon id="491">
                        <href>http://maps.google.com/mapfiles/kml/pushpin/ylw-pushpin.png</href>
                    </Icon>
                </IconStyle>
            </Style>
            <Style id="494">
                <IconStyle id="495">
                    <color>ff0000ff</color>
                    <colorMode>normal</colorMode>
                    <scale>1</scale>
                    <heading>0</heading>
                    <Icon id="496">
                        <href>http://maps.google.com/mapfiles/kml/pushpin/ylw-pushpin.png</href>
                    </Icon>
                </IconStyle>
            </Style>
            <Style id="499">
                <IconStyle id="500">
                    <color>ff0000ff</color>
                    <colorMode>normal</colorMode>
                    <scale>1</scale>
                    <heading>0</heading>
                    <Icon id="501">
                        <href>http://maps.google.com/mapfiles/kml/pushpin/ylw-pushpin.png</href>
                    </Icon>
                </IconStyle>
            </Style>
            <Style id="504">
                <IconStyle id="505">
                    <color>ff0000ff</color>
                    <colorMode>normal</colorMode>
                    <scale>1</scale>
                    <heading>0</heading>
                    <Icon id="506">
                        <href>http://maps.google.com/mapfiles/kml/pushpin/ylw-pushpin.png</href>
                    </Icon>
                </IconStyle>
            </Style>
            <Style id="509">
                <IconStyle id="510">
                    <color>ff0000ff</color>
                    <colorMode>normal</colorMode>
                    <scale>1</scale>
                    <heading>0</heading>
                    <Icon id="511">
                        <href>http://maps.google.com/mapfiles/kml/pushpin/ylw-pushpin.png</href>
                    </Icon>
                </IconStyle>
            </Style>
            <Style id="514">
                <IconStyle id="515">
                    <color>ff0000ff</color>
                    <colorMode>normal</colorMode>
                    <scale>1</scale>
                    <heading>0</heading>
                    <Icon id="516">
                        <href>http://maps.google.com/mapfiles/kml/pushpin/ylw-pushpin.png</href>
                    </Icon>
                </IconStyle>
            </Style>
            <Style id="519">
                <IconStyle id="520">
                    <color>ff0000ff</color>
                    <colorMode>normal</colorMode>
                    <scale>1</scale>
                    <heading>0</heading>
                    <Icon id="521">
                        <href>http://maps.google.com/mapfiles/kml/pushpin/ylw-pushpin.png</href>
                    </Icon>
                </IconStyle>
            </Style>
            <Style id="524">
                <IconStyle id="525">
                    <color>ff0000ff</color>
                    <colorMode>normal</colorMode>
                    <scale>1</scale>
                    <heading>0</heading>
                    <Icon id="526">
                        <href>http://maps.google.com/mapfiles/kml/pushpin/ylw-pushpin.png</href>
                    </Icon>
                </IconStyle>
            </Style>
            <Style id="529">
                <IconStyle id="530">
                    <color>ff0000ff</color>
                    <colorMode>normal</colorMode>
                    <scale>1</scale>
                    <heading>0</heading>
                    <Icon id="531">
                        <href>http://maps.google.com/mapfiles/kml/pushpin/ylw-pushpin.png</href>
                    </Icon>
                </IconStyle>
            </Style>
            <Style id="534">
                <IconStyle id="535">
                    <color>ff0000ff</color>
                    <colorMode>normal</colorMode>
                    <scale>1</scale>
                    <heading>0</heading>
                    <Icon id="536">
                        <href>http://maps.google.com/mapfiles/kml/pushpin/ylw-pushpin.png</href>
                    </Icon>
                </IconStyle>
            </Style>
            <Style id="539">
                <IconStyle id="540">
                    <color>ff0000ff</color>
                    <colorMode>normal</colorMode>
                    <scale>1</scale>
                    <heading>0</heading>
                    <Icon id="541">
                        <href>http://maps.google.com/mapfiles/kml/pushpin/ylw-pushpin.png</href>
                    </Icon>
                </IconStyle>
            </Style>
            <Style id="544">
                <IconStyle id="545">
                    <color>ff0000ff</color>
                    <colorMode>normal</colorMode>
                    <scale>1</scale>
                    <heading>0</heading>
                    <Icon id="546">
                        <href>http://maps.google.com/mapfiles/kml/pushpin/ylw-pushpin.png</href>
                    </Icon>
                </IconStyle>
            </Style>
            <Style id="549">
                <IconStyle id="550">
                    <color>ff0000ff</color>
                    <colorMode>normal</colorMode>
                    <scale>1</scale>
                    <heading>0</heading>
                    <Icon id="551">
                        <href>http://maps.google.com/mapfiles/kml/pushpin/ylw-pushpin.png</href>
                    </Icon>
                </IconStyle>
            </Style>
            <Style id="554">
                <IconStyle id="555">
                    <color>ff0000ff</color>
                    <colorMode>normal</colorMode>
                    <scale>1</scale>
                    <heading>0</heading>
                    <Icon id="556">
                        <href>http://maps.google.com/mapfiles/kml/pushpin/ylw-pushpin.png</href>
                    </Icon>
                </IconStyle>
            </Style>
            <Style id="559">
                <IconStyle id="560">
                    <color>ff0000ff</color>
                    <colorMode>normal</colorMode>
                    <scale>1</scale>
                    <heading>0</heading>
                    <Icon id="561">
                        <href>http://maps.google.com/mapfiles/kml/pushpin/ylw-pushpin.png</href>
                    </Icon>
                </IconStyle>
            </Style>
            <Style id="564">
                <IconStyle id="565">
                    <color>ff0000ff</color>
                    <colorMode>normal</colorMode>
                    <scale>1</scale>
                    <heading>0</heading>
                    <Icon id="566">
                        <href>http://maps.google.com/mapfiles/kml/pushpin/ylw-pushpin.png</href>
                    </Icon>
                </IconStyle>
            </Style>
            <Style id="569">
                <IconStyle id="570">
                    <color>ff0000ff</color>
                    <colorMode>normal</colorMode>
                    <scale>1</scale>
                    <heading>0</heading>
                    <Icon id="571">
                        <href>http://maps.google.com/mapfiles/kml/pushpin/ylw-pushpin.png</href>
                    </Icon>
                </IconStyle>
            </Style>
            <Style id="574">
                <IconStyle id="575">
                    <color>ff0000ff</color>
                    <colorMode>normal</colorMode>
                    <scale>1</scale>
                    <heading>0</heading>
                    <Icon id="576">
                        <href>http://maps.google.com/mapfiles/kml/pushpin/ylw-pushpin.png</href>
                    </Icon>
                </IconStyle>
            </Style>
            <Style id="579">
                <IconStyle id="580">
                    <color>ff0000ff</color>
                    <colorMode>normal</colorMode>
                    <scale>1</scale>
                    <heading>0</heading>
                    <Icon id="581">
                        <href>http://maps.google.com/mapfiles/kml/pushpin/ylw-pushpin.png</href>
                    </Icon>
                </IconStyle>
            </Style>
            <Style id="584">
                <IconStyle id="585">
                    <color>ff0000ff</color>
                    <colorMode>normal</colorMode>
                    <scale>1</scale>
                    <heading>0</heading>
                    <Icon id="586">
                        <href>http://maps.google.com/mapfiles/kml/pushpin/ylw-pushpin.png</href>
                    </Icon>
                </IconStyle>
            </Style>
            <Style id="589">
                <IconStyle id="590">
                    <color>ff0000ff</color>
                    <colorMode>normal</colorMode>
                    <scale>1</scale>
                    <heading>0</heading>
                    <Icon id="591">
                        <href>http://maps.google.com/mapfiles/kml/pushpin/ylw-pushpin.png</href>
                    </Icon>
                </IconStyle>
            </Style>
            <Style id="594">
                <IconStyle id="595">
                    <color>ff0000ff</color>
                    <colorMode>normal</colorMode>
                    <scale>1</scale>
                    <heading>0</heading>
                    <Icon id="596">
                        <href>http://maps.google.com/mapfiles/kml/pushpin/ylw-pushpin.png</href>
                    </Icon>
                </IconStyle>
            </Style>
            <Style id="599">
                <IconStyle id="600">
                    <color>ff0000ff</color>
                    <colorMode>normal</colorMode>
                    <scale>1</scale>
                    <heading>0</heading>
                    <Icon id="601">
                        <href>http://maps.google.com/mapfiles/kml/pushpin/ylw-pushpin.png</href>
                    </Icon>
                </IconStyle>
            </Style>
            <Style id="604">
                <IconStyle id="605">
                    <color>ff0000ff</color>
                    <colorMode>normal</colorMode>
                    <scale>1</scale>
                    <heading>0</heading>
                    <Icon id="606">
                        <href>http://maps.google.com/mapfiles/kml/pushpin/ylw-pushpin.png</href>
                    </Icon>
                </IconStyle>
            </Style>
            <Style id="609">
                <IconStyle id="610">
                    <color>ff0000ff</color>
                    <colorMode>normal</colorMode>
                    <scale>1</scale>
                    <heading>0</heading>
                    <Icon id="611">
                        <href>http://maps.google.com/mapfiles/kml/pushpin/ylw-pushpin.png</href>
                    </Icon>
                </IconStyle>
            </Style>
            <Style id="614">
                <IconStyle id="615">
                    <color>ff0000ff</color>
                    <colorMode>normal</colorMode>
                    <scale>1</scale>
                    <heading>0</heading>
                    <Icon id="616">
                        <href>http://maps.google.com/mapfiles/kml/pushpin/ylw-pushpin.png</href>
                    </Icon>
                </IconStyle>
            </Style>
            <name>JOSE DAVID QUISPE RENTERIA</name>
            <Placemark id="428">
                <name>AMANDA PACHERRES DE TORRES</name>
                <description>MZ IO LT 22 EL INDIO
Castilla
Castilla
Piura
Perú</description>
                <styleUrl>#429</styleUrl>
                <Point id="427">
                    <coordinates>-80.6194953,-5.2218592,0.0</coordinates>
                </Point>
            </Placemark>
            <Placemark id="433">
                <name>MONICA EDITH TINOCO SANCHEZ</name>
                <description>MZ F1 LTE 66 AA.HH EL INDIO
Castilla
Castilla
Piura
Perú</description>
                <styleUrl>#434</styleUrl>
                <Point id="432">
                    <coordinates>-80.619483,-5.224056,0.0</coordinates>
                </Point>
            </Placemark>
            <Placemark id="438">
                <name>MIRELA JANET VIERA CHAVEZ</name>
                <description>LASOC BRISASOC EL INDIO G-8 EL INDIO
Castilla

Piura
Perú</description>
                <styleUrl>#439</styleUrl>
                <Point id="437">
                    <coordinates>-80.6221034,-5.2260479,0.0</coordinates>
                </Point>
            </Placemark>
            <Placemark id="443">
                <name>JUNIOR IVAN SILVA JUAREZ</name>
                <description>Calle H 16    AA.HH EL INDIO
Castilla
Castilla
Piura
Perú</description>
                <styleUrl>#444</styleUrl>
                <Point id="442">
                    <coordinates>-80.6193464,-5.2219779,0.0</coordinates>
                </Point>
            </Placemark>
            <Placemark id="448">
                <name>MARIA ANTONIA SALCEDO MONTALVAN</name>
                <description>A.H.EL INDIO MZ.i2-36 2ETP    
Castilla
Castilla
Piura
Perú</description>
                <styleUrl>#449</styleUrl>
                <Point id="447">
                    <coordinates>-80.618831,-5.222052,0.0</coordinates>
                </Point>
            </Placemark>
            <Placemark id="453">
                <name>GUILLERMO MORE REMAYCUNA</name>
                <description>Av.SANCHEZ CARRIÓN Mz H1 LT 25 EL INDIO
Castilla
Castilla
Piura
Perú</description>
                <styleUrl>#454</styleUrl>
                <Point id="452">
                    <coordinates>-80.6177926,-5.2226302,0.0</coordinates>
                </Point>
            </Placemark>
            <Placemark id="458">
                <name>VANESSA NOEMI CORREA SAAVEDRA</name>
                <description>Mz H1 LTE 58 AA.HH EL INDIO
Castilla
Castilla
Piura
Perú</description>
                <styleUrl>#459</styleUrl>
                <Point id="457">
                    <coordinates>-80.6185895,-5.2232334,0.0</coordinates>
                </Point>
            </Placemark>
            <Placemark id="463">
                <name>MARIA ROSA IPANAQUE COVEÑAS</name>
                <description>MZ E LTE 18 AA.HH EL INDIO I ETAPA REF. ESPALDA DE LA POSTA
Castilla
Castilla
Piura
Perú</description>
                <styleUrl>#464</styleUrl>
                <Point id="462">
                    <coordinates>-80.6206756,-5.2237262,0.0</coordinates>
                </Point>
            </Placemark>
            <Placemark id="468">
                <name>MARIA DEL ROSARIO QUINTANA VARONA</name>
                <description>MZ E LT 14 2 ETP.AH EL INDIO  
Castilla
Castilla
Piura
Perú</description>
                <styleUrl>#469</styleUrl>
                <Point id="467">
                    <coordinates>-80.620855,-5.224158,0.0</coordinates>
                </Point>
            </Placemark>
            <Placemark id="473">
                <name>MANUEL CERRO PALACIOS</name>
                <description>Mz E1 LT 16 AA. HH EL INDIO
Castilla

Piura
Perú</description>
                <styleUrl>#474</styleUrl>
                <Point id="472">
                    <coordinates>-80.6191175,-5.2241418,0.0</coordinates>
                </Point>
            </Placemark>
            <Placemark id="478">
                <name>SARA ESTHEFANIA QUINTANA YPANAQUE</name>
                <description>Mz F1 lote 60 el Indio (frente al bcp)
Castilla
Castilla
Piura
Perú</description>
                <styleUrl>#479</styleUrl>
                <Point id="477">
                    <coordinates>-80.6191913,-5.2240661,0.0</coordinates>
                </Point>
            </Placemark>
            <Placemark id="483">
                <name>MILAGROS NANCY SALAZAR GOMEZ</name>
                <description>MZ-E LT-02 EL INDIO           
Castilla
Castilla
Piura
Perú</description>
                <styleUrl>#484</styleUrl>
                <Point id="482">
                    <coordinates>-80.620392,-5.223802,0.0</coordinates>
                </Point>
            </Placemark>
            <Placemark id="488">
                <name>LETICIA CEFERINO MACHUCA</name>
                <description>MZ L7-1 EL INDIO
Castilla
Castilla
Piura
Perú</description>
                <styleUrl>#489</styleUrl>
                <Point id="487">
                    <coordinates>-80.6155032,-5.2242224,0.0</coordinates>
                </Point>
            </Placemark>
            <Placemark id="493">
                <name>SONIA ELIZABETH VALENCIA RIVAS</name>
                <description>A.H.EL INDIO F7-20 CASTILLA   
Castilla
Piura
Piura
Perú</description>
                <styleUrl>#494</styleUrl>
                <Point id="492">
                    <coordinates>-80.612302,-5.22627,0.0</coordinates>
                </Point>
            </Placemark>
            <Placemark id="498">
                <name>MARIA GRACIELA MINGA TALLEDO</name>
                <description>MZ F5 LOT 21 EL INDIO         
Castilla
Castilla
Piura
Perú</description>
                <styleUrl>#499</styleUrl>
                <Point id="497">
                    <coordinates>-80.614737,-5.225465,0.0</coordinates>
                </Point>
            </Placemark>
            <Placemark id="503">
                <name>MANUELA CLEMENTINA TEMOCHE ARAUJO</name>
                <description>AAHH EL INDIO MZ F3 LOTE 18
Castilla
Castilla
Piura
Perú</description>
                <styleUrl>#504</styleUrl>
                <Point id="502">
                    <coordinates>-80.6163782,-5.22505,0.0</coordinates>
                </Point>
            </Placemark>
            <Placemark id="508">
                <name>GLADYS CARMEN NAVARRO</name>
                <description>Z E2 lt 8 aahh el Indio
Castilla
Castilla
Piura
Perú</description>
                <styleUrl>#509</styleUrl>
                <Point id="507">
                    <coordinates>-80.6172506,-5.2247848,0.0</coordinates>
                </Point>
            </Placemark>
            <Placemark id="513">
                <name>CLARA HERMELINDA ALBAN DE URDIALES</name>
                <description>MZ-F2 LT-13 EL INDIO          
Castilla
Castilla
Piura
Perú</description>
                <styleUrl>#514</styleUrl>
                <Point id="512">
                    <coordinates>-80.617261,-5.224678,0.0</coordinates>
                </Point>
            </Placemark>
            <Placemark id="518">
                <name>DIANA FARFAN SILVA</name>
                <description>AAHH EL INDIO MZ F2 LOTE 20
Castilla
Castilla
Piura
Perú</description>
                <styleUrl>#519</styleUrl>
                <Point id="517">
                    <coordinates>-80.61823,-5.2244664,0.0</coordinates>
                </Point>
            </Placemark>
            <Placemark id="523">
                <name>SILVIA VIERA YOVERA</name>
                <description>MZ D6 LT 1 EL INDIO           
Castilla
Castilla
Piura
Perú</description>
                <styleUrl>#524</styleUrl>
                <Point id="522">
                    <coordinates>-80.614067,-5.227649,0.0</coordinates>
                </Point>
            </Placemark>
            <Placemark id="528">
                <name>ELEODORA VILCHEZ RUIZ</name>
                <description>MZ.D6 LTE.26 AH. EL INDIO - CASTILL
Castilla
Castilla
Piura
Perú</description>
                <styleUrl>#529</styleUrl>
                <Point id="527">
                    <coordinates>-80.613803,-5.2265214,0.0</coordinates>
                </Point>
            </Placemark>
            <Placemark id="533">
                <name>ALBAN MORENO ESTRELLITA DEL ROSARIO</name>
                <description>EL INDIO MZ CH4-16 CASTILLA



Perú</description>
                <styleUrl>#534</styleUrl>
                <Point id="532">
                    <coordinates>-80.6157662,-5.2264287,0.0</coordinates>
                </Point>
            </Placemark>
            <Placemark id="538">
                <name>SANTOS ANDREA LOZADA RUIZ</name>
                <description>MZ CH 04 LT 14 AH EL INDIO    
Castilla
Castilla
Piura
Perú</description>
                <styleUrl>#539</styleUrl>
                <Point id="537">
                    <coordinates>-80.615827,-5.226451,0.0</coordinates>
                </Point>
            </Placemark>
            <Placemark id="543">
                <name>ROSA ELVA AGUILAR QUITO</name>
                <description>CA.1 LT.26-EL INDIO           
Castilla
Castilla
Piura
Perú</description>
                <styleUrl>#544</styleUrl>
                <Point id="542">
                    <coordinates>-80.618315,-5.227994,0.0</coordinates>
                </Point>
            </Placemark>
            <Placemark id="548">
                <name>SILVIA DEL PILAR ZAPATA RAMIREZ</name>
                <description>MZ C 02 LT.12 AH EL INDIO     
Castilla
Castilla
Piura
Perú</description>
                <styleUrl>#549</styleUrl>
                <Point id="547">
                    <coordinates>-80.618747,-5.226297,0.0</coordinates>
                </Point>
            </Placemark>
            <Placemark id="553">
                <name>JACKELINE NOELI NIMA HUERTAS</name>
                <description>EL INDIO MZ C5-21 EL INFIO



Perú</description>
                <styleUrl>#554</styleUrl>
                <Point id="552">
                    <coordinates>-80.614556,-5.2275334,0.0</coordinates>
                </Point>
            </Placemark>
            <Placemark id="558">
                <name>MARIA DE LOS ANGELES FLORES GOMEZ</name>
                <description>Manzana ch5 lote 14
Castilla

Piura
Perú</description>
                <styleUrl>#559</styleUrl>
                <Point id="557">
                    <coordinates>-80.614213,-5.227059,0.0</coordinates>
                </Point>
            </Placemark>
            <Placemark id="563">
                <name>FRANCISCO ALDIMIR SEFERINO VILCHEZ</name>
                <description>MZ 01 LT 43 AH EL INDIO       
Castilla
Castilla
Piura
Perú</description>
                <styleUrl>#564</styleUrl>
                <Point id="562">
                    <coordinates>-80.617795,-5.228097,0.0</coordinates>
                </Point>
            </Placemark>
            <Placemark id="568">
                <name>FLOR JESSENIA TAVARA DOMINGUEZ</name>
                <description>Calle 2 nro 49  el indio
Castilla
Castilla
Piura
Perú</description>
                <styleUrl>#569</styleUrl>
                <Point id="567">
                    <coordinates>-80.6178952,-5.2286792,0.0</coordinates>
                </Point>
            </Placemark>
            <Placemark id="573">
                <name>PASCUALA YESSICA NIMA MAZA</name>
                <description>CA 03 LT67 AAHH EL INDIO      
Castilla
Castilla
Piura
Perú</description>
                <styleUrl>#574</styleUrl>
                <Point id="572">
                    <coordinates>-80.617453,-5.229525,0.0</coordinates>
                </Point>
            </Placemark>
            <Placemark id="578">
                <name>MARIA LIRIA SERNAQUE MORE</name>
                <description>CA.4 LT.6 - EL INDIO          
Castilla
Castilla
Piura
Perú</description>
                <styleUrl>#579</styleUrl>
                <Point id="577">
                    <coordinates>-80.619218,-5.229381,0.0</coordinates>
                </Point>
            </Placemark>
            <Placemark id="583">
                <name>MARIA LIRIA SERNAQUE MORE</name>
                <description>CA.4 LT.6 - EL INDIO          
Castilla
Castilla
Piura
Perú</description>
                <styleUrl>#584</styleUrl>
                <Point id="582">
                    <coordinates>-80.619218,-5.229381,0.0</coordinates>
                </Point>
            </Placemark>
            <Placemark id="588">
                <name>MARIA ELENA SEFERINO VILCHEZ</name>
                <description>CL 3 LT 4 AMPLIAC AH EL INDIO 
Castilla
Castilla
Piura
Perú</description>
                <styleUrl>#589</styleUrl>
                <Point id="587">
                    <coordinates>-80.620108,-5.2287,0.0</coordinates>
                </Point>
            </Placemark>
            <Placemark id="593">
                <name>NANCY MARIBEL SANDOVAL MENDOZA</name>
                <description>A.H.INDIO MZ.M LT.29 LAS BR.  
Castilla
Castilla
Piura
Perú</description>
                <styleUrl>#594</styleUrl>
                <Point id="592">
                    <coordinates>-80.617689,-5.227272,0.0</coordinates>
                </Point>
            </Placemark>
            <Placemark id="598">
                <name>CYNTHYA DEL CARMEN VILLANUEVA NINAMANGO</name>
                <description>Mz I LT 15 AA.HH LAS BRISAS DEL INDIO
Castilla
Castilla
Piura
Perú</description>
                <styleUrl>#599</styleUrl>
                <Point id="597">
                    <coordinates>-80.6217336,-5.2267419,0.0</coordinates>
                </Point>
            </Placemark>
            <Placemark id="603">
                <name>NERY AYME CASTRO CASTILLO</name>
                <description>A.H.LAS BRIZAS MZ.i LT.25     
Castilla
Castilla
Piura
Perú</description>
                <styleUrl>#604</styleUrl>
                <Point id="602">
                    <coordinates>-80.622251,-5.226895,0.0</coordinates>
                </Point>
            </Placemark>
            <Placemark id="608">
                <name>TERESA TORRES SANCHEZ</name>
                <description>MZ E LTE 25 AA.HH LAS BRISAS EL INDIO
Castilla
Castilla
Piura
Perú</description>
                <styleUrl>#609</styleUrl>
                <Point id="607">
                    <coordinates>-80.620794,-5.226022,0.0</coordinates>
                </Point>
            </Placemark>
            <Placemark id="613">
                <name>ELSA BREMILDA ZAPATA RAMIREZ</name>
                <description>AH LAS BRISAS MZ D LT  13     
Castilla
Castilla
Piura
Perú</description>
                <styleUrl>#614</styleUrl>
                <Point id="612">
                    <coordinates>-80.620866,-5.226187,0.0</coordinates>
                </Point>
            </Placemark>
        </Folder>
        <Folder id="617">
            <Style id="620">
                <IconStyle id="621">
                    <color>ffff0000</color>
                    <colorMode>normal</colorMode>
                    <scale>1</scale>
                    <heading>0</heading>
                    <Icon id="622">
                        <href>http://maps.google.com/mapfiles/kml/pushpin/ylw-pushpin.png</href>
                    </Icon>
                </IconStyle>
            </Style>
            <Style id="625">
                <IconStyle id="626">
                    <color>ffff0000</color>
                    <colorMode>normal</colorMode>
                    <scale>1</scale>
                    <heading>0</heading>
                    <Icon id="627">
                        <href>http://maps.google.com/mapfiles/kml/pushpin/ylw-pushpin.png</href>
                    </Icon>
                </IconStyle>
            </Style>
            <Style id="630">
                <IconStyle id="631">
                    <color>ffff0000</color>
                    <colorMode>normal</colorMode>
                    <scale>1</scale>
                    <heading>0</heading>
                    <Icon id="632">
                        <href>http://maps.google.com/mapfiles/kml/pushpin/ylw-pushpin.png</href>
                    </Icon>
                </IconStyle>
            </Style>
            <Style id="635">
                <IconStyle id="636">
                    <color>ffff0000</color>
                    <colorMode>normal</colorMode>
                    <scale>1</scale>
                    <heading>0</heading>
                    <Icon id="637">
                        <href>http://maps.google.com/mapfiles/kml/pushpin/ylw-pushpin.png</href>
                    </Icon>
                </IconStyle>
            </Style>
            <Style id="640">
                <IconStyle id="641">
                    <color>ffff0000</color>
                    <colorMode>normal</colorMode>
                    <scale>1</scale>
                    <heading>0</heading>
                    <Icon id="642">
                        <href>http://maps.google.com/mapfiles/kml/pushpin/ylw-pushpin.png</href>
                    </Icon>
                </IconStyle>
            </Style>
            <Style id="645">
                <IconStyle id="646">
                    <color>ffff0000</color>
                    <colorMode>normal</colorMode>
                    <scale>1</scale>
                    <heading>0</heading>
                    <Icon id="647">
                        <href>http://maps.google.com/mapfiles/kml/pushpin/ylw-pushpin.png</href>
                    </Icon>
                </IconStyle>
            </Style>
            <Style id="650">
                <IconStyle id="651">
                    <color>ffff0000</color>
                    <colorMode>normal</colorMode>
                    <scale>1</scale>
                    <heading>0</heading>
                    <Icon id="652">
                        <href>http://maps.google.com/mapfiles/kml/pushpin/ylw-pushpin.png</href>
                    </Icon>
                </IconStyle>
            </Style>
            <Style id="655">
                <IconStyle id="656">
                    <color>ffff0000</color>
                    <colorMode>normal</colorMode>
                    <scale>1</scale>
                    <heading>0</heading>
                    <Icon id="657">
                        <href>http://maps.google.com/mapfiles/kml/pushpin/ylw-pushpin.png</href>
                    </Icon>
                </IconStyle>
            </Style>
            <Style id="660">
                <IconStyle id="661">
                    <color>ffff0000</color>
                    <colorMode>normal</colorMode>
                    <scale>1</scale>
                    <heading>0</heading>
                    <Icon id="662">
                        <href>http://maps.google.com/mapfiles/kml/pushpin/ylw-pushpin.png</href>
                    </Icon>
                </IconStyle>
            </Style>
            <Style id="665">
                <IconStyle id="666">
                    <color>ffff0000</color>
                    <colorMode>normal</colorMode>
                    <scale>1</scale>
                    <heading>0</heading>
                    <Icon id="667">
                        <href>http://maps.google.com/mapfiles/kml/pushpin/ylw-pushpin.png</href>
                    </Icon>
                </IconStyle>
            </Style>
            <Style id="670">
                <IconStyle id="671">
                    <color>ffff0000</color>
                    <colorMode>normal</colorMode>
                    <scale>1</scale>
                    <heading>0</heading>
                    <Icon id="672">
                        <href>http://maps.google.com/mapfiles/kml/pushpin/ylw-pushpin.png</href>
                    </Icon>
                </IconStyle>
            </Style>
            <Style id="675">
                <IconStyle id="676">
                    <color>ffff0000</color>
                    <colorMode>normal</colorMode>
                    <scale>1</scale>
                    <heading>0</heading>
                    <Icon id="677">
                        <href>http://maps.google.com/mapfiles/kml/pushpin/ylw-pushpin.png</href>
                    </Icon>
                </IconStyle>
            </Style>
            <Style id="680">
                <IconStyle id="681">
                    <color>ffff0000</color>
                    <colorMode>normal</colorMode>
                    <scale>1</scale>
                    <heading>0</heading>
                    <Icon id="682">
                        <href>http://maps.google.com/mapfiles/kml/pushpin/ylw-pushpin.png</href>
                    </Icon>
                </IconStyle>
            </Style>
            <Style id="685">
                <IconStyle id="686">
                    <color>ffff0000</color>
                    <colorMode>normal</colorMode>
                    <scale>1</scale>
                    <heading>0</heading>
                    <Icon id="687">
                        <href>http://maps.google.com/mapfiles/kml/pushpin/ylw-pushpin.png</href>
                    </Icon>
                </IconStyle>
            </Style>
            <Style id="690">
                <IconStyle id="691">
                    <color>ffff0000</color>
                    <colorMode>normal</colorMode>
                    <scale>1</scale>
                    <heading>0</heading>
                    <Icon id="692">
                        <href>http://maps.google.com/mapfiles/kml/pushpin/ylw-pushpin.png</href>
                    </Icon>
                </IconStyle>
            </Style>
            <Style id="695">
                <IconStyle id="696">
                    <color>ffff0000</color>
                    <colorMode>normal</colorMode>
                    <scale>1</scale>
                    <heading>0</heading>
                    <Icon id="697">
                        <href>http://maps.google.com/mapfiles/kml/pushpin/ylw-pushpin.png</href>
                    </Icon>
                </IconStyle>
            </Style>
            <Style id="700">
                <IconStyle id="701">
                    <color>ffff0000</color>
                    <colorMode>normal</colorMode>
                    <scale>1</scale>
                    <heading>0</heading>
                    <Icon id="702">
                        <href>http://maps.google.com/mapfiles/kml/pushpin/ylw-pushpin.png</href>
                    </Icon>
                </IconStyle>
            </Style>
            <Style id="705">
                <IconStyle id="706">
                    <color>ffff0000</color>
                    <colorMode>normal</colorMode>
                    <scale>1</scale>
                    <heading>0</heading>
                    <Icon id="707">
                        <href>http://maps.google.com/mapfiles/kml/pushpin/ylw-pushpin.png</href>
                    </Icon>
                </IconStyle>
            </Style>
            <Style id="710">
                <IconStyle id="711">
                    <color>ffff0000</color>
                    <colorMode>normal</colorMode>
                    <scale>1</scale>
                    <heading>0</heading>
                    <Icon id="712">
                        <href>http://maps.google.com/mapfiles/kml/pushpin/ylw-pushpin.png</href>
                    </Icon>
                </IconStyle>
            </Style>
            <Style id="715">
                <IconStyle id="716">
                    <color>ffff0000</color>
                    <colorMode>normal</colorMode>
                    <scale>1</scale>
                    <heading>0</heading>
                    <Icon id="717">
                        <href>http://maps.google.com/mapfiles/kml/pushpin/ylw-pushpin.png</href>
                    </Icon>
                </IconStyle>
            </Style>
            <Style id="720">
                <IconStyle id="721">
                    <color>ffff0000</color>
                    <colorMode>normal</colorMode>
                    <scale>1</scale>
                    <heading>0</heading>
                    <Icon id="722">
                        <href>http://maps.google.com/mapfiles/kml/pushpin/ylw-pushpin.png</href>
                    </Icon>
                </IconStyle>
            </Style>
            <Style id="725">
                <IconStyle id="726">
                    <color>ffff0000</color>
                    <colorMode>normal</colorMode>
                    <scale>1</scale>
                    <heading>0</heading>
                    <Icon id="727">
                        <href>http://maps.google.com/mapfiles/kml/pushpin/ylw-pushpin.png</href>
                    </Icon>
                </IconStyle>
            </Style>
            <Style id="730">
                <IconStyle id="731">
                    <color>ffff0000</color>
                    <colorMode>normal</colorMode>
                    <scale>1</scale>
                    <heading>0</heading>
                    <Icon id="732">
                        <href>http://maps.google.com/mapfiles/kml/pushpin/ylw-pushpin.png</href>
                    </Icon>
                </IconStyle>
            </Style>
            <Style id="735">
                <IconStyle id="736">
                    <color>ffff0000</color>
                    <colorMode>normal</colorMode>
                    <scale>1</scale>
                    <heading>0</heading>
                    <Icon id="737">
                        <href>http://maps.google.com/mapfiles/kml/pushpin/ylw-pushpin.png</href>
                    </Icon>
                </IconStyle>
            </Style>
            <Style id="740">
                <IconStyle id="741">
                    <color>ffff0000</color>
                    <colorMode>normal</colorMode>
                    <scale>1</scale>
                    <heading>0</heading>
                    <Icon id="742">
                        <href>http://maps.google.com/mapfiles/kml/pushpin/ylw-pushpin.png</href>
                    </Icon>
                </IconStyle>
            </Style>
            <Style id="745">
                <IconStyle id="746">
                    <color>ffff0000</color>
                    <colorMode>normal</colorMode>
                    <scale>1</scale>
                    <heading>0</heading>
                    <Icon id="747">
                        <href>http://maps.google.com/mapfiles/kml/pushpin/ylw-pushpin.png</href>
                    </Icon>
                </IconStyle>
            </Style>
            <Style id="750">
                <IconStyle id="751">
                    <color>ffff0000</color>
                    <colorMode>normal</colorMode>
                    <scale>1</scale>
                    <heading>0</heading>
                    <Icon id="752">
                        <href>http://maps.google.com/mapfiles/kml/pushpin/ylw-pushpin.png</href>
                    </Icon>
                </IconStyle>
            </Style>
            <Style id="755">
                <IconStyle id="756">
                    <color>ffff0000</color>
                    <colorMode>normal</colorMode>
                    <scale>1</scale>
                    <heading>0</heading>
                    <Icon id="757">
                        <href>http://maps.google.com/mapfiles/kml/pushpin/ylw-pushpin.png</href>
                    </Icon>
                </IconStyle>
            </Style>
            <Style id="760">
                <IconStyle id="761">
                    <color>ffff0000</color>
                    <colorMode>normal</colorMode>
                    <scale>1</scale>
                    <heading>0</heading>
                    <Icon id="762">
                        <href>http://maps.google.com/mapfiles/kml/pushpin/ylw-pushpin.png</href>
                    </Icon>
                </IconStyle>
            </Style>
            <Style id="765">
                <IconStyle id="766">
                    <color>ffff0000</color>
                    <colorMode>normal</colorMode>
                    <scale>1</scale>
                    <heading>0</heading>
                    <Icon id="767">
                        <href>http://maps.google.com/mapfiles/kml/pushpin/ylw-pushpin.png</href>
                    </Icon>
                </IconStyle>
            </Style>
            <Style id="770">
                <IconStyle id="771">
                    <color>ffff0000</color>
                    <colorMode>normal</colorMode>
                    <scale>1</scale>
                    <heading>0</heading>
                    <Icon id="772">
                        <href>http://maps.google.com/mapfiles/kml/pushpin/ylw-pushpin.png</href>
                    </Icon>
                </IconStyle>
            </Style>
            <Style id="775">
                <IconStyle id="776">
                    <color>ffff0000</color>
                    <colorMode>normal</colorMode>
                    <scale>1</scale>
                    <heading>0</heading>
                    <Icon id="777">
                        <href>http://maps.google.com/mapfiles/kml/pushpin/ylw-pushpin.png</href>
                    </Icon>
                </IconStyle>
            </Style>
            <Style id="780">
                <IconStyle id="781">
                    <color>ffff0000</color>
                    <colorMode>normal</colorMode>
                    <scale>1</scale>
                    <heading>0</heading>
                    <Icon id="782">
                        <href>http://maps.google.com/mapfiles/kml/pushpin/ylw-pushpin.png</href>
                    </Icon>
                </IconStyle>
            </Style>
            <Style id="785">
                <IconStyle id="786">
                    <color>ffff0000</color>
                    <colorMode>normal</colorMode>
                    <scale>1</scale>
                    <heading>0</heading>
                    <Icon id="787">
                        <href>http://maps.google.com/mapfiles/kml/pushpin/ylw-pushpin.png</href>
                    </Icon>
                </IconStyle>
            </Style>
            <Style id="790">
                <IconStyle id="791">
                    <color>ffff0000</color>
                    <colorMode>normal</colorMode>
                    <scale>1</scale>
                    <heading>0</heading>
                    <Icon id="792">
                        <href>http://maps.google.com/mapfiles/kml/pushpin/ylw-pushpin.png</href>
                    </Icon>
                </IconStyle>
            </Style>
            <Style id="795">
                <IconStyle id="796">
                    <color>ffff0000</color>
                    <colorMode>normal</colorMode>
                    <scale>1</scale>
                    <heading>0</heading>
                    <Icon id="797">
                        <href>http://maps.google.com/mapfiles/kml/pushpin/ylw-pushpin.png</href>
                    </Icon>
                </IconStyle>
            </Style>
            <Style id="800">
                <IconStyle id="801">
                    <color>ffff0000</color>
                    <colorMode>normal</colorMode>
                    <scale>1</scale>
                    <heading>0</heading>
                    <Icon id="802">
                        <href>http://maps.google.com/mapfiles/kml/pushpin/ylw-pushpin.png</href>
                    </Icon>
                </IconStyle>
            </Style>
            <Style id="805">
                <IconStyle id="806">
                    <color>ffff0000</color>
                    <colorMode>normal</colorMode>
                    <scale>1</scale>
                    <heading>0</heading>
                    <Icon id="807">
                        <href>http://maps.google.com/mapfiles/kml/pushpin/ylw-pushpin.png</href>
                    </Icon>
                </IconStyle>
            </Style>
            <Style id="810">
                <IconStyle id="811">
                    <color>ffff0000</color>
                    <colorMode>normal</colorMode>
                    <scale>1</scale>
                    <heading>0</heading>
                    <Icon id="812">
                        <href>http://maps.google.com/mapfiles/kml/pushpin/ylw-pushpin.png</href>
                    </Icon>
                </IconStyle>
            </Style>
            <Style id="815">
                <IconStyle id="816">
                    <color>ffff0000</color>
                    <colorMode>normal</colorMode>
                    <scale>1</scale>
                    <heading>0</heading>
                    <Icon id="817">
                        <href>http://maps.google.com/mapfiles/kml/pushpin/ylw-pushpin.png</href>
                    </Icon>
                </IconStyle>
            </Style>
            <Style id="820">
                <IconStyle id="821">
                    <color>ffff0000</color>
                    <colorMode>normal</colorMode>
                    <scale>1</scale>
                    <heading>0</heading>
                    <Icon id="822">
                        <href>http://maps.google.com/mapfiles/kml/pushpin/ylw-pushpin.png</href>
                    </Icon>
                </IconStyle>
            </Style>
            <Style id="825">
                <IconStyle id="826">
                    <color>ffff0000</color>
                    <colorMode>normal</colorMode>
                    <scale>1</scale>
                    <heading>0</heading>
                    <Icon id="827">
                        <href>http://maps.google.com/mapfiles/kml/pushpin/ylw-pushpin.png</href>
                    </Icon>
                </IconStyle>
            </Style>
            <Style id="830">
                <IconStyle id="831">
                    <color>ffff0000</color>
                    <colorMode>normal</colorMode>
                    <scale>1</scale>
                    <heading>0</heading>
                    <Icon id="832">
                        <href>http://maps.google.com/mapfiles/kml/pushpin/ylw-pushpin.png</href>
                    </Icon>
                </IconStyle>
            </Style>
            <Style id="835">
                <IconStyle id="836">
                    <color>ffff0000</color>
                    <colorMode>normal</colorMode>
                    <scale>1</scale>
                    <heading>0</heading>
                    <Icon id="837">
                        <href>http://maps.google.com/mapfiles/kml/pushpin/ylw-pushpin.png</href>
                    </Icon>
                </IconStyle>
            </Style>
            <Style id="840">
                <IconStyle id="841">
                    <color>ffff0000</color>
                    <colorMode>normal</colorMode>
                    <scale>1</scale>
                    <heading>0</heading>
                    <Icon id="842">
                        <href>http://maps.google.com/mapfiles/kml/pushpin/ylw-pushpin.png</href>
                    </Icon>
                </IconStyle>
            </Style>
            <Style id="845">
                <IconStyle id="846">
                    <color>ffff0000</color>
                    <colorMode>normal</colorMode>
                    <scale>1</scale>
                    <heading>0</heading>
                    <Icon id="847">
                        <href>http://maps.google.com/mapfiles/kml/pushpin/ylw-pushpin.png</href>
                    </Icon>
                </IconStyle>
            </Style>
            <Style id="850">
                <IconStyle id="851">
                    <color>ffff0000</color>
                    <colorMode>normal</colorMode>
                    <scale>1</scale>
                    <heading>0</heading>
                    <Icon id="852">
                        <href>http://maps.google.com/mapfiles/kml/pushpin/ylw-pushpin.png</href>
                    </Icon>
                </IconStyle>
            </Style>
            <Style id="855">
                <IconStyle id="856">
                    <color>ffff0000</color>
                    <colorMode>normal</colorMode>
                    <scale>1</scale>
                    <heading>0</heading>
                    <Icon id="857">
                        <href>http://maps.google.com/mapfiles/kml/pushpin/ylw-pushpin.png</href>
                    </Icon>
                </IconStyle>
            </Style>
            <Style id="860">
                <IconStyle id="861">
                    <color>ffff0000</color>
                    <colorMode>normal</colorMode>
                    <scale>1</scale>
                    <heading>0</heading>
                    <Icon id="862">
                        <href>http://maps.google.com/mapfiles/kml/pushpin/ylw-pushpin.png</href>
                    </Icon>
                </IconStyle>
            </Style>
            <Style id="865">
                <IconStyle id="866">
                    <color>ffff0000</color>
                    <colorMode>normal</colorMode>
                    <scale>1</scale>
                    <heading>0</heading>
                    <Icon id="867">
                        <href>http://maps.google.com/mapfiles/kml/pushpin/ylw-pushpin.png</href>
                    </Icon>
                </IconStyle>
            </Style>
            <name>ZOILA ALBERTINA DE JESUS MORANTE CARRASCO</name>
            <Placemark id="619">
                <name>MARTINEZ CHERO ELIDA</name>
                <description>LOS ANDES 319 CASTILLA        
Castilla
Castilla
Piura
Perú</description>
                <styleUrl>#620</styleUrl>
                <Point id="618">
                    <coordinates>-80.627043,-5.226583,0.0</coordinates>
                </Point>
            </Placemark>
            <Placemark id="624">
                <name>OASIS SUPERMERCADOS S.A.C.</name>
                <description>Urbanización Las Palmeras -centenario MZ B lote 15
Castilla
200104Castilla
Piura
Perú</description>
                <styleUrl>#625</styleUrl>
                <Point id="623">
                    <coordinates>-80.6326304,-5.2250136,0.0</coordinates>
                </Point>
            </Placemark>
            <Placemark id="629">
                <name>CESAR LUIS SAAVEDRA GARCIA</name>
                <description>Urbanización las palmeras mzB22 lote 2
Castilla
Castilla
Piura
Perú</description>
                <styleUrl>#630</styleUrl>
                <Point id="628">
                    <coordinates>-80.6396222,-5.2248318,0.0</coordinates>
                </Point>
            </Placemark>
            <Placemark id="634">
                <name>AGRIPINA SALAMBAY MENDEZ</name>
                <description>Calle SINCHI ROCA 1617 CHICLAYITO
Castilla
Castilla
Piura
Perú</description>
                <styleUrl>#635</styleUrl>
                <Point id="633">
                    <coordinates>-80.628372,-5.2264228,0.0</coordinates>
                </Point>
            </Placemark>
            <Placemark id="639">
                <name>INGRID DASSALI SILUPU CARREÑO</name>
                <description>CATACAOS VERANDA MZ42 LT373   
Catacaos
Catacaos
Piura
Perú</description>
                <styleUrl>#640</styleUrl>
                <Point id="638">
                    <coordinates>-80.636689,-5.233221,0.0</coordinates>
                </Point>
            </Placemark>
            <Placemark id="644">
                <name>YDA ALBERTINA SEFERINO DE CORDOVA</name>
                <description>Calle Julio Ponce #512 chiclayito
Castilla
Castilla
Piura
Perú</description>
                <styleUrl>#645</styleUrl>
                <Point id="643">
                    <coordinates>-80.6289224,-5.2289095,0.0</coordinates>
                </Point>
            </Placemark>
            <Placemark id="649">
                <name>MIRTHA MERCEDES NAVARRO YARLEQUE</name>
                <description>CL LOS ANDES 503 NVOCHICLAYITO
Castilla
Castilla
Piura
Perú</description>
                <styleUrl>#650</styleUrl>
                <Point id="648">
                    <coordinates>-80.62839,-5.228859,0.0</coordinates>
                </Point>
            </Placemark>
            <Placemark id="654">
                <name>HUANCAS FACIO CARMEN</name>
                <description>MAYTA CAPAC CHICLAYITO N 2317 
Castilla
Castilla
Piura
Perú</description>
                <styleUrl>#655</styleUrl>
                <Point id="653">
                    <coordinates>-80.628312,-5.224401,0.0</coordinates>
                </Point>
            </Placemark>
            <Placemark id="659">
                <name>MARICRUZ STEP DOMINGUEZ MONTENEGRO</name>
                <description>MARICRUZ STEP DOMINGUEZ MONTENEGRO
CA.MAYTA CAPAC 2218 AA. HH CHICA. AYITO
Castilla
Piura
Piura
Perú</description>
                <styleUrl>#660</styleUrl>
                <Point id="658">
                    <coordinates>-80.62864,-5.2249089,0.0</coordinates>
                </Point>
            </Placemark>
            <Placemark id="664">
                <name>ELVIRA DAIZ JUAREZ GIRON</name>
                <description>Calle julio Ponce 107 chiclayito
Castilla
Castilla
Piura
Perú</description>
                <styleUrl>#665</styleUrl>
                <Point id="663">
                    <coordinates>-80.6276469,-5.2242286,0.0</coordinates>
                </Point>
            </Placemark>
            <Placemark id="669">
                <name>CESAR AGUSTO SANCHEZ URBINA</name>
                <description>CESAR AGUSTO SANCHEZ URBINA
AV.LOS FLORES MZ M LT 28 URB.SAN BERNANDO-CASTILLA
Castilla
Castilla
Piura
Perú</description>
                <styleUrl>#670</styleUrl>
                <Point id="668">
                    <coordinates>-80.6239123,-5.2233826,0.0</coordinates>
                </Point>
            </Placemark>
            <Placemark id="674">
                <name>CARMINA VEGAS VILLEGAS</name>
                <description>AAHh CHICLAYITO Calle Sánchez Arteaga s/n
Castilla
Castilla
Piura
Perú</description>
                <styleUrl>#675</styleUrl>
                <Point id="673">
                    <coordinates>-80.6273972,-5.2263467,0.0</coordinates>
                </Point>
            </Placemark>
            <Placemark id="679">
                <name>WALTER SEMINARIO IPANAQUE</name>
                <description>Calle san Martin 339 Campo Polo
Castilla
Castilla
Piura
Perú</description>
                <styleUrl>#680</styleUrl>
                <Point id="678">
                    <coordinates>-80.6244151,-5.221722,0.0</coordinates>
                </Point>
            </Placemark>
            <Placemark id="684">
                <name>DAVID ARTURO HUIMAN PURIZACA</name>
                <description>CALLE SAN MARTIN 331 CAMPOLO CASTILLA-Piura
Castilla
Castilla
Piura
Perú</description>
                <styleUrl>#685</styleUrl>
                <Point id="683">
                    <coordinates>-80.6246368,-5.2218395,0.0</coordinates>
                </Point>
            </Placemark>
            <Placemark id="689">
                <name>MARYORI DENISSE ROBLEDO MENA</name>
                <description>URB. LAS PALMERAS MZ J4 LTE 1
Castilla
Piura
Piura
Perú</description>
                <styleUrl>#690</styleUrl>
                <Point id="688">
                    <coordinates>-80.6347936,-5.2248785,0.0</coordinates>
                </Point>
            </Placemark>
            <Placemark id="694">
                <name>ROSARIO ROXANA VALLADARES SUAREZ</name>
                <description>CA.LOS NARCISOS MZ.A4 LT.64   
Castilla
Castilla
Piura
Perú</description>
                <styleUrl>#695</styleUrl>
                <Point id="693">
                    <coordinates>-80.635989,-5.226514,0.0</coordinates>
                </Point>
            </Placemark>
            <Placemark id="699">
                <name>SHEYLA JEANINA ZUÑIGA FIESTAS</name>
                <description>URB.MONTE VERDE CASTILLA. MZN R KOTE 2 1 ERA ERAPA
Castilla
Castilla
Piura
Perú</description>
                <styleUrl>#700</styleUrl>
                <Point id="698">
                    <coordinates>-80.6384265,-5.2293907,0.0</coordinates>
                </Point>
            </Placemark>
            <Placemark id="704">
                <name>NEGOCIOS E INVERSIONES HANNA Y MATEO E.I.R.L.</name>
                <description>AV. LOS ALGARROBOS MZA. B1 LOTE. 34 URB. LAS PALMERAS
Castilla
200104Castilla
Piura
Perú</description>
                <styleUrl>#705</styleUrl>
                <Point id="703">
                    <coordinates>-80.6389946,-5.2256735,0.0</coordinates>
                </Point>
            </Placemark>
            <Placemark id="709">
                <name>DIANA BONILLA ARRUNATEGUI</name>
                <description>URB.LAS PALMERAS MZ K LT 3    
Castilla
Piura
Piura
Perú</description>
                <styleUrl>#710</styleUrl>
                <Point id="708">
                    <coordinates>-80.6338,-5.2239,0.0</coordinates>
                </Point>
            </Placemark>
            <Placemark id="714">
                <name>BORIS FEDERICO OLEMAR OJEDA</name>
                <description>TORRE 12 dpto 102  SANTA ROSA COUNTRY CLUB
Castilla
Castilla
Piura
Perú</description>
                <styleUrl>#715</styleUrl>
                <Point id="713">
                    <coordinates>-80.6332205,-5.2302883,0.0</coordinates>
                </Point>
            </Placemark>
            <Placemark id="719">
                <name>OASIS SUPERMERCADOS S.A.C.</name>
                <description>Urbanización Las Palmeras -centenario MZ B lote 15
Castilla
200104Castilla
Piura
Perú</description>
                <styleUrl>#720</styleUrl>
                <Point id="718">
                    <coordinates>-80.6326304,-5.2250136,0.0</coordinates>
                </Point>
            </Placemark>
            <Placemark id="724">
                <name>CESAR LUIS SAAVEDRA GARCIA</name>
                <description>Urbanización las palmeras mzB22 lote 2
Castilla
Castilla
Piura
Perú</description>
                <styleUrl>#725</styleUrl>
                <Point id="723">
                    <coordinates>-80.6396222,-5.2248318,0.0</coordinates>
                </Point>
            </Placemark>
            <Placemark id="729">
                <name>JULIO GERONIMO SEMINARIO ZAPATA</name>
                <description>URB.LAS PALMERAS MZ.C3 LT.85  
Castilla
Castilla
Piura
Perú</description>
                <styleUrl>#730</styleUrl>
                <Point id="728">
                    <coordinates>-80.634258,-5.226063,0.0</coordinates>
                </Point>
            </Placemark>
            <Placemark id="734">
                <name>KARINA MAGALY MENA VIERA</name>
                <description>MZ A LTE 13 URB. MONTEVERDE
Castilla
Castilla
Piura
Perú</description>
                <styleUrl>#735</styleUrl>
                <Point id="733">
                    <coordinates>-80.6418481,-5.2265603,0.0</coordinates>
                </Point>
            </Placemark>
            <Placemark id="739">
                <name>ANA CLAUDIA ESTRADA RAMOS</name>
                <description>ANA CLAUDIA ESTRADA RAMOS
MZ T LT 24 RESID.MONTEVERDE - CASTILLA
Castilla
Piura
Piura
Perú</description>
                <styleUrl>#740</styleUrl>
                <Point id="738">
                    <coordinates>-80.6407008,-5.2277703,0.0</coordinates>
                </Point>
            </Placemark>
            <Placemark id="744">
                <name>GLADYS LOZADA JUAREZ</name>
                <description>URB.MONTE VERDE MZ.G LT.04    
Castilla
Castilla
Piura
Perú</description>
                <styleUrl>#745</styleUrl>
                <Point id="743">
                    <coordinates>-80.639148,-5.228905,0.0</coordinates>
                </Point>
            </Placemark>
            <Placemark id="749">
                <name>INVERSIONES TANGARARA S.A.C.</name>
                <description>INVERSIONES TANGARARA S.A.C.
URB.MONTEVERDE MZ.J LT.E 18   
Castilla
200104Piura
Piura
Perú</description>
                <styleUrl>#750</styleUrl>
                <Point id="748">
                    <coordinates>-80.637325,-5.229432,0.0</coordinates>
                </Point>
            </Placemark>
            <Placemark id="754">
                <name>INGRID DASSALI SILUPU CARREÑO</name>
                <description>CATACAOS VERANDA MZ42 LT373   
Catacaos
Catacaos
Piura
Perú</description>
                <styleUrl>#755</styleUrl>
                <Point id="753">
                    <coordinates>-80.636689,-5.233221,0.0</coordinates>
                </Point>
            </Placemark>
            <Placemark id="759">
                <name>JOSI ALEJANDRO ZAPATA VIERA</name>
                <description>MZ.4A LT.30                   
Catacaos
Catacaos
Piura
Perú</description>
                <styleUrl>#760</styleUrl>
                <Point id="758">
                    <coordinates>-80.638294,-5.234636,0.0</coordinates>
                </Point>
            </Placemark>
            <Placemark id="764">
                <name>JULIO CESAR RIVAS SOSA</name>
                <description>PROGRESO N 2901 CHICLAYITO-Piura
Castilla
Castilla
Piura
Perú</description>
                <styleUrl>#765</styleUrl>
                <Point id="763">
                    <coordinates>-80.6295017,-5.2245751,0.0</coordinates>
                </Point>
            </Placemark>
            <Placemark id="769">
                <name>MARIA ISABEL SAAVEDRA ACARO</name>
                <description>AV LIUS MONTERO N501 CHICLAYITO-Piura-Piura
Castilla
Castilla
Piura
Perú</description>
                <styleUrl>#770</styleUrl>
                <Point id="768">
                    <coordinates>-80.6274176,-5.2235975,0.0</coordinates>
                </Point>
            </Placemark>
            <Placemark id="774">
                <name>SEGUNDO PAULINO CHAVEZ BERRU</name>
                <description>SIMCHIROCA #1402 CHICLAYITO CASTILLA-Piura
Castilla
Castilla
Piura
Perú</description>
                <styleUrl>#775</styleUrl>
                <Point id="773">
                    <coordinates>-80.6269646,-5.2228403,0.0</coordinates>
                </Point>
            </Placemark>
            <Placemark id="779">
                <name>GARCIA OLGUIN MAGDA</name>
                <description>LOS PINOS 307 CHICLAYITO      
Castilla
Castilla
Piura
Perú</description>
                <styleUrl>#780</styleUrl>
                <Point id="778">
                    <coordinates>-80.626795,-5.22669,0.0</coordinates>
                </Point>
            </Placemark>
            <Placemark id="784">
                <name>GUISELLA CULQUICONDOR VALLE</name>
                <description>CALLE SINCHI ROCA 1600
Castilla
Castilla
Piura
Perú</description>
                <styleUrl>#785</styleUrl>
                <Point id="783">
                    <coordinates>-80.6282412,-5.2261236,0.0</coordinates>
                </Point>
            </Placemark>
            <Placemark id="789">
                <name>FILOMENA HUANCAS HUANCAS</name>
                <description>CA.SINCHI ROCA. 1625 AA. HH CHICA.
Castilla
Piura
Piura
Perú</description>
                <styleUrl>#790</styleUrl>
                <Point id="788">
                    <coordinates>-80.6285018,-5.2268775,0.0</coordinates>
                </Point>
            </Placemark>
            <Placemark id="794">
                <name>JULIA FRANCISCA CASTRO HUERTAS</name>
                <description>SINCHI ROCA 1633 CHICLAYITO   
Castilla
Castilla
Piura
Perú</description>
                <styleUrl>#795</styleUrl>
                <Point id="793">
                    <coordinates>-80.628425,-5.22668,0.0</coordinates>
                </Point>
            </Placemark>
            <Placemark id="799">
                <name>GINA MILUZCA GARCIA ZAPATA</name>
                <description>CALLE HUASCAR 2447 CHICLAYITO CASTILLA
Castilla
Castilla
Piura
Perú</description>
                <styleUrl>#800</styleUrl>
                <Point id="798">
                    <coordinates>-80.6290328,-5.2266159,0.0</coordinates>
                </Point>
            </Placemark>
            <Placemark id="804">
                <name>FRANCISCA MARIA HUAMAN CORDOVA</name>
                <description>Calle cesar Vallejo # 401 chiclayito
Castilla
Castilla
Piura
Perú</description>
                <styleUrl>#805</styleUrl>
                <Point id="803">
                    <coordinates>-80.6282015,-5.2250293,0.0</coordinates>
                </Point>
            </Placemark>
            <Placemark id="809">
                <name>TELCIDA AURORA CALLE CALLE</name>
                <description>SINCHI ROCA. 1424 CHICLAYITO
Castilla
Castilla
Piura
Perú</description>
                <styleUrl>#810</styleUrl>
                <Point id="808">
                    <coordinates>-80.6276934,-5.2251231,0.0</coordinates>
                </Point>
            </Placemark>
            <Placemark id="814">
                <name>ERICKA NOEMI CHERO CASTILLO</name>
                <description>AA. HH CHICLAYITO CA.JULIO PONCE113 SECTOR 2
Castilla
Castilla
Piura
Perú</description>
                <styleUrl>#815</styleUrl>
                <Point id="813">
                    <coordinates>-80.6271034,-5.2251133,0.0</coordinates>
                </Point>
            </Placemark>
            <Placemark id="819">
                <name>JIMENEZ HUANCAS ALBERTINA</name>
                <description>CA.LOS PINOS 118              
Castilla
Castilla
Piura
Perú</description>
                <styleUrl>#820</styleUrl>
                <Point id="818">
                    <coordinates>-80.626193,-5.225773,0.0</coordinates>
                </Point>
            </Placemark>
            <Placemark id="824">
                <name>ELIANA ABIGAIL PEÑA NAVARRO</name>
                <description>Calle talara 107 chiclayito
Castilla
Castilla
Piura
Perú</description>
                <styleUrl>#825</styleUrl>
                <Point id="823">
                    <coordinates>-80.6255454,-5.2256049,0.0</coordinates>
                </Point>
            </Placemark>
            <Placemark id="829">
                <name>ROXANA LOPEZ CASTILLO</name>
                <description>CA.BOLOGNESI MZ-C55 LT-4A AA. HH JESUS MARIA
Castilla
Castilla
Piura
Perú</description>
                <styleUrl>#830</styleUrl>
                <Point id="828">
                    <coordinates>-80.6241995,-5.2257854,0.0</coordinates>
                </Point>
            </Placemark>
            <Placemark id="834">
                <name>IRMA JESSICA MAURIOLA RIVERA</name>
                <description>URB.SAN BERNARDO CALLE MAGNOLIAS C 19 CASTILLA
Castilla
Castilla
Piura
Perú</description>
                <styleUrl>#835</styleUrl>
                <Point id="833">
                    <coordinates>-80.6262126,-5.2214882,0.0</coordinates>
                </Point>
            </Placemark>
            <Placemark id="839">
                <name>JESUS DEL CARMEN ALBERCA QUEVEDO</name>
                <description>Av grau 2001 AAHH chiclayito
Castilla
Castilla
Piura
Perú</description>
                <styleUrl>#840</styleUrl>
                <Point id="838">
                    <coordinates>-80.6280046,-5.218729,0.0</coordinates>
                </Point>
            </Placemark>
            <Placemark id="844">
                <name>ELEANA BEATRIZ AYALA CORDOVA</name>
                <description>ELEANA BEATRIZ AYALA CORDOVA
AV. MIGUEL GRAU 2104 CHICA. AYITO
Castilla
Castilla
Piura
Perú</description>
                <styleUrl>#845</styleUrl>
                <Point id="843">
                    <coordinates>-80.6293152,-5.2218532,0.0</coordinates>
                </Point>
            </Placemark>
            <Placemark id="849">
                <name>JUAREZ ORDINOLA  MARIA</name>
                <description>AV GRAU 2401 CHICLAYITO       
Castilla

Piura
Perú</description>
                <styleUrl>#850</styleUrl>
                <Point id="848">
                    <coordinates>-80.630251,-5.224969,0.0</coordinates>
                </Point>
            </Placemark>
            <Placemark id="854">
                <name>HAYDEE MORENO MANRIQUE</name>
                <description>AV.GRAU 2416 CHICLAYITO       
Castilla
Piura
Piura
Perú</description>
                <styleUrl>#855</styleUrl>
                <Point id="853">
                    <coordinates>-80.630278,-5.224351,0.0</coordinates>
                </Point>
            </Placemark>
            <Placemark id="859">
                <name>BRENDA PAOLA MARTINEZ AREVALO</name>
                <description>Av. Graú 1990 Residencial el Refugio MZ. I Lote 6 - Castilla.
Castilla
Castilla
Piura
Perú</description>
                <styleUrl>#860</styleUrl>
                <Point id="858">
                    <coordinates>-80.6293056,-5.2201561,0.0</coordinates>
                </Point>
            </Placemark>
            <Placemark id="864">
                <name>LEONOR CORDOVA NUÑEZ</name>
                <description>AV. GRAU 2554 CHICA. AYITO
Castilla
Piura
Piura
Perú</description>
                <styleUrl>#865</styleUrl>
                <Point id="863">
                    <coordinates>-80.6317458,-5.2272011,0.0</coordinates>
                </Point>
            </Placemark>
        </Folder>
    </Document>
</kml>
