<?xml version="1.0" encoding="UTF-8"?>
<kml xmlns="http://www.opengis.net/kml/2.2" xmlns:gx="http://www.google.com/kml/ext/2.2">
    <Document id="554">
        <Folder id="555">
            <Style id="558">
                <IconStyle id="559">
                    <color>ff0000ff</color>
                    <colorMode>normal</colorMode>
                    <scale>1</scale>
                    <heading>0</heading>
                    <Icon id="560">
                        <href>http://maps.google.com/mapfiles/kml/pushpin/ylw-pushpin.png</href>
                    </Icon>
                </IconStyle>
            </Style>
            <Style id="563">
                <IconStyle id="564">
                    <color>ff0000ff</color>
                    <colorMode>normal</colorMode>
                    <scale>1</scale>
                    <heading>0</heading>
                    <Icon id="565">
                        <href>http://maps.google.com/mapfiles/kml/pushpin/ylw-pushpin.png</href>
                    </Icon>
                </IconStyle>
            </Style>
            <Style id="568">
                <IconStyle id="569">
                    <color>ff0000ff</color>
                    <colorMode>normal</colorMode>
                    <scale>1</scale>
                    <heading>0</heading>
                    <Icon id="570">
                        <href>http://maps.google.com/mapfiles/kml/pushpin/ylw-pushpin.png</href>
                    </Icon>
                </IconStyle>
            </Style>
            <Style id="573">
                <IconStyle id="574">
                    <color>ff0000ff</color>
                    <colorMode>normal</colorMode>
                    <scale>1</scale>
                    <heading>0</heading>
                    <Icon id="575">
                        <href>http://maps.google.com/mapfiles/kml/pushpin/ylw-pushpin.png</href>
                    </Icon>
                </IconStyle>
            </Style>
            <Style id="578">
                <IconStyle id="579">
                    <color>ff0000ff</color>
                    <colorMode>normal</colorMode>
                    <scale>1</scale>
                    <heading>0</heading>
                    <Icon id="580">
                        <href>http://maps.google.com/mapfiles/kml/pushpin/ylw-pushpin.png</href>
                    </Icon>
                </IconStyle>
            </Style>
            <Style id="583">
                <IconStyle id="584">
                    <color>ff0000ff</color>
                    <colorMode>normal</colorMode>
                    <scale>1</scale>
                    <heading>0</heading>
                    <Icon id="585">
                        <href>http://maps.google.com/mapfiles/kml/pushpin/ylw-pushpin.png</href>
                    </Icon>
                </IconStyle>
            </Style>
            <Style id="588">
                <IconStyle id="589">
                    <color>ff0000ff</color>
                    <colorMode>normal</colorMode>
                    <scale>1</scale>
                    <heading>0</heading>
                    <Icon id="590">
                        <href>http://maps.google.com/mapfiles/kml/pushpin/ylw-pushpin.png</href>
                    </Icon>
                </IconStyle>
            </Style>
            <Style id="593">
                <IconStyle id="594">
                    <color>ff0000ff</color>
                    <colorMode>normal</colorMode>
                    <scale>1</scale>
                    <heading>0</heading>
                    <Icon id="595">
                        <href>http://maps.google.com/mapfiles/kml/pushpin/ylw-pushpin.png</href>
                    </Icon>
                </IconStyle>
            </Style>
            <Style id="598">
                <IconStyle id="599">
                    <color>ff0000ff</color>
                    <colorMode>normal</colorMode>
                    <scale>1</scale>
                    <heading>0</heading>
                    <Icon id="600">
                        <href>http://maps.google.com/mapfiles/kml/pushpin/ylw-pushpin.png</href>
                    </Icon>
                </IconStyle>
            </Style>
            <Style id="603">
                <IconStyle id="604">
                    <color>ff0000ff</color>
                    <colorMode>normal</colorMode>
                    <scale>1</scale>
                    <heading>0</heading>
                    <Icon id="605">
                        <href>http://maps.google.com/mapfiles/kml/pushpin/ylw-pushpin.png</href>
                    </Icon>
                </IconStyle>
            </Style>
            <Style id="608">
                <IconStyle id="609">
                    <color>ff0000ff</color>
                    <colorMode>normal</colorMode>
                    <scale>1</scale>
                    <heading>0</heading>
                    <Icon id="610">
                        <href>http://maps.google.com/mapfiles/kml/pushpin/ylw-pushpin.png</href>
                    </Icon>
                </IconStyle>
            </Style>
            <Style id="613">
                <IconStyle id="614">
                    <color>ff0000ff</color>
                    <colorMode>normal</colorMode>
                    <scale>1</scale>
                    <heading>0</heading>
                    <Icon id="615">
                        <href>http://maps.google.com/mapfiles/kml/pushpin/ylw-pushpin.png</href>
                    </Icon>
                </IconStyle>
            </Style>
            <Style id="618">
                <IconStyle id="619">
                    <color>ff0000ff</color>
                    <colorMode>normal</colorMode>
                    <scale>1</scale>
                    <heading>0</heading>
                    <Icon id="620">
                        <href>http://maps.google.com/mapfiles/kml/pushpin/ylw-pushpin.png</href>
                    </Icon>
                </IconStyle>
            </Style>
            <Style id="623">
                <IconStyle id="624">
                    <color>ff0000ff</color>
                    <colorMode>normal</colorMode>
                    <scale>1</scale>
                    <heading>0</heading>
                    <Icon id="625">
                        <href>http://maps.google.com/mapfiles/kml/pushpin/ylw-pushpin.png</href>
                    </Icon>
                </IconStyle>
            </Style>
            <Style id="628">
                <IconStyle id="629">
                    <color>ff0000ff</color>
                    <colorMode>normal</colorMode>
                    <scale>1</scale>
                    <heading>0</heading>
                    <Icon id="630">
                        <href>http://maps.google.com/mapfiles/kml/pushpin/ylw-pushpin.png</href>
                    </Icon>
                </IconStyle>
            </Style>
            <Style id="633">
                <IconStyle id="634">
                    <color>ff0000ff</color>
                    <colorMode>normal</colorMode>
                    <scale>1</scale>
                    <heading>0</heading>
                    <Icon id="635">
                        <href>http://maps.google.com/mapfiles/kml/pushpin/ylw-pushpin.png</href>
                    </Icon>
                </IconStyle>
            </Style>
            <Style id="638">
                <IconStyle id="639">
                    <color>ff0000ff</color>
                    <colorMode>normal</colorMode>
                    <scale>1</scale>
                    <heading>0</heading>
                    <Icon id="640">
                        <href>http://maps.google.com/mapfiles/kml/pushpin/ylw-pushpin.png</href>
                    </Icon>
                </IconStyle>
            </Style>
            <Style id="643">
                <IconStyle id="644">
                    <color>ff0000ff</color>
                    <colorMode>normal</colorMode>
                    <scale>1</scale>
                    <heading>0</heading>
                    <Icon id="645">
                        <href>http://maps.google.com/mapfiles/kml/pushpin/ylw-pushpin.png</href>
                    </Icon>
                </IconStyle>
            </Style>
            <Style id="648">
                <IconStyle id="649">
                    <color>ff0000ff</color>
                    <colorMode>normal</colorMode>
                    <scale>1</scale>
                    <heading>0</heading>
                    <Icon id="650">
                        <href>http://maps.google.com/mapfiles/kml/pushpin/ylw-pushpin.png</href>
                    </Icon>
                </IconStyle>
            </Style>
            <Style id="653">
                <IconStyle id="654">
                    <color>ff0000ff</color>
                    <colorMode>normal</colorMode>
                    <scale>1</scale>
                    <heading>0</heading>
                    <Icon id="655">
                        <href>http://maps.google.com/mapfiles/kml/pushpin/ylw-pushpin.png</href>
                    </Icon>
                </IconStyle>
            </Style>
            <Style id="658">
                <IconStyle id="659">
                    <color>ff0000ff</color>
                    <colorMode>normal</colorMode>
                    <scale>1</scale>
                    <heading>0</heading>
                    <Icon id="660">
                        <href>http://maps.google.com/mapfiles/kml/pushpin/ylw-pushpin.png</href>
                    </Icon>
                </IconStyle>
            </Style>
            <Style id="663">
                <IconStyle id="664">
                    <color>ff0000ff</color>
                    <colorMode>normal</colorMode>
                    <scale>1</scale>
                    <heading>0</heading>
                    <Icon id="665">
                        <href>http://maps.google.com/mapfiles/kml/pushpin/ylw-pushpin.png</href>
                    </Icon>
                </IconStyle>
            </Style>
            <Style id="668">
                <IconStyle id="669">
                    <color>ff0000ff</color>
                    <colorMode>normal</colorMode>
                    <scale>1</scale>
                    <heading>0</heading>
                    <Icon id="670">
                        <href>http://maps.google.com/mapfiles/kml/pushpin/ylw-pushpin.png</href>
                    </Icon>
                </IconStyle>
            </Style>
            <Style id="673">
                <IconStyle id="674">
                    <color>ff0000ff</color>
                    <colorMode>normal</colorMode>
                    <scale>1</scale>
                    <heading>0</heading>
                    <Icon id="675">
                        <href>http://maps.google.com/mapfiles/kml/pushpin/ylw-pushpin.png</href>
                    </Icon>
                </IconStyle>
            </Style>
            <Style id="678">
                <IconStyle id="679">
                    <color>ff0000ff</color>
                    <colorMode>normal</colorMode>
                    <scale>1</scale>
                    <heading>0</heading>
                    <Icon id="680">
                        <href>http://maps.google.com/mapfiles/kml/pushpin/ylw-pushpin.png</href>
                    </Icon>
                </IconStyle>
            </Style>
            <Style id="683">
                <IconStyle id="684">
                    <color>ff0000ff</color>
                    <colorMode>normal</colorMode>
                    <scale>1</scale>
                    <heading>0</heading>
                    <Icon id="685">
                        <href>http://maps.google.com/mapfiles/kml/pushpin/ylw-pushpin.png</href>
                    </Icon>
                </IconStyle>
            </Style>
            <Style id="688">
                <IconStyle id="689">
                    <color>ff0000ff</color>
                    <colorMode>normal</colorMode>
                    <scale>1</scale>
                    <heading>0</heading>
                    <Icon id="690">
                        <href>http://maps.google.com/mapfiles/kml/pushpin/ylw-pushpin.png</href>
                    </Icon>
                </IconStyle>
            </Style>
            <Style id="693">
                <IconStyle id="694">
                    <color>ff0000ff</color>
                    <colorMode>normal</colorMode>
                    <scale>1</scale>
                    <heading>0</heading>
                    <Icon id="695">
                        <href>http://maps.google.com/mapfiles/kml/pushpin/ylw-pushpin.png</href>
                    </Icon>
                </IconStyle>
            </Style>
            <Style id="698">
                <IconStyle id="699">
                    <color>ff0000ff</color>
                    <colorMode>normal</colorMode>
                    <scale>1</scale>
                    <heading>0</heading>
                    <Icon id="700">
                        <href>http://maps.google.com/mapfiles/kml/pushpin/ylw-pushpin.png</href>
                    </Icon>
                </IconStyle>
            </Style>
            <Style id="703">
                <IconStyle id="704">
                    <color>ff0000ff</color>
                    <colorMode>normal</colorMode>
                    <scale>1</scale>
                    <heading>0</heading>
                    <Icon id="705">
                        <href>http://maps.google.com/mapfiles/kml/pushpin/ylw-pushpin.png</href>
                    </Icon>
                </IconStyle>
            </Style>
            <Style id="708">
                <IconStyle id="709">
                    <color>ff0000ff</color>
                    <colorMode>normal</colorMode>
                    <scale>1</scale>
                    <heading>0</heading>
                    <Icon id="710">
                        <href>http://maps.google.com/mapfiles/kml/pushpin/ylw-pushpin.png</href>
                    </Icon>
                </IconStyle>
            </Style>
            <Style id="713">
                <IconStyle id="714">
                    <color>ff0000ff</color>
                    <colorMode>normal</colorMode>
                    <scale>1</scale>
                    <heading>0</heading>
                    <Icon id="715">
                        <href>http://maps.google.com/mapfiles/kml/pushpin/ylw-pushpin.png</href>
                    </Icon>
                </IconStyle>
            </Style>
            <name>CRISTIAN DARWIN ESPINOZA OLIVA</name>
            <Placemark id="557">
                <name>IRMA CORDOVA SAAVEDRA</name>
                <description>AV VIA COLECTORA MZ.E LT.33   
Veintiséis de Octubre
Veintiséis de Octubre
Piura
Perú</description>
                <styleUrl>#558</styleUrl>
                <Point id="556">
                    <coordinates>-80.657017,-5.168664,0.0</coordinates>
                </Point>
            </Placemark>
            <Placemark id="562">
                <name>JEAN MARCOS REMIGIO AYALA</name>
                <description>D-36 NESTOR MARTOS 26 DE OCTUBRE-Piura
Veintiséis de Octubre
Veintiséis de Octubre
Piura
Perú</description>
                <styleUrl>#563</styleUrl>
                <Point id="561">
                    <coordinates>-80.6568023,-5.1698253,0.0</coordinates>
                </Point>
            </Placemark>
            <Placemark id="567">
                <name>DEMETRIO GARCIA PEÑA</name>
                <description>AAHH 4 de octubre MZ H lote 1
Veintiséis de Octubre

Piura
Perú</description>
                <styleUrl>#568</styleUrl>
                <Point id="566">
                    <coordinates>-80.653505,-5.171745,0.0</coordinates>
                </Point>
            </Placemark>
            <Placemark id="572">
                <name>HORTENCIA NUÑEZ MOLINA</name>
                <description>MZ C LOTE 02 AAHH 04 DE OCTUBRE
Piura
Piura
Piura
Perú</description>
                <styleUrl>#573</styleUrl>
                <Point id="571">
                    <coordinates>-80.652462,-5.1730368,0.0</coordinates>
                </Point>
            </Placemark>
            <Placemark id="577">
                <name>MARIA M ABENDAÑO RAMIREZ DE TRONCOS</name>
                <description>MARIA M ABENDAÑO RAMIREZ DE TRONCOS
MZA. H LOTE. 3 A.H. JUAN VALER SAND
Piura
Piura
Piura
Perú</description>
                <styleUrl>#578</styleUrl>
                <Point id="576">
                    <coordinates>-80.6536488,-5.1709866,0.0</coordinates>
                </Point>
            </Placemark>
            <Placemark id="582">
                <name>LUSY JULCA MOROCHO</name>
                <description>MZ I LOTE 16 AAHH Juan valer
Piura
Piura
Piura
Perú</description>
                <styleUrl>#583</styleUrl>
                <Point id="581">
                    <coordinates>-80.6546375,-5.171714,0.0</coordinates>
                </Point>
            </Placemark>
            <Placemark id="587">
                <name>GLADYS AMELIA NAVARRO SULLON</name>
                <description>GLADYS AMELIA NAVARRO SULLON
URB.MORONI MZ B LT14- PIURA
Piura
Piura
Piura
Perú</description>
                <styleUrl>#588</styleUrl>
                <Point id="586">
                    <coordinates>-80.6549506,-5.1719427,0.0</coordinates>
                </Point>
            </Placemark>
            <Placemark id="592">
                <name>GLADYS AMELIA NAVARRO SULLON</name>
                <description>GLADYS AMELIA NAVARRO SULLON
URB.MORONI MZ B LT14- PIURA
Piura
Piura
Piura
Perú</description>
                <styleUrl>#593</styleUrl>
                <Point id="591">
                    <coordinates>-80.6549506,-5.1719427,0.0</coordinates>
                </Point>
            </Placemark>
            <Placemark id="597">
                <name>PEÑA ARRUNATEGUI MARGOT</name>
                <description>URB.PRIMAVERA MZ A LT 19      
Piura

Piura
Perú</description>
                <styleUrl>#598</styleUrl>
                <Point id="596">
                    <coordinates>-80.654088,-5.173388,0.0</coordinates>
                </Point>
            </Placemark>
            <Placemark id="602">
                <name>JOSELEHI CASTAÑEDA FLORES</name>
                <description>MZ B LOTE 31 URBANIZACION MORONI
Piura
Piura
Piura
Perú</description>
                <styleUrl>#603</styleUrl>
                <Point id="601">
                    <coordinates>-80.6557414,-5.1718045,0.0</coordinates>
                </Point>
            </Placemark>
            <Placemark id="607">
                <name>LOURDES CONCEPCION SANJINEZ TEMOCHE</name>
                <description>MZ.L LT.07 AH.JUAN VALER      
Piura
Piura
Piura
Perú</description>
                <styleUrl>#608</styleUrl>
                <Point id="606">
                    <coordinates>-80.6546839,-5.1700512,0.0</coordinates>
                </Point>
            </Placemark>
            <Placemark id="612">
                <name>SOFIA ANCAJIMA RUIZ</name>
                <description>SOFIA ANCAJIMA RUIZ
MZ.K LTE.29 JUAN VALER - 26 DE OCTUBRE PIURA
Piura
Piura
Piura
Perú</description>
                <styleUrl>#613</styleUrl>
                <Point id="611">
                    <coordinates>-80.655712,-5.1699156,0.0</coordinates>
                </Point>
            </Placemark>
            <Placemark id="617">
                <name>MARIA ALBERTINA AREVALO HEREDIA</name>
                <description>MZ.E LT.30 NESTOR MARTOS      
Veintiséis de Octubre

Piura
Perú</description>
                <styleUrl>#618</styleUrl>
                <Point id="616">
                    <coordinates>-80.657017,-5.168664,0.0</coordinates>
                </Point>
            </Placemark>
            <Placemark id="622">
                <name>CLAUDIA MEDALY RAMOS CALLE</name>
                <description>A.H.N.M.GARRIDO MZ.E LT.36    
Veintiséis de Octubre
Veintiséis de Octubre
Piura
Perú</description>
                <styleUrl>#623</styleUrl>
                <Point id="621">
                    <coordinates>-80.656928,-5.1685244,0.0</coordinates>
                </Point>
            </Placemark>
            <Placemark id="627">
                <name>MARIA ISABEL GUERRERO MARTINEZ</name>
                <description>MZ.E-27 AH NESTOR MARTOS GARRI
Veintiséis de Octubre
Veintiséis de Octubre
Piura
Perú</description>
                <styleUrl>#628</styleUrl>
                <Point id="626">
                    <coordinates>-80.6571852,-5.1688979,0.0</coordinates>
                </Point>
            </Placemark>
            <Placemark id="632">
                <name>EUFEMIA COBEÑAS AYALA</name>
                <description>MZ.A LT.40 NESTOR MARTOS      
Veintiséis de Octubre
Piura
Piura
Perú</description>
                <styleUrl>#633</styleUrl>
                <Point id="631">
                    <coordinates>-80.6560664,-5.1681707,0.0</coordinates>
                </Point>
            </Placemark>
            <Placemark id="637">
                <name>CALLE CUEVA ROSA MARLENY</name>
                <description>MZ B LT 46 ET-4 LOS ALGARROBO 
Piura

Piura
Perú</description>
                <styleUrl>#638</styleUrl>
                <Point id="636">
                    <coordinates>-80.6482249,-5.1695995,0.0</coordinates>
                </Point>
            </Placemark>
            <Placemark id="642">
                <name>YARLEQUE PALMA OLGA MERCEDES</name>
                <description>MZ A LT 21 NESTOR MARTOS      
Piura

Piura
Perú</description>
                <styleUrl>#643</styleUrl>
                <Point id="641">
                    <coordinates>-80.6549888,-5.1684674,0.0</coordinates>
                </Point>
            </Placemark>
            <Placemark id="647">
                <name>LICORERIA MELENDRES EIRL, EXCOR PIURA</name>
                <description>LICORERIA MELENDRES EIRL
EXCOR Piura AV ALGARROBOS CON CHULUCANAS MZ A LT 13
Veintiséis de Octubre
Veintiséis de Octubre
Piura
Perú</description>
                <styleUrl>#648</styleUrl>
                <Point id="646">
                    <coordinates>-80.6555749,-5.1678487,0.0</coordinates>
                </Point>
            </Placemark>
            <Placemark id="652">
                <name>VICENTE RUESTA NORMA</name>
                <description>VICENTE RUESTA NORMA
IV ETAPA F-6 LOS ALGARROBOS - 26 DE OCTUBRE
Veintiséis de Octubre
Piura
Piura
Perú</description>
                <styleUrl>#653</styleUrl>
                <Point id="651">
                    <coordinates>-80.6486657,-5.169587,0.0</coordinates>
                </Point>
            </Placemark>
            <Placemark id="657">
                <name>GEMA SANCHEZ TORRES</name>
                <description>MZ E LT.19 ETAPA 05 AH LOS A  
Piura
Piura
Piura
Perú</description>
                <styleUrl>#658</styleUrl>
                <Point id="656">
                    <coordinates>-80.650914,-5.169969,0.0</coordinates>
                </Point>
            </Placemark>
            <Placemark id="662">
                <name>VICENTE RUESTA NORMA</name>
                <description>VICENTE RUESTA NORMA
IV ETAPA F-6 LOS ALGARROBOS - 26 DE OCTUBRE
Veintiséis de Octubre
Piura
Piura
Perú</description>
                <styleUrl>#663</styleUrl>
                <Point id="661">
                    <coordinates>-80.6486657,-5.169587,0.0</coordinates>
                </Point>
            </Placemark>
            <Placemark id="667">
                <name>MARIA MARINA YUPANQUI DE OLIVARES</name>
                <description>A.H.LOS ALGARR.MZC LT.16 V ETP
Piura

Piura
Perú</description>
                <styleUrl>#668</styleUrl>
                <Point id="666">
                    <coordinates>-80.649712,-5.169136,0.0</coordinates>
                </Point>
            </Placemark>
            <Placemark id="672">
                <name>MARLENY RETO SANCHEZ</name>
                <description>MZ D lote 08 VI etapa AAHH los algarrobos
Piura
Piura
Piura
Perú</description>
                <styleUrl>#673</styleUrl>
                <Point id="671">
                    <coordinates>-80.65162,-5.169229,0.0</coordinates>
                </Point>
            </Placemark>
            <Placemark id="677">
                <name>MARIA HILDA REYES NEIRA</name>
                <description>MZ E LT. 29 AA. HH LOS ALGARROBOS VI ETAPA - PIURA
Veintiséis de Octubre
Piura
Piura
Perú</description>
                <styleUrl>#678</styleUrl>
                <Point id="676">
                    <coordinates>-80.6514635,-5.1691688,0.0</coordinates>
                </Point>
            </Placemark>
            <Placemark id="682">
                <name>JUNIOR NICOLAS TORRES SUAREZ</name>
                <description>Los Algarrobos MZ E lote 15 sexta etapa
Piura

Piura
Perú</description>
                <styleUrl>#683</styleUrl>
                <Point id="681">
                    <coordinates>-80.651325,-5.168606,0.0</coordinates>
                </Point>
            </Placemark>
            <Placemark id="687">
                <name>ESTERFILIA PEÑA LOPEZ</name>
                <description>MZ.H LT.22  VI ETP ALGARROBOS 
Piura
Piura
Piura
Perú</description>
                <styleUrl>#688</styleUrl>
                <Point id="686">
                    <coordinates>-80.651124,-5.1683216,0.0</coordinates>
                </Point>
            </Placemark>
            <Placemark id="692">
                <name>MERCY GARCIA RONDOY</name>
                <description>MZ.D LT.25 Upis villa Miranda
Piura
Piura
Piura
Perú</description>
                <styleUrl>#693</styleUrl>
                <Point id="691">
                    <coordinates>-80.6470841,-5.165594,0.0</coordinates>
                </Point>
            </Placemark>
            <Placemark id="697">
                <name>HERNANDEZ CHUMO LILIA LUZ</name>
                <description>MZ A LT 17 AH VILLA MIRANDA   
Piura

Piura
Perú</description>
                <styleUrl>#698</styleUrl>
                <Point id="696">
                    <coordinates>-80.6473896,-5.1648351,0.0</coordinates>
                </Point>
            </Placemark>
            <Placemark id="702">
                <name>AGUIRRE ARIRAMA LUZ ANITA</name>
                <description>A.H.VILLA MIRANDA MZ.C LT.8   
Piura

Piura
Perú</description>
                <styleUrl>#703</styleUrl>
                <Point id="701">
                    <coordinates>-80.646654,-5.165244,0.0</coordinates>
                </Point>
            </Placemark>
            <Placemark id="707">
                <name>MICAELA NAVARRO SANCHEZ</name>
                <description>MZ B LT. 01 URB. LOS JAZMINES
Piura

Piura
Perú</description>
                <styleUrl>#708</styleUrl>
                <Point id="706">
                    <coordinates>-80.6494566,-5.1666445,0.0</coordinates>
                </Point>
            </Placemark>
            <Placemark id="712">
                <name>LICORERIA MELENDRES EIRL, AVIFAP SAUCE</name>
                <description>LICORERIA MELENDRES EIRL
Av.jose Aguilar Santiesteban URB AVIFAP MZ B Lote 15.  26 DE OCTUBRE
Piura
Piura
Piura
Perú</description>
                <styleUrl>#713</styleUrl>
                <Point id="711">
                    <coordinates>-80.6469483,-5.1695835,0.0</coordinates>
                </Point>
            </Placemark>
        </Folder>
        <Folder id="716">
            <Style id="719">
                <IconStyle id="720">
                    <color>ffff0000</color>
                    <colorMode>normal</colorMode>
                    <scale>1</scale>
                    <heading>0</heading>
                    <Icon id="721">
                        <href>http://maps.google.com/mapfiles/kml/pushpin/ylw-pushpin.png</href>
                    </Icon>
                </IconStyle>
            </Style>
            <Style id="724">
                <IconStyle id="725">
                    <color>ffff0000</color>
                    <colorMode>normal</colorMode>
                    <scale>1</scale>
                    <heading>0</heading>
                    <Icon id="726">
                        <href>http://maps.google.com/mapfiles/kml/pushpin/ylw-pushpin.png</href>
                    </Icon>
                </IconStyle>
            </Style>
            <Style id="729">
                <IconStyle id="730">
                    <color>ffff0000</color>
                    <colorMode>normal</colorMode>
                    <scale>1</scale>
                    <heading>0</heading>
                    <Icon id="731">
                        <href>http://maps.google.com/mapfiles/kml/pushpin/ylw-pushpin.png</href>
                    </Icon>
                </IconStyle>
            </Style>
            <Style id="734">
                <IconStyle id="735">
                    <color>ffff0000</color>
                    <colorMode>normal</colorMode>
                    <scale>1</scale>
                    <heading>0</heading>
                    <Icon id="736">
                        <href>http://maps.google.com/mapfiles/kml/pushpin/ylw-pushpin.png</href>
                    </Icon>
                </IconStyle>
            </Style>
            <Style id="739">
                <IconStyle id="740">
                    <color>ffff0000</color>
                    <colorMode>normal</colorMode>
                    <scale>1</scale>
                    <heading>0</heading>
                    <Icon id="741">
                        <href>http://maps.google.com/mapfiles/kml/pushpin/ylw-pushpin.png</href>
                    </Icon>
                </IconStyle>
            </Style>
            <Style id="744">
                <IconStyle id="745">
                    <color>ffff0000</color>
                    <colorMode>normal</colorMode>
                    <scale>1</scale>
                    <heading>0</heading>
                    <Icon id="746">
                        <href>http://maps.google.com/mapfiles/kml/pushpin/ylw-pushpin.png</href>
                    </Icon>
                </IconStyle>
            </Style>
            <Style id="749">
                <IconStyle id="750">
                    <color>ffff0000</color>
                    <colorMode>normal</colorMode>
                    <scale>1</scale>
                    <heading>0</heading>
                    <Icon id="751">
                        <href>http://maps.google.com/mapfiles/kml/pushpin/ylw-pushpin.png</href>
                    </Icon>
                </IconStyle>
            </Style>
            <Style id="754">
                <IconStyle id="755">
                    <color>ffff0000</color>
                    <colorMode>normal</colorMode>
                    <scale>1</scale>
                    <heading>0</heading>
                    <Icon id="756">
                        <href>http://maps.google.com/mapfiles/kml/pushpin/ylw-pushpin.png</href>
                    </Icon>
                </IconStyle>
            </Style>
            <Style id="759">
                <IconStyle id="760">
                    <color>ffff0000</color>
                    <colorMode>normal</colorMode>
                    <scale>1</scale>
                    <heading>0</heading>
                    <Icon id="761">
                        <href>http://maps.google.com/mapfiles/kml/pushpin/ylw-pushpin.png</href>
                    </Icon>
                </IconStyle>
            </Style>
            <Style id="764">
                <IconStyle id="765">
                    <color>ffff0000</color>
                    <colorMode>normal</colorMode>
                    <scale>1</scale>
                    <heading>0</heading>
                    <Icon id="766">
                        <href>http://maps.google.com/mapfiles/kml/pushpin/ylw-pushpin.png</href>
                    </Icon>
                </IconStyle>
            </Style>
            <Style id="769">
                <IconStyle id="770">
                    <color>ffff0000</color>
                    <colorMode>normal</colorMode>
                    <scale>1</scale>
                    <heading>0</heading>
                    <Icon id="771">
                        <href>http://maps.google.com/mapfiles/kml/pushpin/ylw-pushpin.png</href>
                    </Icon>
                </IconStyle>
            </Style>
            <Style id="774">
                <IconStyle id="775">
                    <color>ffff0000</color>
                    <colorMode>normal</colorMode>
                    <scale>1</scale>
                    <heading>0</heading>
                    <Icon id="776">
                        <href>http://maps.google.com/mapfiles/kml/pushpin/ylw-pushpin.png</href>
                    </Icon>
                </IconStyle>
            </Style>
            <Style id="779">
                <IconStyle id="780">
                    <color>ffff0000</color>
                    <colorMode>normal</colorMode>
                    <scale>1</scale>
                    <heading>0</heading>
                    <Icon id="781">
                        <href>http://maps.google.com/mapfiles/kml/pushpin/ylw-pushpin.png</href>
                    </Icon>
                </IconStyle>
            </Style>
            <Style id="784">
                <IconStyle id="785">
                    <color>ffff0000</color>
                    <colorMode>normal</colorMode>
                    <scale>1</scale>
                    <heading>0</heading>
                    <Icon id="786">
                        <href>http://maps.google.com/mapfiles/kml/pushpin/ylw-pushpin.png</href>
                    </Icon>
                </IconStyle>
            </Style>
            <Style id="789">
                <IconStyle id="790">
                    <color>ffff0000</color>
                    <colorMode>normal</colorMode>
                    <scale>1</scale>
                    <heading>0</heading>
                    <Icon id="791">
                        <href>http://maps.google.com/mapfiles/kml/pushpin/ylw-pushpin.png</href>
                    </Icon>
                </IconStyle>
            </Style>
            <Style id="794">
                <IconStyle id="795">
                    <color>ffff0000</color>
                    <colorMode>normal</colorMode>
                    <scale>1</scale>
                    <heading>0</heading>
                    <Icon id="796">
                        <href>http://maps.google.com/mapfiles/kml/pushpin/ylw-pushpin.png</href>
                    </Icon>
                </IconStyle>
            </Style>
            <Style id="799">
                <IconStyle id="800">
                    <color>ffff0000</color>
                    <colorMode>normal</colorMode>
                    <scale>1</scale>
                    <heading>0</heading>
                    <Icon id="801">
                        <href>http://maps.google.com/mapfiles/kml/pushpin/ylw-pushpin.png</href>
                    </Icon>
                </IconStyle>
            </Style>
            <Style id="804">
                <IconStyle id="805">
                    <color>ffff0000</color>
                    <colorMode>normal</colorMode>
                    <scale>1</scale>
                    <heading>0</heading>
                    <Icon id="806">
                        <href>http://maps.google.com/mapfiles/kml/pushpin/ylw-pushpin.png</href>
                    </Icon>
                </IconStyle>
            </Style>
            <Style id="809">
                <IconStyle id="810">
                    <color>ffff0000</color>
                    <colorMode>normal</colorMode>
                    <scale>1</scale>
                    <heading>0</heading>
                    <Icon id="811">
                        <href>http://maps.google.com/mapfiles/kml/pushpin/ylw-pushpin.png</href>
                    </Icon>
                </IconStyle>
            </Style>
            <Style id="814">
                <IconStyle id="815">
                    <color>ffff0000</color>
                    <colorMode>normal</colorMode>
                    <scale>1</scale>
                    <heading>0</heading>
                    <Icon id="816">
                        <href>http://maps.google.com/mapfiles/kml/pushpin/ylw-pushpin.png</href>
                    </Icon>
                </IconStyle>
            </Style>
            <Style id="819">
                <IconStyle id="820">
                    <color>ffff0000</color>
                    <colorMode>normal</colorMode>
                    <scale>1</scale>
                    <heading>0</heading>
                    <Icon id="821">
                        <href>http://maps.google.com/mapfiles/kml/pushpin/ylw-pushpin.png</href>
                    </Icon>
                </IconStyle>
            </Style>
            <Style id="824">
                <IconStyle id="825">
                    <color>ffff0000</color>
                    <colorMode>normal</colorMode>
                    <scale>1</scale>
                    <heading>0</heading>
                    <Icon id="826">
                        <href>http://maps.google.com/mapfiles/kml/pushpin/ylw-pushpin.png</href>
                    </Icon>
                </IconStyle>
            </Style>
            <Style id="829">
                <IconStyle id="830">
                    <color>ffff0000</color>
                    <colorMode>normal</colorMode>
                    <scale>1</scale>
                    <heading>0</heading>
                    <Icon id="831">
                        <href>http://maps.google.com/mapfiles/kml/pushpin/ylw-pushpin.png</href>
                    </Icon>
                </IconStyle>
            </Style>
            <Style id="834">
                <IconStyle id="835">
                    <color>ffff0000</color>
                    <colorMode>normal</colorMode>
                    <scale>1</scale>
                    <heading>0</heading>
                    <Icon id="836">
                        <href>http://maps.google.com/mapfiles/kml/pushpin/ylw-pushpin.png</href>
                    </Icon>
                </IconStyle>
            </Style>
            <Style id="839">
                <IconStyle id="840">
                    <color>ffff0000</color>
                    <colorMode>normal</colorMode>
                    <scale>1</scale>
                    <heading>0</heading>
                    <Icon id="841">
                        <href>http://maps.google.com/mapfiles/kml/pushpin/ylw-pushpin.png</href>
                    </Icon>
                </IconStyle>
            </Style>
            <Style id="844">
                <IconStyle id="845">
                    <color>ffff0000</color>
                    <colorMode>normal</colorMode>
                    <scale>1</scale>
                    <heading>0</heading>
                    <Icon id="846">
                        <href>http://maps.google.com/mapfiles/kml/pushpin/ylw-pushpin.png</href>
                    </Icon>
                </IconStyle>
            </Style>
            <Style id="849">
                <IconStyle id="850">
                    <color>ffff0000</color>
                    <colorMode>normal</colorMode>
                    <scale>1</scale>
                    <heading>0</heading>
                    <Icon id="851">
                        <href>http://maps.google.com/mapfiles/kml/pushpin/ylw-pushpin.png</href>
                    </Icon>
                </IconStyle>
            </Style>
            <Style id="854">
                <IconStyle id="855">
                    <color>ffff0000</color>
                    <colorMode>normal</colorMode>
                    <scale>1</scale>
                    <heading>0</heading>
                    <Icon id="856">
                        <href>http://maps.google.com/mapfiles/kml/pushpin/ylw-pushpin.png</href>
                    </Icon>
                </IconStyle>
            </Style>
            <Style id="859">
                <IconStyle id="860">
                    <color>ffff0000</color>
                    <colorMode>normal</colorMode>
                    <scale>1</scale>
                    <heading>0</heading>
                    <Icon id="861">
                        <href>http://maps.google.com/mapfiles/kml/pushpin/ylw-pushpin.png</href>
                    </Icon>
                </IconStyle>
            </Style>
            <Style id="864">
                <IconStyle id="865">
                    <color>ffff0000</color>
                    <colorMode>normal</colorMode>
                    <scale>1</scale>
                    <heading>0</heading>
                    <Icon id="866">
                        <href>http://maps.google.com/mapfiles/kml/pushpin/ylw-pushpin.png</href>
                    </Icon>
                </IconStyle>
            </Style>
            <Style id="869">
                <IconStyle id="870">
                    <color>ffff0000</color>
                    <colorMode>normal</colorMode>
                    <scale>1</scale>
                    <heading>0</heading>
                    <Icon id="871">
                        <href>http://maps.google.com/mapfiles/kml/pushpin/ylw-pushpin.png</href>
                    </Icon>
                </IconStyle>
            </Style>
            <Style id="874">
                <IconStyle id="875">
                    <color>ffff0000</color>
                    <colorMode>normal</colorMode>
                    <scale>1</scale>
                    <heading>0</heading>
                    <Icon id="876">
                        <href>http://maps.google.com/mapfiles/kml/pushpin/ylw-pushpin.png</href>
                    </Icon>
                </IconStyle>
            </Style>
            <Style id="879">
                <IconStyle id="880">
                    <color>ffff0000</color>
                    <colorMode>normal</colorMode>
                    <scale>1</scale>
                    <heading>0</heading>
                    <Icon id="881">
                        <href>http://maps.google.com/mapfiles/kml/pushpin/ylw-pushpin.png</href>
                    </Icon>
                </IconStyle>
            </Style>
            <Style id="884">
                <IconStyle id="885">
                    <color>ffff0000</color>
                    <colorMode>normal</colorMode>
                    <scale>1</scale>
                    <heading>0</heading>
                    <Icon id="886">
                        <href>http://maps.google.com/mapfiles/kml/pushpin/ylw-pushpin.png</href>
                    </Icon>
                </IconStyle>
            </Style>
            <Style id="889">
                <IconStyle id="890">
                    <color>ffff0000</color>
                    <colorMode>normal</colorMode>
                    <scale>1</scale>
                    <heading>0</heading>
                    <Icon id="891">
                        <href>http://maps.google.com/mapfiles/kml/pushpin/ylw-pushpin.png</href>
                    </Icon>
                </IconStyle>
            </Style>
            <Style id="894">
                <IconStyle id="895">
                    <color>ffff0000</color>
                    <colorMode>normal</colorMode>
                    <scale>1</scale>
                    <heading>0</heading>
                    <Icon id="896">
                        <href>http://maps.google.com/mapfiles/kml/pushpin/ylw-pushpin.png</href>
                    </Icon>
                </IconStyle>
            </Style>
            <Style id="899">
                <IconStyle id="900">
                    <color>ffff0000</color>
                    <colorMode>normal</colorMode>
                    <scale>1</scale>
                    <heading>0</heading>
                    <Icon id="901">
                        <href>http://maps.google.com/mapfiles/kml/pushpin/ylw-pushpin.png</href>
                    </Icon>
                </IconStyle>
            </Style>
            <Style id="904">
                <IconStyle id="905">
                    <color>ffff0000</color>
                    <colorMode>normal</colorMode>
                    <scale>1</scale>
                    <heading>0</heading>
                    <Icon id="906">
                        <href>http://maps.google.com/mapfiles/kml/pushpin/ylw-pushpin.png</href>
                    </Icon>
                </IconStyle>
            </Style>
            <Style id="909">
                <IconStyle id="910">
                    <color>ffff0000</color>
                    <colorMode>normal</colorMode>
                    <scale>1</scale>
                    <heading>0</heading>
                    <Icon id="911">
                        <href>http://maps.google.com/mapfiles/kml/pushpin/ylw-pushpin.png</href>
                    </Icon>
                </IconStyle>
            </Style>
            <Style id="914">
                <IconStyle id="915">
                    <color>ffff0000</color>
                    <colorMode>normal</colorMode>
                    <scale>1</scale>
                    <heading>0</heading>
                    <Icon id="916">
                        <href>http://maps.google.com/mapfiles/kml/pushpin/ylw-pushpin.png</href>
                    </Icon>
                </IconStyle>
            </Style>
            <Style id="919">
                <IconStyle id="920">
                    <color>ffff0000</color>
                    <colorMode>normal</colorMode>
                    <scale>1</scale>
                    <heading>0</heading>
                    <Icon id="921">
                        <href>http://maps.google.com/mapfiles/kml/pushpin/ylw-pushpin.png</href>
                    </Icon>
                </IconStyle>
            </Style>
            <Style id="924">
                <IconStyle id="925">
                    <color>ffff0000</color>
                    <colorMode>normal</colorMode>
                    <scale>1</scale>
                    <heading>0</heading>
                    <Icon id="926">
                        <href>http://maps.google.com/mapfiles/kml/pushpin/ylw-pushpin.png</href>
                    </Icon>
                </IconStyle>
            </Style>
            <Style id="929">
                <IconStyle id="930">
                    <color>ffff0000</color>
                    <colorMode>normal</colorMode>
                    <scale>1</scale>
                    <heading>0</heading>
                    <Icon id="931">
                        <href>http://maps.google.com/mapfiles/kml/pushpin/ylw-pushpin.png</href>
                    </Icon>
                </IconStyle>
            </Style>
            <Style id="934">
                <IconStyle id="935">
                    <color>ffff0000</color>
                    <colorMode>normal</colorMode>
                    <scale>1</scale>
                    <heading>0</heading>
                    <Icon id="936">
                        <href>http://maps.google.com/mapfiles/kml/pushpin/ylw-pushpin.png</href>
                    </Icon>
                </IconStyle>
            </Style>
            <Style id="939">
                <IconStyle id="940">
                    <color>ffff0000</color>
                    <colorMode>normal</colorMode>
                    <scale>1</scale>
                    <heading>0</heading>
                    <Icon id="941">
                        <href>http://maps.google.com/mapfiles/kml/pushpin/ylw-pushpin.png</href>
                    </Icon>
                </IconStyle>
            </Style>
            <Style id="944">
                <IconStyle id="945">
                    <color>ffff0000</color>
                    <colorMode>normal</colorMode>
                    <scale>1</scale>
                    <heading>0</heading>
                    <Icon id="946">
                        <href>http://maps.google.com/mapfiles/kml/pushpin/ylw-pushpin.png</href>
                    </Icon>
                </IconStyle>
            </Style>
            <name>ZOILA ALBERTINA DE JESUS MORANTE CARRASCO</name>
            <Placemark id="718">
                <name>NORMA BAUTISTA CARDOZA</name>
                <description>E-17 ET1 LOS ALGARROBOS Piura 
Piura
Piura
Piura
Perú</description>
                <styleUrl>#719</styleUrl>
                <Point id="717">
                    <coordinates>-80.6478196,-5.1723721,0.0</coordinates>
                </Point>
            </Placemark>
            <Placemark id="723">
                <name>LICORERIA MELENDRES EIRL, EL TREBOL</name>
                <description>LICORERIA MELENDRES EIRL
MZN E LOTE 27 URB. EL TREBOL REFERENCIA FRENTE AL LADO DEL FANTASÍA
Piura
Piura
Piura
Perú</description>
                <styleUrl>#724</styleUrl>
                <Point id="722">
                    <coordinates>-80.6447799,-5.1816365,0.0</coordinates>
                </Point>
            </Placemark>
            <Placemark id="728">
                <name>LIDAR LOPEZ CRUZ</name>
                <description>ALGARROBOS MZ F LT 15 III ET  
Piura
Piura
Piura
Perú</description>
                <styleUrl>#729</styleUrl>
                <Point id="727">
                    <coordinates>-80.645387,-5.1763396,0.0</coordinates>
                </Point>
            </Placemark>
            <Placemark id="733">
                <name>LIDAR LOPEZ CRUZ</name>
                <description>ALGARROBOS MZ F LT 15 III ET  
Piura
Piura
Piura
Perú</description>
                <styleUrl>#734</styleUrl>
                <Point id="732">
                    <coordinates>-80.645387,-5.1763396,0.0</coordinates>
                </Point>
            </Placemark>
            <Placemark id="738">
                <name>JOSE VICENTE SEMINARIO VARGAS</name>
                <description>Urbanización Ignacio Merino MZ N lote 19 primera etapa
Piura
Piura
Piura
Perú</description>
                <styleUrl>#739</styleUrl>
                <Point id="737">
                    <coordinates>-80.6428444,-5.1775269,0.0</coordinates>
                </Point>
            </Placemark>
            <Placemark id="743">
                <name>JOSE VICENTE SEMINARIO VARGAS</name>
                <description>Urbanización Ignacio Merino MZ N lote 19 primera etapa
Piura
Piura
Piura
Perú</description>
                <styleUrl>#744</styleUrl>
                <Point id="742">
                    <coordinates>-80.6428444,-5.1775269,0.0</coordinates>
                </Point>
            </Placemark>
            <Placemark id="748">
                <name>MARIA DELICIA GONZALES DE VILCHEZ</name>
                <description>AA. HH LOS ALGARROBOS I MZ T LT 5
Piura
Piura
Piura
Perú</description>
                <styleUrl>#749</styleUrl>
                <Point id="747">
                    <coordinates>-80.6489146,-5.1753126,0.0</coordinates>
                </Point>
            </Placemark>
            <Placemark id="753">
                <name>PACHERRE ABAD JESSICA DEL PILAR</name>
                <description>MZ I LT. 25 AA. HH LOS ALGARROBOS IETAPA PIURA
Piura
Piura
Piura
Perú</description>
                <styleUrl>#754</styleUrl>
                <Point id="752">
                    <coordinates>-80.6491285,-5.1740532,0.0</coordinates>
                </Point>
            </Placemark>
            <Placemark id="758">
                <name>PACHERRE ABAD JESSICA DEL PILAR</name>
                <description>MZ I LT. 25 AA. HH LOS ALGARROBOS IETAPA PIURA
Piura
Piura
Piura
Perú</description>
                <styleUrl>#759</styleUrl>
                <Point id="757">
                    <coordinates>-80.6491285,-5.1740532,0.0</coordinates>
                </Point>
            </Placemark>
            <Placemark id="763">
                <name>NATIVIDAD SAUCEDO AYOSA</name>
                <description>NATIVIDAD SAUCEDO AYOSA
MZ J LTE.15 I ETAPA LOS ALGARROBOS
Piura
Piura
Piura
Perú</description>
                <styleUrl>#764</styleUrl>
                <Point id="762">
                    <coordinates>-80.6491405,-5.1739659,0.0</coordinates>
                </Point>
            </Placemark>
            <Placemark id="768">
                <name>MARTINEZ PEÑA MARIA GENARA</name>
                <description>MZ N-08 ET 1 AH LOS ALGARROBOS
Piura
Piura
Piura
Perú</description>
                <styleUrl>#769</styleUrl>
                <Point id="767">
                    <coordinates>-80.645503,-5.173875,0.0</coordinates>
                </Point>
            </Placemark>
            <Placemark id="773">
                <name>LIZBETH JANET VILELA JIMENEZ</name>
                <description>Urbanización Ignacio Merino MZ Q lote 40
Piura
Piura
Piura
Perú</description>
                <styleUrl>#774</styleUrl>
                <Point id="772">
                    <coordinates>-80.6415718,-5.1800557,0.0</coordinates>
                </Point>
            </Placemark>
            <Placemark id="778">
                <name>ROSA ELENA AMAYO FUENTES</name>
                <description>Q1-42 ET 1 URB IGNACIO MERINO 
Piura
Piura
Piura
Perú</description>
                <styleUrl>#779</styleUrl>
                <Point id="777">
                    <coordinates>-80.6419212,-5.1775859,0.0</coordinates>
                </Point>
            </Placemark>
            <Placemark id="783">
                <name>KARLA GISELLA CANCINO REYES</name>
                <description>KARLA GISELLA CANCINO REYES
MZ W1 LT. 11 URB. IGNACIO MERINO IETAPA - PIURA
Piura
Piura
Piura
Perú</description>
                <styleUrl>#784</styleUrl>
                <Point id="782">
                    <coordinates>-80.6426951,-5.1760521,0.0</coordinates>
                </Point>
            </Placemark>
            <Placemark id="788">
                <name>MERCADO PIURANO E.I.R.L.,BELLO HORIZONTE</name>
                <description>MERCADO PIURANO E.I.R.L.,BELLO HORIZONTE
URB. BELLO HORIZONTE B3 lote 12A
Piura
Piura
Piura
Perú</description>
                <styleUrl>#789</styleUrl>
                <Point id="787">
                    <coordinates>-80.6467354,-5.1795366,0.0</coordinates>
                </Point>
            </Placemark>
            <Placemark id="793">
                <name>JOSE FERNANDO BUSTAMANTE SANCHEZ</name>
                <description>AV. LOS INCAS A-37 URB. NORVISOL -
Piura
Piura
Piura
Perú</description>
                <styleUrl>#794</styleUrl>
                <Point id="792">
                    <coordinates>-80.6466453,-5.1796754,0.0</coordinates>
                </Point>
            </Placemark>
            <Placemark id="798">
                <name>MELBA CHUMACERO RUIZ</name>
                <description>MELBA CHUMACERO RUIZ
MZ C LT 3 URB.NORVISOL - PIURA
Piura
Piura
Piura
Perú</description>
                <styleUrl>#799</styleUrl>
                <Point id="797">
                    <coordinates>-80.6461388,-5.1782231,0.0</coordinates>
                </Point>
            </Placemark>
            <Placemark id="803">
                <name>SOCORRO ISABEL SALDARRIAGA CRUZ</name>
                <description>MZ B LT 14 I ETAPA IGNACIO MER
Piura
Piura
Piura
Perú</description>
                <styleUrl>#804</styleUrl>
                <Point id="802">
                    <coordinates>-80.6459629,-5.1783156,0.0</coordinates>
                </Point>
            </Placemark>
            <Placemark id="808">
                <name>SOCORRO ISABEL SALDARRIAGA CRUZ</name>
                <description>MZ B LT 14 I ETAPA IGNACIO MER
Piura
Piura
Piura
Perú</description>
                <styleUrl>#809</styleUrl>
                <Point id="807">
                    <coordinates>-80.6459629,-5.1783156,0.0</coordinates>
                </Point>
            </Placemark>
            <Placemark id="813">
                <name>CORINA AURORA LOPEZ RUESTA</name>
                <description>CORINA AURORA LOPEZ RUESTA
MZ H1 LT 2A I ETAPA IGN.MERINO PIUR
Piura
Piura
Piura
Perú</description>
                <styleUrl>#814</styleUrl>
                <Point id="812">
                    <coordinates>-80.6442728,-5.1776286,0.0</coordinates>
                </Point>
            </Placemark>
            <Placemark id="818">
                <name>VALCAZ CORPORATION E.I.R.L.</name>
                <description>BL. F NRO. 101 URB. IGNACIO MERINO 1ERA ETAPA
Piura
200101Piura
Piura
Perú</description>
                <styleUrl>#819</styleUrl>
                <Point id="817">
                    <coordinates>-80.6426178,-5.1784937,0.0</coordinates>
                </Point>
            </Placemark>
            <Placemark id="823">
                <name>MARLENE AURELIA MOYA OLAYA</name>
                <description>URB.I.MERINO MZ.N LT.33 2ET   
Piura
Piura
Piura
Perú</description>
                <styleUrl>#824</styleUrl>
                <Point id="822">
                    <coordinates>-80.6436565,-5.1797634,0.0</coordinates>
                </Point>
            </Placemark>
            <Placemark id="828">
                <name>MANUEL JESUS MINES VILLAR</name>
                <description>MANUEL JESUS MINES VILLAR
O-24 2DA. ETAPA IGNACIO MERINO PIUR
Piura
Piura
Piura
Perú</description>
                <styleUrl>#829</styleUrl>
                <Point id="827">
                    <coordinates>-80.6432626,-5.180391,0.0</coordinates>
                </Point>
            </Placemark>
            <Placemark id="833">
                <name>CRUZ MARIA NEYRA CARDOZA</name>
                <description>CRUZ MARIA NEYRA CARDOZA
IG. MERINO MZM L.45 2DA.ETAPA PIURA
Piura
Piura
Piura
Perú</description>
                <styleUrl>#834</styleUrl>
                <Point id="832">
                    <coordinates>-80.6431172,-5.1807698,0.0</coordinates>
                </Point>
            </Placemark>
            <Placemark id="838">
                <name>MALDONADO DE PINZON BLANCA RICARDIN</name>
                <description>MALDONADO DE PINZON BLANCA RICARDIN
URB.IG. MERINO II ETAPA MZ O LTE.15- PIURA
Piura
Piura
Piura
Perú</description>
                <styleUrl>#839</styleUrl>
                <Point id="837">
                    <coordinates>-80.6428117,-5.1801395,0.0</coordinates>
                </Point>
            </Placemark>
            <Placemark id="843">
                <name>CRUZ MARIA NEYRA CARDOZA</name>
                <description>CRUZ MARIA NEYRA CARDOZA
IG. MERINO MZM L.45 2DA.ETAPA PIURA
Piura
Piura
Piura
Perú</description>
                <styleUrl>#844</styleUrl>
                <Point id="842">
                    <coordinates>-80.6431172,-5.1807698,0.0</coordinates>
                </Point>
            </Placemark>
            <Placemark id="848">
                <name>EDISON PINTADO RUIZ</name>
                <description>EDISON PINTADO RUIZ
MZ C LT. 01 URB. IGNACIO MERINO 2 ETAPA - PIURA
Piura
Piura
Piura
Perú</description>
                <styleUrl>#849</styleUrl>
                <Point id="847">
                    <coordinates>-80.6411805,-5.1814671,0.0</coordinates>
                </Point>
            </Placemark>
            <Placemark id="853">
                <name>EDISON PINTADO RUIZ</name>
                <description>EDISON PINTADO RUIZ
MZ C LT. 01 URB. IGNACIO MERINO 2 ETAPA - PIURA
Piura
Piura
Piura
Perú</description>
                <styleUrl>#854</styleUrl>
                <Point id="852">
                    <coordinates>-80.6411805,-5.1814671,0.0</coordinates>
                </Point>
            </Placemark>
            <Placemark id="858">
                <name>MYRIAN MERCEDES VIGNOLO MACHADO</name>
                <description>MYRIAN MERCEDES VIGNOLO MACHADO
AV.VICE/A.CACERES MZ B1 LT 1 URBANIZACIÓN SAN RAMON
Piura
Piura
Piura
Perú</description>
                <styleUrl>#859</styleUrl>
                <Point id="857">
                    <coordinates>-80.6400168,-5.1824852,0.0</coordinates>
                </Point>
            </Placemark>
            <Placemark id="863">
                <name>ANA MABE ADRIANZEN VARGAS DE TORRES</name>
                <description>ANA MABE ADRIANZEN VARGAS DE TORRES
URB.SAN RAMON MZ C2 LT 9 PIURA
Piura
Piura
Piura
Perú</description>
                <styleUrl>#864</styleUrl>
                <Point id="862">
                    <coordinates>-80.6363986,-5.1832448,0.0</coordinates>
                </Point>
            </Placemark>
            <Placemark id="868">
                <name>INVERSIONES FACUNDO EMPRESA INDIVIDUAL DE RESPONSABILIDAD LIMITADA</name>
                <description>MZA. B LOTE. 14 A.H.  Urbanización San Ramón
Piura
200101Piura
Piura
Perú</description>
                <styleUrl>#869</styleUrl>
                <Point id="867">
                    <coordinates>-80.6361552,-5.1847958,0.0</coordinates>
                </Point>
            </Placemark>
            <Placemark id="873">
                <name>MAGNE YOHANY AGURTO ARIAS</name>
                <description>MAGNE YOHANY AGURTO ARIAS
A2-24 SAN RAMON PIURA INTERIOR 1
Piura
Piura
Piura
Perú</description>
                <styleUrl>#874</styleUrl>
                <Point id="872">
                    <coordinates>-80.6380095,-5.1832668,0.0</coordinates>
                </Point>
            </Placemark>
            <Placemark id="878">
                <name>MIRIAN SOLEDAD QUINDE CORDOVA</name>
                <description>MZ A2 LT-24-B URB. SAN RAMON - PIUR
Piura
Piura
Piura
Perú</description>
                <styleUrl>#879</styleUrl>
                <Point id="877">
                    <coordinates>-80.6379361,-5.1830647,0.0</coordinates>
                </Point>
            </Placemark>
            <Placemark id="883">
                <name>GALVAN DE RUIZ ROSA OLIMPIA</name>
                <description>MZ C1 LT-20 SAN RAMON PIURA
Piura
Piura
Piura
Perú</description>
                <styleUrl>#884</styleUrl>
                <Point id="882">
                    <coordinates>-80.6386423,-5.1828497,0.0</coordinates>
                </Point>
            </Placemark>
            <Placemark id="888">
                <name>LESLY ABIGAIL ACHA PANTA</name>
                <description>Interior de Transporte Gechissa referencia GiL Gal Cargo
Piura
Piura
Piura
Perú</description>
                <styleUrl>#889</styleUrl>
                <Point id="887">
                    <coordinates>-80.65191,-5.182435,0.0</coordinates>
                </Point>
            </Placemark>
            <Placemark id="893">
                <name>DALIA KATHERINE FLORES HERRERA</name>
                <description>Intenrior de transporte Gechissa referencia almcostado del transporte El sol
Veintiséis de Octubre

Piura
Perú</description>
                <styleUrl>#894</styleUrl>
                <Point id="892">
                    <coordinates>-80.652168,-5.183068,0.0</coordinates>
                </Point>
            </Placemark>
            <Placemark id="898">
                <name>MICKOL ADHEMIR PEREYRA TORRES</name>
                <description>Calle libertad 528 Castilla Piura
Castilla

Piura
Perú</description>
                <styleUrl>#899</styleUrl>
                <Point id="897">
                    <coordinates>-81.23,-5.81,0.0</coordinates>
                </Point>
            </Placemark>
            <Placemark id="903">
                <name>DENYS LIZETT SEMINARIO SAAVEDRA</name>
                <description>AA. HH LOS ALGARROBOS MZ D LT. 1 II
Piura
Piura
Piura
Perú</description>
                <styleUrl>#904</styleUrl>
                <Point id="902">
                    <coordinates>-80.6469209,-5.17644,0.0</coordinates>
                </Point>
            </Placemark>
            <Placemark id="908">
                <name>YELINA ANALY TORRES ZAPATA</name>
                <description>Urbanización Ignacio Merino MZ C lote 9 segunda etapa Av Principal v
Piura
Piura
Piura
Perú</description>
                <styleUrl>#909</styleUrl>
                <Point id="907">
                    <coordinates>-80.6414465,-5.1810763,0.0</coordinates>
                </Point>
            </Placemark>
            <Placemark id="913">
                <name>MARIO ALONSO ZAPATA RIOS</name>
                <description>MZN c lote 22 Asentamiento humano Los Algarrobos 3era. Etapa
Piura

Piura
Perú</description>
                <styleUrl>#914</styleUrl>
                <Point id="912">
                    <coordinates>-80.6471956,-5.1760664,0.0</coordinates>
                </Point>
            </Placemark>
            <Placemark id="918">
                <name>ESTRADA DE CHUNGA LEONOR GRISELDA</name>
                <description>ESTRADA DE CHUNGA LEONOR GRISELDA
BELLO HORIZONTE MZ D1 LTE.15 I ETAP
Piura
Piura
Piura
Perú</description>
                <styleUrl>#919</styleUrl>
                <Point id="917">
                    <coordinates>-80.6514028,-5.179126,0.0</coordinates>
                </Point>
            </Placemark>
            <Placemark id="923">
                <name>CESAR AGUSTO ALTAMIRANO DIOSES</name>
                <description>MZ-C LT-16 URB.BANCARIA  2-ETPAPA - PIURA
Piura
Piura
Piura
Perú</description>
                <styleUrl>#924</styleUrl>
                <Point id="922">
                    <coordinates>-80.6546432,-5.1757577,0.0</coordinates>
                </Point>
            </Placemark>
            <Placemark id="928">
                <name>LOURDES RAQUEL CORDOVA HERMIDA</name>
                <description>MZ A 03 URB HERMANOS CARCAMO  
Piura
Piura
Piura
Perú</description>
                <styleUrl>#929</styleUrl>
                <Point id="927">
                    <coordinates>-80.6514564,-5.1763904,0.0</coordinates>
                </Point>
            </Placemark>
            <Placemark id="933">
                <name>ANGEL ACARO MONTALBAN</name>
                <description>URB.21 AGOSTO MZ.C LT.19      
Piura
Piura
Piura
Perú</description>
                <styleUrl>#934</styleUrl>
                <Point id="932">
                    <coordinates>-80.6494011,-5.1763176,0.0</coordinates>
                </Point>
            </Placemark>
            <Placemark id="938">
                <name>TEODORA RAQUEL ATOCHE RIVERA</name>
                <description>TEODORA RAQUEL ATOCHE RIVERA
MZ U1 LTE.2 I ETAPA LOS ALGARROBOS- PIURA
Piura
Piura
Piura
Perú</description>
                <styleUrl>#939</styleUrl>
                <Point id="937">
                    <coordinates>-80.6483103,-5.1756081,0.0</coordinates>
                </Point>
            </Placemark>
            <Placemark id="943">
                <name>SILVIA AYOSA SILVA</name>
                <description>Aahh los Algarrobos MZ E lote 10 tercera etapa frente a la posta
Piura
Piura
Piura
Perú</description>
                <styleUrl>#944</styleUrl>
                <Point id="942">
                    <coordinates>-80.646242,-5.1752528,0.0</coordinates>
                </Point>
            </Placemark>
        </Folder>
    </Document>
</kml>
