<?xml version="1.0" encoding="UTF-8"?>
<kml xmlns="http://www.opengis.net/kml/2.2" xmlns:gx="http://www.google.com/kml/ext/2.2">
    <Document id="1048">
        <Folder id="1049">
            <Style id="1052">
                <IconStyle id="1053">
                    <color>ff0000ff</color>
                    <colorMode>normal</colorMode>
                    <scale>1</scale>
                    <heading>0</heading>
                    <Icon id="1054">
                        <href>http://maps.google.com/mapfiles/kml/pushpin/ylw-pushpin.png</href>
                    </Icon>
                </IconStyle>
            </Style>
            <Style id="1057">
                <IconStyle id="1058">
                    <color>ff0000ff</color>
                    <colorMode>normal</colorMode>
                    <scale>1</scale>
                    <heading>0</heading>
                    <Icon id="1059">
                        <href>http://maps.google.com/mapfiles/kml/pushpin/ylw-pushpin.png</href>
                    </Icon>
                </IconStyle>
            </Style>
            <Style id="1062">
                <IconStyle id="1063">
                    <color>ff0000ff</color>
                    <colorMode>normal</colorMode>
                    <scale>1</scale>
                    <heading>0</heading>
                    <Icon id="1064">
                        <href>http://maps.google.com/mapfiles/kml/pushpin/ylw-pushpin.png</href>
                    </Icon>
                </IconStyle>
            </Style>
            <Style id="1067">
                <IconStyle id="1068">
                    <color>ff0000ff</color>
                    <colorMode>normal</colorMode>
                    <scale>1</scale>
                    <heading>0</heading>
                    <Icon id="1069">
                        <href>http://maps.google.com/mapfiles/kml/pushpin/ylw-pushpin.png</href>
                    </Icon>
                </IconStyle>
            </Style>
            <Style id="1072">
                <IconStyle id="1073">
                    <color>ff0000ff</color>
                    <colorMode>normal</colorMode>
                    <scale>1</scale>
                    <heading>0</heading>
                    <Icon id="1074">
                        <href>http://maps.google.com/mapfiles/kml/pushpin/ylw-pushpin.png</href>
                    </Icon>
                </IconStyle>
            </Style>
            <Style id="1077">
                <IconStyle id="1078">
                    <color>ff0000ff</color>
                    <colorMode>normal</colorMode>
                    <scale>1</scale>
                    <heading>0</heading>
                    <Icon id="1079">
                        <href>http://maps.google.com/mapfiles/kml/pushpin/ylw-pushpin.png</href>
                    </Icon>
                </IconStyle>
            </Style>
            <Style id="1082">
                <IconStyle id="1083">
                    <color>ff0000ff</color>
                    <colorMode>normal</colorMode>
                    <scale>1</scale>
                    <heading>0</heading>
                    <Icon id="1084">
                        <href>http://maps.google.com/mapfiles/kml/pushpin/ylw-pushpin.png</href>
                    </Icon>
                </IconStyle>
            </Style>
            <Style id="1087">
                <IconStyle id="1088">
                    <color>ff0000ff</color>
                    <colorMode>normal</colorMode>
                    <scale>1</scale>
                    <heading>0</heading>
                    <Icon id="1089">
                        <href>http://maps.google.com/mapfiles/kml/pushpin/ylw-pushpin.png</href>
                    </Icon>
                </IconStyle>
            </Style>
            <Style id="1092">
                <IconStyle id="1093">
                    <color>ff0000ff</color>
                    <colorMode>normal</colorMode>
                    <scale>1</scale>
                    <heading>0</heading>
                    <Icon id="1094">
                        <href>http://maps.google.com/mapfiles/kml/pushpin/ylw-pushpin.png</href>
                    </Icon>
                </IconStyle>
            </Style>
            <Style id="1097">
                <IconStyle id="1098">
                    <color>ff0000ff</color>
                    <colorMode>normal</colorMode>
                    <scale>1</scale>
                    <heading>0</heading>
                    <Icon id="1099">
                        <href>http://maps.google.com/mapfiles/kml/pushpin/ylw-pushpin.png</href>
                    </Icon>
                </IconStyle>
            </Style>
            <Style id="1102">
                <IconStyle id="1103">
                    <color>ff0000ff</color>
                    <colorMode>normal</colorMode>
                    <scale>1</scale>
                    <heading>0</heading>
                    <Icon id="1104">
                        <href>http://maps.google.com/mapfiles/kml/pushpin/ylw-pushpin.png</href>
                    </Icon>
                </IconStyle>
            </Style>
            <Style id="1107">
                <IconStyle id="1108">
                    <color>ff0000ff</color>
                    <colorMode>normal</colorMode>
                    <scale>1</scale>
                    <heading>0</heading>
                    <Icon id="1109">
                        <href>http://maps.google.com/mapfiles/kml/pushpin/ylw-pushpin.png</href>
                    </Icon>
                </IconStyle>
            </Style>
            <Style id="1112">
                <IconStyle id="1113">
                    <color>ff0000ff</color>
                    <colorMode>normal</colorMode>
                    <scale>1</scale>
                    <heading>0</heading>
                    <Icon id="1114">
                        <href>http://maps.google.com/mapfiles/kml/pushpin/ylw-pushpin.png</href>
                    </Icon>
                </IconStyle>
            </Style>
            <Style id="1117">
                <IconStyle id="1118">
                    <color>ff0000ff</color>
                    <colorMode>normal</colorMode>
                    <scale>1</scale>
                    <heading>0</heading>
                    <Icon id="1119">
                        <href>http://maps.google.com/mapfiles/kml/pushpin/ylw-pushpin.png</href>
                    </Icon>
                </IconStyle>
            </Style>
            <Style id="1122">
                <IconStyle id="1123">
                    <color>ff0000ff</color>
                    <colorMode>normal</colorMode>
                    <scale>1</scale>
                    <heading>0</heading>
                    <Icon id="1124">
                        <href>http://maps.google.com/mapfiles/kml/pushpin/ylw-pushpin.png</href>
                    </Icon>
                </IconStyle>
            </Style>
            <Style id="1127">
                <IconStyle id="1128">
                    <color>ff0000ff</color>
                    <colorMode>normal</colorMode>
                    <scale>1</scale>
                    <heading>0</heading>
                    <Icon id="1129">
                        <href>http://maps.google.com/mapfiles/kml/pushpin/ylw-pushpin.png</href>
                    </Icon>
                </IconStyle>
            </Style>
            <Style id="1132">
                <IconStyle id="1133">
                    <color>ff0000ff</color>
                    <colorMode>normal</colorMode>
                    <scale>1</scale>
                    <heading>0</heading>
                    <Icon id="1134">
                        <href>http://maps.google.com/mapfiles/kml/pushpin/ylw-pushpin.png</href>
                    </Icon>
                </IconStyle>
            </Style>
            <Style id="1137">
                <IconStyle id="1138">
                    <color>ff0000ff</color>
                    <colorMode>normal</colorMode>
                    <scale>1</scale>
                    <heading>0</heading>
                    <Icon id="1139">
                        <href>http://maps.google.com/mapfiles/kml/pushpin/ylw-pushpin.png</href>
                    </Icon>
                </IconStyle>
            </Style>
            <Style id="1142">
                <IconStyle id="1143">
                    <color>ff0000ff</color>
                    <colorMode>normal</colorMode>
                    <scale>1</scale>
                    <heading>0</heading>
                    <Icon id="1144">
                        <href>http://maps.google.com/mapfiles/kml/pushpin/ylw-pushpin.png</href>
                    </Icon>
                </IconStyle>
            </Style>
            <Style id="1147">
                <IconStyle id="1148">
                    <color>ff0000ff</color>
                    <colorMode>normal</colorMode>
                    <scale>1</scale>
                    <heading>0</heading>
                    <Icon id="1149">
                        <href>http://maps.google.com/mapfiles/kml/pushpin/ylw-pushpin.png</href>
                    </Icon>
                </IconStyle>
            </Style>
            <Style id="1152">
                <IconStyle id="1153">
                    <color>ff0000ff</color>
                    <colorMode>normal</colorMode>
                    <scale>1</scale>
                    <heading>0</heading>
                    <Icon id="1154">
                        <href>http://maps.google.com/mapfiles/kml/pushpin/ylw-pushpin.png</href>
                    </Icon>
                </IconStyle>
            </Style>
            <Style id="1157">
                <IconStyle id="1158">
                    <color>ff0000ff</color>
                    <colorMode>normal</colorMode>
                    <scale>1</scale>
                    <heading>0</heading>
                    <Icon id="1159">
                        <href>http://maps.google.com/mapfiles/kml/pushpin/ylw-pushpin.png</href>
                    </Icon>
                </IconStyle>
            </Style>
            <Style id="1162">
                <IconStyle id="1163">
                    <color>ff0000ff</color>
                    <colorMode>normal</colorMode>
                    <scale>1</scale>
                    <heading>0</heading>
                    <Icon id="1164">
                        <href>http://maps.google.com/mapfiles/kml/pushpin/ylw-pushpin.png</href>
                    </Icon>
                </IconStyle>
            </Style>
            <Style id="1167">
                <IconStyle id="1168">
                    <color>ff0000ff</color>
                    <colorMode>normal</colorMode>
                    <scale>1</scale>
                    <heading>0</heading>
                    <Icon id="1169">
                        <href>http://maps.google.com/mapfiles/kml/pushpin/ylw-pushpin.png</href>
                    </Icon>
                </IconStyle>
            </Style>
            <Style id="1172">
                <IconStyle id="1173">
                    <color>ff0000ff</color>
                    <colorMode>normal</colorMode>
                    <scale>1</scale>
                    <heading>0</heading>
                    <Icon id="1174">
                        <href>http://maps.google.com/mapfiles/kml/pushpin/ylw-pushpin.png</href>
                    </Icon>
                </IconStyle>
            </Style>
            <Style id="1177">
                <IconStyle id="1178">
                    <color>ff0000ff</color>
                    <colorMode>normal</colorMode>
                    <scale>1</scale>
                    <heading>0</heading>
                    <Icon id="1179">
                        <href>http://maps.google.com/mapfiles/kml/pushpin/ylw-pushpin.png</href>
                    </Icon>
                </IconStyle>
            </Style>
            <Style id="1182">
                <IconStyle id="1183">
                    <color>ff0000ff</color>
                    <colorMode>normal</colorMode>
                    <scale>1</scale>
                    <heading>0</heading>
                    <Icon id="1184">
                        <href>http://maps.google.com/mapfiles/kml/pushpin/ylw-pushpin.png</href>
                    </Icon>
                </IconStyle>
            </Style>
            <Style id="1187">
                <IconStyle id="1188">
                    <color>ff0000ff</color>
                    <colorMode>normal</colorMode>
                    <scale>1</scale>
                    <heading>0</heading>
                    <Icon id="1189">
                        <href>http://maps.google.com/mapfiles/kml/pushpin/ylw-pushpin.png</href>
                    </Icon>
                </IconStyle>
            </Style>
            <Style id="1192">
                <IconStyle id="1193">
                    <color>ff0000ff</color>
                    <colorMode>normal</colorMode>
                    <scale>1</scale>
                    <heading>0</heading>
                    <Icon id="1194">
                        <href>http://maps.google.com/mapfiles/kml/pushpin/ylw-pushpin.png</href>
                    </Icon>
                </IconStyle>
            </Style>
            <Style id="1197">
                <IconStyle id="1198">
                    <color>ff0000ff</color>
                    <colorMode>normal</colorMode>
                    <scale>1</scale>
                    <heading>0</heading>
                    <Icon id="1199">
                        <href>http://maps.google.com/mapfiles/kml/pushpin/ylw-pushpin.png</href>
                    </Icon>
                </IconStyle>
            </Style>
            <Style id="1202">
                <IconStyle id="1203">
                    <color>ff0000ff</color>
                    <colorMode>normal</colorMode>
                    <scale>1</scale>
                    <heading>0</heading>
                    <Icon id="1204">
                        <href>http://maps.google.com/mapfiles/kml/pushpin/ylw-pushpin.png</href>
                    </Icon>
                </IconStyle>
            </Style>
            <Style id="1207">
                <IconStyle id="1208">
                    <color>ff0000ff</color>
                    <colorMode>normal</colorMode>
                    <scale>1</scale>
                    <heading>0</heading>
                    <Icon id="1209">
                        <href>http://maps.google.com/mapfiles/kml/pushpin/ylw-pushpin.png</href>
                    </Icon>
                </IconStyle>
            </Style>
            <Style id="1212">
                <IconStyle id="1213">
                    <color>ff0000ff</color>
                    <colorMode>normal</colorMode>
                    <scale>1</scale>
                    <heading>0</heading>
                    <Icon id="1214">
                        <href>http://maps.google.com/mapfiles/kml/pushpin/ylw-pushpin.png</href>
                    </Icon>
                </IconStyle>
            </Style>
            <Style id="1217">
                <IconStyle id="1218">
                    <color>ff0000ff</color>
                    <colorMode>normal</colorMode>
                    <scale>1</scale>
                    <heading>0</heading>
                    <Icon id="1219">
                        <href>http://maps.google.com/mapfiles/kml/pushpin/ylw-pushpin.png</href>
                    </Icon>
                </IconStyle>
            </Style>
            <Style id="1222">
                <IconStyle id="1223">
                    <color>ff0000ff</color>
                    <colorMode>normal</colorMode>
                    <scale>1</scale>
                    <heading>0</heading>
                    <Icon id="1224">
                        <href>http://maps.google.com/mapfiles/kml/pushpin/ylw-pushpin.png</href>
                    </Icon>
                </IconStyle>
            </Style>
            <Style id="1227">
                <IconStyle id="1228">
                    <color>ff0000ff</color>
                    <colorMode>normal</colorMode>
                    <scale>1</scale>
                    <heading>0</heading>
                    <Icon id="1229">
                        <href>http://maps.google.com/mapfiles/kml/pushpin/ylw-pushpin.png</href>
                    </Icon>
                </IconStyle>
            </Style>
            <Style id="1232">
                <IconStyle id="1233">
                    <color>ff0000ff</color>
                    <colorMode>normal</colorMode>
                    <scale>1</scale>
                    <heading>0</heading>
                    <Icon id="1234">
                        <href>http://maps.google.com/mapfiles/kml/pushpin/ylw-pushpin.png</href>
                    </Icon>
                </IconStyle>
            </Style>
            <Style id="1237">
                <IconStyle id="1238">
                    <color>ff0000ff</color>
                    <colorMode>normal</colorMode>
                    <scale>1</scale>
                    <heading>0</heading>
                    <Icon id="1239">
                        <href>http://maps.google.com/mapfiles/kml/pushpin/ylw-pushpin.png</href>
                    </Icon>
                </IconStyle>
            </Style>
            <name>ANYI GLEIDY SALDAÑA ESPINOZA</name>
            <Placemark id="1051">
                <name>ROSA ELENA GUERRERO LOPEZ</name>
                <description>ENACE IV MZ.I-2 LT-50         
Veintiséis de Octubre
Veintiséis de Octubre
Piura
Perú</description>
                <styleUrl>#1052</styleUrl>
                <Point id="1050">
                    <coordinates>-80.6886392,-5.1739277,0.0</coordinates>
                </Point>
            </Placemark>
            <Placemark id="1056">
                <name>ELIZABETH MENA OLAYA</name>
                <description>AAHH VILLA HERMOSA MZ E LOTE 6
Veintiséis de Octubre
Veintiséis de Octubre
Piura
Perú</description>
                <styleUrl>#1057</styleUrl>
                <Point id="1055">
                    <coordinates>-80.6904981,-5.1756558,0.0</coordinates>
                </Point>
            </Placemark>
            <Placemark id="1061">
                <name>DOMINGA GENARA LABAN PALACIOS</name>
                <description>MZ-C2 LT.21 IV MICAELA BASTIDA
Veintiséis de Octubre
Veintiséis de Octubre
Piura
Perú</description>
                <styleUrl>#1062</styleUrl>
                <Point id="1060">
                    <coordinates>-80.6864559,-5.1727576,0.0</coordinates>
                </Point>
            </Placemark>
            <Placemark id="1066">
                <name>PEÑA LABAN ALEX ALBERTO</name>
                <description>MZ L - 06 AAHH villa hermosa
Veintiséis de Octubre

Piura
Perú</description>
                <styleUrl>#1067</styleUrl>
                <Point id="1065">
                    <coordinates>-80.688523,-5.171964,0.0</coordinates>
                </Point>
            </Placemark>
            <Placemark id="1071">
                <name>GLADYS ANEIDA AGUILAR VIDAL</name>
                <description>MZ-02 LT-14 IV ETAPA ENACE    
Veintiséis de Octubre
Veintiséis de Octubre
Piura
Perú</description>
                <styleUrl>#1072</styleUrl>
                <Point id="1070">
                    <coordinates>-80.6860218,-5.1733855,0.0</coordinates>
                </Point>
            </Placemark>
            <Placemark id="1076">
                <name>TERESA OCHOA PALACIOS</name>
                <description>ENACE MZ. L 3 LTE. 22 - IV ET 
Veintiséis de Octubre
Piura
Piura
Perú</description>
                <styleUrl>#1077</styleUrl>
                <Point id="1075">
                    <coordinates>-80.6869517,-5.1749176,0.0</coordinates>
                </Point>
            </Placemark>
            <Placemark id="1081">
                <name>MARGARITA DEL PILAR ROSALES CRIOLLO</name>
                <description>MICAELA BASTIDAS C4 LT 26 26 DE OCTUBRE-Piura
Veintiséis de Octubre
Veintiséis de Octubre
Piura
Perú</description>
                <styleUrl>#1082</styleUrl>
                <Point id="1080">
                    <coordinates>-80.6747039,-5.17678,0.0</coordinates>
                </Point>
            </Placemark>
            <Placemark id="1086">
                <name>CASTILLO ROQUE ESMIDIA DEL PILAR</name>
                <description>CASTILLO ROQUE ESMIDIA DEL PILAR
AV SANCHEZ CERRO KM 5 GRIFO VIGMA 26 DE OCTUBRE
Veintiséis de Octubre
Piura
Piura
Perú</description>
                <styleUrl>#1087</styleUrl>
                <Point id="1085">
                    <coordinates>-80.6747678,-5.1751755,0.0</coordinates>
                </Point>
            </Placemark>
            <Placemark id="1091">
                <name>LUDEÑA RIVERA ILIANA LISSET</name>
                <description>MZ L 3 LT 17 ET 04  MICAELA BA
Veintiséis de Octubre
Veintiséis de Octubre
Piura
Perú</description>
                <styleUrl>#1092</styleUrl>
                <Point id="1090">
                    <coordinates>-80.687254,-5.174789,0.0</coordinates>
                </Point>
            </Placemark>
            <Placemark id="1096">
                <name>MARISOL MORAN FREYRE</name>
                <description>MZ L3 LTE.34 IV ETAPA ENACE - PIURA
Veintiséis de Octubre

Piura
Perú</description>
                <styleUrl>#1097</styleUrl>
                <Point id="1095">
                    <coordinates>-80.6874264,-5.1751768,0.0</coordinates>
                </Point>
            </Placemark>
            <Placemark id="1101">
                <name>ROSA ANGELICA MENA SAAVEDRA</name>
                <description>MZ R LT 14 ENACE III ETAPA    
Veintiséis de Octubre
Veintiséis de Octubre
Piura
Perú</description>
                <styleUrl>#1102</styleUrl>
                <Point id="1100">
                    <coordinates>-80.6838818,-5.1771982,0.0</coordinates>
                </Point>
            </Placemark>
            <Placemark id="1106">
                <name>MARQUEZ MORALES BRENDY TERESA</name>
                <description>URB.M.BASTIDAS MZ.P LT.5 2I ET
Veintiséis de Octubre
Veintiséis de Octubre
Piura
Perú</description>
                <styleUrl>#1107</styleUrl>
                <Point id="1105">
                    <coordinates>-80.682427,-5.177392,0.0</coordinates>
                </Point>
            </Placemark>
            <Placemark id="1111">
                <name>GARCIA MARQUEZ MARCOLINA</name>
                <description>GARCIA MARQUEZ MARCOLINA
Aahh Micaela Bastidas MZ F2 Lote 17 Av Grau
Veintiséis de Octubre
Veintiséis de Octubre
Piura
Perú</description>
                <styleUrl>#1112</styleUrl>
                <Point id="1110">
                    <coordinates>-80.6766109,-5.1797953,0.0</coordinates>
                </Point>
            </Placemark>
            <Placemark id="1116">
                <name>RUDECINDA HUANCA VERA</name>
                <description>MICAELA BESTIDAS CALLE MANUEL FRIAS MZ H4 LOTE 12
Veintiséis de Octubre
Veintiséis de Octubre
Piura
Perú</description>
                <styleUrl>#1117</styleUrl>
                <Point id="1115">
                    <coordinates>-80.6761566,-5.1772777,0.0</coordinates>
                </Point>
            </Placemark>
            <Placemark id="1121">
                <name>MARGARITA DEL PILAR ROSALES CRIOLLO</name>
                <description>MICAELA BASTIDAS C4 LT 26 26 DE OCTUBRE-Piura
Veintiséis de Octubre
Veintiséis de Octubre
Piura
Perú</description>
                <styleUrl>#1122</styleUrl>
                <Point id="1120">
                    <coordinates>-80.6747039,-5.17678,0.0</coordinates>
                </Point>
            </Placemark>
            <Placemark id="1126">
                <name>MARLENY QUINDE JIMENEZ</name>
                <description>MARLENY QUINDE JIMENEZ
CA.MIGUEL CORTES MZ F2 LT-21 MICAELA BASTIDAS
Veintiséis de Octubre
Piura
Piura
Perú</description>
                <styleUrl>#1127</styleUrl>
                <Point id="1125">
                    <coordinates>-80.6764017,-5.17936,0.0</coordinates>
                </Point>
            </Placemark>
            <Placemark id="1131">
                <name>ZOILA MENDOZA CARMEN</name>
                <description>AAHH MICAELA BASTIDAS MZ F4 LOTE 9
Veintiséis de Octubre
Veintiséis de Octubre
Piura
Perú</description>
                <styleUrl>#1132</styleUrl>
                <Point id="1130">
                    <coordinates>-80.6767634,-5.177763,0.0</coordinates>
                </Point>
            </Placemark>
            <Placemark id="1136">
                <name>SANCARRANCO SILUPU LIDIA M.</name>
                <description>CH MIC BAST 1ER ETA MZ M LT 20
Veintiséis de Octubre
Veintiséis de Octubre
Piura
Perú</description>
                <styleUrl>#1137</styleUrl>
                <Point id="1135">
                    <coordinates>-80.6786387,-5.1775117,0.0</coordinates>
                </Point>
            </Placemark>
            <Placemark id="1141">
                <name>ABANTO OLIVARES MAURA JUSTINA</name>
                <description>MZ-L LT 12 ENACE II ETAPA     
Veintiséis de Octubre
Piura
Piura
Perú</description>
                <styleUrl>#1142</styleUrl>
                <Point id="1140">
                    <coordinates>-80.677595,-5.176208,0.0</coordinates>
                </Point>
            </Placemark>
            <Placemark id="1146">
                <name>JORGE TAPIA CABRERA</name>
                <description>JORGE TAPIA CABRERA
MZ C LT. 31 URB. MICAELA BASTIDAS 2ETAPA
Veintiséis de Octubre
Piura
Piura
Perú</description>
                <styleUrl>#1147</styleUrl>
                <Point id="1145">
                    <coordinates>-80.6772006,-5.175441,0.0</coordinates>
                </Point>
            </Placemark>
            <Placemark id="1151">
                <name>CARLOS DANIEL ALBAN LLACSAHUANGA</name>
                <description>URB ENACE MZ O LOTE 29 TERCERA ETAPA
Veintiséis de Octubre
Veintiséis de Octubre
Piura
Perú</description>
                <styleUrl>#1152</styleUrl>
                <Point id="1150">
                    <coordinates>-80.6803825,-5.1743622,0.0</coordinates>
                </Point>
            </Placemark>
            <Placemark id="1156">
                <name>SANTOS VICTORIA RETO CRUZ</name>
                <description>MZ J LOTE 27 TERCERA ETAPA ENACE
Veintiséis de Octubre
Veintiséis de Octubre
Piura
Perú</description>
                <styleUrl>#1157</styleUrl>
                <Point id="1155">
                    <coordinates>-80.6823875,-5.1748768,0.0</coordinates>
                </Point>
            </Placemark>
            <Placemark id="1161">
                <name>MERINO REYES MARIA MAGDALENA</name>
                <description>URB.M.BASTIDAS 3ET MZ.J LT.11 
Veintiséis de Octubre
Piura
Piura
Perú</description>
                <styleUrl>#1162</styleUrl>
                <Point id="1160">
                    <coordinates>-80.68196,-5.174606,0.0</coordinates>
                </Point>
            </Placemark>
            <Placemark id="1166">
                <name>JUAN CARLOS BAYONA OTERO</name>
                <description>Urbanización Enace MZ E lote 08 3era  etapa 26 de octubre
Veintiséis de Octubre
Veintiséis de Octubre
Piura
Perú</description>
                <styleUrl>#1167</styleUrl>
                <Point id="1165">
                    <coordinates>-80.6814837,-5.1757857,0.0</coordinates>
                </Point>
            </Placemark>
            <Placemark id="1171">
                <name>CASTILLO ROQUE ESMIDIA DEL PILAR</name>
                <description>CASTILLO ROQUE ESMIDIA DEL PILAR
AV SANCHEZ CERRO KM 5 GRIFO VIGMA 26 DE OCTUBRE
Veintiséis de Octubre
Piura
Piura
Perú</description>
                <styleUrl>#1172</styleUrl>
                <Point id="1170">
                    <coordinates>-80.6747678,-5.1751755,0.0</coordinates>
                </Point>
            </Placemark>
            <Placemark id="1176">
                <name>GRACIELA DEL PILAR MEDINA FLORES</name>
                <description>MZ N LT 32 ET 03 MICAELA BAS  
Veintiséis de Octubre
Nkm8Veintiséis de Octubre
Piura
Perú</description>
                <styleUrl>#1177</styleUrl>
                <Point id="1175">
                    <coordinates>-80.6826797,-5.1762205,0.0</coordinates>
                </Point>
            </Placemark>
            <Placemark id="1181">
                <name>DANITZA TRONCOS CUMBICUS</name>
                <description>DANITZA TRONCOS CUMBICUS
MZ V LTE.17 III ETAPA ENACE
Veintiséis de Octubre
Piura
Piura
Perú</description>
                <styleUrl>#1182</styleUrl>
                <Point id="1180">
                    <coordinates>-80.6825432,-5.1771917,0.0</coordinates>
                </Point>
            </Placemark>
            <Placemark id="1186">
                <name>CALOPINO FLORES VICTORIA ELIZABETH</name>
                <description>CALOPINO FLORES VICTORIA ELIZABETH
AV GRAU 31 MZ Q LT 31 3ERA ETAPA DE ENACE
Veintiséis de Octubre
Piura
Piura
Perú</description>
                <styleUrl>#1187</styleUrl>
                <Point id="1185">
                    <coordinates>-80.6825517,-5.178085,0.0</coordinates>
                </Point>
            </Placemark>
            <Placemark id="1191">
                <name>LOURDES JACKELYN RISCO PARRILLA</name>
                <description>LOURDES JACKELYN RISCO PARRILLA
MZ S Lote 16 ENACE 3 ETAP
Veintiséis de Octubre
Piura
Piura
Perú</description>
                <styleUrl>#1192</styleUrl>
                <Point id="1190">
                    <coordinates>-80.6849338,-5.1772679,0.0</coordinates>
                </Point>
            </Placemark>
            <Placemark id="1196">
                <name>MIRTHA ZEGARRA SARANGO</name>
                <description>MZ H3 LT 23 AA. HH ENACE 4TA ETP
Veintiséis de Octubre
Piura
Piura
Perú</description>
                <styleUrl>#1197</styleUrl>
                <Point id="1195">
                    <coordinates>-80.6865737,-5.1764705,0.0</coordinates>
                </Point>
            </Placemark>
            <Placemark id="1201">
                <name>RETAMOZO PEREZ CATALINA</name>
                <description>MZ L3-32 MICAELA BASTIDAS 4 ET
Veintiséis de Octubre
Piura
Piura
Perú</description>
                <styleUrl>#1202</styleUrl>
                <Point id="1200">
                    <coordinates>-80.6874797,-5.1752809,0.0</coordinates>
                </Point>
            </Placemark>
            <Placemark id="1206">
                <name>TERESA OCHOA PALACIOS</name>
                <description>ENACE MZ. L 3 LTE. 22 - IV ET 
Veintiséis de Octubre
Piura
Piura
Perú</description>
                <styleUrl>#1207</styleUrl>
                <Point id="1205">
                    <coordinates>-80.6869517,-5.1749176,0.0</coordinates>
                </Point>
            </Placemark>
            <Placemark id="1211">
                <name>CLARA DEL ROCIO CHINCHAY SEMINARIO</name>
                <description>Mz G2 lote 13 CUARTA ETAPA ENACE
Veintiséis de Octubre
Veintiséis de Octubre
Piura
Perú</description>
                <styleUrl>#1212</styleUrl>
                <Point id="1210">
                    <coordinates>-80.6860817,-5.1747041,0.0</coordinates>
                </Point>
            </Placemark>
            <Placemark id="1216">
                <name>DIONICIO GUERRERO CORDOVA</name>
                <description>DIONICIO GUERRERO CORDOVA
MZ K2 LT.8 URB.ENACE 4ETAPA - 26 DE OCTUBRE PIURA
Veintiséis de Octubre

Piura
Perú</description>
                <styleUrl>#1217</styleUrl>
                <Point id="1215">
                    <coordinates>-80.6870522,-5.1725552,0.0</coordinates>
                </Point>
            </Placemark>
            <Placemark id="1221">
                <name>LUZ VICTORIA BALLESTEROS DE QUEVEDO</name>
                <description>MZ. K2 LT.05 AH.M.BASTIDAS    
Veintiséis de Octubre

Piura
Perú</description>
                <styleUrl>#1222</styleUrl>
                <Point id="1220">
                    <coordinates>-80.6872088,-5.1725609,0.0</coordinates>
                </Point>
            </Placemark>
            <Placemark id="1226">
                <name>JUDITH CAROLINA LIZANO INGA</name>
                <description>Mz F lote 6 villa hermosa
Veintiséis de Octubre
Veintiséis de Octubre
Piura
Perú</description>
                <styleUrl>#1227</styleUrl>
                <Point id="1225">
                    <coordinates>-80.6888215,-5.1721846,0.0</coordinates>
                </Point>
            </Placemark>
            <Placemark id="1231">
                <name>HAYDEE ROXANA CHIROQUE COVEÑAS</name>
                <description>AAHH VILLA HERMOSA MZ J LT 19 26 DE OCTUBRE-Piura
Veintiséis de Octubre
Veintiséis de Octubre
Piura
Perú</description>
                <styleUrl>#1232</styleUrl>
                <Point id="1230">
                    <coordinates>-80.6896457,-5.1745932,0.0</coordinates>
                </Point>
            </Placemark>
            <Placemark id="1236">
                <name>HIPERBODEGA GLORIA E.I.R.L.</name>
                <description>HIPERBODEGA GLORIA E.I.R.L.
MZ A LOTE. 17  VILLA HERMOSA
Veintiséis de Octubre
Veintiséis de Octubre
Piura
Perú</description>
                <styleUrl>#1237</styleUrl>
                <Point id="1235">
                    <coordinates>-80.6893962,-5.1759562,0.0</coordinates>
                </Point>
            </Placemark>
        </Folder>
        <Folder id="1240">
            <Style id="1243">
                <IconStyle id="1244">
                    <color>ffff0000</color>
                    <colorMode>normal</colorMode>
                    <scale>1</scale>
                    <heading>0</heading>
                    <Icon id="1245">
                        <href>http://maps.google.com/mapfiles/kml/pushpin/ylw-pushpin.png</href>
                    </Icon>
                </IconStyle>
            </Style>
            <Style id="1248">
                <IconStyle id="1249">
                    <color>ffff0000</color>
                    <colorMode>normal</colorMode>
                    <scale>1</scale>
                    <heading>0</heading>
                    <Icon id="1250">
                        <href>http://maps.google.com/mapfiles/kml/pushpin/ylw-pushpin.png</href>
                    </Icon>
                </IconStyle>
            </Style>
            <Style id="1253">
                <IconStyle id="1254">
                    <color>ffff0000</color>
                    <colorMode>normal</colorMode>
                    <scale>1</scale>
                    <heading>0</heading>
                    <Icon id="1255">
                        <href>http://maps.google.com/mapfiles/kml/pushpin/ylw-pushpin.png</href>
                    </Icon>
                </IconStyle>
            </Style>
            <Style id="1258">
                <IconStyle id="1259">
                    <color>ffff0000</color>
                    <colorMode>normal</colorMode>
                    <scale>1</scale>
                    <heading>0</heading>
                    <Icon id="1260">
                        <href>http://maps.google.com/mapfiles/kml/pushpin/ylw-pushpin.png</href>
                    </Icon>
                </IconStyle>
            </Style>
            <Style id="1263">
                <IconStyle id="1264">
                    <color>ffff0000</color>
                    <colorMode>normal</colorMode>
                    <scale>1</scale>
                    <heading>0</heading>
                    <Icon id="1265">
                        <href>http://maps.google.com/mapfiles/kml/pushpin/ylw-pushpin.png</href>
                    </Icon>
                </IconStyle>
            </Style>
            <Style id="1268">
                <IconStyle id="1269">
                    <color>ffff0000</color>
                    <colorMode>normal</colorMode>
                    <scale>1</scale>
                    <heading>0</heading>
                    <Icon id="1270">
                        <href>http://maps.google.com/mapfiles/kml/pushpin/ylw-pushpin.png</href>
                    </Icon>
                </IconStyle>
            </Style>
            <Style id="1273">
                <IconStyle id="1274">
                    <color>ffff0000</color>
                    <colorMode>normal</colorMode>
                    <scale>1</scale>
                    <heading>0</heading>
                    <Icon id="1275">
                        <href>http://maps.google.com/mapfiles/kml/pushpin/ylw-pushpin.png</href>
                    </Icon>
                </IconStyle>
            </Style>
            <Style id="1278">
                <IconStyle id="1279">
                    <color>ffff0000</color>
                    <colorMode>normal</colorMode>
                    <scale>1</scale>
                    <heading>0</heading>
                    <Icon id="1280">
                        <href>http://maps.google.com/mapfiles/kml/pushpin/ylw-pushpin.png</href>
                    </Icon>
                </IconStyle>
            </Style>
            <Style id="1283">
                <IconStyle id="1284">
                    <color>ffff0000</color>
                    <colorMode>normal</colorMode>
                    <scale>1</scale>
                    <heading>0</heading>
                    <Icon id="1285">
                        <href>http://maps.google.com/mapfiles/kml/pushpin/ylw-pushpin.png</href>
                    </Icon>
                </IconStyle>
            </Style>
            <Style id="1288">
                <IconStyle id="1289">
                    <color>ffff0000</color>
                    <colorMode>normal</colorMode>
                    <scale>1</scale>
                    <heading>0</heading>
                    <Icon id="1290">
                        <href>http://maps.google.com/mapfiles/kml/pushpin/ylw-pushpin.png</href>
                    </Icon>
                </IconStyle>
            </Style>
            <Style id="1293">
                <IconStyle id="1294">
                    <color>ffff0000</color>
                    <colorMode>normal</colorMode>
                    <scale>1</scale>
                    <heading>0</heading>
                    <Icon id="1295">
                        <href>http://maps.google.com/mapfiles/kml/pushpin/ylw-pushpin.png</href>
                    </Icon>
                </IconStyle>
            </Style>
            <Style id="1298">
                <IconStyle id="1299">
                    <color>ffff0000</color>
                    <colorMode>normal</colorMode>
                    <scale>1</scale>
                    <heading>0</heading>
                    <Icon id="1300">
                        <href>http://maps.google.com/mapfiles/kml/pushpin/ylw-pushpin.png</href>
                    </Icon>
                </IconStyle>
            </Style>
            <Style id="1303">
                <IconStyle id="1304">
                    <color>ffff0000</color>
                    <colorMode>normal</colorMode>
                    <scale>1</scale>
                    <heading>0</heading>
                    <Icon id="1305">
                        <href>http://maps.google.com/mapfiles/kml/pushpin/ylw-pushpin.png</href>
                    </Icon>
                </IconStyle>
            </Style>
            <Style id="1308">
                <IconStyle id="1309">
                    <color>ffff0000</color>
                    <colorMode>normal</colorMode>
                    <scale>1</scale>
                    <heading>0</heading>
                    <Icon id="1310">
                        <href>http://maps.google.com/mapfiles/kml/pushpin/ylw-pushpin.png</href>
                    </Icon>
                </IconStyle>
            </Style>
            <Style id="1313">
                <IconStyle id="1314">
                    <color>ffff0000</color>
                    <colorMode>normal</colorMode>
                    <scale>1</scale>
                    <heading>0</heading>
                    <Icon id="1315">
                        <href>http://maps.google.com/mapfiles/kml/pushpin/ylw-pushpin.png</href>
                    </Icon>
                </IconStyle>
            </Style>
            <Style id="1318">
                <IconStyle id="1319">
                    <color>ffff0000</color>
                    <colorMode>normal</colorMode>
                    <scale>1</scale>
                    <heading>0</heading>
                    <Icon id="1320">
                        <href>http://maps.google.com/mapfiles/kml/pushpin/ylw-pushpin.png</href>
                    </Icon>
                </IconStyle>
            </Style>
            <Style id="1323">
                <IconStyle id="1324">
                    <color>ffff0000</color>
                    <colorMode>normal</colorMode>
                    <scale>1</scale>
                    <heading>0</heading>
                    <Icon id="1325">
                        <href>http://maps.google.com/mapfiles/kml/pushpin/ylw-pushpin.png</href>
                    </Icon>
                </IconStyle>
            </Style>
            <Style id="1328">
                <IconStyle id="1329">
                    <color>ffff0000</color>
                    <colorMode>normal</colorMode>
                    <scale>1</scale>
                    <heading>0</heading>
                    <Icon id="1330">
                        <href>http://maps.google.com/mapfiles/kml/pushpin/ylw-pushpin.png</href>
                    </Icon>
                </IconStyle>
            </Style>
            <Style id="1333">
                <IconStyle id="1334">
                    <color>ffff0000</color>
                    <colorMode>normal</colorMode>
                    <scale>1</scale>
                    <heading>0</heading>
                    <Icon id="1335">
                        <href>http://maps.google.com/mapfiles/kml/pushpin/ylw-pushpin.png</href>
                    </Icon>
                </IconStyle>
            </Style>
            <Style id="1338">
                <IconStyle id="1339">
                    <color>ffff0000</color>
                    <colorMode>normal</colorMode>
                    <scale>1</scale>
                    <heading>0</heading>
                    <Icon id="1340">
                        <href>http://maps.google.com/mapfiles/kml/pushpin/ylw-pushpin.png</href>
                    </Icon>
                </IconStyle>
            </Style>
            <Style id="1343">
                <IconStyle id="1344">
                    <color>ffff0000</color>
                    <colorMode>normal</colorMode>
                    <scale>1</scale>
                    <heading>0</heading>
                    <Icon id="1345">
                        <href>http://maps.google.com/mapfiles/kml/pushpin/ylw-pushpin.png</href>
                    </Icon>
                </IconStyle>
            </Style>
            <Style id="1348">
                <IconStyle id="1349">
                    <color>ffff0000</color>
                    <colorMode>normal</colorMode>
                    <scale>1</scale>
                    <heading>0</heading>
                    <Icon id="1350">
                        <href>http://maps.google.com/mapfiles/kml/pushpin/ylw-pushpin.png</href>
                    </Icon>
                </IconStyle>
            </Style>
            <Style id="1353">
                <IconStyle id="1354">
                    <color>ffff0000</color>
                    <colorMode>normal</colorMode>
                    <scale>1</scale>
                    <heading>0</heading>
                    <Icon id="1355">
                        <href>http://maps.google.com/mapfiles/kml/pushpin/ylw-pushpin.png</href>
                    </Icon>
                </IconStyle>
            </Style>
            <Style id="1358">
                <IconStyle id="1359">
                    <color>ffff0000</color>
                    <colorMode>normal</colorMode>
                    <scale>1</scale>
                    <heading>0</heading>
                    <Icon id="1360">
                        <href>http://maps.google.com/mapfiles/kml/pushpin/ylw-pushpin.png</href>
                    </Icon>
                </IconStyle>
            </Style>
            <Style id="1363">
                <IconStyle id="1364">
                    <color>ffff0000</color>
                    <colorMode>normal</colorMode>
                    <scale>1</scale>
                    <heading>0</heading>
                    <Icon id="1365">
                        <href>http://maps.google.com/mapfiles/kml/pushpin/ylw-pushpin.png</href>
                    </Icon>
                </IconStyle>
            </Style>
            <Style id="1368">
                <IconStyle id="1369">
                    <color>ffff0000</color>
                    <colorMode>normal</colorMode>
                    <scale>1</scale>
                    <heading>0</heading>
                    <Icon id="1370">
                        <href>http://maps.google.com/mapfiles/kml/pushpin/ylw-pushpin.png</href>
                    </Icon>
                </IconStyle>
            </Style>
            <Style id="1373">
                <IconStyle id="1374">
                    <color>ffff0000</color>
                    <colorMode>normal</colorMode>
                    <scale>1</scale>
                    <heading>0</heading>
                    <Icon id="1375">
                        <href>http://maps.google.com/mapfiles/kml/pushpin/ylw-pushpin.png</href>
                    </Icon>
                </IconStyle>
            </Style>
            <Style id="1378">
                <IconStyle id="1379">
                    <color>ffff0000</color>
                    <colorMode>normal</colorMode>
                    <scale>1</scale>
                    <heading>0</heading>
                    <Icon id="1380">
                        <href>http://maps.google.com/mapfiles/kml/pushpin/ylw-pushpin.png</href>
                    </Icon>
                </IconStyle>
            </Style>
            <Style id="1383">
                <IconStyle id="1384">
                    <color>ffff0000</color>
                    <colorMode>normal</colorMode>
                    <scale>1</scale>
                    <heading>0</heading>
                    <Icon id="1385">
                        <href>http://maps.google.com/mapfiles/kml/pushpin/ylw-pushpin.png</href>
                    </Icon>
                </IconStyle>
            </Style>
            <Style id="1388">
                <IconStyle id="1389">
                    <color>ffff0000</color>
                    <colorMode>normal</colorMode>
                    <scale>1</scale>
                    <heading>0</heading>
                    <Icon id="1390">
                        <href>http://maps.google.com/mapfiles/kml/pushpin/ylw-pushpin.png</href>
                    </Icon>
                </IconStyle>
            </Style>
            <Style id="1393">
                <IconStyle id="1394">
                    <color>ffff0000</color>
                    <colorMode>normal</colorMode>
                    <scale>1</scale>
                    <heading>0</heading>
                    <Icon id="1395">
                        <href>http://maps.google.com/mapfiles/kml/pushpin/ylw-pushpin.png</href>
                    </Icon>
                </IconStyle>
            </Style>
            <Style id="1398">
                <IconStyle id="1399">
                    <color>ffff0000</color>
                    <colorMode>normal</colorMode>
                    <scale>1</scale>
                    <heading>0</heading>
                    <Icon id="1400">
                        <href>http://maps.google.com/mapfiles/kml/pushpin/ylw-pushpin.png</href>
                    </Icon>
                </IconStyle>
            </Style>
            <Style id="1403">
                <IconStyle id="1404">
                    <color>ffff0000</color>
                    <colorMode>normal</colorMode>
                    <scale>1</scale>
                    <heading>0</heading>
                    <Icon id="1405">
                        <href>http://maps.google.com/mapfiles/kml/pushpin/ylw-pushpin.png</href>
                    </Icon>
                </IconStyle>
            </Style>
            <Style id="1408">
                <IconStyle id="1409">
                    <color>ffff0000</color>
                    <colorMode>normal</colorMode>
                    <scale>1</scale>
                    <heading>0</heading>
                    <Icon id="1410">
                        <href>http://maps.google.com/mapfiles/kml/pushpin/ylw-pushpin.png</href>
                    </Icon>
                </IconStyle>
            </Style>
            <Style id="1413">
                <IconStyle id="1414">
                    <color>ffff0000</color>
                    <colorMode>normal</colorMode>
                    <scale>1</scale>
                    <heading>0</heading>
                    <Icon id="1415">
                        <href>http://maps.google.com/mapfiles/kml/pushpin/ylw-pushpin.png</href>
                    </Icon>
                </IconStyle>
            </Style>
            <Style id="1418">
                <IconStyle id="1419">
                    <color>ffff0000</color>
                    <colorMode>normal</colorMode>
                    <scale>1</scale>
                    <heading>0</heading>
                    <Icon id="1420">
                        <href>http://maps.google.com/mapfiles/kml/pushpin/ylw-pushpin.png</href>
                    </Icon>
                </IconStyle>
            </Style>
            <Style id="1423">
                <IconStyle id="1424">
                    <color>ffff0000</color>
                    <colorMode>normal</colorMode>
                    <scale>1</scale>
                    <heading>0</heading>
                    <Icon id="1425">
                        <href>http://maps.google.com/mapfiles/kml/pushpin/ylw-pushpin.png</href>
                    </Icon>
                </IconStyle>
            </Style>
            <Style id="1428">
                <IconStyle id="1429">
                    <color>ffff0000</color>
                    <colorMode>normal</colorMode>
                    <scale>1</scale>
                    <heading>0</heading>
                    <Icon id="1430">
                        <href>http://maps.google.com/mapfiles/kml/pushpin/ylw-pushpin.png</href>
                    </Icon>
                </IconStyle>
            </Style>
            <Style id="1433">
                <IconStyle id="1434">
                    <color>ffff0000</color>
                    <colorMode>normal</colorMode>
                    <scale>1</scale>
                    <heading>0</heading>
                    <Icon id="1435">
                        <href>http://maps.google.com/mapfiles/kml/pushpin/ylw-pushpin.png</href>
                    </Icon>
                </IconStyle>
            </Style>
            <Style id="1438">
                <IconStyle id="1439">
                    <color>ffff0000</color>
                    <colorMode>normal</colorMode>
                    <scale>1</scale>
                    <heading>0</heading>
                    <Icon id="1440">
                        <href>http://maps.google.com/mapfiles/kml/pushpin/ylw-pushpin.png</href>
                    </Icon>
                </IconStyle>
            </Style>
            <Style id="1443">
                <IconStyle id="1444">
                    <color>ffff0000</color>
                    <colorMode>normal</colorMode>
                    <scale>1</scale>
                    <heading>0</heading>
                    <Icon id="1445">
                        <href>http://maps.google.com/mapfiles/kml/pushpin/ylw-pushpin.png</href>
                    </Icon>
                </IconStyle>
            </Style>
            <Style id="1448">
                <IconStyle id="1449">
                    <color>ffff0000</color>
                    <colorMode>normal</colorMode>
                    <scale>1</scale>
                    <heading>0</heading>
                    <Icon id="1450">
                        <href>http://maps.google.com/mapfiles/kml/pushpin/ylw-pushpin.png</href>
                    </Icon>
                </IconStyle>
            </Style>
            <Style id="1453">
                <IconStyle id="1454">
                    <color>ffff0000</color>
                    <colorMode>normal</colorMode>
                    <scale>1</scale>
                    <heading>0</heading>
                    <Icon id="1455">
                        <href>http://maps.google.com/mapfiles/kml/pushpin/ylw-pushpin.png</href>
                    </Icon>
                </IconStyle>
            </Style>
            <Style id="1458">
                <IconStyle id="1459">
                    <color>ffff0000</color>
                    <colorMode>normal</colorMode>
                    <scale>1</scale>
                    <heading>0</heading>
                    <Icon id="1460">
                        <href>http://maps.google.com/mapfiles/kml/pushpin/ylw-pushpin.png</href>
                    </Icon>
                </IconStyle>
            </Style>
            <Style id="1463">
                <IconStyle id="1464">
                    <color>ffff0000</color>
                    <colorMode>normal</colorMode>
                    <scale>1</scale>
                    <heading>0</heading>
                    <Icon id="1465">
                        <href>http://maps.google.com/mapfiles/kml/pushpin/ylw-pushpin.png</href>
                    </Icon>
                </IconStyle>
            </Style>
            <Style id="1468">
                <IconStyle id="1469">
                    <color>ffff0000</color>
                    <colorMode>normal</colorMode>
                    <scale>1</scale>
                    <heading>0</heading>
                    <Icon id="1470">
                        <href>http://maps.google.com/mapfiles/kml/pushpin/ylw-pushpin.png</href>
                    </Icon>
                </IconStyle>
            </Style>
            <Style id="1473">
                <IconStyle id="1474">
                    <color>ffff0000</color>
                    <colorMode>normal</colorMode>
                    <scale>1</scale>
                    <heading>0</heading>
                    <Icon id="1475">
                        <href>http://maps.google.com/mapfiles/kml/pushpin/ylw-pushpin.png</href>
                    </Icon>
                </IconStyle>
            </Style>
            <Style id="1478">
                <IconStyle id="1479">
                    <color>ffff0000</color>
                    <colorMode>normal</colorMode>
                    <scale>1</scale>
                    <heading>0</heading>
                    <Icon id="1480">
                        <href>http://maps.google.com/mapfiles/kml/pushpin/ylw-pushpin.png</href>
                    </Icon>
                </IconStyle>
            </Style>
            <Style id="1483">
                <IconStyle id="1484">
                    <color>ffff0000</color>
                    <colorMode>normal</colorMode>
                    <scale>1</scale>
                    <heading>0</heading>
                    <Icon id="1485">
                        <href>http://maps.google.com/mapfiles/kml/pushpin/ylw-pushpin.png</href>
                    </Icon>
                </IconStyle>
            </Style>
            <Style id="1488">
                <IconStyle id="1489">
                    <color>ffff0000</color>
                    <colorMode>normal</colorMode>
                    <scale>1</scale>
                    <heading>0</heading>
                    <Icon id="1490">
                        <href>http://maps.google.com/mapfiles/kml/pushpin/ylw-pushpin.png</href>
                    </Icon>
                </IconStyle>
            </Style>
            <Style id="1493">
                <IconStyle id="1494">
                    <color>ffff0000</color>
                    <colorMode>normal</colorMode>
                    <scale>1</scale>
                    <heading>0</heading>
                    <Icon id="1495">
                        <href>http://maps.google.com/mapfiles/kml/pushpin/ylw-pushpin.png</href>
                    </Icon>
                </IconStyle>
            </Style>
            <name>MARTHA CAROLINA AVILA SOLANO</name>
            <Placemark id="1242">
                <name>ELENA MERINO VASQUEZ</name>
                <description>MZ X01 LT 18 UPIS SAN ANTONIO 
Veintiséis de Octubre
Veintiséis de Octubre
Piura
Perú</description>
                <styleUrl>#1243</styleUrl>
                <Point id="1241">
                    <coordinates>-80.68161,-5.193883,0.0</coordinates>
                </Point>
            </Placemark>
            <Placemark id="1247">
                <name>KELLY YUDITZA NINAMAQUE QUIROZ</name>
                <description>Y-01 AH FLORIDA DEL SUR 26OCT 
Veintiséis de Octubre
Veintiséis de Octubre
Piura
Perú</description>
                <styleUrl>#1248</styleUrl>
                <Point id="1246">
                    <coordinates>-80.6600383,-5.2074717,0.0</coordinates>
                </Point>
            </Placemark>
            <Placemark id="1252">
                <name>CHIRA SAAVEDRA OLDER JOEL</name>
                <description>CHIRA SAAVEDRA OLDER JOEL
AAHH NVA ESPERANZA MZ V8 LOTE 8
Veintiséis de Octubre
Piura
Piura
Perú</description>
                <styleUrl>#1253</styleUrl>
                <Point id="1251">
                    <coordinates>-80.671713,-5.1912904,0.0</coordinates>
                </Point>
            </Placemark>
            <Placemark id="1257">
                <name>SANTIAGO CRUZ CALLE</name>
                <description>MZ B LT 4 AMPLIAC SAN ANTONIO 
Veintiséis de Octubre
Veintiséis de Octubre
Piura
Perú</description>
                <styleUrl>#1258</styleUrl>
                <Point id="1256">
                    <coordinates>-80.6816617,-5.194415,0.0</coordinates>
                </Point>
            </Placemark>
            <Placemark id="1262">
                <name>JANET PARDO RIVERA</name>
                <description>SAN ANTONIO MZ X 01 LOTE 26-Piura-Piura
Veintiséis de Octubre
Veintiséis de Octubre
Piura
Perú</description>
                <styleUrl>#1263</styleUrl>
                <Point id="1261">
                    <coordinates>-80.6816183,-5.1944017,0.0</coordinates>
                </Point>
            </Placemark>
            <Placemark id="1267">
                <name>LILIANA CHINININ CORTEZ</name>
                <description>MZ P 02 LT 20 ROSA DE GUADALUPE ALEDAÑOS KUR BERR
Veintiséis de Octubre
Veintiséis de Octubre
Piura
Perú</description>
                <styleUrl>#1268</styleUrl>
                <Point id="1266">
                    <coordinates>-80.6815848,-5.1899073,0.0</coordinates>
                </Point>
            </Placemark>
            <Placemark id="1272">
                <name>DIANA ABAD JIMENEZ</name>
                <description>A.H.A.KURT BEER MZ.A LT.6     
Veintiséis de Octubre
Veintiséis de Octubre
Piura
Perú</description>
                <styleUrl>#1273</styleUrl>
                <Point id="1271">
                    <coordinates>-80.6803052,-5.1900142,0.0</coordinates>
                </Point>
            </Placemark>
            <Placemark id="1277">
                <name>HAYDEE REYES RIVERA</name>
                <description>AH AMPLIACIÓN KURT BER MZ C'1 LOTE 44
Veintiséis de Octubre
Veintiséis de Octubre
Piura
Perú</description>
                <styleUrl>#1278</styleUrl>
                <Point id="1276">
                    <coordinates>-80.6820591,-5.1905156,0.0</coordinates>
                </Point>
            </Placemark>
            <Placemark id="1282">
                <name>TEANNY LISBETH CALLE ALVARADO</name>
                <description>Mz K2 LTE 15
Veintiséis de Octubre
Veintiséis de Octubre
Piura
Perú</description>
                <styleUrl>#1283</styleUrl>
                <Point id="1281">
                    <coordinates>-80.6822329,-5.1883767,0.0</coordinates>
                </Point>
            </Placemark>
            <Placemark id="1287">
                <name>ARACELY MARTINEZ ARMIJOS</name>
                <description>Mz F LOTE 4 AA.HH LOS ARENALES
Veintiséis de Octubre
Veintiséis de Octubre
Piura
Perú</description>
                <styleUrl>#1288</styleUrl>
                <Point id="1286">
                    <coordinates>-80.6842792,-5.1876288,0.0</coordinates>
                </Point>
            </Placemark>
            <Placemark id="1292">
                <name>DIANA ELIZABETH QUISPE GUERRERO</name>
                <description>B - 21 UPIS JESUS DE NAZARET
Veintiséis de Octubre
Veintiséis de Octubre
Piura
Perú</description>
                <styleUrl>#1293</styleUrl>
                <Point id="1291">
                    <coordinates>-80.6836118,-5.186446,0.0</coordinates>
                </Point>
            </Placemark>
            <Placemark id="1297">
                <name>BRENDA CECILIA FARFAN INGA</name>
                <description>Upis Jesús de Nazaret mz. B lot. 14
Veintiséis de Octubre
Veintiséis de Octubre
Piura
Perú</description>
                <styleUrl>#1298</styleUrl>
                <Point id="1296">
                    <coordinates>-80.6837511,-5.1864127,0.0</coordinates>
                </Point>
            </Placemark>
            <Placemark id="1302">
                <name>CONSTRUCTORA Y CONSULTORA DUBAYY INGENIEROS S.A.C.</name>
                <description>CONSTRUCTORA Y CONSULTORA DUBAYY INGENIEROS S.A.C.
AV. MIRAFLORES NRO. 410 URB.  EL PROGRESO SC. UNO
Veintiséis de Octubre
150106Veintiséis de Octubre
Piura
Perú</description>
                <styleUrl>#1303</styleUrl>
                <Point id="1301">
                    <coordinates>-80.6823877,-5.1861242,0.0</coordinates>
                </Point>
            </Placemark>
            <Placemark id="1307">
                <name>ALEXIS DEL PIERO TAMAYO ZAPATA</name>
                <description>Villa Perú Canadá Mz c1 lote 4
Veintiséis de Octubre

Piura
Perú</description>
                <styleUrl>#1308</styleUrl>
                <Point id="1306">
                    <coordinates>-80.683181,-5.1852233,0.0</coordinates>
                </Point>
            </Placemark>
            <Placemark id="1312">
                <name>OLGA COELLO NORIEGA</name>
                <description>MZ H LT 11 UPIS EL CONDADO 26 
Veintiséis de Octubre
Veintiséis de Octubre
Piura
Perú</description>
                <styleUrl>#1313</styleUrl>
                <Point id="1311">
                    <coordinates>-80.684376,-5.190964,0.0</coordinates>
                </Point>
            </Placemark>
            <Placemark id="1317">
                <name>MILAGROS MAGALY RUIZ NUÑEZ</name>
                <description>X 19 virgen Guadalupe
Veintiséis de Octubre
Piura
Piura
Perú</description>
                <styleUrl>#1318</styleUrl>
                <Point id="1316">
                    <coordinates>-80.6837784,-5.1916213,0.0</coordinates>
                </Point>
            </Placemark>
            <Placemark id="1322">
                <name>MARIA ROSARIO JUAREZ SILVA</name>
                <description>UPIS SAN ANTONIO Mz C3 Lt 16  
Veintiséis de Octubre
Piura
Piura
Perú</description>
                <styleUrl>#1323</styleUrl>
                <Point id="1321">
                    <coordinates>-80.6838154,-5.1928023,0.0</coordinates>
                </Point>
            </Placemark>
            <Placemark id="1327">
                <name>ESTHER JIMENEZ JIMENEZ</name>
                <description>MZ S 2-30 AH ROSA DE GUADALUPE
Veintiséis de Octubre
Piura
Piura
Perú</description>
                <styleUrl>#1328</styleUrl>
                <Point id="1326">
                    <coordinates>-80.682421,-5.190504,0.0</coordinates>
                </Point>
            </Placemark>
            <Placemark id="1332">
                <name>PININA QUELIS RAMIREZ LOPEZ</name>
                <description>AA.HH RENACER EN CRISTO Mz B Lte 46 ( FRENTE ROSA DE GUADALUPE)
Veintiséis de Octubre
Piura
Piura
Perú</description>
                <styleUrl>#1333</styleUrl>
                <Point id="1331">
                    <coordinates>-80.6805455,-5.1934878,0.0</coordinates>
                </Point>
            </Placemark>
            <Placemark id="1337">
                <name>LUSCANY SOTO PAUCAR</name>
                <description>LUSCANY SOTO PAUCAR
Mz C2 LT 16 AA.HH ROSA DE GUADALUPE
Veintiséis de Octubre
Piura
Piura
Perú</description>
                <styleUrl>#1338</styleUrl>
                <Point id="1336">
                    <coordinates>-80.683402,-5.1883964,0.0</coordinates>
                </Point>
            </Placemark>
            <Placemark id="1342">
                <name>MERINO REYES ENAVELISA MERCEDES</name>
                <description>JESUS NAZARET MZ B LT 1
Piura

Piura
Perú</description>
                <styleUrl>#1343</styleUrl>
                <Point id="1341">
                    <coordinates>-80.685055,-5.185708,0.0</coordinates>
                </Point>
            </Placemark>
            <Placemark id="1347">
                <name>ADELIA CORREA NIÑO</name>
                <description>VILLA PERU CANADA MZ A1 LT 15 
Veintiséis de Octubre
Piura
Piura
Perú</description>
                <styleUrl>#1348</styleUrl>
                <Point id="1346">
                    <coordinates>-80.679942,-5.191325,0.0</coordinates>
                </Point>
            </Placemark>
            <Placemark id="1352">
                <name>ALEXIS DEL PIERO TAMAYO ZAPATA</name>
                <description>Villa Perú Canadá Mz c1 lote 4
Veintiséis de Octubre

Piura
Perú</description>
                <styleUrl>#1353</styleUrl>
                <Point id="1351">
                    <coordinates>-80.683181,-5.1852233,0.0</coordinates>
                </Point>
            </Placemark>
            <Placemark id="1357">
                <name>ABIGAIL HUANCAS GUIDINO</name>
                <description>Villa Perú Canadá mz F01 lot. 10
Veintiséis de Octubre
Veintiséis de Octubre
Piura
Perú</description>
                <styleUrl>#1358</styleUrl>
                <Point id="1356">
                    <coordinates>-80.6827933,-5.1862717,0.0</coordinates>
                </Point>
            </Placemark>
            <Placemark id="1362">
                <name>MARIA MAGDALENA AREVALO ANCAJIMA</name>
                <description>MZ I1-30 AH VILLA PERU CANADA 
Veintiséis de Octubre
Veintiséis de Octubre
Piura
Perú</description>
                <styleUrl>#1363</styleUrl>
                <Point id="1361">
                    <coordinates>-80.6813531,-5.1863583,0.0</coordinates>
                </Point>
            </Placemark>
            <Placemark id="1367">
                <name>EDITHA HUACCHILLO ROMERO</name>
                <description>MZ K1 LT 28 VILLA PERÚ-CANADA 
Veintiséis de Octubre
Piura
Piura
Perú</description>
                <styleUrl>#1368</styleUrl>
                <Point id="1366">
                    <coordinates>-80.680979,-5.1868383,0.0</coordinates>
                </Point>
            </Placemark>
            <Placemark id="1372">
                <name>JUANA ELIZABETH SANCHEZ SOSA</name>
                <description>MZ N1 LT 33                   
Veintiséis de Octubre
Veintiséis de Octubre
Piura
Perú</description>
                <styleUrl>#1373</styleUrl>
                <Point id="1371">
                    <coordinates>-80.682452,-5.188582,0.0</coordinates>
                </Point>
            </Placemark>
            <Placemark id="1377">
                <name>MERY ROXANA CHAVEZ APONTE</name>
                <description>MZ K1-05 AH VILLA PERU CANADA 
Veintiséis de Octubre
Veintiséis de Octubre
Piura
Perú</description>
                <styleUrl>#1378</styleUrl>
                <Point id="1376">
                    <coordinates>-80.6807633,-5.1864633,0.0</coordinates>
                </Point>
            </Placemark>
            <Placemark id="1382">
                <name>FLOR HAYDEE ROMERO IPANAQUE</name>
                <description>MZ H2 LT 11 AA.HH VILLA PERU CANADA
Veintiséis de Octubre
Veintiséis de Octubre
Piura
Perú</description>
                <styleUrl>#1383</styleUrl>
                <Point id="1381">
                    <coordinates>-80.6783234,-5.1888124,0.0</coordinates>
                </Point>
            </Placemark>
            <Placemark id="1387">
                <name>JOSEFINA PURIZACA VEA DE AQUINO</name>
                <description>MZ H2 LOTE 7 AH VILLA PERU CANADA
Veintiséis de Octubre
Veintiséis de Octubre
Piura
Perú</description>
                <styleUrl>#1388</styleUrl>
                <Point id="1386">
                    <coordinates>-80.6782636,-5.188718,0.0</coordinates>
                </Point>
            </Placemark>
            <Placemark id="1392">
                <name>BLANCA MARITEL SOTO PAUCAR</name>
                <description>AH.VILLA PERU CANADA MZ.M2 LT.24 -
Veintiséis de Octubre
Veintiséis de Octubre
Piura
Perú</description>
                <styleUrl>#1393</styleUrl>
                <Point id="1391">
                    <coordinates>-80.6768767,-5.1897333,0.0</coordinates>
                </Point>
            </Placemark>
            <Placemark id="1397">
                <name>BERTHA SANCHEZ ALVAREZ</name>
                <description>A.H.PERU CANADA MZ.C 3 LT.1   
Veintiséis de Octubre

Piura
Perú</description>
                <styleUrl>#1398</styleUrl>
                <Point id="1396">
                    <coordinates>-80.6760402,-5.1904285,0.0</coordinates>
                </Point>
            </Placemark>
            <Placemark id="1402">
                <name>GLADIS VIERA CHUQUIHUANGA</name>
                <description>MZ F3 LT30 VILLA PERU CANADA  
Veintiséis de Octubre
Veintiséis de Octubre
Piura
Perú</description>
                <styleUrl>#1403</styleUrl>
                <Point id="1401">
                    <coordinates>-80.681215,-5.191384,0.0</coordinates>
                </Point>
            </Placemark>
            <Placemark id="1407">
                <name>MAURO LLONTOP CUSTODIO</name>
                <description>J 3-2 AH VILLA PERU CANADA    
Veintiséis de Octubre
Veintiséis de Octubre
Piura
Perú</description>
                <styleUrl>#1408</styleUrl>
                <Point id="1406">
                    <coordinates>-80.6741382,-5.1911188,0.0</coordinates>
                </Point>
            </Placemark>
            <Placemark id="1412">
                <name>MAGDALENA JARAMILLO PAUCAR</name>
                <description>MZ J3 LT 08                   
Veintiséis de Octubre
Piura
Piura
Perú</description>
                <styleUrl>#1413</styleUrl>
                <Point id="1411">
                    <coordinates>-80.6738102,-5.1914963,0.0</coordinates>
                </Point>
            </Placemark>
            <Placemark id="1417">
                <name>ERIKA LIZET GALVEZ SOSA</name>
                <description>MZ E4 - 6 AH VILLA PERU CANADA
Veintiséis de Octubre
Veintiséis de Octubre
Piura
Perú</description>
                <styleUrl>#1418</styleUrl>
                <Point id="1416">
                    <coordinates>-80.682462,-5.191461,0.0</coordinates>
                </Point>
            </Placemark>
            <Placemark id="1422">
                <name>ROMY PAOLA SANCHEZ GARCIA</name>
                <description>Mz C7 LT 12 AA.HH NUEVA ESPERANZA
Veintiséis de Octubre
Piura
Piura
Perú</description>
                <styleUrl>#1423</styleUrl>
                <Point id="1421">
                    <coordinates>-80.6772201,-5.1865226,0.0</coordinates>
                </Point>
            </Placemark>
            <Placemark id="1427">
                <name>ROCIO DEL PILAR MEZA CAMPOVERDE</name>
                <description>MZ. A7 LTE. 15 AA.HH NUEVA ESPERANZA
Veintiséis de Octubre
Veintiséis de Octubre
Piura
Perú</description>
                <styleUrl>#1428</styleUrl>
                <Point id="1426">
                    <coordinates>-80.6770126,-5.1860448,0.0</coordinates>
                </Point>
            </Placemark>
            <Placemark id="1432">
                <name>ANTONIO EDUARDO IPANAQUE VARILLAS</name>
                <description>MZ A7 LTE 13 AA.HH NUEVA ESPERANZA II ETAPA
Veintiséis de Octubre
Veintiséis de Octubre
Piura
Perú</description>
                <styleUrl>#1433</styleUrl>
                <Point id="1431">
                    <coordinates>-80.6770758,-5.1861043,0.0</coordinates>
                </Point>
            </Placemark>
            <Placemark id="1437">
                <name>RUFINO DE SAAVEDRA TEODOSIA</name>
                <description>A.H.NVA.ESPERANZA MZ.6 LT.20  
Veintiséis de Octubre
Piura
Piura
Perú</description>
                <styleUrl>#1438</styleUrl>
                <Point id="1436">
                    <coordinates>-80.676569,-5.186463,0.0</coordinates>
                </Point>
            </Placemark>
            <Placemark id="1442">
                <name>ROSAS INGA LESLY MARIBEL</name>
                <description>MZ.06 LOT.09 ETAPA 04 AH NUEV 
Veintiséis de Octubre
Veintiséis de Octubre
Piura
Perú</description>
                <styleUrl>#1443</styleUrl>
                <Point id="1441">
                    <coordinates>-80.674939,-5.186185,0.0</coordinates>
                </Point>
            </Placemark>
            <Placemark id="1447">
                <name>COELLO PARRILLA SEGUNDO VICTORINO</name>
                <description>COELLO PARRILLA SEGUNDO VICTORINO

Veintiséis de Octubre
Veintiséis de Octubre
Piura
Perú</description>
                <styleUrl>#1448</styleUrl>
                <Point id="1446">
                    <coordinates>-80.6745309,-5.1868735,0.0</coordinates>
                </Point>
            </Placemark>
            <Placemark id="1452">
                <name>GLADYS ARROYO DE NIÑO</name>
                <description>MZ L6 LT. 20  AA.HH NUEVA ESPERANZA
Veintiséis de Octubre
Piura
Piura
Perú</description>
                <styleUrl>#1453</styleUrl>
                <Point id="1451">
                    <coordinates>-80.6738907,-5.1869443,0.0</coordinates>
                </Point>
            </Placemark>
            <Placemark id="1457">
                <name>JULIA INGA RUIZ</name>
                <description>CA.S.ALLESIN MZ.R6 LT.11      
Veintiséis de Octubre
Piura
Piura
Perú</description>
                <styleUrl>#1458</styleUrl>
                <Point id="1456">
                    <coordinates>-80.673979,-5.187519,0.0</coordinates>
                </Point>
            </Placemark>
            <Placemark id="1462">
                <name>MARUJA CRIOLLO LLACSAHUANGA</name>
                <description>MZA K6 - 09 NVA ESPERANZA     
Veintiséis de Octubre
Piura
Piura
Perú</description>
                <styleUrl>#1463</styleUrl>
                <Point id="1461">
                    <coordinates>-80.673403,-5.1875831,0.0</coordinates>
                </Point>
            </Placemark>
            <Placemark id="1467">
                <name>MELBA TIMOTEO PAUCAR</name>
                <description>MZ.O8-LT.34 NVA.ESPERANZA     
Veintiséis de Octubre
Veintiséis de Octubre
Piura
Perú</description>
                <styleUrl>#1468</styleUrl>
                <Point id="1466">
                    <coordinates>-80.6721352,-5.1896016,0.0</coordinates>
                </Point>
            </Placemark>
            <Placemark id="1472">
                <name>ZOVEIDA CORDOVA SANTOS</name>
                <description>Mz A5 lote 13 Nueva Esperanza av. Mancora.
Veintiséis de Octubre
Veintiséis de Octubre
Piura
Perú</description>
                <styleUrl>#1473</styleUrl>
                <Point id="1471">
                    <coordinates>-80.670457,-5.18928,0.0</coordinates>
                </Point>
            </Placemark>
            <Placemark id="1477">
                <name>ROSA AMELIA SARANGO DE PALACIOS</name>
                <description>MZ I4 LT 13 B NV.ESPERANZA    
Veintiséis de Octubre
Veintiséis de Octubre
Piura
Perú</description>
                <styleUrl>#1478</styleUrl>
                <Point id="1476">
                    <coordinates>-80.6683965,-5.1886832,0.0</coordinates>
                </Point>
            </Placemark>
            <Placemark id="1482">
                <name>WILMER ANTONIO NAVARRO SANTILLAN</name>
                <description>WILMER ANTONIO NAVARRO SANTILLAN
AAHH NVA ESPERANZA MZ A4 LOTE 5
Veintiséis de Octubre
Piura
Piura
Perú</description>
                <styleUrl>#1483</styleUrl>
                <Point id="1481">
                    <coordinates>-80.6670598,-5.1900342,0.0</coordinates>
                </Point>
            </Placemark>
            <Placemark id="1487">
                <name>SILUPU LADINES KATHERYN DEL ROSARIO</name>
                <description>Nueva Esperanza sector 4 mz B4 lot 19
Veintiséis de Octubre
Veintiséis de Octubre
Piura
Perú</description>
                <styleUrl>#1488</styleUrl>
                <Point id="1486">
                    <coordinates>-80.6682858,-5.1899617,0.0</coordinates>
                </Point>
            </Placemark>
            <Placemark id="1492">
                <name>LILY ESPERANZA BAYONA PANTA</name>
                <description>MA A10 LT 27 NVA ESPERANZA    
Veintiséis de Octubre
Piura
Piura
Perú</description>
                <styleUrl>#1493</styleUrl>
                <Point id="1491">
                    <coordinates>-80.6674067,-5.1910533,0.0</coordinates>
                </Point>
            </Placemark>
        </Folder>
    </Document>
</kml>
