<?xml version="1.0" encoding="UTF-8"?>
<kml xmlns="http://www.opengis.net/kml/2.2" xmlns:gx="http://www.google.com/kml/ext/2.2">
    <Document id="345">
        <Folder id="346">
            <Style id="349">
                <IconStyle id="350">
                    <color>ff0000ff</color>
                    <colorMode>normal</colorMode>
                    <scale>1</scale>
                    <heading>0</heading>
                    <Icon id="351">
                        <href>http://maps.google.com/mapfiles/kml/pushpin/ylw-pushpin.png</href>
                    </Icon>
                </IconStyle>
            </Style>
            <Style id="354">
                <IconStyle id="355">
                    <color>ff0000ff</color>
                    <colorMode>normal</colorMode>
                    <scale>1</scale>
                    <heading>0</heading>
                    <Icon id="356">
                        <href>http://maps.google.com/mapfiles/kml/pushpin/ylw-pushpin.png</href>
                    </Icon>
                </IconStyle>
            </Style>
            <Style id="359">
                <IconStyle id="360">
                    <color>ff0000ff</color>
                    <colorMode>normal</colorMode>
                    <scale>1</scale>
                    <heading>0</heading>
                    <Icon id="361">
                        <href>http://maps.google.com/mapfiles/kml/pushpin/ylw-pushpin.png</href>
                    </Icon>
                </IconStyle>
            </Style>
            <Style id="364">
                <IconStyle id="365">
                    <color>ff0000ff</color>
                    <colorMode>normal</colorMode>
                    <scale>1</scale>
                    <heading>0</heading>
                    <Icon id="366">
                        <href>http://maps.google.com/mapfiles/kml/pushpin/ylw-pushpin.png</href>
                    </Icon>
                </IconStyle>
            </Style>
            <Style id="369">
                <IconStyle id="370">
                    <color>ff0000ff</color>
                    <colorMode>normal</colorMode>
                    <scale>1</scale>
                    <heading>0</heading>
                    <Icon id="371">
                        <href>http://maps.google.com/mapfiles/kml/pushpin/ylw-pushpin.png</href>
                    </Icon>
                </IconStyle>
            </Style>
            <Style id="374">
                <IconStyle id="375">
                    <color>ff0000ff</color>
                    <colorMode>normal</colorMode>
                    <scale>1</scale>
                    <heading>0</heading>
                    <Icon id="376">
                        <href>http://maps.google.com/mapfiles/kml/pushpin/ylw-pushpin.png</href>
                    </Icon>
                </IconStyle>
            </Style>
            <Style id="379">
                <IconStyle id="380">
                    <color>ff0000ff</color>
                    <colorMode>normal</colorMode>
                    <scale>1</scale>
                    <heading>0</heading>
                    <Icon id="381">
                        <href>http://maps.google.com/mapfiles/kml/pushpin/ylw-pushpin.png</href>
                    </Icon>
                </IconStyle>
            </Style>
            <Style id="384">
                <IconStyle id="385">
                    <color>ff0000ff</color>
                    <colorMode>normal</colorMode>
                    <scale>1</scale>
                    <heading>0</heading>
                    <Icon id="386">
                        <href>http://maps.google.com/mapfiles/kml/pushpin/ylw-pushpin.png</href>
                    </Icon>
                </IconStyle>
            </Style>
            <Style id="389">
                <IconStyle id="390">
                    <color>ff0000ff</color>
                    <colorMode>normal</colorMode>
                    <scale>1</scale>
                    <heading>0</heading>
                    <Icon id="391">
                        <href>http://maps.google.com/mapfiles/kml/pushpin/ylw-pushpin.png</href>
                    </Icon>
                </IconStyle>
            </Style>
            <Style id="394">
                <IconStyle id="395">
                    <color>ff0000ff</color>
                    <colorMode>normal</colorMode>
                    <scale>1</scale>
                    <heading>0</heading>
                    <Icon id="396">
                        <href>http://maps.google.com/mapfiles/kml/pushpin/ylw-pushpin.png</href>
                    </Icon>
                </IconStyle>
            </Style>
            <Style id="399">
                <IconStyle id="400">
                    <color>ff0000ff</color>
                    <colorMode>normal</colorMode>
                    <scale>1</scale>
                    <heading>0</heading>
                    <Icon id="401">
                        <href>http://maps.google.com/mapfiles/kml/pushpin/ylw-pushpin.png</href>
                    </Icon>
                </IconStyle>
            </Style>
            <Style id="404">
                <IconStyle id="405">
                    <color>ff0000ff</color>
                    <colorMode>normal</colorMode>
                    <scale>1</scale>
                    <heading>0</heading>
                    <Icon id="406">
                        <href>http://maps.google.com/mapfiles/kml/pushpin/ylw-pushpin.png</href>
                    </Icon>
                </IconStyle>
            </Style>
            <Style id="409">
                <IconStyle id="410">
                    <color>ff0000ff</color>
                    <colorMode>normal</colorMode>
                    <scale>1</scale>
                    <heading>0</heading>
                    <Icon id="411">
                        <href>http://maps.google.com/mapfiles/kml/pushpin/ylw-pushpin.png</href>
                    </Icon>
                </IconStyle>
            </Style>
            <Style id="414">
                <IconStyle id="415">
                    <color>ff0000ff</color>
                    <colorMode>normal</colorMode>
                    <scale>1</scale>
                    <heading>0</heading>
                    <Icon id="416">
                        <href>http://maps.google.com/mapfiles/kml/pushpin/ylw-pushpin.png</href>
                    </Icon>
                </IconStyle>
            </Style>
            <Style id="419">
                <IconStyle id="420">
                    <color>ff0000ff</color>
                    <colorMode>normal</colorMode>
                    <scale>1</scale>
                    <heading>0</heading>
                    <Icon id="421">
                        <href>http://maps.google.com/mapfiles/kml/pushpin/ylw-pushpin.png</href>
                    </Icon>
                </IconStyle>
            </Style>
            <Style id="424">
                <IconStyle id="425">
                    <color>ff0000ff</color>
                    <colorMode>normal</colorMode>
                    <scale>1</scale>
                    <heading>0</heading>
                    <Icon id="426">
                        <href>http://maps.google.com/mapfiles/kml/pushpin/ylw-pushpin.png</href>
                    </Icon>
                </IconStyle>
            </Style>
            <Style id="429">
                <IconStyle id="430">
                    <color>ff0000ff</color>
                    <colorMode>normal</colorMode>
                    <scale>1</scale>
                    <heading>0</heading>
                    <Icon id="431">
                        <href>http://maps.google.com/mapfiles/kml/pushpin/ylw-pushpin.png</href>
                    </Icon>
                </IconStyle>
            </Style>
            <Style id="434">
                <IconStyle id="435">
                    <color>ff0000ff</color>
                    <colorMode>normal</colorMode>
                    <scale>1</scale>
                    <heading>0</heading>
                    <Icon id="436">
                        <href>http://maps.google.com/mapfiles/kml/pushpin/ylw-pushpin.png</href>
                    </Icon>
                </IconStyle>
            </Style>
            <Style id="439">
                <IconStyle id="440">
                    <color>ff0000ff</color>
                    <colorMode>normal</colorMode>
                    <scale>1</scale>
                    <heading>0</heading>
                    <Icon id="441">
                        <href>http://maps.google.com/mapfiles/kml/pushpin/ylw-pushpin.png</href>
                    </Icon>
                </IconStyle>
            </Style>
            <Style id="444">
                <IconStyle id="445">
                    <color>ff0000ff</color>
                    <colorMode>normal</colorMode>
                    <scale>1</scale>
                    <heading>0</heading>
                    <Icon id="446">
                        <href>http://maps.google.com/mapfiles/kml/pushpin/ylw-pushpin.png</href>
                    </Icon>
                </IconStyle>
            </Style>
            <Style id="449">
                <IconStyle id="450">
                    <color>ff0000ff</color>
                    <colorMode>normal</colorMode>
                    <scale>1</scale>
                    <heading>0</heading>
                    <Icon id="451">
                        <href>http://maps.google.com/mapfiles/kml/pushpin/ylw-pushpin.png</href>
                    </Icon>
                </IconStyle>
            </Style>
            <Style id="454">
                <IconStyle id="455">
                    <color>ff0000ff</color>
                    <colorMode>normal</colorMode>
                    <scale>1</scale>
                    <heading>0</heading>
                    <Icon id="456">
                        <href>http://maps.google.com/mapfiles/kml/pushpin/ylw-pushpin.png</href>
                    </Icon>
                </IconStyle>
            </Style>
            <Style id="459">
                <IconStyle id="460">
                    <color>ff0000ff</color>
                    <colorMode>normal</colorMode>
                    <scale>1</scale>
                    <heading>0</heading>
                    <Icon id="461">
                        <href>http://maps.google.com/mapfiles/kml/pushpin/ylw-pushpin.png</href>
                    </Icon>
                </IconStyle>
            </Style>
            <Style id="464">
                <IconStyle id="465">
                    <color>ff0000ff</color>
                    <colorMode>normal</colorMode>
                    <scale>1</scale>
                    <heading>0</heading>
                    <Icon id="466">
                        <href>http://maps.google.com/mapfiles/kml/pushpin/ylw-pushpin.png</href>
                    </Icon>
                </IconStyle>
            </Style>
            <Style id="469">
                <IconStyle id="470">
                    <color>ff0000ff</color>
                    <colorMode>normal</colorMode>
                    <scale>1</scale>
                    <heading>0</heading>
                    <Icon id="471">
                        <href>http://maps.google.com/mapfiles/kml/pushpin/ylw-pushpin.png</href>
                    </Icon>
                </IconStyle>
            </Style>
            <Style id="474">
                <IconStyle id="475">
                    <color>ff0000ff</color>
                    <colorMode>normal</colorMode>
                    <scale>1</scale>
                    <heading>0</heading>
                    <Icon id="476">
                        <href>http://maps.google.com/mapfiles/kml/pushpin/ylw-pushpin.png</href>
                    </Icon>
                </IconStyle>
            </Style>
            <Style id="479">
                <IconStyle id="480">
                    <color>ff0000ff</color>
                    <colorMode>normal</colorMode>
                    <scale>1</scale>
                    <heading>0</heading>
                    <Icon id="481">
                        <href>http://maps.google.com/mapfiles/kml/pushpin/ylw-pushpin.png</href>
                    </Icon>
                </IconStyle>
            </Style>
            <Style id="484">
                <IconStyle id="485">
                    <color>ff0000ff</color>
                    <colorMode>normal</colorMode>
                    <scale>1</scale>
                    <heading>0</heading>
                    <Icon id="486">
                        <href>http://maps.google.com/mapfiles/kml/pushpin/ylw-pushpin.png</href>
                    </Icon>
                </IconStyle>
            </Style>
            <Style id="489">
                <IconStyle id="490">
                    <color>ff0000ff</color>
                    <colorMode>normal</colorMode>
                    <scale>1</scale>
                    <heading>0</heading>
                    <Icon id="491">
                        <href>http://maps.google.com/mapfiles/kml/pushpin/ylw-pushpin.png</href>
                    </Icon>
                </IconStyle>
            </Style>
            <Style id="494">
                <IconStyle id="495">
                    <color>ff0000ff</color>
                    <colorMode>normal</colorMode>
                    <scale>1</scale>
                    <heading>0</heading>
                    <Icon id="496">
                        <href>http://maps.google.com/mapfiles/kml/pushpin/ylw-pushpin.png</href>
                    </Icon>
                </IconStyle>
            </Style>
            <name>JOSE DAVID QUISPE RENTERIA</name>
            <Placemark id="348">
                <name>BLANCA FLOR TORRES JIMENEZ</name>
                <description>A.H.BUENOS AIRES  MZ.B LT.01  
Piura
Piura
Piura
Perú</description>
                <styleUrl>#349</styleUrl>
                <Point id="347">
                    <coordinates>-80.6392298,-5.1946106,0.0</coordinates>
                </Point>
            </Placemark>
            <Placemark id="353">
                <name>TORRES TIMANA HEIDY</name>
                <description>CA.MOQUEGUA 893
Piura

Piura
Perú</description>
                <styleUrl>#354</styleUrl>
                <Point id="352">
                    <coordinates>-80.631332,-5.198109,0.0</coordinates>
                </Point>
            </Placemark>
            <Placemark id="358">
                <name>CRISTINA DEL ROSARIO DIESTRA ZAVALETA</name>
                <description>CA.11 260 MZ.R LT 39 SAN JOSE 
Veintiséis de Octubre
Veintiséis de Octubre
Piura
Perú</description>
                <styleUrl>#359</styleUrl>
                <Point id="357">
                    <coordinates>-80.644448,-5.195416,0.0</coordinates>
                </Point>
            </Placemark>
            <Placemark id="363">
                <name>NAUCAR LIZANA RUBY MARIBEL</name>
                <description>Avenida Loreto esquina con ica- exterior centro comercial el algarrobo
Piura

Piura
Perú</description>
                <styleUrl>#364</styleUrl>
                <Point id="362">
                    <coordinates>-80.629872,-5.19491,0.0</coordinates>
                </Point>
            </Placemark>
            <Placemark id="368">
                <name>JULISSA ESTHER CARRASCO RAMOS</name>
                <description>AV CIRCUNVALACION 1227 BARRIO SUR
Piura
Piura
Piura
Perú</description>
                <styleUrl>#369</styleUrl>
                <Point id="367">
                    <coordinates>-80.6346716,-5.1996673,0.0</coordinates>
                </Point>
            </Placemark>
            <Placemark id="373">
                <name>GERONIMA CAMPOS SOLANO</name>
                <description>CIRCUNVALACION ANTIGUA 1135   
Piura
Piura
Piura
Perú</description>
                <styleUrl>#374</styleUrl>
                <Point id="372">
                    <coordinates>-80.6341529,-5.2000455,0.0</coordinates>
                </Point>
            </Placemark>
            <Placemark id="378">
                <name>AMANDA ME CHAPILLIQUEN VDA DE ROJAS</name>
                <description>JR.J"113.URB.SANJOSE"         
Veintiséis de Octubre
Piura
Piura
Perú</description>
                <styleUrl>#379</styleUrl>
                <Point id="377">
                    <coordinates>-80.6416636,-5.1954132,0.0</coordinates>
                </Point>
            </Placemark>
            <Placemark id="383">
                <name>SANTACRUZ JIMENEZ MARIA DEL ROSARIO</name>
                <description>CALLE MERINO NRO URB 257 ANTES DE LLEGAR A LA AV SAN MARTIN  A UNAS 10 CASA DE LA SRA ESCOLLOCLARK - PIUR
Piura
Piura
Piura
Perú</description>
                <styleUrl>#384</styleUrl>
                <Point id="382">
                    <coordinates>-80.6344949,-5.1938668,0.0</coordinates>
                </Point>
            </Placemark>
            <Placemark id="388">
                <name>MARLENE VELASQUEZ JUAREZ</name>
                <description>AV SAN MARTIN 302 URB BUENOS AIRES
Piura
Piura
Piura
Perú</description>
                <styleUrl>#389</styleUrl>
                <Point id="387">
                    <coordinates>-80.6354128,-5.195887,0.0</coordinates>
                </Point>
            </Placemark>
            <Placemark id="393">
                <name>SONIA ELVIA CARHUAPOMA CASTILLO</name>
                <description>SONIA ELVIA CARHUAPOMA CASTILLO
URB BUENOS AIRES CALLE APURIMAC MZ F L12
Piura
Piura
Piura
Perú</description>
                <styleUrl>#394</styleUrl>
                <Point id="392">
                    <coordinates>-80.6395195,-5.1955251,0.0</coordinates>
                </Point>
            </Placemark>
            <Placemark id="398">
                <name>NUÑEZ CAMPOS MARIA MICAELA</name>
                <description>Urbanización San José calle 5 mzÑ Lote 40
Veintiséis de Octubre
Veintiséis de Octubre
Piura
Perú</description>
                <styleUrl>#399</styleUrl>
                <Point id="397">
                    <coordinates>-80.6431138,-5.1944229,0.0</coordinates>
                </Point>
            </Placemark>
            <Placemark id="403">
                <name>DIANA POZO ROJAS</name>
                <description>JR. J 181 -S.JOSE        Piura
Veintiséis de Octubre

Piura
Perú</description>
                <styleUrl>#404</styleUrl>
                <Point id="402">
                    <coordinates>-80.641642,-5.196219,0.0</coordinates>
                </Point>
            </Placemark>
            <Placemark id="408">
                <name>LILIANA DEL SOCORRO TIMANA ROSADO</name>
                <description>MZ C LT 16 URB SAN JOSE       
Veintiséis de Octubre
Piura
Piura
Perú</description>
                <styleUrl>#409</styleUrl>
                <Point id="407">
                    <coordinates>-80.6429351,-5.1960567,0.0</coordinates>
                </Point>
            </Placemark>
            <Placemark id="413">
                <name>DELFILIA ENCALADA ARMIJOS</name>
                <description>Urbanización Santa Ana MZ P Lote 4 Bodega Punto Clave
Piura
Piura
Piura
Perú</description>
                <styleUrl>#414</styleUrl>
                <Point id="412">
                    <coordinates>-80.6411148,-5.1878723,0.0</coordinates>
                </Point>
            </Placemark>
            <Placemark id="418">
                <name>DELFILIA ENCALADA ARMIJOS</name>
                <description>Urbanización Santa Ana MZ P Lote 4 Bodega Punto Clave
Piura
Piura
Piura
Perú</description>
                <styleUrl>#419</styleUrl>
                <Point id="417">
                    <coordinates>-80.6411148,-5.1878723,0.0</coordinates>
                </Point>
            </Placemark>
            <Placemark id="423">
                <name>ZUÑIGA CARMEN MONTERO DE</name>
                <description>ZUÑIGA CARMEN MONTERO DE
JR TAMBOGRANDE S-20 II ET. STA.ANA
Piura
Piura
Piura
Perú</description>
                <styleUrl>#424</styleUrl>
                <Point id="422">
                    <coordinates>-80.6390319,-5.1892945,0.0</coordinates>
                </Point>
            </Placemark>
            <Placemark id="428">
                <name>JAVIER ANTONIO GUTIERREZ AVALOS</name>
                <description>Urbanización San Lorenzo MZ B lote 16
Piura
Piura
Piura
Perú</description>
                <styleUrl>#429</styleUrl>
                <Point id="427">
                    <coordinates>-80.6383108,-5.1908059,0.0</coordinates>
                </Point>
            </Placemark>
            <Placemark id="433">
                <name>INVERSIONES APARICIO GUTIERREZ MANUEL E.I.R.L.</name>
                <description>INVERSIONES APARICIO GUTIERREZ MANUEL E.I.R.L.
MZA. I LOTE. 21 A.H. LOS TITANES
Piura
200101Piura
Piura
Perú</description>
                <styleUrl>#434</styleUrl>
                <Point id="432">
                    <coordinates>-80.6333829,-5.2011473,0.0</coordinates>
                </Point>
            </Placemark>
            <Placemark id="438">
                <name>MARISOL OTERO GUTIERREZ</name>
                <description>CA.TACNA 996 BARRIO SUR       
Piura
Piura
Piura
Perú</description>
                <styleUrl>#439</styleUrl>
                <Point id="437">
                    <coordinates>-80.6283013,-5.2010048,0.0</coordinates>
                </Point>
            </Placemark>
            <Placemark id="443">
                <name>SANTOS CARMEN RIVERA CORONADO</name>
                <description>CALLE CUZCO 1249 CENTRO Piura-Piura
Piura
Piura
Piura
Perú</description>
                <styleUrl>#444</styleUrl>
                <Point id="442">
                    <coordinates>-80.6293516,-5.2001988,0.0</coordinates>
                </Point>
            </Placemark>
            <Placemark id="448">
                <name>NELLY AQUINO CASTILLO</name>
                <description>JIRON TOMAD DIEEGUEZ AYACHUCHO S/N.ATRAS DEL COLISEO GERONIMO JAIME
Piura
Piura
Piura
Perú</description>
                <styleUrl>#449</styleUrl>
                <Point id="447">
                    <coordinates>-80.6381029,-5.1950107,0.0</coordinates>
                </Point>
            </Placemark>
            <Placemark id="453">
                <name>TERESA BERMEJO CASTRO</name>
                <description>JR.HUANCAVELICA 1449 A.H BUENO
Piura
Piura
Piura
Perú</description>
                <styleUrl>#454</styleUrl>
                <Point id="452">
                    <coordinates>-80.6366531,-5.1946684,0.0</coordinates>
                </Point>
            </Placemark>
            <Placemark id="458">
                <name>MILAGROS DEL PILAR CASTRO PURIZAGA</name>
                <description>CA.AREQUIPA 1444 BARRIO CENTRO
Piura
Piura
Piura
Perú</description>
                <styleUrl>#459</styleUrl>
                <Point id="457">
                    <coordinates>-80.6293115,-5.2021975,0.0</coordinates>
                </Point>
            </Placemark>
            <Placemark id="463">
                <name>MARIA LUISA PORTAL DE CALLE</name>
                <description>CA.TACNA 931 CERCADO URBANO   
Piura
Piura
Piura
Perú</description>
                <styleUrl>#464</styleUrl>
                <Point id="462">
                    <coordinates>-80.627633,-5.200575,0.0</coordinates>
                </Point>
            </Placemark>
            <Placemark id="468">
                <name>JAIME LEOPOLDO VILLAVICENCIO ACUÑA</name>
                <description>JAIME LEOPOLDO VILLAVICENCIO ACUÑA
CALLE AREQUIPA 1301 CENTRO PIURA
Piura
Piura
Piura
Perú</description>
                <styleUrl>#469</styleUrl>
                <Point id="467">
                    <coordinates>-80.6286189,-5.2009043,0.0</coordinates>
                </Point>
            </Placemark>
            <Placemark id="473">
                <name>ECONORTE QR S.A.C</name>
                <description>ECONORTE QR S.A.C
CALLE JUNIN 524 CENTRO        
Piura
Piura
Piura
Perú</description>
                <styleUrl>#474</styleUrl>
                <Point id="472">
                    <coordinates>-80.628384,-5.193325,0.0</coordinates>
                </Point>
            </Placemark>
            <Placemark id="478">
                <name>ECONORTE QR S.A.C</name>
                <description>ECONORTE QR S.A.C
CALLE JUNIN 524 CENTRO        
Piura
Piura
Piura
Perú</description>
                <styleUrl>#479</styleUrl>
                <Point id="477">
                    <coordinates>-80.628384,-5.193325,0.0</coordinates>
                </Point>
            </Placemark>
            <Placemark id="483">
                <name>AYALA YARLEQUE MANUELA DEL P.</name>
                <description>JUNIN SUR.1329 CENTRO         
Piura
Piura
Piura
Perú</description>
                <styleUrl>#484</styleUrl>
                <Point id="482">
                    <coordinates>-80.63009,-5.200311,0.0</coordinates>
                </Point>
            </Placemark>
            <Placemark id="488">
                <name>CARRILLO DE LEON GEYBY BETTY</name>
                <description>CARRILLO DE LEON GEYBY BETTY
CIRCUNVALACION 1053 PIURA
Piura
Piura
Piura
Perú</description>
                <styleUrl>#489</styleUrl>
                <Point id="487">
                    <coordinates>-80.6328601,-5.2004798,0.0</coordinates>
                </Point>
            </Placemark>
            <Placemark id="493">
                <name>ALMACENES ANDREA MALDONADO S.A.C.</name>
                <description>ALMACENES ANDREA MALDONADO S.A.C.
AV. CIRCUNVALACION NRO. 1014 URB.  LOS TITANES ET. UNO
Piura
200101Piura
Piura
Perú</description>
                <styleUrl>#494</styleUrl>
                <Point id="492">
                    <coordinates>-80.6325702,-5.2003251,0.0</coordinates>
                </Point>
            </Placemark>
        </Folder>
        <Folder id="497">
            <Style id="500">
                <IconStyle id="501">
                    <color>ffff0000</color>
                    <colorMode>normal</colorMode>
                    <scale>1</scale>
                    <heading>0</heading>
                    <Icon id="502">
                        <href>http://maps.google.com/mapfiles/kml/pushpin/ylw-pushpin.png</href>
                    </Icon>
                </IconStyle>
            </Style>
            <Style id="505">
                <IconStyle id="506">
                    <color>ffff0000</color>
                    <colorMode>normal</colorMode>
                    <scale>1</scale>
                    <heading>0</heading>
                    <Icon id="507">
                        <href>http://maps.google.com/mapfiles/kml/pushpin/ylw-pushpin.png</href>
                    </Icon>
                </IconStyle>
            </Style>
            <Style id="510">
                <IconStyle id="511">
                    <color>ffff0000</color>
                    <colorMode>normal</colorMode>
                    <scale>1</scale>
                    <heading>0</heading>
                    <Icon id="512">
                        <href>http://maps.google.com/mapfiles/kml/pushpin/ylw-pushpin.png</href>
                    </Icon>
                </IconStyle>
            </Style>
            <Style id="515">
                <IconStyle id="516">
                    <color>ffff0000</color>
                    <colorMode>normal</colorMode>
                    <scale>1</scale>
                    <heading>0</heading>
                    <Icon id="517">
                        <href>http://maps.google.com/mapfiles/kml/pushpin/ylw-pushpin.png</href>
                    </Icon>
                </IconStyle>
            </Style>
            <Style id="520">
                <IconStyle id="521">
                    <color>ffff0000</color>
                    <colorMode>normal</colorMode>
                    <scale>1</scale>
                    <heading>0</heading>
                    <Icon id="522">
                        <href>http://maps.google.com/mapfiles/kml/pushpin/ylw-pushpin.png</href>
                    </Icon>
                </IconStyle>
            </Style>
            <Style id="525">
                <IconStyle id="526">
                    <color>ffff0000</color>
                    <colorMode>normal</colorMode>
                    <scale>1</scale>
                    <heading>0</heading>
                    <Icon id="527">
                        <href>http://maps.google.com/mapfiles/kml/pushpin/ylw-pushpin.png</href>
                    </Icon>
                </IconStyle>
            </Style>
            <Style id="530">
                <IconStyle id="531">
                    <color>ffff0000</color>
                    <colorMode>normal</colorMode>
                    <scale>1</scale>
                    <heading>0</heading>
                    <Icon id="532">
                        <href>http://maps.google.com/mapfiles/kml/pushpin/ylw-pushpin.png</href>
                    </Icon>
                </IconStyle>
            </Style>
            <Style id="535">
                <IconStyle id="536">
                    <color>ffff0000</color>
                    <colorMode>normal</colorMode>
                    <scale>1</scale>
                    <heading>0</heading>
                    <Icon id="537">
                        <href>http://maps.google.com/mapfiles/kml/pushpin/ylw-pushpin.png</href>
                    </Icon>
                </IconStyle>
            </Style>
            <Style id="540">
                <IconStyle id="541">
                    <color>ffff0000</color>
                    <colorMode>normal</colorMode>
                    <scale>1</scale>
                    <heading>0</heading>
                    <Icon id="542">
                        <href>http://maps.google.com/mapfiles/kml/pushpin/ylw-pushpin.png</href>
                    </Icon>
                </IconStyle>
            </Style>
            <Style id="545">
                <IconStyle id="546">
                    <color>ffff0000</color>
                    <colorMode>normal</colorMode>
                    <scale>1</scale>
                    <heading>0</heading>
                    <Icon id="547">
                        <href>http://maps.google.com/mapfiles/kml/pushpin/ylw-pushpin.png</href>
                    </Icon>
                </IconStyle>
            </Style>
            <Style id="550">
                <IconStyle id="551">
                    <color>ffff0000</color>
                    <colorMode>normal</colorMode>
                    <scale>1</scale>
                    <heading>0</heading>
                    <Icon id="552">
                        <href>http://maps.google.com/mapfiles/kml/pushpin/ylw-pushpin.png</href>
                    </Icon>
                </IconStyle>
            </Style>
            <Style id="555">
                <IconStyle id="556">
                    <color>ffff0000</color>
                    <colorMode>normal</colorMode>
                    <scale>1</scale>
                    <heading>0</heading>
                    <Icon id="557">
                        <href>http://maps.google.com/mapfiles/kml/pushpin/ylw-pushpin.png</href>
                    </Icon>
                </IconStyle>
            </Style>
            <Style id="560">
                <IconStyle id="561">
                    <color>ffff0000</color>
                    <colorMode>normal</colorMode>
                    <scale>1</scale>
                    <heading>0</heading>
                    <Icon id="562">
                        <href>http://maps.google.com/mapfiles/kml/pushpin/ylw-pushpin.png</href>
                    </Icon>
                </IconStyle>
            </Style>
            <Style id="565">
                <IconStyle id="566">
                    <color>ffff0000</color>
                    <colorMode>normal</colorMode>
                    <scale>1</scale>
                    <heading>0</heading>
                    <Icon id="567">
                        <href>http://maps.google.com/mapfiles/kml/pushpin/ylw-pushpin.png</href>
                    </Icon>
                </IconStyle>
            </Style>
            <Style id="570">
                <IconStyle id="571">
                    <color>ffff0000</color>
                    <colorMode>normal</colorMode>
                    <scale>1</scale>
                    <heading>0</heading>
                    <Icon id="572">
                        <href>http://maps.google.com/mapfiles/kml/pushpin/ylw-pushpin.png</href>
                    </Icon>
                </IconStyle>
            </Style>
            <Style id="575">
                <IconStyle id="576">
                    <color>ffff0000</color>
                    <colorMode>normal</colorMode>
                    <scale>1</scale>
                    <heading>0</heading>
                    <Icon id="577">
                        <href>http://maps.google.com/mapfiles/kml/pushpin/ylw-pushpin.png</href>
                    </Icon>
                </IconStyle>
            </Style>
            <Style id="580">
                <IconStyle id="581">
                    <color>ffff0000</color>
                    <colorMode>normal</colorMode>
                    <scale>1</scale>
                    <heading>0</heading>
                    <Icon id="582">
                        <href>http://maps.google.com/mapfiles/kml/pushpin/ylw-pushpin.png</href>
                    </Icon>
                </IconStyle>
            </Style>
            <Style id="585">
                <IconStyle id="586">
                    <color>ffff0000</color>
                    <colorMode>normal</colorMode>
                    <scale>1</scale>
                    <heading>0</heading>
                    <Icon id="587">
                        <href>http://maps.google.com/mapfiles/kml/pushpin/ylw-pushpin.png</href>
                    </Icon>
                </IconStyle>
            </Style>
            <Style id="590">
                <IconStyle id="591">
                    <color>ffff0000</color>
                    <colorMode>normal</colorMode>
                    <scale>1</scale>
                    <heading>0</heading>
                    <Icon id="592">
                        <href>http://maps.google.com/mapfiles/kml/pushpin/ylw-pushpin.png</href>
                    </Icon>
                </IconStyle>
            </Style>
            <Style id="595">
                <IconStyle id="596">
                    <color>ffff0000</color>
                    <colorMode>normal</colorMode>
                    <scale>1</scale>
                    <heading>0</heading>
                    <Icon id="597">
                        <href>http://maps.google.com/mapfiles/kml/pushpin/ylw-pushpin.png</href>
                    </Icon>
                </IconStyle>
            </Style>
            <Style id="600">
                <IconStyle id="601">
                    <color>ffff0000</color>
                    <colorMode>normal</colorMode>
                    <scale>1</scale>
                    <heading>0</heading>
                    <Icon id="602">
                        <href>http://maps.google.com/mapfiles/kml/pushpin/ylw-pushpin.png</href>
                    </Icon>
                </IconStyle>
            </Style>
            <Style id="605">
                <IconStyle id="606">
                    <color>ffff0000</color>
                    <colorMode>normal</colorMode>
                    <scale>1</scale>
                    <heading>0</heading>
                    <Icon id="607">
                        <href>http://maps.google.com/mapfiles/kml/pushpin/ylw-pushpin.png</href>
                    </Icon>
                </IconStyle>
            </Style>
            <Style id="610">
                <IconStyle id="611">
                    <color>ffff0000</color>
                    <colorMode>normal</colorMode>
                    <scale>1</scale>
                    <heading>0</heading>
                    <Icon id="612">
                        <href>http://maps.google.com/mapfiles/kml/pushpin/ylw-pushpin.png</href>
                    </Icon>
                </IconStyle>
            </Style>
            <Style id="615">
                <IconStyle id="616">
                    <color>ffff0000</color>
                    <colorMode>normal</colorMode>
                    <scale>1</scale>
                    <heading>0</heading>
                    <Icon id="617">
                        <href>http://maps.google.com/mapfiles/kml/pushpin/ylw-pushpin.png</href>
                    </Icon>
                </IconStyle>
            </Style>
            <Style id="620">
                <IconStyle id="621">
                    <color>ffff0000</color>
                    <colorMode>normal</colorMode>
                    <scale>1</scale>
                    <heading>0</heading>
                    <Icon id="622">
                        <href>http://maps.google.com/mapfiles/kml/pushpin/ylw-pushpin.png</href>
                    </Icon>
                </IconStyle>
            </Style>
            <Style id="625">
                <IconStyle id="626">
                    <color>ffff0000</color>
                    <colorMode>normal</colorMode>
                    <scale>1</scale>
                    <heading>0</heading>
                    <Icon id="627">
                        <href>http://maps.google.com/mapfiles/kml/pushpin/ylw-pushpin.png</href>
                    </Icon>
                </IconStyle>
            </Style>
            <Style id="630">
                <IconStyle id="631">
                    <color>ffff0000</color>
                    <colorMode>normal</colorMode>
                    <scale>1</scale>
                    <heading>0</heading>
                    <Icon id="632">
                        <href>http://maps.google.com/mapfiles/kml/pushpin/ylw-pushpin.png</href>
                    </Icon>
                </IconStyle>
            </Style>
            <Style id="635">
                <IconStyle id="636">
                    <color>ffff0000</color>
                    <colorMode>normal</colorMode>
                    <scale>1</scale>
                    <heading>0</heading>
                    <Icon id="637">
                        <href>http://maps.google.com/mapfiles/kml/pushpin/ylw-pushpin.png</href>
                    </Icon>
                </IconStyle>
            </Style>
            <Style id="640">
                <IconStyle id="641">
                    <color>ffff0000</color>
                    <colorMode>normal</colorMode>
                    <scale>1</scale>
                    <heading>0</heading>
                    <Icon id="642">
                        <href>http://maps.google.com/mapfiles/kml/pushpin/ylw-pushpin.png</href>
                    </Icon>
                </IconStyle>
            </Style>
            <Style id="645">
                <IconStyle id="646">
                    <color>ffff0000</color>
                    <colorMode>normal</colorMode>
                    <scale>1</scale>
                    <heading>0</heading>
                    <Icon id="647">
                        <href>http://maps.google.com/mapfiles/kml/pushpin/ylw-pushpin.png</href>
                    </Icon>
                </IconStyle>
            </Style>
            <name>ZOILA ALBERTINA DE JESUS MORANTE CARRASCO</name>
            <Placemark id="499">
                <name>GRUPO DE INVERSIONES ALVARADO EMPRESA INDIVIDUAL DE RESPONSABILIDAD LIMITADA</name>
                <description>GRUPO DE INVERSIONES ALVARADO EMPRESA INDIVIDUAL DE RESPONSABILIDAD LIMITADA
MZA. M1 LOTE. 1 URB. IGNACIO MERINO
Piura
200101
Piura
Perú</description>
                <styleUrl>#500</styleUrl>
                <Point id="498">
                    <coordinates>-80.6429471,-5.177188,0.0</coordinates>
                </Point>
            </Placemark>
            <Placemark id="504">
                <name>GRUPO DE INVERSIONES ALVARADO EMPRESA INDIVIDUAL DE RESPONSABILIDAD LIMITADA</name>
                <description>GRUPO DE INVERSIONES ALVARADO EMPRESA INDIVIDUAL DE RESPONSABILIDAD LIMITADA
MZA. M1 LOTE. 1 URB. IGNACIO MERINO
Piura
200101
Piura
Perú</description>
                <styleUrl>#505</styleUrl>
                <Point id="503">
                    <coordinates>-80.6429471,-5.177188,0.0</coordinates>
                </Point>
            </Placemark>
            <Placemark id="509">
                <name>CILLONIZ DE CRUZ MERCEDES RICARDINA</name>
                <description>CILLONIZ DE CRUZ MERCEDES RICARDINA
CUZCO 282 CERCADO DE PIURA
Piura
Piura
Piura
Perú</description>
                <styleUrl>#510</styleUrl>
                <Point id="508">
                    <coordinates>-80.6269172,-5.1917044,0.0</coordinates>
                </Point>
            </Placemark>
            <Placemark id="514">
                <name>LUIS MIGUEL MADRID MACALUPU</name>
                <description>CALLE NAPO 154
Piura
Piura
Piura
Perú</description>
                <styleUrl>#515</styleUrl>
                <Point id="513">
                    <coordinates>-80.6332021,-5.1862671,0.0</coordinates>
                </Point>
            </Placemark>
            <Placemark id="519">
                <name>CINTHIA MARIELLA CRUZ ORTIZ</name>
                <description>CINTHIA MARIELLA CRUZ ORTIZ
AV. LUIS MONTERO MZ Z LT 2 URB.MIRA
Castilla
Castilla
Piura
Perú</description>
                <styleUrl>#520</styleUrl>
                <Point id="518">
                    <coordinates>-80.617903,-5.1886279,0.0</coordinates>
                </Point>
            </Placemark>
            <Placemark id="524">
                <name>LIDIA NAQUICHE GALLO</name>
                <description>LIDIA NAQUICHE GALLO
AA. HH TANGARARA MZ B LT 22
Piura
Piura
Piura
Perú</description>
                <styleUrl>#525</styleUrl>
                <Point id="523">
                    <coordinates>-80.6337375,-5.1848114,0.0</coordinates>
                </Point>
            </Placemark>
            <Placemark id="529">
                <name>CARMEN AURORA RAMOS FARFAN</name>
                <description>CALLE HUALLAGA 234 PACHITEA
Piura

Piura
Perú</description>
                <styleUrl>#530</styleUrl>
                <Point id="528">
                    <coordinates>-80.6299173,-5.1888997,0.0</coordinates>
                </Point>
            </Placemark>
            <Placemark id="534">
                <name>JUAN OCTAVIO QUINDE JUMBO</name>
                <description>MARAÑON LAMBAYEQUE #385 Piura-Piura
Piura
Piura
Piura
Perú</description>
                <styleUrl>#535</styleUrl>
                <Point id="533">
                    <coordinates>-80.629546,-5.1905161,0.0</coordinates>
                </Point>
            </Placemark>
            <Placemark id="539">
                <name>MIRIAN ELIZABETH GUERRERO NAVARRO</name>
                <description>HUALLAYA 312 PACHITEA Piura-Piura
Piura
Piura
Piura
Perú</description>
                <styleUrl>#540</styleUrl>
                <Point id="538">
                    <coordinates>-80.6303277,-5.1895541,0.0</coordinates>
                </Point>
            </Placemark>
            <Placemark id="544">
                <name>MIRIAN ELIZABETH GUERRERO NAVARRO</name>
                <description>HUALLAYA 312 PACHITEA Piura-Piura
Piura
Piura
Piura
Perú</description>
                <styleUrl>#545</styleUrl>
                <Point id="543">
                    <coordinates>-80.6303277,-5.1895541,0.0</coordinates>
                </Point>
            </Placemark>
            <Placemark id="549">
                <name>VALENCIA SALAZAR ABEL</name>
                <description>VALENCIA SALAZAR ABEL
MZ K LTE.14 URB.MIRAFLORES II ETAPA- CASTILLA
Castilla
Castilla
Piura
Perú</description>
                <styleUrl>#550</styleUrl>
                <Point id="548">
                    <coordinates>-80.6218484,-5.1832753,0.0</coordinates>
                </Point>
            </Placemark>
            <Placemark id="554">
                <name>VALENCIA SALAZAR ABEL</name>
                <description>VALENCIA SALAZAR ABEL
MZ K LTE.14 URB.MIRAFLORES II ETAPA- CASTILLA
Castilla
Castilla
Piura
Perú</description>
                <styleUrl>#555</styleUrl>
                <Point id="553">
                    <coordinates>-80.6218484,-5.1832753,0.0</coordinates>
                </Point>
            </Placemark>
            <Placemark id="559">
                <name>ANHUAMAN ASENCIO SANTOS JESUS</name>
                <description>CA.SAN PEDRO S/N ASOC. VILLA FAP
Castilla
Piura
Piura
Perú</description>
                <styleUrl>#560</styleUrl>
                <Point id="558">
                    <coordinates>-80.618179,-5.195508,0.0</coordinates>
                </Point>
            </Placemark>
            <Placemark id="564">
                <name>FABIOLA MONJARAS RUIZ DE SOMOCURCIO</name>
                <description>FABIOLA MONJARAS RUIZ DE SOMOCURCIO
CA.CAPULIES MZ Ñ LT 10 URB.MIRAFLORES - CASTILLA
Castilla

Piura
Perú</description>
                <styleUrl>#565</styleUrl>
                <Point id="563">
                    <coordinates>-80.6208089,-5.1924447,0.0</coordinates>
                </Point>
            </Placemark>
            <Placemark id="569">
                <name>YENY ELIZABETH BALLESTEROS MOGOLLON</name>
                <description>CALLE LOS CLAVELES MZN.X LOTE 8 URB. MIRAFLORES 1ERA ETAPA
Castilla

Piura
Perú</description>
                <styleUrl>#570</styleUrl>
                <Point id="568">
                    <coordinates>-80.619299,-5.190485,0.0</coordinates>
                </Point>
            </Placemark>
            <Placemark id="574">
                <name>DENNY ANGHELO NOBLECILLA AREVALO</name>
                <description>URB.MIRAFLORES 2 ETP MZ N LT 7 CASTILLASOC
Castilla
Piura
Piura
Perú</description>
                <styleUrl>#575</styleUrl>
                <Point id="573">
                    <coordinates>-80.622057,-5.1850346,0.0</coordinates>
                </Point>
            </Placemark>
            <Placemark id="579">
                <name>RICARDO ANTONIO GUTIERREZ CASTILLO</name>
                <description>CHIRICHIGNO N°135-Piura-Piura
Piura
Piura
Piura
Perú</description>
                <styleUrl>#580</styleUrl>
                <Point id="578">
                    <coordinates>-80.6254609,-5.1891153,0.0</coordinates>
                </Point>
            </Placemark>
            <Placemark id="584">
                <name>ROSA DALIA RIOS RIVERA</name>
                <description>Calle Junín 218 Piura
Piura
Piura
Piura
Perú</description>
                <styleUrl>#585</styleUrl>
                <Point id="583">
                    <coordinates>-80.6262809,-5.1877015,0.0</coordinates>
                </Point>
            </Placemark>
            <Placemark id="589">
                <name>CASTILLO RIJALBA ANA ERSEG YAMYLE</name>
                <description>CASTILLO RIJALBA ANA ERSEG YAMYLE
Calle Junín #133 Barrio Norte
Piura
Piura
Piura
Perú</description>
                <styleUrl>#590</styleUrl>
                <Point id="588">
                    <coordinates>-80.6264979,-5.1889677,0.0</coordinates>
                </Point>
            </Placemark>
            <Placemark id="594">
                <name>ESTHER LILIANA CORDOVA LESCANO</name>
                <description>CA.CAJAMARCA. 614 PACHITEA - PIURA
Piura

Piura
Perú</description>
                <styleUrl>#595</styleUrl>
                <Point id="593">
                    <coordinates>-80.6281026,-5.1902732,0.0</coordinates>
                </Point>
            </Placemark>
            <Placemark id="599">
                <name>MARIA DEL PILAR CABRERA CASTILLO</name>
                <description>1ERA DE PACHITEA #185 PACHITEA-Piura
Piura
Piura
Piura
Perú</description>
                <styleUrl>#600</styleUrl>
                <Point id="598">
                    <coordinates>-80.6301715,-5.1879894,0.0</coordinates>
                </Point>
            </Placemark>
            <Placemark id="604">
                <name>MILAGROS BONILLA FERNANDEZ</name>
                <description>CA.PACHITEA 280               
Piura
Piura
Piura
Perú</description>
                <styleUrl>#605</styleUrl>
                <Point id="603">
                    <coordinates>-80.6307884,-5.1890164,0.0</coordinates>
                </Point>
            </Placemark>
            <Placemark id="609">
                <name>JOSE ANTONIO NAYRA ROJAS</name>
                <description>AV. LUIS EGUIGUREN. MZN A LOTE  10 PACHITES (EX MALAGA)
Piura
Piura
Piura
Perú</description>
                <styleUrl>#610</styleUrl>
                <Point id="608">
                    <coordinates>-80.6326609,-5.185865,0.0</coordinates>
                </Point>
            </Placemark>
            <Placemark id="614">
                <name>ALEXY GUARDADO LYNCH</name>
                <description>1 ERA PACHITEA 200 ASENTAMIENTO HUMANO PACHITEA REFERENCIA A 2NCUADRAS DE REGISTRO PUBLICOS
Piura
Piura
Piura
Perú</description>
                <styleUrl>#615</styleUrl>
                <Point id="613">
                    <coordinates>-80.6302299,-5.1880373,0.0</coordinates>
                </Point>
            </Placemark>
            <Placemark id="619">
                <name>ROSA BERTHA MORALES SANCHEZ</name>
                <description>CUZCO 116-BARRIO NORTE-Piura  
Piura
Piura
Piura
Perú</description>
                <styleUrl>#620</styleUrl>
                <Point id="618">
                    <coordinates>-80.6260943,-5.1899606,0.0</coordinates>
                </Point>
            </Placemark>
            <Placemark id="624">
                <name>CAROLINA CANGO GARCIA DE ADRIANZEN</name>
                <description>CA.STA.ROSA 320 INT.BARRIO p  
Piura
Piura
Piura
Perú</description>
                <styleUrl>#625</styleUrl>
                <Point id="623">
                    <coordinates>-80.6311627,-5.1865365,0.0</coordinates>
                </Point>
            </Placemark>
            <Placemark id="629">
                <name>NEGOCIOS DIMAR EMPRESA INDIVIDUAL DE RESPONSABILIDAD LIMITADA</name>
                <description>JR. JUNIN NRO. 262 PIURA CERCADO
Piura
200101Piura
Piura
Perú</description>
                <styleUrl>#630</styleUrl>
                <Point id="628">
                    <coordinates>-80.6274353,-5.1913207,0.0</coordinates>
                </Point>
            </Placemark>
            <Placemark id="634">
                <name>ANA MARIA GALLO VARGAS</name>
                <description>ANA MARIA GALLO VARGAS
NUMERO 804 CA.SAN MARTIN CON CONTRI
Piura

Piura
Perú</description>
                <styleUrl>#635</styleUrl>
                <Point id="633">
                    <coordinates>-80.6314477,-5.1873417,0.0</coordinates>
                </Point>
            </Placemark>
            <Placemark id="639">
                <name>LUZ DEL SOCORRO PALACIOS RAMIREZ</name>
                <description>CA.CUZCO 309                  
Piura
Piura
Piura
Perú</description>
                <styleUrl>#640</styleUrl>
                <Point id="638">
                    <coordinates>-80.6269799,-5.1917583,0.0</coordinates>
                </Point>
            </Placemark>
            <Placemark id="644">
                <name>FRANCISCA ELVIRA ABAD BOYER</name>
                <description>JUNIN 505-N¬268-Piura-Piura
Piura
Piura
Piura
Perú</description>
                <styleUrl>#645</styleUrl>
                <Point id="643">
                    <coordinates>-80.6275189,-5.1913476,0.0</coordinates>
                </Point>
            </Placemark>
        </Folder>
    </Document>
</kml>
