<?xml version="1.0" encoding="UTF-8"?>
<kml xmlns="http://www.opengis.net/kml/2.2" xmlns:gx="http://www.google.com/kml/ext/2.2">
    <Document id="285">
        <Folder id="286">
            <Style id="289">
                <IconStyle id="290">
                    <color>ff0000ff</color>
                    <colorMode>normal</colorMode>
                    <scale>1</scale>
                    <heading>0</heading>
                    <Icon id="291">
                        <href>http://maps.google.com/mapfiles/kml/pushpin/ylw-pushpin.png</href>
                    </Icon>
                </IconStyle>
            </Style>
            <Style id="294">
                <IconStyle id="295">
                    <color>ff0000ff</color>
                    <colorMode>normal</colorMode>
                    <scale>1</scale>
                    <heading>0</heading>
                    <Icon id="296">
                        <href>http://maps.google.com/mapfiles/kml/pushpin/ylw-pushpin.png</href>
                    </Icon>
                </IconStyle>
            </Style>
            <Style id="299">
                <IconStyle id="300">
                    <color>ff0000ff</color>
                    <colorMode>normal</colorMode>
                    <scale>1</scale>
                    <heading>0</heading>
                    <Icon id="301">
                        <href>http://maps.google.com/mapfiles/kml/pushpin/ylw-pushpin.png</href>
                    </Icon>
                </IconStyle>
            </Style>
            <Style id="304">
                <IconStyle id="305">
                    <color>ff0000ff</color>
                    <colorMode>normal</colorMode>
                    <scale>1</scale>
                    <heading>0</heading>
                    <Icon id="306">
                        <href>http://maps.google.com/mapfiles/kml/pushpin/ylw-pushpin.png</href>
                    </Icon>
                </IconStyle>
            </Style>
            <Style id="309">
                <IconStyle id="310">
                    <color>ff0000ff</color>
                    <colorMode>normal</colorMode>
                    <scale>1</scale>
                    <heading>0</heading>
                    <Icon id="311">
                        <href>http://maps.google.com/mapfiles/kml/pushpin/ylw-pushpin.png</href>
                    </Icon>
                </IconStyle>
            </Style>
            <Style id="314">
                <IconStyle id="315">
                    <color>ff0000ff</color>
                    <colorMode>normal</colorMode>
                    <scale>1</scale>
                    <heading>0</heading>
                    <Icon id="316">
                        <href>http://maps.google.com/mapfiles/kml/pushpin/ylw-pushpin.png</href>
                    </Icon>
                </IconStyle>
            </Style>
            <Style id="319">
                <IconStyle id="320">
                    <color>ff0000ff</color>
                    <colorMode>normal</colorMode>
                    <scale>1</scale>
                    <heading>0</heading>
                    <Icon id="321">
                        <href>http://maps.google.com/mapfiles/kml/pushpin/ylw-pushpin.png</href>
                    </Icon>
                </IconStyle>
            </Style>
            <Style id="324">
                <IconStyle id="325">
                    <color>ff0000ff</color>
                    <colorMode>normal</colorMode>
                    <scale>1</scale>
                    <heading>0</heading>
                    <Icon id="326">
                        <href>http://maps.google.com/mapfiles/kml/pushpin/ylw-pushpin.png</href>
                    </Icon>
                </IconStyle>
            </Style>
            <Style id="329">
                <IconStyle id="330">
                    <color>ff0000ff</color>
                    <colorMode>normal</colorMode>
                    <scale>1</scale>
                    <heading>0</heading>
                    <Icon id="331">
                        <href>http://maps.google.com/mapfiles/kml/pushpin/ylw-pushpin.png</href>
                    </Icon>
                </IconStyle>
            </Style>
            <Style id="334">
                <IconStyle id="335">
                    <color>ff0000ff</color>
                    <colorMode>normal</colorMode>
                    <scale>1</scale>
                    <heading>0</heading>
                    <Icon id="336">
                        <href>http://maps.google.com/mapfiles/kml/pushpin/ylw-pushpin.png</href>
                    </Icon>
                </IconStyle>
            </Style>
            <Style id="339">
                <IconStyle id="340">
                    <color>ff0000ff</color>
                    <colorMode>normal</colorMode>
                    <scale>1</scale>
                    <heading>0</heading>
                    <Icon id="341">
                        <href>http://maps.google.com/mapfiles/kml/pushpin/ylw-pushpin.png</href>
                    </Icon>
                </IconStyle>
            </Style>
            <Style id="344">
                <IconStyle id="345">
                    <color>ff0000ff</color>
                    <colorMode>normal</colorMode>
                    <scale>1</scale>
                    <heading>0</heading>
                    <Icon id="346">
                        <href>http://maps.google.com/mapfiles/kml/pushpin/ylw-pushpin.png</href>
                    </Icon>
                </IconStyle>
            </Style>
            <Style id="349">
                <IconStyle id="350">
                    <color>ff0000ff</color>
                    <colorMode>normal</colorMode>
                    <scale>1</scale>
                    <heading>0</heading>
                    <Icon id="351">
                        <href>http://maps.google.com/mapfiles/kml/pushpin/ylw-pushpin.png</href>
                    </Icon>
                </IconStyle>
            </Style>
            <Style id="354">
                <IconStyle id="355">
                    <color>ff0000ff</color>
                    <colorMode>normal</colorMode>
                    <scale>1</scale>
                    <heading>0</heading>
                    <Icon id="356">
                        <href>http://maps.google.com/mapfiles/kml/pushpin/ylw-pushpin.png</href>
                    </Icon>
                </IconStyle>
            </Style>
            <Style id="359">
                <IconStyle id="360">
                    <color>ff0000ff</color>
                    <colorMode>normal</colorMode>
                    <scale>1</scale>
                    <heading>0</heading>
                    <Icon id="361">
                        <href>http://maps.google.com/mapfiles/kml/pushpin/ylw-pushpin.png</href>
                    </Icon>
                </IconStyle>
            </Style>
            <Style id="364">
                <IconStyle id="365">
                    <color>ff0000ff</color>
                    <colorMode>normal</colorMode>
                    <scale>1</scale>
                    <heading>0</heading>
                    <Icon id="366">
                        <href>http://maps.google.com/mapfiles/kml/pushpin/ylw-pushpin.png</href>
                    </Icon>
                </IconStyle>
            </Style>
            <Style id="369">
                <IconStyle id="370">
                    <color>ff0000ff</color>
                    <colorMode>normal</colorMode>
                    <scale>1</scale>
                    <heading>0</heading>
                    <Icon id="371">
                        <href>http://maps.google.com/mapfiles/kml/pushpin/ylw-pushpin.png</href>
                    </Icon>
                </IconStyle>
            </Style>
            <Style id="374">
                <IconStyle id="375">
                    <color>ff0000ff</color>
                    <colorMode>normal</colorMode>
                    <scale>1</scale>
                    <heading>0</heading>
                    <Icon id="376">
                        <href>http://maps.google.com/mapfiles/kml/pushpin/ylw-pushpin.png</href>
                    </Icon>
                </IconStyle>
            </Style>
            <Style id="379">
                <IconStyle id="380">
                    <color>ff0000ff</color>
                    <colorMode>normal</colorMode>
                    <scale>1</scale>
                    <heading>0</heading>
                    <Icon id="381">
                        <href>http://maps.google.com/mapfiles/kml/pushpin/ylw-pushpin.png</href>
                    </Icon>
                </IconStyle>
            </Style>
            <Style id="384">
                <IconStyle id="385">
                    <color>ff0000ff</color>
                    <colorMode>normal</colorMode>
                    <scale>1</scale>
                    <heading>0</heading>
                    <Icon id="386">
                        <href>http://maps.google.com/mapfiles/kml/pushpin/ylw-pushpin.png</href>
                    </Icon>
                </IconStyle>
            </Style>
            <Style id="389">
                <IconStyle id="390">
                    <color>ff0000ff</color>
                    <colorMode>normal</colorMode>
                    <scale>1</scale>
                    <heading>0</heading>
                    <Icon id="391">
                        <href>http://maps.google.com/mapfiles/kml/pushpin/ylw-pushpin.png</href>
                    </Icon>
                </IconStyle>
            </Style>
            <Style id="394">
                <IconStyle id="395">
                    <color>ff0000ff</color>
                    <colorMode>normal</colorMode>
                    <scale>1</scale>
                    <heading>0</heading>
                    <Icon id="396">
                        <href>http://maps.google.com/mapfiles/kml/pushpin/ylw-pushpin.png</href>
                    </Icon>
                </IconStyle>
            </Style>
            <Style id="399">
                <IconStyle id="400">
                    <color>ff0000ff</color>
                    <colorMode>normal</colorMode>
                    <scale>1</scale>
                    <heading>0</heading>
                    <Icon id="401">
                        <href>http://maps.google.com/mapfiles/kml/pushpin/ylw-pushpin.png</href>
                    </Icon>
                </IconStyle>
            </Style>
            <Style id="404">
                <IconStyle id="405">
                    <color>ff0000ff</color>
                    <colorMode>normal</colorMode>
                    <scale>1</scale>
                    <heading>0</heading>
                    <Icon id="406">
                        <href>http://maps.google.com/mapfiles/kml/pushpin/ylw-pushpin.png</href>
                    </Icon>
                </IconStyle>
            </Style>
            <Style id="409">
                <IconStyle id="410">
                    <color>ff0000ff</color>
                    <colorMode>normal</colorMode>
                    <scale>1</scale>
                    <heading>0</heading>
                    <Icon id="411">
                        <href>http://maps.google.com/mapfiles/kml/pushpin/ylw-pushpin.png</href>
                    </Icon>
                </IconStyle>
            </Style>
            <Style id="414">
                <IconStyle id="415">
                    <color>ff0000ff</color>
                    <colorMode>normal</colorMode>
                    <scale>1</scale>
                    <heading>0</heading>
                    <Icon id="416">
                        <href>http://maps.google.com/mapfiles/kml/pushpin/ylw-pushpin.png</href>
                    </Icon>
                </IconStyle>
            </Style>
            <name>JOSE DAVID QUISPE RENTERIA</name>
            <Placemark id="288">
                <name>ROSARIO DEL PILAR CHUQUILIN FERNANDEZ</name>
                <description>MZ HB LT 6 SANTA MARGARITA    
Veintiséis de Octubre
Veintiséis de Octubre
Piura
Perú</description>
                <styleUrl>#289</styleUrl>
                <Point id="287">
                    <coordinates>-80.6610944,-5.1685599,0.0</coordinates>
                </Point>
            </Placemark>
            <Placemark id="293">
                <name>MARGARITA JULISSA CHERO ORTIZ</name>
                <description>MZ HA LT 19 URB SANTA MARGARIT
Veintiséis de Octubre
Piura
Piura
Perú</description>
                <styleUrl>#294</styleUrl>
                <Point id="292">
                    <coordinates>-80.6614979,-5.1679668,0.0</coordinates>
                </Point>
            </Placemark>
            <Placemark id="298">
                <name>CARMELA GOMERO BRUNO</name>
                <description>URB.STA.MARGARITA VI MZ.OB-23 
Veintiséis de Octubre
Piura
Piura
Perú</description>
                <styleUrl>#299</styleUrl>
                <Point id="297">
                    <coordinates>-80.6629371,-5.1671084,0.0</coordinates>
                </Point>
            </Placemark>
            <Placemark id="303">
                <name>JIMENEZ RIVERA MERCEDES JHONY</name>
                <description>JIMENEZ RIVERA MERCEDES JHONY
URB SANTA MARGARITA 5 ETAPA MZ OE LOTE 1
Veintiséis de Octubre
Veintiséis de Octubre
Piura
Perú</description>
                <styleUrl>#304</styleUrl>
                <Point id="302">
                    <coordinates>-80.6644017,-5.166624,0.0</coordinates>
                </Point>
            </Placemark>
            <Placemark id="308">
                <name>MERCEDES ANCAJIMA CASTRO</name>
                <description>Av. Amapolas Mz O LT. 11 AA.HH VILLA JARDIN (costado de rest. La Caballita)
Veintiséis de Octubre
Veintiséis de Octubre
Piura
Perú</description>
                <styleUrl>#309</styleUrl>
                <Point id="307">
                    <coordinates>-80.6581558,-5.16424,0.0</coordinates>
                </Point>
            </Placemark>
            <Placemark id="313">
                <name>BRICEÑO DE VALDIVIEZO MILKA CARMEN</name>
                <description>BRICEÑO DE VALDIVIEZO MILKA CARMEN
URB. SANTA MARGARITA MZ.EC LT.06 -7 etapa
Veintiséis de Octubre
Piura
Piura
Perú</description>
                <styleUrl>#314</styleUrl>
                <Point id="312">
                    <coordinates>-80.6608052,-5.1692189,0.0</coordinates>
                </Point>
            </Placemark>
            <Placemark id="318">
                <name>NORMA NUÑEZ VIGIL</name>
                <description>MZ CB LTE 5 AV. PRINCIPAL URB. SANTA MARGARITA
Veintiséis de Octubre
Veintiséis de Octubre
Piura
Perú</description>
                <styleUrl>#319</styleUrl>
                <Point id="317">
                    <coordinates>-80.6595732,-5.1689668,0.0</coordinates>
                </Point>
            </Placemark>
            <Placemark id="323">
                <name>NORMA NUÑEZ VIGIL</name>
                <description>MZ CB LTE 5 AV. PRINCIPAL URB. SANTA MARGARITA
Veintiséis de Octubre
Veintiséis de Octubre
Piura
Perú</description>
                <styleUrl>#324</styleUrl>
                <Point id="322">
                    <coordinates>-80.6595732,-5.1689668,0.0</coordinates>
                </Point>
            </Placemark>
            <Placemark id="328">
                <name>NORMA NUÑEZ VIGIL</name>
                <description>MZ CB LTE 5 AV. PRINCIPAL URB. SANTA MARGARITA
Veintiséis de Octubre
Veintiséis de Octubre
Piura
Perú</description>
                <styleUrl>#329</styleUrl>
                <Point id="327">
                    <coordinates>-80.6595732,-5.1689668,0.0</coordinates>
                </Point>
            </Placemark>
            <Placemark id="333">
                <name>JHON JAROL CASTAÑEDA AGURTO</name>
                <description>Manzana j21 los claveles
Veintiséis de Octubre
Veintiséis de Octubre
Piura
Perú</description>
                <styleUrl>#334</styleUrl>
                <Point id="332">
                    <coordinates>-80.658041,-5.165812,0.0</coordinates>
                </Point>
            </Placemark>
            <Placemark id="338">
                <name>YELI YOHANA ALVARADO CORDOVA</name>
                <description>MZ G LT 26 CA.3 AH.LAS DALIAS 
Veintiséis de Octubre
Piura
Piura
Perú</description>
                <styleUrl>#339</styleUrl>
                <Point id="337">
                    <coordinates>-80.660662,-5.162918,0.0</coordinates>
                </Point>
            </Placemark>
            <Placemark id="343">
                <name>VERONICA CORDOVA TORRES</name>
                <description>MZ B LOTE 4 AA.HH LAS DALIAS 1ERA ETAPA
Veintiséis de Octubre
Veintiséis de Octubre
Piura
Perú</description>
                <styleUrl>#344</styleUrl>
                <Point id="342">
                    <coordinates>-80.6606501,-5.1632465,0.0</coordinates>
                </Point>
            </Placemark>
            <Placemark id="348">
                <name>JOSE LUIS YARLEQUE SOSA</name>
                <description>Mz. D Lt. 43 Las Dalias 1ra etapa - veintiséis de Octubre
Veintiséis de Octubre
Veintiséis de Octubre
Piura
Perú</description>
                <styleUrl>#349</styleUrl>
                <Point id="347">
                    <coordinates>-80.6612847,-5.1637589,0.0</coordinates>
                </Point>
            </Placemark>
            <Placemark id="353">
                <name>BERENISE DEL PILAR LOPEZ ARTEAGA</name>
                <description>MZ C LOTE 1 LAS DALIAS FRENTE A SANTA MARGARITA
Veintiséis de Octubre
Veintiséis de Octubre
Piura
Perú</description>
                <styleUrl>#354</styleUrl>
                <Point id="352">
                    <coordinates>-80.6608022,-5.1640394,0.0</coordinates>
                </Point>
            </Placemark>
            <Placemark id="358">
                <name>JAVIER ALONSO PUESCAS ARIZOLA</name>
                <description>MZ GA LTE 4 AV. PRINCIPAL 4 ETAPA URB. SANTA MARGARITA
Veintiséis de Octubre
Veintiséis de Octubre
Piura
Perú</description>
                <styleUrl>#359</styleUrl>
                <Point id="357">
                    <coordinates>-80.6606111,-5.1683336,0.0</coordinates>
                </Point>
            </Placemark>
            <Placemark id="363">
                <name>MARIA MAGDALENA PAREDES MORALES</name>
                <description>STA MARGARITA MZ GA LT03 IV ET
Veintiséis de Octubre
Veintiséis de Octubre
Piura
Perú</description>
                <styleUrl>#364</styleUrl>
                <Point id="362">
                    <coordinates>-80.6607086,-5.1683978,0.0</coordinates>
                </Point>
            </Placemark>
            <Placemark id="368">
                <name>LAYNIKER WUIN HERRERA RENTERIA</name>
                <description>AAHH VILLA JARDÍN MZ E LOTE 9
Veintiséis de Octubre
Veintiséis de Octubre
Piura
Perú</description>
                <styleUrl>#369</styleUrl>
                <Point id="367">
                    <coordinates>-80.6552602,-5.1659138,0.0</coordinates>
                </Point>
            </Placemark>
            <Placemark id="373">
                <name>RONAL HUAMAN HUACHES</name>
                <description>URB.STA MARGARITA MZ.MA LT.10 
Veintiséis de Octubre
Veintiséis de Octubre
Piura
Perú</description>
                <styleUrl>#374</styleUrl>
                <Point id="372">
                    <coordinates>-80.6622781,-5.1669916,0.0</coordinates>
                </Point>
            </Placemark>
            <Placemark id="378">
                <name>SEGUNDO ALONSO BUSTAMANTE PEREZ</name>
                <description>AA. HH LOS CA. AVELES MZ O LT 3
Veintiséis de Octubre
Veintiséis de Octubre
Piura
Perú</description>
                <styleUrl>#379</styleUrl>
                <Point id="377">
                    <coordinates>-80.659796,-5.166703,0.0</coordinates>
                </Point>
            </Placemark>
            <Placemark id="383">
                <name>TEOTISTA CARDENAS PIZARRO</name>
                <description>MZ FC LT 10 CA-3 ET 1 ST MARG 
Veintiséis de Octubre
Veintiséis de Octubre
Piura
Perú</description>
                <styleUrl>#384</styleUrl>
                <Point id="382">
                    <coordinates>-80.6597807,-5.1674868,0.0</coordinates>
                </Point>
            </Placemark>
            <Placemark id="388">
                <name>COLAN RUIZ MARIA</name>
                <description>AAHH LOS CLAVELES MZ J LOTE 24
Veintiséis de Octubre
Veintiséis de Octubre
Piura
Perú</description>
                <styleUrl>#389</styleUrl>
                <Point id="387">
                    <coordinates>-80.6574906,-5.1657432,0.0</coordinates>
                </Point>
            </Placemark>
            <Placemark id="393">
                <name>SILVIA MORALES PALACIOS DE TORRES</name>
                <description>MZ S LOTE 18 AA.HH VILLA JARDI
Veintiséis de Octubre
Veintiséis de Octubre
Piura
Perú</description>
                <styleUrl>#394</styleUrl>
                <Point id="392">
                    <coordinates>-80.65485,-5.164524,0.0</coordinates>
                </Point>
            </Placemark>
            <Placemark id="398">
                <name>VILMA QUITO VICENTE</name>
                <description>MZ S LOTE 14  VILLA JARDIN
Veintiséis de Octubre
Piura
Piura
Perú</description>
                <styleUrl>#399</styleUrl>
                <Point id="397">
                    <coordinates>-80.6550927,-5.1639779,0.0</coordinates>
                </Point>
            </Placemark>
            <Placemark id="403">
                <name>COVEÑAS LIZANO IRVIN ANGEL</name>
                <description>COVEÑAS LIZANO IRVIN ANGEL
AAHH VILLA JARDÍN MZ B LOTE 12 26 DE OCTUBRE
Veintiséis de Octubre
Veintiséis de Octubre
Piura
Perú</description>
                <styleUrl>#404</styleUrl>
                <Point id="402">
                    <coordinates>-80.6549081,-5.1667282,0.0</coordinates>
                </Point>
            </Placemark>
            <Placemark id="408">
                <name>NANCY CHOQUEHUANCA PEÑA</name>
                <description>A.H.VILLA JARDIN MZ.A LT.2    
Veintiséis de Octubre
Veintiséis de Octubre
Piura
Perú</description>
                <styleUrl>#409</styleUrl>
                <Point id="407">
                    <coordinates>-80.6548447,-5.1666603,0.0</coordinates>
                </Point>
            </Placemark>
            <Placemark id="413">
                <name>NANCY CHOQUEHUANCA PEÑA</name>
                <description>A.H.VILLA JARDIN MZ.A LT.2    
Veintiséis de Octubre
Veintiséis de Octubre
Piura
Perú</description>
                <styleUrl>#414</styleUrl>
                <Point id="412">
                    <coordinates>-80.6548447,-5.1666603,0.0</coordinates>
                </Point>
            </Placemark>
        </Folder>
        <Folder id="417">
            <Style id="420">
                <IconStyle id="421">
                    <color>ffff0000</color>
                    <colorMode>normal</colorMode>
                    <scale>1</scale>
                    <heading>0</heading>
                    <Icon id="422">
                        <href>http://maps.google.com/mapfiles/kml/pushpin/ylw-pushpin.png</href>
                    </Icon>
                </IconStyle>
            </Style>
            <Style id="425">
                <IconStyle id="426">
                    <color>ffff0000</color>
                    <colorMode>normal</colorMode>
                    <scale>1</scale>
                    <heading>0</heading>
                    <Icon id="427">
                        <href>http://maps.google.com/mapfiles/kml/pushpin/ylw-pushpin.png</href>
                    </Icon>
                </IconStyle>
            </Style>
            <Style id="430">
                <IconStyle id="431">
                    <color>ffff0000</color>
                    <colorMode>normal</colorMode>
                    <scale>1</scale>
                    <heading>0</heading>
                    <Icon id="432">
                        <href>http://maps.google.com/mapfiles/kml/pushpin/ylw-pushpin.png</href>
                    </Icon>
                </IconStyle>
            </Style>
            <Style id="435">
                <IconStyle id="436">
                    <color>ffff0000</color>
                    <colorMode>normal</colorMode>
                    <scale>1</scale>
                    <heading>0</heading>
                    <Icon id="437">
                        <href>http://maps.google.com/mapfiles/kml/pushpin/ylw-pushpin.png</href>
                    </Icon>
                </IconStyle>
            </Style>
            <Style id="440">
                <IconStyle id="441">
                    <color>ffff0000</color>
                    <colorMode>normal</colorMode>
                    <scale>1</scale>
                    <heading>0</heading>
                    <Icon id="442">
                        <href>http://maps.google.com/mapfiles/kml/pushpin/ylw-pushpin.png</href>
                    </Icon>
                </IconStyle>
            </Style>
            <Style id="445">
                <IconStyle id="446">
                    <color>ffff0000</color>
                    <colorMode>normal</colorMode>
                    <scale>1</scale>
                    <heading>0</heading>
                    <Icon id="447">
                        <href>http://maps.google.com/mapfiles/kml/pushpin/ylw-pushpin.png</href>
                    </Icon>
                </IconStyle>
            </Style>
            <Style id="450">
                <IconStyle id="451">
                    <color>ffff0000</color>
                    <colorMode>normal</colorMode>
                    <scale>1</scale>
                    <heading>0</heading>
                    <Icon id="452">
                        <href>http://maps.google.com/mapfiles/kml/pushpin/ylw-pushpin.png</href>
                    </Icon>
                </IconStyle>
            </Style>
            <Style id="455">
                <IconStyle id="456">
                    <color>ffff0000</color>
                    <colorMode>normal</colorMode>
                    <scale>1</scale>
                    <heading>0</heading>
                    <Icon id="457">
                        <href>http://maps.google.com/mapfiles/kml/pushpin/ylw-pushpin.png</href>
                    </Icon>
                </IconStyle>
            </Style>
            <Style id="460">
                <IconStyle id="461">
                    <color>ffff0000</color>
                    <colorMode>normal</colorMode>
                    <scale>1</scale>
                    <heading>0</heading>
                    <Icon id="462">
                        <href>http://maps.google.com/mapfiles/kml/pushpin/ylw-pushpin.png</href>
                    </Icon>
                </IconStyle>
            </Style>
            <Style id="465">
                <IconStyle id="466">
                    <color>ffff0000</color>
                    <colorMode>normal</colorMode>
                    <scale>1</scale>
                    <heading>0</heading>
                    <Icon id="467">
                        <href>http://maps.google.com/mapfiles/kml/pushpin/ylw-pushpin.png</href>
                    </Icon>
                </IconStyle>
            </Style>
            <Style id="470">
                <IconStyle id="471">
                    <color>ffff0000</color>
                    <colorMode>normal</colorMode>
                    <scale>1</scale>
                    <heading>0</heading>
                    <Icon id="472">
                        <href>http://maps.google.com/mapfiles/kml/pushpin/ylw-pushpin.png</href>
                    </Icon>
                </IconStyle>
            </Style>
            <Style id="475">
                <IconStyle id="476">
                    <color>ffff0000</color>
                    <colorMode>normal</colorMode>
                    <scale>1</scale>
                    <heading>0</heading>
                    <Icon id="477">
                        <href>http://maps.google.com/mapfiles/kml/pushpin/ylw-pushpin.png</href>
                    </Icon>
                </IconStyle>
            </Style>
            <Style id="480">
                <IconStyle id="481">
                    <color>ffff0000</color>
                    <colorMode>normal</colorMode>
                    <scale>1</scale>
                    <heading>0</heading>
                    <Icon id="482">
                        <href>http://maps.google.com/mapfiles/kml/pushpin/ylw-pushpin.png</href>
                    </Icon>
                </IconStyle>
            </Style>
            <Style id="485">
                <IconStyle id="486">
                    <color>ffff0000</color>
                    <colorMode>normal</colorMode>
                    <scale>1</scale>
                    <heading>0</heading>
                    <Icon id="487">
                        <href>http://maps.google.com/mapfiles/kml/pushpin/ylw-pushpin.png</href>
                    </Icon>
                </IconStyle>
            </Style>
            <Style id="490">
                <IconStyle id="491">
                    <color>ffff0000</color>
                    <colorMode>normal</colorMode>
                    <scale>1</scale>
                    <heading>0</heading>
                    <Icon id="492">
                        <href>http://maps.google.com/mapfiles/kml/pushpin/ylw-pushpin.png</href>
                    </Icon>
                </IconStyle>
            </Style>
            <Style id="495">
                <IconStyle id="496">
                    <color>ffff0000</color>
                    <colorMode>normal</colorMode>
                    <scale>1</scale>
                    <heading>0</heading>
                    <Icon id="497">
                        <href>http://maps.google.com/mapfiles/kml/pushpin/ylw-pushpin.png</href>
                    </Icon>
                </IconStyle>
            </Style>
            <Style id="500">
                <IconStyle id="501">
                    <color>ffff0000</color>
                    <colorMode>normal</colorMode>
                    <scale>1</scale>
                    <heading>0</heading>
                    <Icon id="502">
                        <href>http://maps.google.com/mapfiles/kml/pushpin/ylw-pushpin.png</href>
                    </Icon>
                </IconStyle>
            </Style>
            <Style id="505">
                <IconStyle id="506">
                    <color>ffff0000</color>
                    <colorMode>normal</colorMode>
                    <scale>1</scale>
                    <heading>0</heading>
                    <Icon id="507">
                        <href>http://maps.google.com/mapfiles/kml/pushpin/ylw-pushpin.png</href>
                    </Icon>
                </IconStyle>
            </Style>
            <Style id="510">
                <IconStyle id="511">
                    <color>ffff0000</color>
                    <colorMode>normal</colorMode>
                    <scale>1</scale>
                    <heading>0</heading>
                    <Icon id="512">
                        <href>http://maps.google.com/mapfiles/kml/pushpin/ylw-pushpin.png</href>
                    </Icon>
                </IconStyle>
            </Style>
            <Style id="515">
                <IconStyle id="516">
                    <color>ffff0000</color>
                    <colorMode>normal</colorMode>
                    <scale>1</scale>
                    <heading>0</heading>
                    <Icon id="517">
                        <href>http://maps.google.com/mapfiles/kml/pushpin/ylw-pushpin.png</href>
                    </Icon>
                </IconStyle>
            </Style>
            <Style id="520">
                <IconStyle id="521">
                    <color>ffff0000</color>
                    <colorMode>normal</colorMode>
                    <scale>1</scale>
                    <heading>0</heading>
                    <Icon id="522">
                        <href>http://maps.google.com/mapfiles/kml/pushpin/ylw-pushpin.png</href>
                    </Icon>
                </IconStyle>
            </Style>
            <Style id="525">
                <IconStyle id="526">
                    <color>ffff0000</color>
                    <colorMode>normal</colorMode>
                    <scale>1</scale>
                    <heading>0</heading>
                    <Icon id="527">
                        <href>http://maps.google.com/mapfiles/kml/pushpin/ylw-pushpin.png</href>
                    </Icon>
                </IconStyle>
            </Style>
            <Style id="530">
                <IconStyle id="531">
                    <color>ffff0000</color>
                    <colorMode>normal</colorMode>
                    <scale>1</scale>
                    <heading>0</heading>
                    <Icon id="532">
                        <href>http://maps.google.com/mapfiles/kml/pushpin/ylw-pushpin.png</href>
                    </Icon>
                </IconStyle>
            </Style>
            <Style id="535">
                <IconStyle id="536">
                    <color>ffff0000</color>
                    <colorMode>normal</colorMode>
                    <scale>1</scale>
                    <heading>0</heading>
                    <Icon id="537">
                        <href>http://maps.google.com/mapfiles/kml/pushpin/ylw-pushpin.png</href>
                    </Icon>
                </IconStyle>
            </Style>
            <Style id="540">
                <IconStyle id="541">
                    <color>ffff0000</color>
                    <colorMode>normal</colorMode>
                    <scale>1</scale>
                    <heading>0</heading>
                    <Icon id="542">
                        <href>http://maps.google.com/mapfiles/kml/pushpin/ylw-pushpin.png</href>
                    </Icon>
                </IconStyle>
            </Style>
            <Style id="545">
                <IconStyle id="546">
                    <color>ffff0000</color>
                    <colorMode>normal</colorMode>
                    <scale>1</scale>
                    <heading>0</heading>
                    <Icon id="547">
                        <href>http://maps.google.com/mapfiles/kml/pushpin/ylw-pushpin.png</href>
                    </Icon>
                </IconStyle>
            </Style>
            <Style id="550">
                <IconStyle id="551">
                    <color>ffff0000</color>
                    <colorMode>normal</colorMode>
                    <scale>1</scale>
                    <heading>0</heading>
                    <Icon id="552">
                        <href>http://maps.google.com/mapfiles/kml/pushpin/ylw-pushpin.png</href>
                    </Icon>
                </IconStyle>
            </Style>
            <Style id="555">
                <IconStyle id="556">
                    <color>ffff0000</color>
                    <colorMode>normal</colorMode>
                    <scale>1</scale>
                    <heading>0</heading>
                    <Icon id="557">
                        <href>http://maps.google.com/mapfiles/kml/pushpin/ylw-pushpin.png</href>
                    </Icon>
                </IconStyle>
            </Style>
            <Style id="560">
                <IconStyle id="561">
                    <color>ffff0000</color>
                    <colorMode>normal</colorMode>
                    <scale>1</scale>
                    <heading>0</heading>
                    <Icon id="562">
                        <href>http://maps.google.com/mapfiles/kml/pushpin/ylw-pushpin.png</href>
                    </Icon>
                </IconStyle>
            </Style>
            <Style id="565">
                <IconStyle id="566">
                    <color>ffff0000</color>
                    <colorMode>normal</colorMode>
                    <scale>1</scale>
                    <heading>0</heading>
                    <Icon id="567">
                        <href>http://maps.google.com/mapfiles/kml/pushpin/ylw-pushpin.png</href>
                    </Icon>
                </IconStyle>
            </Style>
            <Style id="570">
                <IconStyle id="571">
                    <color>ffff0000</color>
                    <colorMode>normal</colorMode>
                    <scale>1</scale>
                    <heading>0</heading>
                    <Icon id="572">
                        <href>http://maps.google.com/mapfiles/kml/pushpin/ylw-pushpin.png</href>
                    </Icon>
                </IconStyle>
            </Style>
            <Style id="575">
                <IconStyle id="576">
                    <color>ffff0000</color>
                    <colorMode>normal</colorMode>
                    <scale>1</scale>
                    <heading>0</heading>
                    <Icon id="577">
                        <href>http://maps.google.com/mapfiles/kml/pushpin/ylw-pushpin.png</href>
                    </Icon>
                </IconStyle>
            </Style>
            <Style id="580">
                <IconStyle id="581">
                    <color>ffff0000</color>
                    <colorMode>normal</colorMode>
                    <scale>1</scale>
                    <heading>0</heading>
                    <Icon id="582">
                        <href>http://maps.google.com/mapfiles/kml/pushpin/ylw-pushpin.png</href>
                    </Icon>
                </IconStyle>
            </Style>
            <Style id="585">
                <IconStyle id="586">
                    <color>ffff0000</color>
                    <colorMode>normal</colorMode>
                    <scale>1</scale>
                    <heading>0</heading>
                    <Icon id="587">
                        <href>http://maps.google.com/mapfiles/kml/pushpin/ylw-pushpin.png</href>
                    </Icon>
                </IconStyle>
            </Style>
            <Style id="590">
                <IconStyle id="591">
                    <color>ffff0000</color>
                    <colorMode>normal</colorMode>
                    <scale>1</scale>
                    <heading>0</heading>
                    <Icon id="592">
                        <href>http://maps.google.com/mapfiles/kml/pushpin/ylw-pushpin.png</href>
                    </Icon>
                </IconStyle>
            </Style>
            <Style id="595">
                <IconStyle id="596">
                    <color>ffff0000</color>
                    <colorMode>normal</colorMode>
                    <scale>1</scale>
                    <heading>0</heading>
                    <Icon id="597">
                        <href>http://maps.google.com/mapfiles/kml/pushpin/ylw-pushpin.png</href>
                    </Icon>
                </IconStyle>
            </Style>
            <Style id="600">
                <IconStyle id="601">
                    <color>ffff0000</color>
                    <colorMode>normal</colorMode>
                    <scale>1</scale>
                    <heading>0</heading>
                    <Icon id="602">
                        <href>http://maps.google.com/mapfiles/kml/pushpin/ylw-pushpin.png</href>
                    </Icon>
                </IconStyle>
            </Style>
            <Style id="605">
                <IconStyle id="606">
                    <color>ffff0000</color>
                    <colorMode>normal</colorMode>
                    <scale>1</scale>
                    <heading>0</heading>
                    <Icon id="607">
                        <href>http://maps.google.com/mapfiles/kml/pushpin/ylw-pushpin.png</href>
                    </Icon>
                </IconStyle>
            </Style>
            <Style id="610">
                <IconStyle id="611">
                    <color>ffff0000</color>
                    <colorMode>normal</colorMode>
                    <scale>1</scale>
                    <heading>0</heading>
                    <Icon id="612">
                        <href>http://maps.google.com/mapfiles/kml/pushpin/ylw-pushpin.png</href>
                    </Icon>
                </IconStyle>
            </Style>
            <Style id="615">
                <IconStyle id="616">
                    <color>ffff0000</color>
                    <colorMode>normal</colorMode>
                    <scale>1</scale>
                    <heading>0</heading>
                    <Icon id="617">
                        <href>http://maps.google.com/mapfiles/kml/pushpin/ylw-pushpin.png</href>
                    </Icon>
                </IconStyle>
            </Style>
            <Style id="620">
                <IconStyle id="621">
                    <color>ffff0000</color>
                    <colorMode>normal</colorMode>
                    <scale>1</scale>
                    <heading>0</heading>
                    <Icon id="622">
                        <href>http://maps.google.com/mapfiles/kml/pushpin/ylw-pushpin.png</href>
                    </Icon>
                </IconStyle>
            </Style>
            <Style id="625">
                <IconStyle id="626">
                    <color>ffff0000</color>
                    <colorMode>normal</colorMode>
                    <scale>1</scale>
                    <heading>0</heading>
                    <Icon id="627">
                        <href>http://maps.google.com/mapfiles/kml/pushpin/ylw-pushpin.png</href>
                    </Icon>
                </IconStyle>
            </Style>
            <Style id="630">
                <IconStyle id="631">
                    <color>ffff0000</color>
                    <colorMode>normal</colorMode>
                    <scale>1</scale>
                    <heading>0</heading>
                    <Icon id="632">
                        <href>http://maps.google.com/mapfiles/kml/pushpin/ylw-pushpin.png</href>
                    </Icon>
                </IconStyle>
            </Style>
            <Style id="635">
                <IconStyle id="636">
                    <color>ffff0000</color>
                    <colorMode>normal</colorMode>
                    <scale>1</scale>
                    <heading>0</heading>
                    <Icon id="637">
                        <href>http://maps.google.com/mapfiles/kml/pushpin/ylw-pushpin.png</href>
                    </Icon>
                </IconStyle>
            </Style>
            <Style id="640">
                <IconStyle id="641">
                    <color>ffff0000</color>
                    <colorMode>normal</colorMode>
                    <scale>1</scale>
                    <heading>0</heading>
                    <Icon id="642">
                        <href>http://maps.google.com/mapfiles/kml/pushpin/ylw-pushpin.png</href>
                    </Icon>
                </IconStyle>
            </Style>
            <name>MARTHA CAROLINA AVILA SOLANO</name>
            <Placemark id="419">
                <name>GARAY CASAVALENTE ALINSON</name>
                <description>MZ.A1 LT.25 URB CASUARINAS    
Veintiséis de Octubre

Piura
Perú</description>
                <styleUrl>#420</styleUrl>
                <Point id="418">
                    <coordinates>-80.666582,-5.171098,0.0</coordinates>
                </Point>
            </Placemark>
            <Placemark id="424">
                <name>MARIANO JORDY ABAD CRUZ</name>
                <description>LOS PQ. DEL CHIPE MZ D LT 14  
Veintiséis de Octubre
Piura
Piura
Perú</description>
                <styleUrl>#425</styleUrl>
                <Point id="423">
                    <coordinates>-80.6695617,-5.1719417,0.0</coordinates>
                </Point>
            </Placemark>
            <Placemark id="429">
                <name>MARIA MILCIA COLLANTES HERRERA</name>
                <description>MARIA MILCIA COLLANTES HERRERA
URB SOL DE PIURA 3 ETAPA MZ A4 LT 23
Veintiséis de Octubre
Piura
Piura
Perú</description>
                <styleUrl>#430</styleUrl>
                <Point id="428">
                    <coordinates>-80.6674469,-5.1650859,0.0</coordinates>
                </Point>
            </Placemark>
            <Placemark id="434">
                <name>MARIA JIMENA VELASQUEZ AREVALO</name>
                <description>MZ I3 LOTE 3 URB RINCONADA 3 etapa
Veintiséis de Octubre
Veintiséis de Octubre
Piura
Perú</description>
                <styleUrl>#435</styleUrl>
                <Point id="433">
                    <coordinates>-80.6809348,-5.1598452,0.0</coordinates>
                </Point>
            </Placemark>
            <Placemark id="439">
                <name>MIRIAM YANET ARRUNATEGUI A.</name>
                <description>A.H.NUEVO AMANECER MZ U LT.51 
Veintiséis de Octubre
Veintiséis de Octubre
Piura
Perú</description>
                <styleUrl>#440</styleUrl>
                <Point id="438">
                    <coordinates>-80.6706418,-5.1599557,0.0</coordinates>
                </Point>
            </Placemark>
            <Placemark id="444">
                <name>DIANA PATRICIA DIAZ FERNANDEZ</name>
                <description>MZ.C LT-10 PARQUES DEL CHIPE  
Veintiséis de Octubre
Veintiséis de Octubre
Piura
Perú</description>
                <styleUrl>#445</styleUrl>
                <Point id="443">
                    <coordinates>-80.6687257,-5.171874,0.0</coordinates>
                </Point>
            </Placemark>
            <Placemark id="449">
                <name>CORDOVA ZURITA BELARMINIA</name>
                <description>A.V Principal Mz BA lot 18 Santa Margarita NRO. 106
Veintiséis de Octubre
Veintiséis de Octubre
Piura
Perú</description>
                <styleUrl>#450</styleUrl>
                <Point id="448">
                    <coordinates>-80.6661133,-5.1632733,0.0</coordinates>
                </Point>
            </Placemark>
            <Placemark id="454">
                <name>MARIBEL CASTILLO PAICO</name>
                <description>MZ BA LT 15 URB. SANTA MARGARITA -
Veintiséis de Octubre
Piura
Piura
Perú</description>
                <styleUrl>#455</styleUrl>
                <Point id="453">
                    <coordinates>-80.6660817,-5.1634267,0.0</coordinates>
                </Point>
            </Placemark>
            <Placemark id="459">
                <name>SEVERO ALBERTO ZAVALA CASTILLO</name>
                <description>URB SOL DE PIURA A1-30        
Veintiséis de Octubre

Piura
Perú</description>
                <styleUrl>#460</styleUrl>
                <Point id="458">
                    <coordinates>-80.669135,-5.1629883,0.0</coordinates>
                </Point>
            </Placemark>
            <Placemark id="464">
                <name>CINTHIA LLISLAYNE AGUIRRE MEDINA</name>
                <description>URB.VILLA EL SOL MZ.F LT.6    
Veintiséis de Octubre
Veintiséis de Octubre
Piura
Perú</description>
                <styleUrl>#465</styleUrl>
                <Point id="463">
                    <coordinates>-80.6711721,-5.1685827,0.0</coordinates>
                </Point>
            </Placemark>
            <Placemark id="469">
                <name>ELIANA MARCELA PONGO OCAÑA</name>
                <description>URB VILLA EL SOL C-7          
Veintiséis de Octubre
Veintiséis de Octubre
Piura
Perú</description>
                <styleUrl>#470</styleUrl>
                <Point id="468">
                    <coordinates>-80.6720267,-5.1700667,0.0</coordinates>
                </Point>
            </Placemark>
            <Placemark id="474">
                <name>CINDY TATIANA VILELA RUIZ</name>
                <description>CINDY TATIANA VILELA RUIZ
URB.VILLOS DE SOL MZ B LT 9 - PIURA
Veintiséis de Octubre
Piura
Piura
Perú</description>
                <styleUrl>#475</styleUrl>
                <Point id="473">
                    <coordinates>-80.6714569,-5.1683352,0.0</coordinates>
                </Point>
            </Placemark>
            <Placemark id="479">
                <name>MARIA DEL PILAR FIESTAS CHUNGA</name>
                <description>Mz E lot 15 Las Praderas 26 de octubre
Veintiséis de Octubre
Veintiséis de Octubre
Piura
Perú</description>
                <styleUrl>#480</styleUrl>
                <Point id="478">
                    <coordinates>-80.6711856,-5.1631289,0.0</coordinates>
                </Point>
            </Placemark>
            <Placemark id="484">
                <name>TOCTO CALLE LUZDINA</name>
                <description>MZ.F LT.2 UPIS A.H.LA PRADERA 
Veintiséis de Octubre
Veintiséis de Octubre
Piura
Perú</description>
                <styleUrl>#485</styleUrl>
                <Point id="483">
                    <coordinates>-80.670638,-5.161989,0.0</coordinates>
                </Point>
            </Placemark>
            <Placemark id="489">
                <name>RODRIGO JAVIER CASTILLO VILLEGAS</name>
                <description>La Planicie G5 lot 16 5ta etapa
Veintiséis de Octubre
Veintiséis de Octubre
Piura
Perú</description>
                <styleUrl>#490</styleUrl>
                <Point id="488">
                    <coordinates>-80.6749503,-5.1633808,0.0</coordinates>
                </Point>
            </Placemark>
            <Placemark id="494">
                <name>CORAIMA PULACHE ALMENDRO</name>
                <description>UNB LA PLANICIE H5 LT.22      
Veintiséis de Octubre
Piura
Piura
Perú</description>
                <styleUrl>#495</styleUrl>
                <Point id="493">
                    <coordinates>-80.6751871,-5.162859,0.0</coordinates>
                </Point>
            </Placemark>
            <Placemark id="499">
                <name>ALBERT ABRAHAM MOGOLLON ABAD</name>
                <description>MZ D 04 LT 31 LA RINCONADA DE LOS PORTALES 4 ETPA Piura
Veintiséis de Octubre
Veintiséis de Octubre
Piura
Perú</description>
                <styleUrl>#500</styleUrl>
                <Point id="498">
                    <coordinates>-80.6759931,-5.1614742,0.0</coordinates>
                </Point>
            </Placemark>
            <Placemark id="504">
                <name>WILLARD ENRIQU BARRIENTOS GUERRERO</name>
                <description>LA RINCONADA CUARTA ETAPA MZ 4K LT 03 PIURA
Veintiséis de Octubre
Piura
Piura
Perú</description>
                <styleUrl>#505</styleUrl>
                <Point id="503">
                    <coordinates>-80.6785897,-5.1590417,0.0</coordinates>
                </Point>
            </Placemark>
            <Placemark id="509">
                <name>KATIA MARLENY VASQUEZ INFANTE</name>
                <description>MZ E2 LOTE 28 URB LA RINCONADA
Veintiséis de Octubre
Veintiséis de Octubre
Piura
Perú</description>
                <styleUrl>#510</styleUrl>
                <Point id="508">
                    <coordinates>-80.6843238,-5.1626746,0.0</coordinates>
                </Point>
            </Placemark>
            <Placemark id="514">
                <name>LEYDI HUAYANAY JIMENEZ</name>
                <description>URB.LA RINCONADA MZ.J LT.1    
Veintiséis de Octubre
Piura
Piura
Perú</description>
                <styleUrl>#515</styleUrl>
                <Point id="513">
                    <coordinates>-80.6843171,-5.1626712,0.0</coordinates>
                </Point>
            </Placemark>
            <Placemark id="519">
                <name>VANESSA LIZZETH VALLEJOS GANOZA</name>
                <description>RINCONADA 2 ETAPA A LT 77 26 DE OCTUBRE
Veintiséis de Octubre
Piura
Piura
Perú</description>
                <styleUrl>#520</styleUrl>
                <Point id="518">
                    <coordinates>-80.6813319,-5.1581842,0.0</coordinates>
                </Point>
            </Placemark>
            <Placemark id="524">
                <name>CHIRA RAMIREZ DE HERNANDEZ ANA</name>
                <description>URB VILLA RINCONADA MZ A-12   
Veintiséis de Octubre
Veintiséis de Octubre
Piura
Perú</description>
                <styleUrl>#525</styleUrl>
                <Point id="523">
                    <coordinates>-80.681388,-5.15778,0.0</coordinates>
                </Point>
            </Placemark>
            <Placemark id="529">
                <name>CLARIS MARITZA CABANILLAS ROMERO</name>
                <description>MZ.B1 LT.18 AH.NUEVO AMANECER 
Veintiséis de Octubre
Veintiséis de Octubre
Piura
Perú</description>
                <styleUrl>#530</styleUrl>
                <Point id="528">
                    <coordinates>-80.671266,-5.160671,0.0</coordinates>
                </Point>
            </Placemark>
            <Placemark id="534">
                <name>FANY CUNYA LLACSAHUANGA</name>
                <description>AH NVO AMANECER CON JESU R-23 
Veintiséis de Octubre
Veintiséis de Octubre
Piura
Perú</description>
                <styleUrl>#535</styleUrl>
                <Point id="533">
                    <coordinates>-80.6699172,-5.1585423,0.0</coordinates>
                </Point>
            </Placemark>
            <Placemark id="539">
                <name>VANESSA CALDERON MOSCOL</name>
                <description>ASOC NVO AMANECER MZ D1 LT 3
Veintiséis de Octubre
Piura
Piura
Perú</description>
                <styleUrl>#540</styleUrl>
                <Point id="538">
                    <coordinates>-80.671235,-5.15926,0.0</coordinates>
                </Point>
            </Placemark>
            <Placemark id="544">
                <name>MARIANELLA LIZBETH ARANDA SULUCO</name>
                <description>Mz D Lte 3 AA.HH SAN JUDAS TADEO
Veintiséis de Octubre
Veintiséis de Octubre
Piura
Perú</description>
                <styleUrl>#545</styleUrl>
                <Point id="543">
                    <coordinates>-80.6719755,-5.1588678,0.0</coordinates>
                </Point>
            </Placemark>
            <Placemark id="549">
                <name>FLORMIRIA HUAMAN HUANCAS</name>
                <description>MZ E LT 58 UPIS 13 DE NOV.    
Veintiséis de Octubre
Veintiséis de Octubre
Piura
Perú</description>
                <styleUrl>#550</styleUrl>
                <Point id="548">
                    <coordinates>-80.6699578,-5.153589,0.0</coordinates>
                </Point>
            </Placemark>
            <Placemark id="554">
                <name>MARIA ROXANA ABAD MULATILLO</name>
                <description>E-61 UPIS 13 DE NOVIEMBRE     
Veintiséis de Octubre
Veintiséis de Octubre
Piura
Perú</description>
                <styleUrl>#555</styleUrl>
                <Point id="553">
                    <coordinates>-80.6698368,-5.1532854,0.0</coordinates>
                </Point>
            </Placemark>
            <Placemark id="559">
                <name>MERCADO PIURANO E.I.R.L., UPIS</name>
                <description>MERCADO PIURANO E.I.R.L., UPIS
Mz B LTE 8 UPIS 13 DE NOVIEMBRE 26 DE OCTUBRE Piura
Veintiséis de Octubre
200115Veintiséis de Octubre
Piura
Perú</description>
                <styleUrl>#560</styleUrl>
                <Point id="558">
                    <coordinates>-80.6703769,-5.1531997,0.0</coordinates>
                </Point>
            </Placemark>
            <Placemark id="564">
                <name>ALCIRA UMBO PINTADO</name>
                <description>MZ B LTE 03 UPIS 13 DE NOVIEMBRE (Ref. INGRESO A MENORCA)
Veintiséis de Octubre
Veintiséis de Octubre
Piura
Perú</description>
                <styleUrl>#565</styleUrl>
                <Point id="563">
                    <coordinates>-80.6706847,-5.1531988,0.0</coordinates>
                </Point>
            </Placemark>
            <Placemark id="569">
                <name>CLORINDA LIZANA CHOQUEHUANCA</name>
                <description>D-53 AH SAN JUDAS TADEO       
Veintiséis de Octubre
Veintiséis de Octubre
Piura
Perú</description>
                <styleUrl>#570</styleUrl>
                <Point id="568">
                    <coordinates>-80.6709287,-5.1565103,0.0</coordinates>
                </Point>
            </Placemark>
            <Placemark id="574">
                <name>RUBY PALACIOS ZAPATA</name>
                <description>Mz J LTE 55 AA.HH NUEVO AMANECER
Veintiséis de Octubre
Veintiséis de Octubre
Piura
Perú</description>
                <styleUrl>#575</styleUrl>
                <Point id="573">
                    <coordinates>-80.6683983,-5.1562517,0.0</coordinates>
                </Point>
            </Placemark>
            <Placemark id="579">
                <name>CARMEN ROSA MEDINA USQUIZA</name>
                <description>MZ- M LT-3 NUEV AMANECER CON JESUS
Veintiséis de Octubre
Piura
Piura
Perú</description>
                <styleUrl>#580</styleUrl>
                <Point id="578">
                    <coordinates>-80.6684158,-5.1568083,0.0</coordinates>
                </Point>
            </Placemark>
            <Placemark id="584">
                <name>QUEREN CALLE PATIÑO</name>
                <description>MZ.M LOTE 11. AH NUEVO AMANEC 
Veintiséis de Octubre
Veintiséis de Octubre
Piura
Perú</description>
                <styleUrl>#585</styleUrl>
                <Point id="583">
                    <coordinates>-80.6681642,-5.1570859,0.0</coordinates>
                </Point>
            </Placemark>
            <Placemark id="589">
                <name>ZOBEIDA GARCIA NORIEGA</name>
                <description>ZOBEIDA GARCIA NORIEGA
MZ K LT 27 AA. HH NVO AMANECER CONJESUS
Veintiséis de Octubre

Piura
Perú</description>
                <styleUrl>#590</styleUrl>
                <Point id="588">
                    <coordinates>-80.6669077,-5.1570903,0.0</coordinates>
                </Point>
            </Placemark>
            <Placemark id="594">
                <name>HERMELINDA CARHUAPOMA JULCAHUANCA</name>
                <description>A.H.DALIAS 3 ETA MZ.O2 LT.3   
Veintiséis de Octubre
Piura
Piura
Perú</description>
                <styleUrl>#595</styleUrl>
                <Point id="593">
                    <coordinates>-80.6677033,-5.15882,0.0</coordinates>
                </Point>
            </Placemark>
            <Placemark id="599">
                <name>MARIA MARIXA HUAMAN ABAD</name>
                <description>Mz K LOTE 9 AA.HH NUEVO AMANECER
Veintiséis de Octubre
Veintiséis de Octubre
Piura
Perú</description>
                <styleUrl>#600</styleUrl>
                <Point id="598">
                    <coordinates>-80.666865,-5.15776,0.0</coordinates>
                </Point>
            </Placemark>
            <Placemark id="604">
                <name>NONAJULCA CALLE JULIANA LISBETH</name>
                <description>
Veintiséis de Octubre
Veintiséis de Octubre
Piura
Perú</description>
                <styleUrl>#605</styleUrl>
                <Point id="603">
                    <coordinates>-80.665679,-5.1595077,0.0</coordinates>
                </Point>
            </Placemark>
            <Placemark id="609">
                <name>SANTOS FLORIAN CUEVA FLORES</name>
                <description>CALLE LAS DALIAS 3 ETAPA G2-2
Veintiséis de Octubre
Veintiséis de Octubre
Piura
Perú</description>
                <styleUrl>#610</styleUrl>
                <Point id="608">
                    <coordinates>-80.6653265,-5.1597806,0.0</coordinates>
                </Point>
            </Placemark>
            <Placemark id="614">
                <name>ABAD CHINCHAY ROSA ELENA</name>
                <description>ABAD CHINCHAY ROSA ELENA
MZ.P1 LT.6 AH.LAS DALIAS II ET
Veintiséis de Octubre
Veintiséis de Octubre
Piura
Perú</description>
                <styleUrl>#615</styleUrl>
                <Point id="613">
                    <coordinates>-80.664363,-5.159444,0.0</coordinates>
                </Point>
            </Placemark>
            <Placemark id="619">
                <name>SALOMON CHAMBA CULQUICONDOR</name>
                <description>Mz V1 LTE 24 AA.HH LAS DALIAS II ETAPA
Veintiséis de Octubre
Veintiséis de Octubre
Piura
Perú</description>
                <styleUrl>#620</styleUrl>
                <Point id="618">
                    <coordinates>-80.6647341,-5.1620208,0.0</coordinates>
                </Point>
            </Placemark>
            <Placemark id="624">
                <name>ROSA ELENA VILLEGAS AVENDAÑO</name>
                <description>LAS DALIAS II ETAPA U-1 LT 11 Piura-Piura
Veintiséis de Octubre
Veintiséis de Octubre
Piura
Perú</description>
                <styleUrl>#625</styleUrl>
                <Point id="623">
                    <coordinates>-80.6644246,-5.1615327,0.0</coordinates>
                </Point>
            </Placemark>
            <Placemark id="629">
                <name>MERRY RITA ESCAMILO PEDRERA</name>
                <description>AH LAS DALIAS II MZ D1-9      
Veintiséis de Octubre
Piura
Piura
Perú</description>
                <styleUrl>#630</styleUrl>
                <Point id="628">
                    <coordinates>-80.6628467,-5.1602367,0.0</coordinates>
                </Point>
            </Placemark>
            <Placemark id="634">
                <name>ERLY TANI CORDOVA CORDOVA</name>
                <description>Mz B lote 7 nuevo Jerusalén ( en la misma recta de la sra Katherine)
Veintiséis de Octubre
Veintiséis de Octubre
Piura
Perú</description>
                <styleUrl>#635</styleUrl>
                <Point id="633">
                    <coordinates>-80.6526633,-5.2035667,0.0</coordinates>
                </Point>
            </Placemark>
            <Placemark id="639">
                <name>LAURA TICLIAHUANCA HUAMAN</name>
                <description>Nueva Jerusalén Mz A lot 04
Veintiséis de Octubre
Veintiséis de Octubre
Piura
Perú</description>
                <styleUrl>#640</styleUrl>
                <Point id="638">
                    <coordinates>-80.6522492,-5.2036926,0.0</coordinates>
                </Point>
            </Placemark>
        </Folder>
    </Document>
</kml>
