<?xml version="1.0" encoding="UTF-8"?>
<kml xmlns="http://www.opengis.net/kml/2.2" xmlns:gx="http://www.google.com/kml/ext/2.2">
    <Document id="1033">
        <Folder id="1034">
            <Style id="1037">
                <IconStyle id="1038">
                    <color>ff0000ff</color>
                    <colorMode>normal</colorMode>
                    <scale>1</scale>
                    <heading>0</heading>
                    <Icon id="1039">
                        <href>http://maps.google.com/mapfiles/kml/pushpin/ylw-pushpin.png</href>
                    </Icon>
                </IconStyle>
            </Style>
            <Style id="1042">
                <IconStyle id="1043">
                    <color>ff0000ff</color>
                    <colorMode>normal</colorMode>
                    <scale>1</scale>
                    <heading>0</heading>
                    <Icon id="1044">
                        <href>http://maps.google.com/mapfiles/kml/pushpin/ylw-pushpin.png</href>
                    </Icon>
                </IconStyle>
            </Style>
            <Style id="1047">
                <IconStyle id="1048">
                    <color>ff0000ff</color>
                    <colorMode>normal</colorMode>
                    <scale>1</scale>
                    <heading>0</heading>
                    <Icon id="1049">
                        <href>http://maps.google.com/mapfiles/kml/pushpin/ylw-pushpin.png</href>
                    </Icon>
                </IconStyle>
            </Style>
            <Style id="1052">
                <IconStyle id="1053">
                    <color>ff0000ff</color>
                    <colorMode>normal</colorMode>
                    <scale>1</scale>
                    <heading>0</heading>
                    <Icon id="1054">
                        <href>http://maps.google.com/mapfiles/kml/pushpin/ylw-pushpin.png</href>
                    </Icon>
                </IconStyle>
            </Style>
            <Style id="1057">
                <IconStyle id="1058">
                    <color>ff0000ff</color>
                    <colorMode>normal</colorMode>
                    <scale>1</scale>
                    <heading>0</heading>
                    <Icon id="1059">
                        <href>http://maps.google.com/mapfiles/kml/pushpin/ylw-pushpin.png</href>
                    </Icon>
                </IconStyle>
            </Style>
            <Style id="1062">
                <IconStyle id="1063">
                    <color>ff0000ff</color>
                    <colorMode>normal</colorMode>
                    <scale>1</scale>
                    <heading>0</heading>
                    <Icon id="1064">
                        <href>http://maps.google.com/mapfiles/kml/pushpin/ylw-pushpin.png</href>
                    </Icon>
                </IconStyle>
            </Style>
            <Style id="1067">
                <IconStyle id="1068">
                    <color>ff0000ff</color>
                    <colorMode>normal</colorMode>
                    <scale>1</scale>
                    <heading>0</heading>
                    <Icon id="1069">
                        <href>http://maps.google.com/mapfiles/kml/pushpin/ylw-pushpin.png</href>
                    </Icon>
                </IconStyle>
            </Style>
            <Style id="1072">
                <IconStyle id="1073">
                    <color>ff0000ff</color>
                    <colorMode>normal</colorMode>
                    <scale>1</scale>
                    <heading>0</heading>
                    <Icon id="1074">
                        <href>http://maps.google.com/mapfiles/kml/pushpin/ylw-pushpin.png</href>
                    </Icon>
                </IconStyle>
            </Style>
            <Style id="1077">
                <IconStyle id="1078">
                    <color>ff0000ff</color>
                    <colorMode>normal</colorMode>
                    <scale>1</scale>
                    <heading>0</heading>
                    <Icon id="1079">
                        <href>http://maps.google.com/mapfiles/kml/pushpin/ylw-pushpin.png</href>
                    </Icon>
                </IconStyle>
            </Style>
            <Style id="1082">
                <IconStyle id="1083">
                    <color>ff0000ff</color>
                    <colorMode>normal</colorMode>
                    <scale>1</scale>
                    <heading>0</heading>
                    <Icon id="1084">
                        <href>http://maps.google.com/mapfiles/kml/pushpin/ylw-pushpin.png</href>
                    </Icon>
                </IconStyle>
            </Style>
            <Style id="1087">
                <IconStyle id="1088">
                    <color>ff0000ff</color>
                    <colorMode>normal</colorMode>
                    <scale>1</scale>
                    <heading>0</heading>
                    <Icon id="1089">
                        <href>http://maps.google.com/mapfiles/kml/pushpin/ylw-pushpin.png</href>
                    </Icon>
                </IconStyle>
            </Style>
            <Style id="1092">
                <IconStyle id="1093">
                    <color>ff0000ff</color>
                    <colorMode>normal</colorMode>
                    <scale>1</scale>
                    <heading>0</heading>
                    <Icon id="1094">
                        <href>http://maps.google.com/mapfiles/kml/pushpin/ylw-pushpin.png</href>
                    </Icon>
                </IconStyle>
            </Style>
            <Style id="1097">
                <IconStyle id="1098">
                    <color>ff0000ff</color>
                    <colorMode>normal</colorMode>
                    <scale>1</scale>
                    <heading>0</heading>
                    <Icon id="1099">
                        <href>http://maps.google.com/mapfiles/kml/pushpin/ylw-pushpin.png</href>
                    </Icon>
                </IconStyle>
            </Style>
            <Style id="1102">
                <IconStyle id="1103">
                    <color>ff0000ff</color>
                    <colorMode>normal</colorMode>
                    <scale>1</scale>
                    <heading>0</heading>
                    <Icon id="1104">
                        <href>http://maps.google.com/mapfiles/kml/pushpin/ylw-pushpin.png</href>
                    </Icon>
                </IconStyle>
            </Style>
            <Style id="1107">
                <IconStyle id="1108">
                    <color>ff0000ff</color>
                    <colorMode>normal</colorMode>
                    <scale>1</scale>
                    <heading>0</heading>
                    <Icon id="1109">
                        <href>http://maps.google.com/mapfiles/kml/pushpin/ylw-pushpin.png</href>
                    </Icon>
                </IconStyle>
            </Style>
            <Style id="1112">
                <IconStyle id="1113">
                    <color>ff0000ff</color>
                    <colorMode>normal</colorMode>
                    <scale>1</scale>
                    <heading>0</heading>
                    <Icon id="1114">
                        <href>http://maps.google.com/mapfiles/kml/pushpin/ylw-pushpin.png</href>
                    </Icon>
                </IconStyle>
            </Style>
            <Style id="1117">
                <IconStyle id="1118">
                    <color>ff0000ff</color>
                    <colorMode>normal</colorMode>
                    <scale>1</scale>
                    <heading>0</heading>
                    <Icon id="1119">
                        <href>http://maps.google.com/mapfiles/kml/pushpin/ylw-pushpin.png</href>
                    </Icon>
                </IconStyle>
            </Style>
            <Style id="1122">
                <IconStyle id="1123">
                    <color>ff0000ff</color>
                    <colorMode>normal</colorMode>
                    <scale>1</scale>
                    <heading>0</heading>
                    <Icon id="1124">
                        <href>http://maps.google.com/mapfiles/kml/pushpin/ylw-pushpin.png</href>
                    </Icon>
                </IconStyle>
            </Style>
            <Style id="1127">
                <IconStyle id="1128">
                    <color>ff0000ff</color>
                    <colorMode>normal</colorMode>
                    <scale>1</scale>
                    <heading>0</heading>
                    <Icon id="1129">
                        <href>http://maps.google.com/mapfiles/kml/pushpin/ylw-pushpin.png</href>
                    </Icon>
                </IconStyle>
            </Style>
            <Style id="1132">
                <IconStyle id="1133">
                    <color>ff0000ff</color>
                    <colorMode>normal</colorMode>
                    <scale>1</scale>
                    <heading>0</heading>
                    <Icon id="1134">
                        <href>http://maps.google.com/mapfiles/kml/pushpin/ylw-pushpin.png</href>
                    </Icon>
                </IconStyle>
            </Style>
            <Style id="1137">
                <IconStyle id="1138">
                    <color>ff0000ff</color>
                    <colorMode>normal</colorMode>
                    <scale>1</scale>
                    <heading>0</heading>
                    <Icon id="1139">
                        <href>http://maps.google.com/mapfiles/kml/pushpin/ylw-pushpin.png</href>
                    </Icon>
                </IconStyle>
            </Style>
            <Style id="1142">
                <IconStyle id="1143">
                    <color>ff0000ff</color>
                    <colorMode>normal</colorMode>
                    <scale>1</scale>
                    <heading>0</heading>
                    <Icon id="1144">
                        <href>http://maps.google.com/mapfiles/kml/pushpin/ylw-pushpin.png</href>
                    </Icon>
                </IconStyle>
            </Style>
            <Style id="1147">
                <IconStyle id="1148">
                    <color>ff0000ff</color>
                    <colorMode>normal</colorMode>
                    <scale>1</scale>
                    <heading>0</heading>
                    <Icon id="1149">
                        <href>http://maps.google.com/mapfiles/kml/pushpin/ylw-pushpin.png</href>
                    </Icon>
                </IconStyle>
            </Style>
            <Style id="1152">
                <IconStyle id="1153">
                    <color>ff0000ff</color>
                    <colorMode>normal</colorMode>
                    <scale>1</scale>
                    <heading>0</heading>
                    <Icon id="1154">
                        <href>http://maps.google.com/mapfiles/kml/pushpin/ylw-pushpin.png</href>
                    </Icon>
                </IconStyle>
            </Style>
            <Style id="1157">
                <IconStyle id="1158">
                    <color>ff0000ff</color>
                    <colorMode>normal</colorMode>
                    <scale>1</scale>
                    <heading>0</heading>
                    <Icon id="1159">
                        <href>http://maps.google.com/mapfiles/kml/pushpin/ylw-pushpin.png</href>
                    </Icon>
                </IconStyle>
            </Style>
            <Style id="1162">
                <IconStyle id="1163">
                    <color>ff0000ff</color>
                    <colorMode>normal</colorMode>
                    <scale>1</scale>
                    <heading>0</heading>
                    <Icon id="1164">
                        <href>http://maps.google.com/mapfiles/kml/pushpin/ylw-pushpin.png</href>
                    </Icon>
                </IconStyle>
            </Style>
            <Style id="1167">
                <IconStyle id="1168">
                    <color>ff0000ff</color>
                    <colorMode>normal</colorMode>
                    <scale>1</scale>
                    <heading>0</heading>
                    <Icon id="1169">
                        <href>http://maps.google.com/mapfiles/kml/pushpin/ylw-pushpin.png</href>
                    </Icon>
                </IconStyle>
            </Style>
            <name>JOSE DAVID QUISPE RENTERIA</name>
            <Placemark id="1036">
                <name>ANA ELIZABETH REQUENA TRONCOS</name>
                <description> UPIS LOS CLAVELES MZ.K  LT20 
Veintiséis de Octubre
Veintiséis de Octubre
Piura
Perú</description>
                <styleUrl>#1037</styleUrl>
                <Point id="1035">
                    <coordinates>-80.658594,-5.164935,0.0</coordinates>
                </Point>
            </Placemark>
            <Placemark id="1041">
                <name>JIMENEZ RAMOS BRIAN ALFREDO</name>
                <description>MZ M LT 05 AAHH VILLA JARDIN  
Veintiséis de Octubre

Piura
Perú</description>
                <styleUrl>#1042</styleUrl>
                <Point id="1040">
                    <coordinates>-80.657883,-5.165597,0.0</coordinates>
                </Point>
            </Placemark>
            <Placemark id="1046">
                <name>JIMENEZ RAMOS BRIAN ALFREDO</name>
                <description>MZ M LT 05 AAHH VILLA JARDIN  
Veintiséis de Octubre

Piura
Perú</description>
                <styleUrl>#1047</styleUrl>
                <Point id="1045">
                    <coordinates>-80.657883,-5.165597,0.0</coordinates>
                </Point>
            </Placemark>
            <Placemark id="1051">
                <name>EDUARDA CALLE CHOQUEHUANCA</name>
                <description>EDUARDA CALLE CHOQUEHUANCA
UIRB. SANTA MARGARITA I ET. MZ KG LT 28 PIURA
Veintiséis de Octubre

Piura
Perú</description>
                <styleUrl>#1052</styleUrl>
                <Point id="1050">
                    <coordinates>-80.6603598,-5.1646327,0.0</coordinates>
                </Point>
            </Placemark>
            <Placemark id="1056">
                <name>MERLY CALLE PATIÑO</name>
                <description>AV.LAS DALIAS MZ.C LT.7 I ET  
Veintiséis de Octubre
Veintiséis de Octubre
Piura
Perú</description>
                <styleUrl>#1057</styleUrl>
                <Point id="1055">
                    <coordinates>-80.662982,-5.161485,0.0</coordinates>
                </Point>
            </Placemark>
            <Placemark id="1061">
                <name>MERLY CALLE PATIÑO</name>
                <description>AV.LAS DALIAS MZ.C LT.7 I ET  
Veintiséis de Octubre
Veintiséis de Octubre
Piura
Perú</description>
                <styleUrl>#1062</styleUrl>
                <Point id="1060">
                    <coordinates>-80.662982,-5.161485,0.0</coordinates>
                </Point>
            </Placemark>
            <Placemark id="1066">
                <name>VERONICA CORDOVA TORRES</name>
                <description>MZ B LOTE 4 AA.HH LAS DALIAS 1ERA ETAPA
Veintiséis de Octubre
Veintiséis de Octubre
Piura
Perú</description>
                <styleUrl>#1067</styleUrl>
                <Point id="1065">
                    <coordinates>-80.6606501,-5.1632465,0.0</coordinates>
                </Point>
            </Placemark>
            <Placemark id="1071">
                <name>VERONICA CORDOVA TORRES</name>
                <description>MZ B LOTE 4 AA.HH LAS DALIAS 1ERA ETAPA
Veintiséis de Octubre
Veintiséis de Octubre
Piura
Perú</description>
                <styleUrl>#1072</styleUrl>
                <Point id="1070">
                    <coordinates>-80.6606501,-5.1632465,0.0</coordinates>
                </Point>
            </Placemark>
            <Placemark id="1076">
                <name>BERENISE DEL PILAR LOPEZ ARTEAGA</name>
                <description>MZ C LOTE 1 LAS DALIAS FRENTE A SANTA MARGARITA
Veintiséis de Octubre
Veintiséis de Octubre
Piura
Perú</description>
                <styleUrl>#1077</styleUrl>
                <Point id="1075">
                    <coordinates>-80.6608022,-5.1640394,0.0</coordinates>
                </Point>
            </Placemark>
            <Placemark id="1081">
                <name>JOSE LUIS YARLEQUE SOSA</name>
                <description>Mz. D Lt. 43 Las Dalias 1ra etapa - veintiséis de Octubre
Veintiséis de Octubre
Veintiséis de Octubre
Piura
Perú</description>
                <styleUrl>#1082</styleUrl>
                <Point id="1080">
                    <coordinates>-80.6612847,-5.1637589,0.0</coordinates>
                </Point>
            </Placemark>
            <Placemark id="1086">
                <name>AZUCENA CARRION MAZA</name>
                <description>MZ GLT 23 I ETP LAS DALIAS    
Veintiséis de Octubre
Piura
Piura
Perú</description>
                <styleUrl>#1087</styleUrl>
                <Point id="1085">
                    <coordinates>-80.6606649,-5.1627369,0.0</coordinates>
                </Point>
            </Placemark>
            <Placemark id="1091">
                <name>COVEÑAS LIZANO IRVIN ANGEL</name>
                <description>COVEÑAS LIZANO IRVIN ANGEL
AAHH VILLA JARDÍN MZ B LOTE 12 26 DE OCTUBRE
Veintiséis de Octubre
Veintiséis de Octubre
Piura
Perú</description>
                <styleUrl>#1092</styleUrl>
                <Point id="1090">
                    <coordinates>-80.6549081,-5.1667282,0.0</coordinates>
                </Point>
            </Placemark>
            <Placemark id="1096">
                <name>JORGE LUIS CHAVEZ RAMOS</name>
                <description>JORGE LUIS CHAVEZ RAMOS
SEXTA ETAPA STA MARGARITA MZ OC LT19 URB.-PIURA
Veintiséis de Octubre
Piura
Piura
Perú</description>
                <styleUrl>#1097</styleUrl>
                <Point id="1095">
                    <coordinates>-80.6642683,-5.1667781,0.0</coordinates>
                </Point>
            </Placemark>
            <Placemark id="1101">
                <name>SILVIA MORALES PALACIOS DE TORRES</name>
                <description>MZ S LOTE 18 AA.HH VILLA JARDI
Veintiséis de Octubre
Veintiséis de Octubre
Piura
Perú</description>
                <styleUrl>#1102</styleUrl>
                <Point id="1100">
                    <coordinates>-80.65485,-5.164524,0.0</coordinates>
                </Point>
            </Placemark>
            <Placemark id="1106">
                <name>NORMA NUÑEZ VIGIL</name>
                <description>MZ CB LTE 5 AV. PRINCIPAL URB. SANTA MARGARITA
Veintiséis de Octubre
Veintiséis de Octubre
Piura
Perú</description>
                <styleUrl>#1107</styleUrl>
                <Point id="1105">
                    <coordinates>-80.6595732,-5.1689668,0.0</coordinates>
                </Point>
            </Placemark>
            <Placemark id="1111">
                <name>NORMA NUÑEZ VIGIL</name>
                <description>MZ CB LTE 5 AV. PRINCIPAL URB. SANTA MARGARITA
Veintiséis de Octubre
Veintiséis de Octubre
Piura
Perú</description>
                <styleUrl>#1112</styleUrl>
                <Point id="1110">
                    <coordinates>-80.6595732,-5.1689668,0.0</coordinates>
                </Point>
            </Placemark>
            <Placemark id="1116">
                <name>MARGARITA JULISSA CHERO ORTIZ</name>
                <description>MZ HA LT 19 URB SANTA MARGARIT
Veintiséis de Octubre
Piura
Piura
Perú</description>
                <styleUrl>#1117</styleUrl>
                <Point id="1115">
                    <coordinates>-80.6614979,-5.1679668,0.0</coordinates>
                </Point>
            </Placemark>
            <Placemark id="1121">
                <name>ILIDA RAMIREZ NAIRA</name>
                <description>STA.MARGARITA HB  LT.16       
Veintiséis de Octubre
Piura
Piura
Perú</description>
                <styleUrl>#1122</styleUrl>
                <Point id="1120">
                    <coordinates>-80.661298,-5.168767,0.0</coordinates>
                </Point>
            </Placemark>
            <Placemark id="1126">
                <name>BRICEÑO DE VALDIVIEZO MILKA CARMEN</name>
                <description>BRICEÑO DE VALDIVIEZO MILKA CARMEN
URB. SANTA MARGARITA MZ.EC LT.06 -7 etapa
Veintiséis de Octubre
Piura
Piura
Perú</description>
                <styleUrl>#1127</styleUrl>
                <Point id="1125">
                    <coordinates>-80.6608052,-5.1692189,0.0</coordinates>
                </Point>
            </Placemark>
            <Placemark id="1131">
                <name>BRICEÑO DE VALDIVIEZO MILKA CARMEN</name>
                <description>BRICEÑO DE VALDIVIEZO MILKA CARMEN
URB. SANTA MARGARITA MZ.EC LT.06 -7 etapa
Veintiséis de Octubre
Piura
Piura
Perú</description>
                <styleUrl>#1132</styleUrl>
                <Point id="1130">
                    <coordinates>-80.6608052,-5.1692189,0.0</coordinates>
                </Point>
            </Placemark>
            <Placemark id="1136">
                <name>ROSARIO DE LOS MILAGROS MORE UMBO</name>
                <description>MZ CB lt 12 Sta. Margarita
Veintiséis de Octubre
Veintiséis de Octubre
Piura
Perú</description>
                <styleUrl>#1137</styleUrl>
                <Point id="1135">
                    <coordinates>-80.6583845,-5.1692705,0.0</coordinates>
                </Point>
            </Placemark>
            <Placemark id="1141">
                <name>LAYNIKER WUIN HERRERA RENTERIA</name>
                <description>AAHH VILLA JARDÍN MZ E LOTE 9
Veintiséis de Octubre
Veintiséis de Octubre
Piura
Perú</description>
                <styleUrl>#1142</styleUrl>
                <Point id="1140">
                    <coordinates>-80.6552602,-5.1659138,0.0</coordinates>
                </Point>
            </Placemark>
            <Placemark id="1146">
                <name>SEGUNDO ALONSO BUSTAMANTE PEREZ</name>
                <description>AA. HH LOS CA. AVELES MZ O LT 3
Veintiséis de Octubre
Veintiséis de Octubre
Piura
Perú</description>
                <styleUrl>#1147</styleUrl>
                <Point id="1145">
                    <coordinates>-80.659796,-5.166703,0.0</coordinates>
                </Point>
            </Placemark>
            <Placemark id="1151">
                <name>COLAN RUIZ MARIA</name>
                <description>AAHH LOS CLAVELES MZ J LOTE 24
Veintiséis de Octubre
Veintiséis de Octubre
Piura
Perú</description>
                <styleUrl>#1152</styleUrl>
                <Point id="1150">
                    <coordinates>-80.6574906,-5.1657432,0.0</coordinates>
                </Point>
            </Placemark>
            <Placemark id="1156">
                <name>JHON JAROL CASTAÑEDA AGURTO</name>
                <description>Manzana j21 los claveles
Veintiséis de Octubre
Veintiséis de Octubre
Piura
Perú</description>
                <styleUrl>#1157</styleUrl>
                <Point id="1155">
                    <coordinates>-80.658041,-5.165812,0.0</coordinates>
                </Point>
            </Placemark>
            <Placemark id="1161">
                <name>MERCEDES ANCAJIMA CASTRO</name>
                <description>Av. Amapolas Mz O LT. 11 AA.HH VILLA JARDIN (costado de rest. La Caballita)
Veintiséis de Octubre
Veintiséis de Octubre
Piura
Perú</description>
                <styleUrl>#1162</styleUrl>
                <Point id="1160">
                    <coordinates>-80.6581558,-5.16424,0.0</coordinates>
                </Point>
            </Placemark>
            <Placemark id="1166">
                <name>VILMA QUITO VICENTE</name>
                <description>MZ S LOTE 14  VILLA JARDIN
Veintiséis de Octubre
Piura
Piura
Perú</description>
                <styleUrl>#1167</styleUrl>
                <Point id="1165">
                    <coordinates>-80.6550927,-5.1639779,0.0</coordinates>
                </Point>
            </Placemark>
        </Folder>
        <Folder id="1170">
            <Style id="1173">
                <IconStyle id="1174">
                    <color>ffff0000</color>
                    <colorMode>normal</colorMode>
                    <scale>1</scale>
                    <heading>0</heading>
                    <Icon id="1175">
                        <href>http://maps.google.com/mapfiles/kml/pushpin/ylw-pushpin.png</href>
                    </Icon>
                </IconStyle>
            </Style>
            <Style id="1178">
                <IconStyle id="1179">
                    <color>ffff0000</color>
                    <colorMode>normal</colorMode>
                    <scale>1</scale>
                    <heading>0</heading>
                    <Icon id="1180">
                        <href>http://maps.google.com/mapfiles/kml/pushpin/ylw-pushpin.png</href>
                    </Icon>
                </IconStyle>
            </Style>
            <Style id="1183">
                <IconStyle id="1184">
                    <color>ffff0000</color>
                    <colorMode>normal</colorMode>
                    <scale>1</scale>
                    <heading>0</heading>
                    <Icon id="1185">
                        <href>http://maps.google.com/mapfiles/kml/pushpin/ylw-pushpin.png</href>
                    </Icon>
                </IconStyle>
            </Style>
            <Style id="1188">
                <IconStyle id="1189">
                    <color>ffff0000</color>
                    <colorMode>normal</colorMode>
                    <scale>1</scale>
                    <heading>0</heading>
                    <Icon id="1190">
                        <href>http://maps.google.com/mapfiles/kml/pushpin/ylw-pushpin.png</href>
                    </Icon>
                </IconStyle>
            </Style>
            <Style id="1193">
                <IconStyle id="1194">
                    <color>ffff0000</color>
                    <colorMode>normal</colorMode>
                    <scale>1</scale>
                    <heading>0</heading>
                    <Icon id="1195">
                        <href>http://maps.google.com/mapfiles/kml/pushpin/ylw-pushpin.png</href>
                    </Icon>
                </IconStyle>
            </Style>
            <Style id="1198">
                <IconStyle id="1199">
                    <color>ffff0000</color>
                    <colorMode>normal</colorMode>
                    <scale>1</scale>
                    <heading>0</heading>
                    <Icon id="1200">
                        <href>http://maps.google.com/mapfiles/kml/pushpin/ylw-pushpin.png</href>
                    </Icon>
                </IconStyle>
            </Style>
            <Style id="1203">
                <IconStyle id="1204">
                    <color>ffff0000</color>
                    <colorMode>normal</colorMode>
                    <scale>1</scale>
                    <heading>0</heading>
                    <Icon id="1205">
                        <href>http://maps.google.com/mapfiles/kml/pushpin/ylw-pushpin.png</href>
                    </Icon>
                </IconStyle>
            </Style>
            <Style id="1208">
                <IconStyle id="1209">
                    <color>ffff0000</color>
                    <colorMode>normal</colorMode>
                    <scale>1</scale>
                    <heading>0</heading>
                    <Icon id="1210">
                        <href>http://maps.google.com/mapfiles/kml/pushpin/ylw-pushpin.png</href>
                    </Icon>
                </IconStyle>
            </Style>
            <Style id="1213">
                <IconStyle id="1214">
                    <color>ffff0000</color>
                    <colorMode>normal</colorMode>
                    <scale>1</scale>
                    <heading>0</heading>
                    <Icon id="1215">
                        <href>http://maps.google.com/mapfiles/kml/pushpin/ylw-pushpin.png</href>
                    </Icon>
                </IconStyle>
            </Style>
            <Style id="1218">
                <IconStyle id="1219">
                    <color>ffff0000</color>
                    <colorMode>normal</colorMode>
                    <scale>1</scale>
                    <heading>0</heading>
                    <Icon id="1220">
                        <href>http://maps.google.com/mapfiles/kml/pushpin/ylw-pushpin.png</href>
                    </Icon>
                </IconStyle>
            </Style>
            <Style id="1223">
                <IconStyle id="1224">
                    <color>ffff0000</color>
                    <colorMode>normal</colorMode>
                    <scale>1</scale>
                    <heading>0</heading>
                    <Icon id="1225">
                        <href>http://maps.google.com/mapfiles/kml/pushpin/ylw-pushpin.png</href>
                    </Icon>
                </IconStyle>
            </Style>
            <Style id="1228">
                <IconStyle id="1229">
                    <color>ffff0000</color>
                    <colorMode>normal</colorMode>
                    <scale>1</scale>
                    <heading>0</heading>
                    <Icon id="1230">
                        <href>http://maps.google.com/mapfiles/kml/pushpin/ylw-pushpin.png</href>
                    </Icon>
                </IconStyle>
            </Style>
            <Style id="1233">
                <IconStyle id="1234">
                    <color>ffff0000</color>
                    <colorMode>normal</colorMode>
                    <scale>1</scale>
                    <heading>0</heading>
                    <Icon id="1235">
                        <href>http://maps.google.com/mapfiles/kml/pushpin/ylw-pushpin.png</href>
                    </Icon>
                </IconStyle>
            </Style>
            <Style id="1238">
                <IconStyle id="1239">
                    <color>ffff0000</color>
                    <colorMode>normal</colorMode>
                    <scale>1</scale>
                    <heading>0</heading>
                    <Icon id="1240">
                        <href>http://maps.google.com/mapfiles/kml/pushpin/ylw-pushpin.png</href>
                    </Icon>
                </IconStyle>
            </Style>
            <Style id="1243">
                <IconStyle id="1244">
                    <color>ffff0000</color>
                    <colorMode>normal</colorMode>
                    <scale>1</scale>
                    <heading>0</heading>
                    <Icon id="1245">
                        <href>http://maps.google.com/mapfiles/kml/pushpin/ylw-pushpin.png</href>
                    </Icon>
                </IconStyle>
            </Style>
            <Style id="1248">
                <IconStyle id="1249">
                    <color>ffff0000</color>
                    <colorMode>normal</colorMode>
                    <scale>1</scale>
                    <heading>0</heading>
                    <Icon id="1250">
                        <href>http://maps.google.com/mapfiles/kml/pushpin/ylw-pushpin.png</href>
                    </Icon>
                </IconStyle>
            </Style>
            <Style id="1253">
                <IconStyle id="1254">
                    <color>ffff0000</color>
                    <colorMode>normal</colorMode>
                    <scale>1</scale>
                    <heading>0</heading>
                    <Icon id="1255">
                        <href>http://maps.google.com/mapfiles/kml/pushpin/ylw-pushpin.png</href>
                    </Icon>
                </IconStyle>
            </Style>
            <Style id="1258">
                <IconStyle id="1259">
                    <color>ffff0000</color>
                    <colorMode>normal</colorMode>
                    <scale>1</scale>
                    <heading>0</heading>
                    <Icon id="1260">
                        <href>http://maps.google.com/mapfiles/kml/pushpin/ylw-pushpin.png</href>
                    </Icon>
                </IconStyle>
            </Style>
            <Style id="1263">
                <IconStyle id="1264">
                    <color>ffff0000</color>
                    <colorMode>normal</colorMode>
                    <scale>1</scale>
                    <heading>0</heading>
                    <Icon id="1265">
                        <href>http://maps.google.com/mapfiles/kml/pushpin/ylw-pushpin.png</href>
                    </Icon>
                </IconStyle>
            </Style>
            <Style id="1268">
                <IconStyle id="1269">
                    <color>ffff0000</color>
                    <colorMode>normal</colorMode>
                    <scale>1</scale>
                    <heading>0</heading>
                    <Icon id="1270">
                        <href>http://maps.google.com/mapfiles/kml/pushpin/ylw-pushpin.png</href>
                    </Icon>
                </IconStyle>
            </Style>
            <Style id="1273">
                <IconStyle id="1274">
                    <color>ffff0000</color>
                    <colorMode>normal</colorMode>
                    <scale>1</scale>
                    <heading>0</heading>
                    <Icon id="1275">
                        <href>http://maps.google.com/mapfiles/kml/pushpin/ylw-pushpin.png</href>
                    </Icon>
                </IconStyle>
            </Style>
            <Style id="1278">
                <IconStyle id="1279">
                    <color>ffff0000</color>
                    <colorMode>normal</colorMode>
                    <scale>1</scale>
                    <heading>0</heading>
                    <Icon id="1280">
                        <href>http://maps.google.com/mapfiles/kml/pushpin/ylw-pushpin.png</href>
                    </Icon>
                </IconStyle>
            </Style>
            <Style id="1283">
                <IconStyle id="1284">
                    <color>ffff0000</color>
                    <colorMode>normal</colorMode>
                    <scale>1</scale>
                    <heading>0</heading>
                    <Icon id="1285">
                        <href>http://maps.google.com/mapfiles/kml/pushpin/ylw-pushpin.png</href>
                    </Icon>
                </IconStyle>
            </Style>
            <Style id="1288">
                <IconStyle id="1289">
                    <color>ffff0000</color>
                    <colorMode>normal</colorMode>
                    <scale>1</scale>
                    <heading>0</heading>
                    <Icon id="1290">
                        <href>http://maps.google.com/mapfiles/kml/pushpin/ylw-pushpin.png</href>
                    </Icon>
                </IconStyle>
            </Style>
            <Style id="1293">
                <IconStyle id="1294">
                    <color>ffff0000</color>
                    <colorMode>normal</colorMode>
                    <scale>1</scale>
                    <heading>0</heading>
                    <Icon id="1295">
                        <href>http://maps.google.com/mapfiles/kml/pushpin/ylw-pushpin.png</href>
                    </Icon>
                </IconStyle>
            </Style>
            <Style id="1298">
                <IconStyle id="1299">
                    <color>ffff0000</color>
                    <colorMode>normal</colorMode>
                    <scale>1</scale>
                    <heading>0</heading>
                    <Icon id="1300">
                        <href>http://maps.google.com/mapfiles/kml/pushpin/ylw-pushpin.png</href>
                    </Icon>
                </IconStyle>
            </Style>
            <Style id="1303">
                <IconStyle id="1304">
                    <color>ffff0000</color>
                    <colorMode>normal</colorMode>
                    <scale>1</scale>
                    <heading>0</heading>
                    <Icon id="1305">
                        <href>http://maps.google.com/mapfiles/kml/pushpin/ylw-pushpin.png</href>
                    </Icon>
                </IconStyle>
            </Style>
            <Style id="1308">
                <IconStyle id="1309">
                    <color>ffff0000</color>
                    <colorMode>normal</colorMode>
                    <scale>1</scale>
                    <heading>0</heading>
                    <Icon id="1310">
                        <href>http://maps.google.com/mapfiles/kml/pushpin/ylw-pushpin.png</href>
                    </Icon>
                </IconStyle>
            </Style>
            <Style id="1313">
                <IconStyle id="1314">
                    <color>ffff0000</color>
                    <colorMode>normal</colorMode>
                    <scale>1</scale>
                    <heading>0</heading>
                    <Icon id="1315">
                        <href>http://maps.google.com/mapfiles/kml/pushpin/ylw-pushpin.png</href>
                    </Icon>
                </IconStyle>
            </Style>
            <Style id="1318">
                <IconStyle id="1319">
                    <color>ffff0000</color>
                    <colorMode>normal</colorMode>
                    <scale>1</scale>
                    <heading>0</heading>
                    <Icon id="1320">
                        <href>http://maps.google.com/mapfiles/kml/pushpin/ylw-pushpin.png</href>
                    </Icon>
                </IconStyle>
            </Style>
            <Style id="1323">
                <IconStyle id="1324">
                    <color>ffff0000</color>
                    <colorMode>normal</colorMode>
                    <scale>1</scale>
                    <heading>0</heading>
                    <Icon id="1325">
                        <href>http://maps.google.com/mapfiles/kml/pushpin/ylw-pushpin.png</href>
                    </Icon>
                </IconStyle>
            </Style>
            <Style id="1328">
                <IconStyle id="1329">
                    <color>ffff0000</color>
                    <colorMode>normal</colorMode>
                    <scale>1</scale>
                    <heading>0</heading>
                    <Icon id="1330">
                        <href>http://maps.google.com/mapfiles/kml/pushpin/ylw-pushpin.png</href>
                    </Icon>
                </IconStyle>
            </Style>
            <Style id="1333">
                <IconStyle id="1334">
                    <color>ffff0000</color>
                    <colorMode>normal</colorMode>
                    <scale>1</scale>
                    <heading>0</heading>
                    <Icon id="1335">
                        <href>http://maps.google.com/mapfiles/kml/pushpin/ylw-pushpin.png</href>
                    </Icon>
                </IconStyle>
            </Style>
            <Style id="1338">
                <IconStyle id="1339">
                    <color>ffff0000</color>
                    <colorMode>normal</colorMode>
                    <scale>1</scale>
                    <heading>0</heading>
                    <Icon id="1340">
                        <href>http://maps.google.com/mapfiles/kml/pushpin/ylw-pushpin.png</href>
                    </Icon>
                </IconStyle>
            </Style>
            <Style id="1343">
                <IconStyle id="1344">
                    <color>ffff0000</color>
                    <colorMode>normal</colorMode>
                    <scale>1</scale>
                    <heading>0</heading>
                    <Icon id="1345">
                        <href>http://maps.google.com/mapfiles/kml/pushpin/ylw-pushpin.png</href>
                    </Icon>
                </IconStyle>
            </Style>
            <Style id="1348">
                <IconStyle id="1349">
                    <color>ffff0000</color>
                    <colorMode>normal</colorMode>
                    <scale>1</scale>
                    <heading>0</heading>
                    <Icon id="1350">
                        <href>http://maps.google.com/mapfiles/kml/pushpin/ylw-pushpin.png</href>
                    </Icon>
                </IconStyle>
            </Style>
            <Style id="1353">
                <IconStyle id="1354">
                    <color>ffff0000</color>
                    <colorMode>normal</colorMode>
                    <scale>1</scale>
                    <heading>0</heading>
                    <Icon id="1355">
                        <href>http://maps.google.com/mapfiles/kml/pushpin/ylw-pushpin.png</href>
                    </Icon>
                </IconStyle>
            </Style>
            <Style id="1358">
                <IconStyle id="1359">
                    <color>ffff0000</color>
                    <colorMode>normal</colorMode>
                    <scale>1</scale>
                    <heading>0</heading>
                    <Icon id="1360">
                        <href>http://maps.google.com/mapfiles/kml/pushpin/ylw-pushpin.png</href>
                    </Icon>
                </IconStyle>
            </Style>
            <Style id="1363">
                <IconStyle id="1364">
                    <color>ffff0000</color>
                    <colorMode>normal</colorMode>
                    <scale>1</scale>
                    <heading>0</heading>
                    <Icon id="1365">
                        <href>http://maps.google.com/mapfiles/kml/pushpin/ylw-pushpin.png</href>
                    </Icon>
                </IconStyle>
            </Style>
            <Style id="1368">
                <IconStyle id="1369">
                    <color>ffff0000</color>
                    <colorMode>normal</colorMode>
                    <scale>1</scale>
                    <heading>0</heading>
                    <Icon id="1370">
                        <href>http://maps.google.com/mapfiles/kml/pushpin/ylw-pushpin.png</href>
                    </Icon>
                </IconStyle>
            </Style>
            <Style id="1373">
                <IconStyle id="1374">
                    <color>ffff0000</color>
                    <colorMode>normal</colorMode>
                    <scale>1</scale>
                    <heading>0</heading>
                    <Icon id="1375">
                        <href>http://maps.google.com/mapfiles/kml/pushpin/ylw-pushpin.png</href>
                    </Icon>
                </IconStyle>
            </Style>
            <Style id="1378">
                <IconStyle id="1379">
                    <color>ffff0000</color>
                    <colorMode>normal</colorMode>
                    <scale>1</scale>
                    <heading>0</heading>
                    <Icon id="1380">
                        <href>http://maps.google.com/mapfiles/kml/pushpin/ylw-pushpin.png</href>
                    </Icon>
                </IconStyle>
            </Style>
            <Style id="1383">
                <IconStyle id="1384">
                    <color>ffff0000</color>
                    <colorMode>normal</colorMode>
                    <scale>1</scale>
                    <heading>0</heading>
                    <Icon id="1385">
                        <href>http://maps.google.com/mapfiles/kml/pushpin/ylw-pushpin.png</href>
                    </Icon>
                </IconStyle>
            </Style>
            <Style id="1388">
                <IconStyle id="1389">
                    <color>ffff0000</color>
                    <colorMode>normal</colorMode>
                    <scale>1</scale>
                    <heading>0</heading>
                    <Icon id="1390">
                        <href>http://maps.google.com/mapfiles/kml/pushpin/ylw-pushpin.png</href>
                    </Icon>
                </IconStyle>
            </Style>
            <Style id="1393">
                <IconStyle id="1394">
                    <color>ffff0000</color>
                    <colorMode>normal</colorMode>
                    <scale>1</scale>
                    <heading>0</heading>
                    <Icon id="1395">
                        <href>http://maps.google.com/mapfiles/kml/pushpin/ylw-pushpin.png</href>
                    </Icon>
                </IconStyle>
            </Style>
            <Style id="1398">
                <IconStyle id="1399">
                    <color>ffff0000</color>
                    <colorMode>normal</colorMode>
                    <scale>1</scale>
                    <heading>0</heading>
                    <Icon id="1400">
                        <href>http://maps.google.com/mapfiles/kml/pushpin/ylw-pushpin.png</href>
                    </Icon>
                </IconStyle>
            </Style>
            <Style id="1403">
                <IconStyle id="1404">
                    <color>ffff0000</color>
                    <colorMode>normal</colorMode>
                    <scale>1</scale>
                    <heading>0</heading>
                    <Icon id="1405">
                        <href>http://maps.google.com/mapfiles/kml/pushpin/ylw-pushpin.png</href>
                    </Icon>
                </IconStyle>
            </Style>
            <name>MARTHA CAROLINA AVILA SOLANO</name>
            <Placemark id="1172">
                <name>MARIA JIMENA VELASQUEZ AREVALO</name>
                <description>MZ I3 LOTE 3 URB RINCONADA 3 etapa
Veintiséis de Octubre
Veintiséis de Octubre
Piura
Perú</description>
                <styleUrl>#1173</styleUrl>
                <Point id="1171">
                    <coordinates>-80.6809348,-5.1598452,0.0</coordinates>
                </Point>
            </Placemark>
            <Placemark id="1177">
                <name>MARIA LILIANA OJEDA PAREDES DE MORENO</name>
                <description>JR LA ARENA 1064 VILLA MILITAR- Piura-Piura
Veintiséis de Octubre
Veintiséis de Octubre
Piura
Perú</description>
                <styleUrl>#1178</styleUrl>
                <Point id="1176">
                    <coordinates>-80.6725392,-5.1668077,0.0</coordinates>
                </Point>
            </Placemark>
            <Placemark id="1182">
                <name>KATTERY JANETT PERICHE SIANCAS</name>
                <description>SOL DE Piura MZ A6 LOT 19
Veintiséis de Octubre
Veintiséis de Octubre
Piura
Perú</description>
                <styleUrl>#1183</styleUrl>
                <Point id="1181">
                    <coordinates>-80.6693505,-5.1642782,0.0</coordinates>
                </Point>
            </Placemark>
            <Placemark id="1187">
                <name>CORAIMA PULACHE ALMENDRO</name>
                <description>UNB LA PLANICIE H5 LT.22      
Veintiséis de Octubre
Piura
Piura
Perú</description>
                <styleUrl>#1188</styleUrl>
                <Point id="1186">
                    <coordinates>-80.6751871,-5.162859,0.0</coordinates>
                </Point>
            </Placemark>
            <Placemark id="1192">
                <name>YESLY EGUISEL GARCIA CORDOVA</name>
                <description>URB.PASEO LA RINCONADA MZ.3   
Veintiséis de Octubre
Veintiséis de Octubre
Piura
Perú</description>
                <styleUrl>#1193</styleUrl>
                <Point id="1191">
                    <coordinates>-80.6772992,-5.1594024,0.0</coordinates>
                </Point>
            </Placemark>
            <Placemark id="1197">
                <name>WILLARD ENRIQU BARRIENTOS GUERRERO</name>
                <description>LA RINCONADA CUARTA ETAPA MZ 4K LT 03 PIURA
Veintiséis de Octubre
Piura
Piura
Perú</description>
                <styleUrl>#1198</styleUrl>
                <Point id="1196">
                    <coordinates>-80.6785897,-5.1590417,0.0</coordinates>
                </Point>
            </Placemark>
            <Placemark id="1202">
                <name>WILLARD ENRIQU BARRIENTOS GUERRERO</name>
                <description>LA RINCONADA CUARTA ETAPA MZ 4K LT 03 PIURA
Veintiséis de Octubre
Piura
Piura
Perú</description>
                <styleUrl>#1203</styleUrl>
                <Point id="1201">
                    <coordinates>-80.6785897,-5.1590417,0.0</coordinates>
                </Point>
            </Placemark>
            <Placemark id="1207">
                <name>MELVA PINTADO CASTILLO</name>
                <description>La Rinconada Mz J lot 05 6ta etapa
Veintiséis de Octubre
Veintiséis de Octubre
Piura
Perú</description>
                <styleUrl>#1208</styleUrl>
                <Point id="1206">
                    <coordinates>-80.6795755,-5.1603618,0.0</coordinates>
                </Point>
            </Placemark>
            <Placemark id="1212">
                <name>DIANA PATRICIA DIAZ FERNANDEZ</name>
                <description>MZ.C LT-10 PARQUES DEL CHIPE  
Veintiséis de Octubre
Veintiséis de Octubre
Piura
Perú</description>
                <styleUrl>#1213</styleUrl>
                <Point id="1211">
                    <coordinates>-80.6687257,-5.171874,0.0</coordinates>
                </Point>
            </Placemark>
            <Placemark id="1217">
                <name>MARIBEL CASTILLO PAICO</name>
                <description>MZ BA LT 15 URB. SANTA MARGARITA -
Veintiséis de Octubre
Piura
Piura
Perú</description>
                <styleUrl>#1218</styleUrl>
                <Point id="1216">
                    <coordinates>-80.6660817,-5.1634267,0.0</coordinates>
                </Point>
            </Placemark>
            <Placemark id="1222">
                <name>CORDOVA ZURITA BELARMINIA</name>
                <description>A.V Principal Mz BA lot 18 Santa Margarita NRO. 106
Veintiséis de Octubre
Veintiséis de Octubre
Piura
Perú</description>
                <styleUrl>#1223</styleUrl>
                <Point id="1221">
                    <coordinates>-80.6661133,-5.1632733,0.0</coordinates>
                </Point>
            </Placemark>
            <Placemark id="1227">
                <name>SEVERO ALBERTO ZAVALA CASTILLO</name>
                <description>URB SOL DE PIURA A1-30        
Veintiséis de Octubre

Piura
Perú</description>
                <styleUrl>#1228</styleUrl>
                <Point id="1226">
                    <coordinates>-80.669135,-5.1629883,0.0</coordinates>
                </Point>
            </Placemark>
            <Placemark id="1232">
                <name>MARIA MILCIA COLLANTES HERRERA</name>
                <description>MARIA MILCIA COLLANTES HERRERA
URB SOL DE PIURA 3 ETAPA MZ A4 LT 23
Veintiséis de Octubre
Piura
Piura
Perú</description>
                <styleUrl>#1233</styleUrl>
                <Point id="1231">
                    <coordinates>-80.6674469,-5.1650859,0.0</coordinates>
                </Point>
            </Placemark>
            <Placemark id="1237">
                <name>YOVANA ARACELI ALVAREZ VASQUEZ</name>
                <description>YOVANA ARACELI ALVAREZ VASQUEZ
Mz EH LT 6 URB.STA MARGARITA VIII ETAPA
Veintiséis de Octubre
Piura
Piura
Perú</description>
                <styleUrl>#1238</styleUrl>
                <Point id="1236">
                    <coordinates>-80.6647055,-5.1654869,0.0</coordinates>
                </Point>
            </Placemark>
            <Placemark id="1242">
                <name>CINTHIA LLISLAYNE AGUIRRE MEDINA</name>
                <description>URB.VILLA EL SOL MZ.F LT.6    
Veintiséis de Octubre
Veintiséis de Octubre
Piura
Perú</description>
                <styleUrl>#1243</styleUrl>
                <Point id="1241">
                    <coordinates>-80.6711721,-5.1685827,0.0</coordinates>
                </Point>
            </Placemark>
            <Placemark id="1247">
                <name>CINTHIA LLISLAYNE AGUIRRE MEDINA</name>
                <description>URB.VILLA EL SOL MZ.F LT.6    
Veintiséis de Octubre
Veintiséis de Octubre
Piura
Perú</description>
                <styleUrl>#1248</styleUrl>
                <Point id="1246">
                    <coordinates>-80.6711721,-5.1685827,0.0</coordinates>
                </Point>
            </Placemark>
            <Placemark id="1252">
                <name>ELIANA MARCELA PONGO OCAÑA</name>
                <description>URB VILLA EL SOL C-7          
Veintiséis de Octubre
Veintiséis de Octubre
Piura
Perú</description>
                <styleUrl>#1253</styleUrl>
                <Point id="1251">
                    <coordinates>-80.6720267,-5.1700667,0.0</coordinates>
                </Point>
            </Placemark>
            <Placemark id="1257">
                <name>FANNY BANCAYAN GUERRERO</name>
                <description>FANNY BANCAYAN GUERRERO
URB.LA PLANICIE AV. Gustavo MONJE M.
Veintiséis de Octubre
Piura
Piura
Perú</description>
                <styleUrl>#1258</styleUrl>
                <Point id="1256">
                    <coordinates>-80.6720004,-5.1647772,0.0</coordinates>
                </Point>
            </Placemark>
            <Placemark id="1262">
                <name>FANNY BANCAYAN GUERRERO</name>
                <description>FANNY BANCAYAN GUERRERO
URB.LA PLANICIE AV. Gustavo MONJE M.
Veintiséis de Octubre
Piura
Piura
Perú</description>
                <styleUrl>#1263</styleUrl>
                <Point id="1261">
                    <coordinates>-80.6720004,-5.1647772,0.0</coordinates>
                </Point>
            </Placemark>
            <Placemark id="1267">
                <name>MARIA DEL PILAR FIESTAS CHUNGA</name>
                <description>Mz E lot 15 Las Praderas 26 de octubre
Veintiséis de Octubre
Veintiséis de Octubre
Piura
Perú</description>
                <styleUrl>#1268</styleUrl>
                <Point id="1266">
                    <coordinates>-80.6711856,-5.1631289,0.0</coordinates>
                </Point>
            </Placemark>
            <Placemark id="1272">
                <name>TOCTO CALLE LUZDINA</name>
                <description>MZ.F LT.2 UPIS A.H.LA PRADERA 
Veintiséis de Octubre
Veintiséis de Octubre
Piura
Perú</description>
                <styleUrl>#1273</styleUrl>
                <Point id="1271">
                    <coordinates>-80.670638,-5.161989,0.0</coordinates>
                </Point>
            </Placemark>
            <Placemark id="1277">
                <name>PATRICK DIANA RIOS PRADA</name>
                <description>MZ F6 LT 07 URB. LA PLANICIE - PIUR
Veintiséis de Octubre
Piura
Piura
Perú</description>
                <styleUrl>#1278</styleUrl>
                <Point id="1276">
                    <coordinates>-80.6725096,-5.1622077,0.0</coordinates>
                </Point>
            </Placemark>
            <Placemark id="1282">
                <name>RODRIGO JAVIER CASTILLO VILLEGAS</name>
                <description>La Planicie G5 lot 16 5ta etapa
Veintiséis de Octubre
Veintiséis de Octubre
Piura
Perú</description>
                <styleUrl>#1283</styleUrl>
                <Point id="1281">
                    <coordinates>-80.6749503,-5.1633808,0.0</coordinates>
                </Point>
            </Placemark>
            <Placemark id="1287">
                <name>JUAN AGUILAR LOPEZ</name>
                <description>Mz G2 LTE 24 AA.HH LAS DALIAS III ETAPA
Veintiséis de Octubre
Piura
Piura
Perú</description>
                <styleUrl>#1288</styleUrl>
                <Point id="1286">
                    <coordinates>-80.6645895,-5.1593853,0.0</coordinates>
                </Point>
            </Placemark>
            <Placemark id="1292">
                <name>NONAJULCA CALLE JULIANA LISBETH</name>
                <description>
Veintiséis de Octubre
Veintiséis de Octubre
Piura
Perú</description>
                <styleUrl>#1293</styleUrl>
                <Point id="1291">
                    <coordinates>-80.665679,-5.1595077,0.0</coordinates>
                </Point>
            </Placemark>
            <Placemark id="1297">
                <name>KATIA MARLENY VASQUEZ INFANTE</name>
                <description>MZ E2 LOTE 28 URB LA RINCONADA
Veintiséis de Octubre
Veintiséis de Octubre
Piura
Perú</description>
                <styleUrl>#1298</styleUrl>
                <Point id="1296">
                    <coordinates>-80.6843238,-5.1626746,0.0</coordinates>
                </Point>
            </Placemark>
            <Placemark id="1302">
                <name>GABY CATHERINE PRADO PEREZ</name>
                <description>URB.PASEO LA RINCONADA MZ C2-1
Veintiséis de Octubre
Veintiséis de Octubre
Piura
Perú</description>
                <styleUrl>#1303</styleUrl>
                <Point id="1301">
                    <coordinates>-80.6847977,-5.1615652,0.0</coordinates>
                </Point>
            </Placemark>
            <Placemark id="1307">
                <name>MANUELA SOLEDAD AGUIRRE CASTILLO</name>
                <description>RINCONADA E5-06 26 DE OCTUBRE- Piura
Veintiséis de Octubre
Veintiséis de Octubre
Piura
Perú</description>
                <styleUrl>#1308</styleUrl>
                <Point id="1306">
                    <coordinates>-80.682665,-5.1590133,0.0</coordinates>
                </Point>
            </Placemark>
            <Placemark id="1312">
                <name>VANESSA LIZZETH VALLEJOS GANOZA</name>
                <description>RINCONADA 2 ETAPA A LT 77 26 DE OCTUBRE
Veintiséis de Octubre
Piura
Piura
Perú</description>
                <styleUrl>#1313</styleUrl>
                <Point id="1311">
                    <coordinates>-80.6813319,-5.1581842,0.0</coordinates>
                </Point>
            </Placemark>
            <Placemark id="1317">
                <name>CHIRA RAMIREZ DE HERNANDEZ ANA</name>
                <description>URB VILLA RINCONADA MZ A-12   
Veintiséis de Octubre
Veintiséis de Octubre
Piura
Perú</description>
                <styleUrl>#1318</styleUrl>
                <Point id="1316">
                    <coordinates>-80.681388,-5.15778,0.0</coordinates>
                </Point>
            </Placemark>
            <Placemark id="1322">
                <name>ROSA ELENA ABAD CHINCHAY</name>
                <description>MZ.P1 LT.6 AH.LAS DALIAS II ET
Veintiséis de Octubre
Piura
Piura
Perú</description>
                <styleUrl>#1323</styleUrl>
                <Point id="1321">
                    <coordinates>-80.664342,-5.159432,0.0</coordinates>
                </Point>
            </Placemark>
            <Placemark id="1327">
                <name>SANTOS FLORIAN CUEVA FLORES</name>
                <description>CALLE LAS DALIAS 3 ETAPA G2-2
Veintiséis de Octubre
Veintiséis de Octubre
Piura
Perú</description>
                <styleUrl>#1328</styleUrl>
                <Point id="1326">
                    <coordinates>-80.6653265,-5.1597806,0.0</coordinates>
                </Point>
            </Placemark>
            <Placemark id="1332">
                <name>SANTOS FLORIAN CUEVA FLORES</name>
                <description>CALLE LAS DALIAS 3 ETAPA G2-2
Veintiséis de Octubre
Veintiséis de Octubre
Piura
Perú</description>
                <styleUrl>#1333</styleUrl>
                <Point id="1331">
                    <coordinates>-80.6653265,-5.1597806,0.0</coordinates>
                </Point>
            </Placemark>
            <Placemark id="1337">
                <name>ZOBEIDA GARCIA NORIEGA</name>
                <description>ZOBEIDA GARCIA NORIEGA
MZ K LT 27 AA. HH NVO AMANECER CONJESUS
Veintiséis de Octubre

Piura
Perú</description>
                <styleUrl>#1338</styleUrl>
                <Point id="1336">
                    <coordinates>-80.6669077,-5.1570903,0.0</coordinates>
                </Point>
            </Placemark>
            <Placemark id="1342">
                <name>CARMEN ROSA MEDINA USQUIZA</name>
                <description>MZ- M LT-3 NUEV AMANECER CON JESUS
Veintiséis de Octubre
Piura
Piura
Perú</description>
                <styleUrl>#1343</styleUrl>
                <Point id="1341">
                    <coordinates>-80.6684158,-5.1568083,0.0</coordinates>
                </Point>
            </Placemark>
            <Placemark id="1347">
                <name>RUBY PALACIOS ZAPATA</name>
                <description>Mz J LTE 55 AA.HH NUEVO AMANECER
Veintiséis de Octubre
Veintiséis de Octubre
Piura
Perú</description>
                <styleUrl>#1348</styleUrl>
                <Point id="1346">
                    <coordinates>-80.6683983,-5.1562517,0.0</coordinates>
                </Point>
            </Placemark>
            <Placemark id="1352">
                <name>FANY CUNYA LLACSAHUANGA</name>
                <description>AH NVO AMANECER CON JESU R-23 
Veintiséis de Octubre
Veintiséis de Octubre
Piura
Perú</description>
                <styleUrl>#1353</styleUrl>
                <Point id="1351">
                    <coordinates>-80.6699172,-5.1585423,0.0</coordinates>
                </Point>
            </Placemark>
            <Placemark id="1357">
                <name>FANY CUNYA LLACSAHUANGA</name>
                <description>AH NVO AMANECER CON JESU R-23 
Veintiséis de Octubre
Veintiséis de Octubre
Piura
Perú</description>
                <styleUrl>#1358</styleUrl>
                <Point id="1356">
                    <coordinates>-80.6699172,-5.1585423,0.0</coordinates>
                </Point>
            </Placemark>
            <Placemark id="1362">
                <name>MIRIAM YANET ARRUNATEGUI A.</name>
                <description>A.H.NUEVO AMANECER MZ U LT.51 
Veintiséis de Octubre
Veintiséis de Octubre
Piura
Perú</description>
                <styleUrl>#1363</styleUrl>
                <Point id="1361">
                    <coordinates>-80.6706418,-5.1599557,0.0</coordinates>
                </Point>
            </Placemark>
            <Placemark id="1367">
                <name>CLARIS MARITZA CABANILLAS ROMERO</name>
                <description>MZ.B1 LT.18 AH.NUEVO AMANECER 
Veintiséis de Octubre
Veintiséis de Octubre
Piura
Perú</description>
                <styleUrl>#1368</styleUrl>
                <Point id="1366">
                    <coordinates>-80.671266,-5.160671,0.0</coordinates>
                </Point>
            </Placemark>
            <Placemark id="1372">
                <name>VANESSA CALDERON MOSCOL</name>
                <description>ASOC NVO AMANECER MZ D1 LT 3
Veintiséis de Octubre
Piura
Piura
Perú</description>
                <styleUrl>#1373</styleUrl>
                <Point id="1371">
                    <coordinates>-80.671235,-5.15926,0.0</coordinates>
                </Point>
            </Placemark>
            <Placemark id="1377">
                <name>VANESSA CALDERON MOSCOL</name>
                <description>ASOC NVO AMANECER MZ D1 LT 3
Veintiséis de Octubre
Piura
Piura
Perú</description>
                <styleUrl>#1378</styleUrl>
                <Point id="1376">
                    <coordinates>-80.671235,-5.15926,0.0</coordinates>
                </Point>
            </Placemark>
            <Placemark id="1382">
                <name>DAVID PORFIRIO MOROCHO CORTEZ</name>
                <description>UPIS LAS PALMERAS DEL SOL F-20
Veintiséis de Octubre
Veintiséis de Octubre
Piura
Perú</description>
                <styleUrl>#1383</styleUrl>
                <Point id="1381">
                    <coordinates>-80.672415,-5.1591883,0.0</coordinates>
                </Point>
            </Placemark>
            <Placemark id="1387">
                <name>MARIANELLA LIZBETH ARANDA SULUCO</name>
                <description>Mz D Lte 3 AA.HH SAN JUDAS TADEO
Veintiséis de Octubre
Veintiséis de Octubre
Piura
Perú</description>
                <styleUrl>#1388</styleUrl>
                <Point id="1386">
                    <coordinates>-80.6719755,-5.1588678,0.0</coordinates>
                </Point>
            </Placemark>
            <Placemark id="1392">
                <name>CLORINDA LIZANA CHOQUEHUANCA</name>
                <description>D-53 AH SAN JUDAS TADEO       
Veintiséis de Octubre
Veintiséis de Octubre
Piura
Perú</description>
                <styleUrl>#1393</styleUrl>
                <Point id="1391">
                    <coordinates>-80.6709287,-5.1565103,0.0</coordinates>
                </Point>
            </Placemark>
            <Placemark id="1397">
                <name>ANNIE DEL ROSARIO FIESTAS MOROCHO</name>
                <description>MZ.F LT.21.LA PRADERA DE J.MA 
Veintiséis de Octubre
Veintiséis de Octubre
Piura
Perú</description>
                <styleUrl>#1398</styleUrl>
                <Point id="1396">
                    <coordinates>-80.6703681,-5.1626523,0.0</coordinates>
                </Point>
            </Placemark>
            <Placemark id="1402">
                <name>MERCADO PIURANO E.I.R.L., UPIS</name>
                <description>MERCADO PIURANO E.I.R.L., UPIS
Mz B LTE 8 UPIS 13 DE NOVIEMBRE 26 DE OCTUBRE Piura
Veintiséis de Octubre
200115Veintiséis de Octubre
Piura
Perú</description>
                <styleUrl>#1403</styleUrl>
                <Point id="1401">
                    <coordinates>-80.6703769,-5.1531997,0.0</coordinates>
                </Point>
            </Placemark>
        </Folder>
    </Document>
</kml>
