<?xml version="1.0" encoding="UTF-8"?>
<kml xmlns="http://www.opengis.net/kml/2.2" xmlns:gx="http://www.google.com/kml/ext/2.2">
    <Document id="350">
        <Folder id="351">
            <Style id="354">
                <IconStyle id="355">
                    <color>ff0000ff</color>
                    <colorMode>normal</colorMode>
                    <scale>1</scale>
                    <heading>0</heading>
                    <Icon id="356">
                        <href>http://maps.google.com/mapfiles/kml/pushpin/ylw-pushpin.png</href>
                    </Icon>
                </IconStyle>
            </Style>
            <Style id="359">
                <IconStyle id="360">
                    <color>ff0000ff</color>
                    <colorMode>normal</colorMode>
                    <scale>1</scale>
                    <heading>0</heading>
                    <Icon id="361">
                        <href>http://maps.google.com/mapfiles/kml/pushpin/ylw-pushpin.png</href>
                    </Icon>
                </IconStyle>
            </Style>
            <Style id="364">
                <IconStyle id="365">
                    <color>ff0000ff</color>
                    <colorMode>normal</colorMode>
                    <scale>1</scale>
                    <heading>0</heading>
                    <Icon id="366">
                        <href>http://maps.google.com/mapfiles/kml/pushpin/ylw-pushpin.png</href>
                    </Icon>
                </IconStyle>
            </Style>
            <Style id="369">
                <IconStyle id="370">
                    <color>ff0000ff</color>
                    <colorMode>normal</colorMode>
                    <scale>1</scale>
                    <heading>0</heading>
                    <Icon id="371">
                        <href>http://maps.google.com/mapfiles/kml/pushpin/ylw-pushpin.png</href>
                    </Icon>
                </IconStyle>
            </Style>
            <Style id="374">
                <IconStyle id="375">
                    <color>ff0000ff</color>
                    <colorMode>normal</colorMode>
                    <scale>1</scale>
                    <heading>0</heading>
                    <Icon id="376">
                        <href>http://maps.google.com/mapfiles/kml/pushpin/ylw-pushpin.png</href>
                    </Icon>
                </IconStyle>
            </Style>
            <Style id="379">
                <IconStyle id="380">
                    <color>ff0000ff</color>
                    <colorMode>normal</colorMode>
                    <scale>1</scale>
                    <heading>0</heading>
                    <Icon id="381">
                        <href>http://maps.google.com/mapfiles/kml/pushpin/ylw-pushpin.png</href>
                    </Icon>
                </IconStyle>
            </Style>
            <Style id="384">
                <IconStyle id="385">
                    <color>ff0000ff</color>
                    <colorMode>normal</colorMode>
                    <scale>1</scale>
                    <heading>0</heading>
                    <Icon id="386">
                        <href>http://maps.google.com/mapfiles/kml/pushpin/ylw-pushpin.png</href>
                    </Icon>
                </IconStyle>
            </Style>
            <Style id="389">
                <IconStyle id="390">
                    <color>ff0000ff</color>
                    <colorMode>normal</colorMode>
                    <scale>1</scale>
                    <heading>0</heading>
                    <Icon id="391">
                        <href>http://maps.google.com/mapfiles/kml/pushpin/ylw-pushpin.png</href>
                    </Icon>
                </IconStyle>
            </Style>
            <Style id="394">
                <IconStyle id="395">
                    <color>ff0000ff</color>
                    <colorMode>normal</colorMode>
                    <scale>1</scale>
                    <heading>0</heading>
                    <Icon id="396">
                        <href>http://maps.google.com/mapfiles/kml/pushpin/ylw-pushpin.png</href>
                    </Icon>
                </IconStyle>
            </Style>
            <Style id="399">
                <IconStyle id="400">
                    <color>ff0000ff</color>
                    <colorMode>normal</colorMode>
                    <scale>1</scale>
                    <heading>0</heading>
                    <Icon id="401">
                        <href>http://maps.google.com/mapfiles/kml/pushpin/ylw-pushpin.png</href>
                    </Icon>
                </IconStyle>
            </Style>
            <Style id="404">
                <IconStyle id="405">
                    <color>ff0000ff</color>
                    <colorMode>normal</colorMode>
                    <scale>1</scale>
                    <heading>0</heading>
                    <Icon id="406">
                        <href>http://maps.google.com/mapfiles/kml/pushpin/ylw-pushpin.png</href>
                    </Icon>
                </IconStyle>
            </Style>
            <Style id="409">
                <IconStyle id="410">
                    <color>ff0000ff</color>
                    <colorMode>normal</colorMode>
                    <scale>1</scale>
                    <heading>0</heading>
                    <Icon id="411">
                        <href>http://maps.google.com/mapfiles/kml/pushpin/ylw-pushpin.png</href>
                    </Icon>
                </IconStyle>
            </Style>
            <Style id="414">
                <IconStyle id="415">
                    <color>ff0000ff</color>
                    <colorMode>normal</colorMode>
                    <scale>1</scale>
                    <heading>0</heading>
                    <Icon id="416">
                        <href>http://maps.google.com/mapfiles/kml/pushpin/ylw-pushpin.png</href>
                    </Icon>
                </IconStyle>
            </Style>
            <Style id="419">
                <IconStyle id="420">
                    <color>ff0000ff</color>
                    <colorMode>normal</colorMode>
                    <scale>1</scale>
                    <heading>0</heading>
                    <Icon id="421">
                        <href>http://maps.google.com/mapfiles/kml/pushpin/ylw-pushpin.png</href>
                    </Icon>
                </IconStyle>
            </Style>
            <Style id="424">
                <IconStyle id="425">
                    <color>ff0000ff</color>
                    <colorMode>normal</colorMode>
                    <scale>1</scale>
                    <heading>0</heading>
                    <Icon id="426">
                        <href>http://maps.google.com/mapfiles/kml/pushpin/ylw-pushpin.png</href>
                    </Icon>
                </IconStyle>
            </Style>
            <Style id="429">
                <IconStyle id="430">
                    <color>ff0000ff</color>
                    <colorMode>normal</colorMode>
                    <scale>1</scale>
                    <heading>0</heading>
                    <Icon id="431">
                        <href>http://maps.google.com/mapfiles/kml/pushpin/ylw-pushpin.png</href>
                    </Icon>
                </IconStyle>
            </Style>
            <Style id="434">
                <IconStyle id="435">
                    <color>ff0000ff</color>
                    <colorMode>normal</colorMode>
                    <scale>1</scale>
                    <heading>0</heading>
                    <Icon id="436">
                        <href>http://maps.google.com/mapfiles/kml/pushpin/ylw-pushpin.png</href>
                    </Icon>
                </IconStyle>
            </Style>
            <Style id="439">
                <IconStyle id="440">
                    <color>ff0000ff</color>
                    <colorMode>normal</colorMode>
                    <scale>1</scale>
                    <heading>0</heading>
                    <Icon id="441">
                        <href>http://maps.google.com/mapfiles/kml/pushpin/ylw-pushpin.png</href>
                    </Icon>
                </IconStyle>
            </Style>
            <Style id="444">
                <IconStyle id="445">
                    <color>ff0000ff</color>
                    <colorMode>normal</colorMode>
                    <scale>1</scale>
                    <heading>0</heading>
                    <Icon id="446">
                        <href>http://maps.google.com/mapfiles/kml/pushpin/ylw-pushpin.png</href>
                    </Icon>
                </IconStyle>
            </Style>
            <Style id="449">
                <IconStyle id="450">
                    <color>ff0000ff</color>
                    <colorMode>normal</colorMode>
                    <scale>1</scale>
                    <heading>0</heading>
                    <Icon id="451">
                        <href>http://maps.google.com/mapfiles/kml/pushpin/ylw-pushpin.png</href>
                    </Icon>
                </IconStyle>
            </Style>
            <Style id="454">
                <IconStyle id="455">
                    <color>ff0000ff</color>
                    <colorMode>normal</colorMode>
                    <scale>1</scale>
                    <heading>0</heading>
                    <Icon id="456">
                        <href>http://maps.google.com/mapfiles/kml/pushpin/ylw-pushpin.png</href>
                    </Icon>
                </IconStyle>
            </Style>
            <Style id="459">
                <IconStyle id="460">
                    <color>ff0000ff</color>
                    <colorMode>normal</colorMode>
                    <scale>1</scale>
                    <heading>0</heading>
                    <Icon id="461">
                        <href>http://maps.google.com/mapfiles/kml/pushpin/ylw-pushpin.png</href>
                    </Icon>
                </IconStyle>
            </Style>
            <Style id="464">
                <IconStyle id="465">
                    <color>ff0000ff</color>
                    <colorMode>normal</colorMode>
                    <scale>1</scale>
                    <heading>0</heading>
                    <Icon id="466">
                        <href>http://maps.google.com/mapfiles/kml/pushpin/ylw-pushpin.png</href>
                    </Icon>
                </IconStyle>
            </Style>
            <Style id="469">
                <IconStyle id="470">
                    <color>ff0000ff</color>
                    <colorMode>normal</colorMode>
                    <scale>1</scale>
                    <heading>0</heading>
                    <Icon id="471">
                        <href>http://maps.google.com/mapfiles/kml/pushpin/ylw-pushpin.png</href>
                    </Icon>
                </IconStyle>
            </Style>
            <Style id="474">
                <IconStyle id="475">
                    <color>ff0000ff</color>
                    <colorMode>normal</colorMode>
                    <scale>1</scale>
                    <heading>0</heading>
                    <Icon id="476">
                        <href>http://maps.google.com/mapfiles/kml/pushpin/ylw-pushpin.png</href>
                    </Icon>
                </IconStyle>
            </Style>
            <Style id="479">
                <IconStyle id="480">
                    <color>ff0000ff</color>
                    <colorMode>normal</colorMode>
                    <scale>1</scale>
                    <heading>0</heading>
                    <Icon id="481">
                        <href>http://maps.google.com/mapfiles/kml/pushpin/ylw-pushpin.png</href>
                    </Icon>
                </IconStyle>
            </Style>
            <Style id="484">
                <IconStyle id="485">
                    <color>ff0000ff</color>
                    <colorMode>normal</colorMode>
                    <scale>1</scale>
                    <heading>0</heading>
                    <Icon id="486">
                        <href>http://maps.google.com/mapfiles/kml/pushpin/ylw-pushpin.png</href>
                    </Icon>
                </IconStyle>
            </Style>
            <Style id="489">
                <IconStyle id="490">
                    <color>ff0000ff</color>
                    <colorMode>normal</colorMode>
                    <scale>1</scale>
                    <heading>0</heading>
                    <Icon id="491">
                        <href>http://maps.google.com/mapfiles/kml/pushpin/ylw-pushpin.png</href>
                    </Icon>
                </IconStyle>
            </Style>
            <Style id="494">
                <IconStyle id="495">
                    <color>ff0000ff</color>
                    <colorMode>normal</colorMode>
                    <scale>1</scale>
                    <heading>0</heading>
                    <Icon id="496">
                        <href>http://maps.google.com/mapfiles/kml/pushpin/ylw-pushpin.png</href>
                    </Icon>
                </IconStyle>
            </Style>
            <Style id="499">
                <IconStyle id="500">
                    <color>ff0000ff</color>
                    <colorMode>normal</colorMode>
                    <scale>1</scale>
                    <heading>0</heading>
                    <Icon id="501">
                        <href>http://maps.google.com/mapfiles/kml/pushpin/ylw-pushpin.png</href>
                    </Icon>
                </IconStyle>
            </Style>
            <Style id="504">
                <IconStyle id="505">
                    <color>ff0000ff</color>
                    <colorMode>normal</colorMode>
                    <scale>1</scale>
                    <heading>0</heading>
                    <Icon id="506">
                        <href>http://maps.google.com/mapfiles/kml/pushpin/ylw-pushpin.png</href>
                    </Icon>
                </IconStyle>
            </Style>
            <Style id="509">
                <IconStyle id="510">
                    <color>ff0000ff</color>
                    <colorMode>normal</colorMode>
                    <scale>1</scale>
                    <heading>0</heading>
                    <Icon id="511">
                        <href>http://maps.google.com/mapfiles/kml/pushpin/ylw-pushpin.png</href>
                    </Icon>
                </IconStyle>
            </Style>
            <Style id="514">
                <IconStyle id="515">
                    <color>ff0000ff</color>
                    <colorMode>normal</colorMode>
                    <scale>1</scale>
                    <heading>0</heading>
                    <Icon id="516">
                        <href>http://maps.google.com/mapfiles/kml/pushpin/ylw-pushpin.png</href>
                    </Icon>
                </IconStyle>
            </Style>
            <Style id="519">
                <IconStyle id="520">
                    <color>ff0000ff</color>
                    <colorMode>normal</colorMode>
                    <scale>1</scale>
                    <heading>0</heading>
                    <Icon id="521">
                        <href>http://maps.google.com/mapfiles/kml/pushpin/ylw-pushpin.png</href>
                    </Icon>
                </IconStyle>
            </Style>
            <Style id="524">
                <IconStyle id="525">
                    <color>ff0000ff</color>
                    <colorMode>normal</colorMode>
                    <scale>1</scale>
                    <heading>0</heading>
                    <Icon id="526">
                        <href>http://maps.google.com/mapfiles/kml/pushpin/ylw-pushpin.png</href>
                    </Icon>
                </IconStyle>
            </Style>
            <Style id="529">
                <IconStyle id="530">
                    <color>ff0000ff</color>
                    <colorMode>normal</colorMode>
                    <scale>1</scale>
                    <heading>0</heading>
                    <Icon id="531">
                        <href>http://maps.google.com/mapfiles/kml/pushpin/ylw-pushpin.png</href>
                    </Icon>
                </IconStyle>
            </Style>
            <Style id="534">
                <IconStyle id="535">
                    <color>ff0000ff</color>
                    <colorMode>normal</colorMode>
                    <scale>1</scale>
                    <heading>0</heading>
                    <Icon id="536">
                        <href>http://maps.google.com/mapfiles/kml/pushpin/ylw-pushpin.png</href>
                    </Icon>
                </IconStyle>
            </Style>
            <Style id="539">
                <IconStyle id="540">
                    <color>ff0000ff</color>
                    <colorMode>normal</colorMode>
                    <scale>1</scale>
                    <heading>0</heading>
                    <Icon id="541">
                        <href>http://maps.google.com/mapfiles/kml/pushpin/ylw-pushpin.png</href>
                    </Icon>
                </IconStyle>
            </Style>
            <name>ANYI GLEIDY SALDAÑA ESPINOZA</name>
            <Placemark id="353">
                <name>ROSA ELENA GUERRERO LOPEZ</name>
                <description>ENACE IV MZ.I-2 LT-50         
Veintiséis de Octubre
Veintiséis de Octubre
Piura
Perú</description>
                <styleUrl>#354</styleUrl>
                <Point id="352">
                    <coordinates>-80.6886392,-5.1739277,0.0</coordinates>
                </Point>
            </Placemark>
            <Placemark id="358">
                <name>ELIZABETH MENA OLAYA</name>
                <description>AAHH VILLA HERMOSA MZ E LOTE 6
Veintiséis de Octubre
Veintiséis de Octubre
Piura
Perú</description>
                <styleUrl>#359</styleUrl>
                <Point id="357">
                    <coordinates>-80.6904981,-5.1756558,0.0</coordinates>
                </Point>
            </Placemark>
            <Placemark id="363">
                <name>DOMINGA GENARA LABAN PALACIOS</name>
                <description>MZ-C2 LT.21 IV MICAELA BASTIDA
Veintiséis de Octubre
Veintiséis de Octubre
Piura
Perú</description>
                <styleUrl>#364</styleUrl>
                <Point id="362">
                    <coordinates>-80.6864559,-5.1727576,0.0</coordinates>
                </Point>
            </Placemark>
            <Placemark id="368">
                <name>PEÑA LABAN ALEX ALBERTO</name>
                <description>MZ L - 06 AAHH villa hermosa
Veintiséis de Octubre

Piura
Perú</description>
                <styleUrl>#369</styleUrl>
                <Point id="367">
                    <coordinates>-80.688523,-5.171964,0.0</coordinates>
                </Point>
            </Placemark>
            <Placemark id="373">
                <name>GLADYS ANEIDA AGUILAR VIDAL</name>
                <description>MZ-02 LT-14 IV ETAPA ENACE    
Veintiséis de Octubre
Veintiséis de Octubre
Piura
Perú</description>
                <styleUrl>#374</styleUrl>
                <Point id="372">
                    <coordinates>-80.6860218,-5.1733855,0.0</coordinates>
                </Point>
            </Placemark>
            <Placemark id="378">
                <name>TERESA OCHOA PALACIOS</name>
                <description>ENACE MZ. L 3 LTE. 22 - IV ET 
Veintiséis de Octubre
Piura
Piura
Perú</description>
                <styleUrl>#379</styleUrl>
                <Point id="377">
                    <coordinates>-80.6869517,-5.1749176,0.0</coordinates>
                </Point>
            </Placemark>
            <Placemark id="383">
                <name>MARGARITA DEL PILAR ROSALES CRIOLLO</name>
                <description>MICAELA BASTIDAS C4 LT 26 26 DE OCTUBRE-Piura
Veintiséis de Octubre
Veintiséis de Octubre
Piura
Perú</description>
                <styleUrl>#384</styleUrl>
                <Point id="382">
                    <coordinates>-80.6747039,-5.17678,0.0</coordinates>
                </Point>
            </Placemark>
            <Placemark id="388">
                <name>CASTILLO ROQUE ESMIDIA DEL PILAR</name>
                <description>CASTILLO ROQUE ESMIDIA DEL PILAR
AV SANCHEZ CERRO KM 5 GRIFO VIGMA 26 DE OCTUBRE
Veintiséis de Octubre
Piura
Piura
Perú</description>
                <styleUrl>#389</styleUrl>
                <Point id="387">
                    <coordinates>-80.6747678,-5.1751755,0.0</coordinates>
                </Point>
            </Placemark>
            <Placemark id="393">
                <name>LUDEÑA RIVERA ILIANA LISSET</name>
                <description>MZ L 3 LT 17 ET 04  MICAELA BA
Veintiséis de Octubre
Veintiséis de Octubre
Piura
Perú</description>
                <styleUrl>#394</styleUrl>
                <Point id="392">
                    <coordinates>-80.687254,-5.174789,0.0</coordinates>
                </Point>
            </Placemark>
            <Placemark id="398">
                <name>MARISOL MORAN FREYRE</name>
                <description>MZ L3 LTE.34 IV ETAPA ENACE - PIURA
Veintiséis de Octubre

Piura
Perú</description>
                <styleUrl>#399</styleUrl>
                <Point id="397">
                    <coordinates>-80.6874264,-5.1751768,0.0</coordinates>
                </Point>
            </Placemark>
            <Placemark id="403">
                <name>ROSA ANGELICA MENA SAAVEDRA</name>
                <description>MZ R LT 14 ENACE III ETAPA    
Veintiséis de Octubre
Veintiséis de Octubre
Piura
Perú</description>
                <styleUrl>#404</styleUrl>
                <Point id="402">
                    <coordinates>-80.6838818,-5.1771982,0.0</coordinates>
                </Point>
            </Placemark>
            <Placemark id="408">
                <name>MARQUEZ MORALES BRENDY TERESA</name>
                <description>URB.M.BASTIDAS MZ.P LT.5 2I ET
Veintiséis de Octubre
Veintiséis de Octubre
Piura
Perú</description>
                <styleUrl>#409</styleUrl>
                <Point id="407">
                    <coordinates>-80.682427,-5.177392,0.0</coordinates>
                </Point>
            </Placemark>
            <Placemark id="413">
                <name>GARCIA MARQUEZ MARCOLINA</name>
                <description>GARCIA MARQUEZ MARCOLINA
Aahh Micaela Bastidas MZ F2 Lote 17 Av Grau
Veintiséis de Octubre
Veintiséis de Octubre
Piura
Perú</description>
                <styleUrl>#414</styleUrl>
                <Point id="412">
                    <coordinates>-80.6766109,-5.1797953,0.0</coordinates>
                </Point>
            </Placemark>
            <Placemark id="418">
                <name>RUDECINDA HUANCA VERA</name>
                <description>MICAELA BESTIDAS CALLE MANUEL FRIAS MZ H4 LOTE 12
Veintiséis de Octubre
Veintiséis de Octubre
Piura
Perú</description>
                <styleUrl>#419</styleUrl>
                <Point id="417">
                    <coordinates>-80.6761566,-5.1772777,0.0</coordinates>
                </Point>
            </Placemark>
            <Placemark id="423">
                <name>MARGARITA DEL PILAR ROSALES CRIOLLO</name>
                <description>MICAELA BASTIDAS C4 LT 26 26 DE OCTUBRE-Piura
Veintiséis de Octubre
Veintiséis de Octubre
Piura
Perú</description>
                <styleUrl>#424</styleUrl>
                <Point id="422">
                    <coordinates>-80.6747039,-5.17678,0.0</coordinates>
                </Point>
            </Placemark>
            <Placemark id="428">
                <name>MARLENY QUINDE JIMENEZ</name>
                <description>MARLENY QUINDE JIMENEZ
CA.MIGUEL CORTES MZ F2 LT-21 MICAELA BASTIDAS
Veintiséis de Octubre
Piura
Piura
Perú</description>
                <styleUrl>#429</styleUrl>
                <Point id="427">
                    <coordinates>-80.6764017,-5.17936,0.0</coordinates>
                </Point>
            </Placemark>
            <Placemark id="433">
                <name>ZOILA MENDOZA CARMEN</name>
                <description>AAHH MICAELA BASTIDAS MZ F4 LOTE 9
Veintiséis de Octubre
Veintiséis de Octubre
Piura
Perú</description>
                <styleUrl>#434</styleUrl>
                <Point id="432">
                    <coordinates>-80.6767634,-5.177763,0.0</coordinates>
                </Point>
            </Placemark>
            <Placemark id="438">
                <name>SANCARRANCO SILUPU LIDIA M.</name>
                <description>CH MIC BAST 1ER ETA MZ M LT 20
Veintiséis de Octubre
Veintiséis de Octubre
Piura
Perú</description>
                <styleUrl>#439</styleUrl>
                <Point id="437">
                    <coordinates>-80.6786387,-5.1775117,0.0</coordinates>
                </Point>
            </Placemark>
            <Placemark id="443">
                <name>ABANTO OLIVARES MAURA JUSTINA</name>
                <description>MZ-L LT 12 ENACE II ETAPA     
Veintiséis de Octubre
Piura
Piura
Perú</description>
                <styleUrl>#444</styleUrl>
                <Point id="442">
                    <coordinates>-80.677595,-5.176208,0.0</coordinates>
                </Point>
            </Placemark>
            <Placemark id="448">
                <name>JORGE TAPIA CABRERA</name>
                <description>JORGE TAPIA CABRERA
MZ C LT. 31 URB. MICAELA BASTIDAS 2ETAPA
Veintiséis de Octubre
Piura
Piura
Perú</description>
                <styleUrl>#449</styleUrl>
                <Point id="447">
                    <coordinates>-80.6772006,-5.175441,0.0</coordinates>
                </Point>
            </Placemark>
            <Placemark id="453">
                <name>CARLOS DANIEL ALBAN LLACSAHUANGA</name>
                <description>URB ENACE MZ O LOTE 29 TERCERA ETAPA
Veintiséis de Octubre
Veintiséis de Octubre
Piura
Perú</description>
                <styleUrl>#454</styleUrl>
                <Point id="452">
                    <coordinates>-80.6803825,-5.1743622,0.0</coordinates>
                </Point>
            </Placemark>
            <Placemark id="458">
                <name>SANTOS VICTORIA RETO CRUZ</name>
                <description>MZ J LOTE 27 TERCERA ETAPA ENACE
Veintiséis de Octubre
Veintiséis de Octubre
Piura
Perú</description>
                <styleUrl>#459</styleUrl>
                <Point id="457">
                    <coordinates>-80.6823875,-5.1748768,0.0</coordinates>
                </Point>
            </Placemark>
            <Placemark id="463">
                <name>MERINO REYES MARIA MAGDALENA</name>
                <description>URB.M.BASTIDAS 3ET MZ.J LT.11 
Veintiséis de Octubre
Piura
Piura
Perú</description>
                <styleUrl>#464</styleUrl>
                <Point id="462">
                    <coordinates>-80.68196,-5.174606,0.0</coordinates>
                </Point>
            </Placemark>
            <Placemark id="468">
                <name>JUAN CARLOS BAYONA OTERO</name>
                <description>Urbanización Enace MZ E lote 08 3era  etapa 26 de octubre
Veintiséis de Octubre
Veintiséis de Octubre
Piura
Perú</description>
                <styleUrl>#469</styleUrl>
                <Point id="467">
                    <coordinates>-80.6814837,-5.1757857,0.0</coordinates>
                </Point>
            </Placemark>
            <Placemark id="473">
                <name>CASTILLO ROQUE ESMIDIA DEL PILAR</name>
                <description>CASTILLO ROQUE ESMIDIA DEL PILAR
AV SANCHEZ CERRO KM 5 GRIFO VIGMA 26 DE OCTUBRE
Veintiséis de Octubre
Piura
Piura
Perú</description>
                <styleUrl>#474</styleUrl>
                <Point id="472">
                    <coordinates>-80.6747678,-5.1751755,0.0</coordinates>
                </Point>
            </Placemark>
            <Placemark id="478">
                <name>GRACIELA DEL PILAR MEDINA FLORES</name>
                <description>MZ N LT 32 ET 03 MICAELA BAS  
Veintiséis de Octubre
Nkm8Veintiséis de Octubre
Piura
Perú</description>
                <styleUrl>#479</styleUrl>
                <Point id="477">
                    <coordinates>-80.6826797,-5.1762205,0.0</coordinates>
                </Point>
            </Placemark>
            <Placemark id="483">
                <name>DANITZA TRONCOS CUMBICUS</name>
                <description>DANITZA TRONCOS CUMBICUS
MZ V LTE.17 III ETAPA ENACE
Veintiséis de Octubre
Piura
Piura
Perú</description>
                <styleUrl>#484</styleUrl>
                <Point id="482">
                    <coordinates>-80.6825432,-5.1771917,0.0</coordinates>
                </Point>
            </Placemark>
            <Placemark id="488">
                <name>CALOPINO FLORES VICTORIA ELIZABETH</name>
                <description>CALOPINO FLORES VICTORIA ELIZABETH
AV GRAU 31 MZ Q LT 31 3ERA ETAPA DE ENACE
Veintiséis de Octubre
Piura
Piura
Perú</description>
                <styleUrl>#489</styleUrl>
                <Point id="487">
                    <coordinates>-80.6825517,-5.178085,0.0</coordinates>
                </Point>
            </Placemark>
            <Placemark id="493">
                <name>LOURDES JACKELYN RISCO PARRILLA</name>
                <description>LOURDES JACKELYN RISCO PARRILLA
MZ S Lote 16 ENACE 3 ETAP
Veintiséis de Octubre
Piura
Piura
Perú</description>
                <styleUrl>#494</styleUrl>
                <Point id="492">
                    <coordinates>-80.6849338,-5.1772679,0.0</coordinates>
                </Point>
            </Placemark>
            <Placemark id="498">
                <name>MIRTHA ZEGARRA SARANGO</name>
                <description>MZ H3 LT 23 AA. HH ENACE 4TA ETP
Veintiséis de Octubre
Piura
Piura
Perú</description>
                <styleUrl>#499</styleUrl>
                <Point id="497">
                    <coordinates>-80.6865737,-5.1764705,0.0</coordinates>
                </Point>
            </Placemark>
            <Placemark id="503">
                <name>RETAMOZO PEREZ CATALINA</name>
                <description>MZ L3-32 MICAELA BASTIDAS 4 ET
Veintiséis de Octubre
Piura
Piura
Perú</description>
                <styleUrl>#504</styleUrl>
                <Point id="502">
                    <coordinates>-80.6874797,-5.1752809,0.0</coordinates>
                </Point>
            </Placemark>
            <Placemark id="508">
                <name>TERESA OCHOA PALACIOS</name>
                <description>ENACE MZ. L 3 LTE. 22 - IV ET 
Veintiséis de Octubre
Piura
Piura
Perú</description>
                <styleUrl>#509</styleUrl>
                <Point id="507">
                    <coordinates>-80.6869517,-5.1749176,0.0</coordinates>
                </Point>
            </Placemark>
            <Placemark id="513">
                <name>CLARA DEL ROCIO CHINCHAY SEMINARIO</name>
                <description>Mz G2 lote 13 CUARTA ETAPA ENACE
Veintiséis de Octubre
Veintiséis de Octubre
Piura
Perú</description>
                <styleUrl>#514</styleUrl>
                <Point id="512">
                    <coordinates>-80.6860817,-5.1747041,0.0</coordinates>
                </Point>
            </Placemark>
            <Placemark id="518">
                <name>DIONICIO GUERRERO CORDOVA</name>
                <description>DIONICIO GUERRERO CORDOVA
MZ K2 LT.8 URB.ENACE 4ETAPA - 26 DE OCTUBRE PIURA
Veintiséis de Octubre

Piura
Perú</description>
                <styleUrl>#519</styleUrl>
                <Point id="517">
                    <coordinates>-80.6870522,-5.1725552,0.0</coordinates>
                </Point>
            </Placemark>
            <Placemark id="523">
                <name>LUZ VICTORIA BALLESTEROS DE QUEVEDO</name>
                <description>MZ. K2 LT.05 AH.M.BASTIDAS    
Veintiséis de Octubre

Piura
Perú</description>
                <styleUrl>#524</styleUrl>
                <Point id="522">
                    <coordinates>-80.6872088,-5.1725609,0.0</coordinates>
                </Point>
            </Placemark>
            <Placemark id="528">
                <name>JUDITH CAROLINA LIZANO INGA</name>
                <description>Mz F lote 6 villa hermosa
Veintiséis de Octubre
Veintiséis de Octubre
Piura
Perú</description>
                <styleUrl>#529</styleUrl>
                <Point id="527">
                    <coordinates>-80.6888215,-5.1721846,0.0</coordinates>
                </Point>
            </Placemark>
            <Placemark id="533">
                <name>HAYDEE ROXANA CHIROQUE COVEÑAS</name>
                <description>AAHH VILLA HERMOSA MZ J LT 19 26 DE OCTUBRE-Piura
Veintiséis de Octubre
Veintiséis de Octubre
Piura
Perú</description>
                <styleUrl>#534</styleUrl>
                <Point id="532">
                    <coordinates>-80.6896457,-5.1745932,0.0</coordinates>
                </Point>
            </Placemark>
            <Placemark id="538">
                <name>HIPERBODEGA GLORIA E.I.R.L.</name>
                <description>HIPERBODEGA GLORIA E.I.R.L.
MZ A LOTE. 17  VILLA HERMOSA
Veintiséis de Octubre
Veintiséis de Octubre
Piura
Perú</description>
                <styleUrl>#539</styleUrl>
                <Point id="537">
                    <coordinates>-80.6893962,-5.1759562,0.0</coordinates>
                </Point>
            </Placemark>
        </Folder>
        <Folder id="542">
            <Style id="545">
                <IconStyle id="546">
                    <color>ffff0000</color>
                    <colorMode>normal</colorMode>
                    <scale>1</scale>
                    <heading>0</heading>
                    <Icon id="547">
                        <href>http://maps.google.com/mapfiles/kml/pushpin/ylw-pushpin.png</href>
                    </Icon>
                </IconStyle>
            </Style>
            <Style id="550">
                <IconStyle id="551">
                    <color>ffff0000</color>
                    <colorMode>normal</colorMode>
                    <scale>1</scale>
                    <heading>0</heading>
                    <Icon id="552">
                        <href>http://maps.google.com/mapfiles/kml/pushpin/ylw-pushpin.png</href>
                    </Icon>
                </IconStyle>
            </Style>
            <Style id="555">
                <IconStyle id="556">
                    <color>ffff0000</color>
                    <colorMode>normal</colorMode>
                    <scale>1</scale>
                    <heading>0</heading>
                    <Icon id="557">
                        <href>http://maps.google.com/mapfiles/kml/pushpin/ylw-pushpin.png</href>
                    </Icon>
                </IconStyle>
            </Style>
            <Style id="560">
                <IconStyle id="561">
                    <color>ffff0000</color>
                    <colorMode>normal</colorMode>
                    <scale>1</scale>
                    <heading>0</heading>
                    <Icon id="562">
                        <href>http://maps.google.com/mapfiles/kml/pushpin/ylw-pushpin.png</href>
                    </Icon>
                </IconStyle>
            </Style>
            <Style id="565">
                <IconStyle id="566">
                    <color>ffff0000</color>
                    <colorMode>normal</colorMode>
                    <scale>1</scale>
                    <heading>0</heading>
                    <Icon id="567">
                        <href>http://maps.google.com/mapfiles/kml/pushpin/ylw-pushpin.png</href>
                    </Icon>
                </IconStyle>
            </Style>
            <Style id="570">
                <IconStyle id="571">
                    <color>ffff0000</color>
                    <colorMode>normal</colorMode>
                    <scale>1</scale>
                    <heading>0</heading>
                    <Icon id="572">
                        <href>http://maps.google.com/mapfiles/kml/pushpin/ylw-pushpin.png</href>
                    </Icon>
                </IconStyle>
            </Style>
            <Style id="575">
                <IconStyle id="576">
                    <color>ffff0000</color>
                    <colorMode>normal</colorMode>
                    <scale>1</scale>
                    <heading>0</heading>
                    <Icon id="577">
                        <href>http://maps.google.com/mapfiles/kml/pushpin/ylw-pushpin.png</href>
                    </Icon>
                </IconStyle>
            </Style>
            <Style id="580">
                <IconStyle id="581">
                    <color>ffff0000</color>
                    <colorMode>normal</colorMode>
                    <scale>1</scale>
                    <heading>0</heading>
                    <Icon id="582">
                        <href>http://maps.google.com/mapfiles/kml/pushpin/ylw-pushpin.png</href>
                    </Icon>
                </IconStyle>
            </Style>
            <Style id="585">
                <IconStyle id="586">
                    <color>ffff0000</color>
                    <colorMode>normal</colorMode>
                    <scale>1</scale>
                    <heading>0</heading>
                    <Icon id="587">
                        <href>http://maps.google.com/mapfiles/kml/pushpin/ylw-pushpin.png</href>
                    </Icon>
                </IconStyle>
            </Style>
            <Style id="590">
                <IconStyle id="591">
                    <color>ffff0000</color>
                    <colorMode>normal</colorMode>
                    <scale>1</scale>
                    <heading>0</heading>
                    <Icon id="592">
                        <href>http://maps.google.com/mapfiles/kml/pushpin/ylw-pushpin.png</href>
                    </Icon>
                </IconStyle>
            </Style>
            <Style id="595">
                <IconStyle id="596">
                    <color>ffff0000</color>
                    <colorMode>normal</colorMode>
                    <scale>1</scale>
                    <heading>0</heading>
                    <Icon id="597">
                        <href>http://maps.google.com/mapfiles/kml/pushpin/ylw-pushpin.png</href>
                    </Icon>
                </IconStyle>
            </Style>
            <Style id="600">
                <IconStyle id="601">
                    <color>ffff0000</color>
                    <colorMode>normal</colorMode>
                    <scale>1</scale>
                    <heading>0</heading>
                    <Icon id="602">
                        <href>http://maps.google.com/mapfiles/kml/pushpin/ylw-pushpin.png</href>
                    </Icon>
                </IconStyle>
            </Style>
            <Style id="605">
                <IconStyle id="606">
                    <color>ffff0000</color>
                    <colorMode>normal</colorMode>
                    <scale>1</scale>
                    <heading>0</heading>
                    <Icon id="607">
                        <href>http://maps.google.com/mapfiles/kml/pushpin/ylw-pushpin.png</href>
                    </Icon>
                </IconStyle>
            </Style>
            <Style id="610">
                <IconStyle id="611">
                    <color>ffff0000</color>
                    <colorMode>normal</colorMode>
                    <scale>1</scale>
                    <heading>0</heading>
                    <Icon id="612">
                        <href>http://maps.google.com/mapfiles/kml/pushpin/ylw-pushpin.png</href>
                    </Icon>
                </IconStyle>
            </Style>
            <Style id="615">
                <IconStyle id="616">
                    <color>ffff0000</color>
                    <colorMode>normal</colorMode>
                    <scale>1</scale>
                    <heading>0</heading>
                    <Icon id="617">
                        <href>http://maps.google.com/mapfiles/kml/pushpin/ylw-pushpin.png</href>
                    </Icon>
                </IconStyle>
            </Style>
            <Style id="620">
                <IconStyle id="621">
                    <color>ffff0000</color>
                    <colorMode>normal</colorMode>
                    <scale>1</scale>
                    <heading>0</heading>
                    <Icon id="622">
                        <href>http://maps.google.com/mapfiles/kml/pushpin/ylw-pushpin.png</href>
                    </Icon>
                </IconStyle>
            </Style>
            <Style id="625">
                <IconStyle id="626">
                    <color>ffff0000</color>
                    <colorMode>normal</colorMode>
                    <scale>1</scale>
                    <heading>0</heading>
                    <Icon id="627">
                        <href>http://maps.google.com/mapfiles/kml/pushpin/ylw-pushpin.png</href>
                    </Icon>
                </IconStyle>
            </Style>
            <Style id="630">
                <IconStyle id="631">
                    <color>ffff0000</color>
                    <colorMode>normal</colorMode>
                    <scale>1</scale>
                    <heading>0</heading>
                    <Icon id="632">
                        <href>http://maps.google.com/mapfiles/kml/pushpin/ylw-pushpin.png</href>
                    </Icon>
                </IconStyle>
            </Style>
            <Style id="635">
                <IconStyle id="636">
                    <color>ffff0000</color>
                    <colorMode>normal</colorMode>
                    <scale>1</scale>
                    <heading>0</heading>
                    <Icon id="637">
                        <href>http://maps.google.com/mapfiles/kml/pushpin/ylw-pushpin.png</href>
                    </Icon>
                </IconStyle>
            </Style>
            <Style id="640">
                <IconStyle id="641">
                    <color>ffff0000</color>
                    <colorMode>normal</colorMode>
                    <scale>1</scale>
                    <heading>0</heading>
                    <Icon id="642">
                        <href>http://maps.google.com/mapfiles/kml/pushpin/ylw-pushpin.png</href>
                    </Icon>
                </IconStyle>
            </Style>
            <Style id="645">
                <IconStyle id="646">
                    <color>ffff0000</color>
                    <colorMode>normal</colorMode>
                    <scale>1</scale>
                    <heading>0</heading>
                    <Icon id="647">
                        <href>http://maps.google.com/mapfiles/kml/pushpin/ylw-pushpin.png</href>
                    </Icon>
                </IconStyle>
            </Style>
            <Style id="650">
                <IconStyle id="651">
                    <color>ffff0000</color>
                    <colorMode>normal</colorMode>
                    <scale>1</scale>
                    <heading>0</heading>
                    <Icon id="652">
                        <href>http://maps.google.com/mapfiles/kml/pushpin/ylw-pushpin.png</href>
                    </Icon>
                </IconStyle>
            </Style>
            <Style id="655">
                <IconStyle id="656">
                    <color>ffff0000</color>
                    <colorMode>normal</colorMode>
                    <scale>1</scale>
                    <heading>0</heading>
                    <Icon id="657">
                        <href>http://maps.google.com/mapfiles/kml/pushpin/ylw-pushpin.png</href>
                    </Icon>
                </IconStyle>
            </Style>
            <Style id="660">
                <IconStyle id="661">
                    <color>ffff0000</color>
                    <colorMode>normal</colorMode>
                    <scale>1</scale>
                    <heading>0</heading>
                    <Icon id="662">
                        <href>http://maps.google.com/mapfiles/kml/pushpin/ylw-pushpin.png</href>
                    </Icon>
                </IconStyle>
            </Style>
            <Style id="665">
                <IconStyle id="666">
                    <color>ffff0000</color>
                    <colorMode>normal</colorMode>
                    <scale>1</scale>
                    <heading>0</heading>
                    <Icon id="667">
                        <href>http://maps.google.com/mapfiles/kml/pushpin/ylw-pushpin.png</href>
                    </Icon>
                </IconStyle>
            </Style>
            <Style id="670">
                <IconStyle id="671">
                    <color>ffff0000</color>
                    <colorMode>normal</colorMode>
                    <scale>1</scale>
                    <heading>0</heading>
                    <Icon id="672">
                        <href>http://maps.google.com/mapfiles/kml/pushpin/ylw-pushpin.png</href>
                    </Icon>
                </IconStyle>
            </Style>
            <Style id="675">
                <IconStyle id="676">
                    <color>ffff0000</color>
                    <colorMode>normal</colorMode>
                    <scale>1</scale>
                    <heading>0</heading>
                    <Icon id="677">
                        <href>http://maps.google.com/mapfiles/kml/pushpin/ylw-pushpin.png</href>
                    </Icon>
                </IconStyle>
            </Style>
            <Style id="680">
                <IconStyle id="681">
                    <color>ffff0000</color>
                    <colorMode>normal</colorMode>
                    <scale>1</scale>
                    <heading>0</heading>
                    <Icon id="682">
                        <href>http://maps.google.com/mapfiles/kml/pushpin/ylw-pushpin.png</href>
                    </Icon>
                </IconStyle>
            </Style>
            <Style id="685">
                <IconStyle id="686">
                    <color>ffff0000</color>
                    <colorMode>normal</colorMode>
                    <scale>1</scale>
                    <heading>0</heading>
                    <Icon id="687">
                        <href>http://maps.google.com/mapfiles/kml/pushpin/ylw-pushpin.png</href>
                    </Icon>
                </IconStyle>
            </Style>
            <Style id="690">
                <IconStyle id="691">
                    <color>ffff0000</color>
                    <colorMode>normal</colorMode>
                    <scale>1</scale>
                    <heading>0</heading>
                    <Icon id="692">
                        <href>http://maps.google.com/mapfiles/kml/pushpin/ylw-pushpin.png</href>
                    </Icon>
                </IconStyle>
            </Style>
            <Style id="695">
                <IconStyle id="696">
                    <color>ffff0000</color>
                    <colorMode>normal</colorMode>
                    <scale>1</scale>
                    <heading>0</heading>
                    <Icon id="697">
                        <href>http://maps.google.com/mapfiles/kml/pushpin/ylw-pushpin.png</href>
                    </Icon>
                </IconStyle>
            </Style>
            <Style id="700">
                <IconStyle id="701">
                    <color>ffff0000</color>
                    <colorMode>normal</colorMode>
                    <scale>1</scale>
                    <heading>0</heading>
                    <Icon id="702">
                        <href>http://maps.google.com/mapfiles/kml/pushpin/ylw-pushpin.png</href>
                    </Icon>
                </IconStyle>
            </Style>
            <Style id="705">
                <IconStyle id="706">
                    <color>ffff0000</color>
                    <colorMode>normal</colorMode>
                    <scale>1</scale>
                    <heading>0</heading>
                    <Icon id="707">
                        <href>http://maps.google.com/mapfiles/kml/pushpin/ylw-pushpin.png</href>
                    </Icon>
                </IconStyle>
            </Style>
            <Style id="710">
                <IconStyle id="711">
                    <color>ffff0000</color>
                    <colorMode>normal</colorMode>
                    <scale>1</scale>
                    <heading>0</heading>
                    <Icon id="712">
                        <href>http://maps.google.com/mapfiles/kml/pushpin/ylw-pushpin.png</href>
                    </Icon>
                </IconStyle>
            </Style>
            <Style id="715">
                <IconStyle id="716">
                    <color>ffff0000</color>
                    <colorMode>normal</colorMode>
                    <scale>1</scale>
                    <heading>0</heading>
                    <Icon id="717">
                        <href>http://maps.google.com/mapfiles/kml/pushpin/ylw-pushpin.png</href>
                    </Icon>
                </IconStyle>
            </Style>
            <Style id="720">
                <IconStyle id="721">
                    <color>ffff0000</color>
                    <colorMode>normal</colorMode>
                    <scale>1</scale>
                    <heading>0</heading>
                    <Icon id="722">
                        <href>http://maps.google.com/mapfiles/kml/pushpin/ylw-pushpin.png</href>
                    </Icon>
                </IconStyle>
            </Style>
            <Style id="725">
                <IconStyle id="726">
                    <color>ffff0000</color>
                    <colorMode>normal</colorMode>
                    <scale>1</scale>
                    <heading>0</heading>
                    <Icon id="727">
                        <href>http://maps.google.com/mapfiles/kml/pushpin/ylw-pushpin.png</href>
                    </Icon>
                </IconStyle>
            </Style>
            <Style id="730">
                <IconStyle id="731">
                    <color>ffff0000</color>
                    <colorMode>normal</colorMode>
                    <scale>1</scale>
                    <heading>0</heading>
                    <Icon id="732">
                        <href>http://maps.google.com/mapfiles/kml/pushpin/ylw-pushpin.png</href>
                    </Icon>
                </IconStyle>
            </Style>
            <Style id="735">
                <IconStyle id="736">
                    <color>ffff0000</color>
                    <colorMode>normal</colorMode>
                    <scale>1</scale>
                    <heading>0</heading>
                    <Icon id="737">
                        <href>http://maps.google.com/mapfiles/kml/pushpin/ylw-pushpin.png</href>
                    </Icon>
                </IconStyle>
            </Style>
            <Style id="740">
                <IconStyle id="741">
                    <color>ffff0000</color>
                    <colorMode>normal</colorMode>
                    <scale>1</scale>
                    <heading>0</heading>
                    <Icon id="742">
                        <href>http://maps.google.com/mapfiles/kml/pushpin/ylw-pushpin.png</href>
                    </Icon>
                </IconStyle>
            </Style>
            <Style id="745">
                <IconStyle id="746">
                    <color>ffff0000</color>
                    <colorMode>normal</colorMode>
                    <scale>1</scale>
                    <heading>0</heading>
                    <Icon id="747">
                        <href>http://maps.google.com/mapfiles/kml/pushpin/ylw-pushpin.png</href>
                    </Icon>
                </IconStyle>
            </Style>
            <Style id="750">
                <IconStyle id="751">
                    <color>ffff0000</color>
                    <colorMode>normal</colorMode>
                    <scale>1</scale>
                    <heading>0</heading>
                    <Icon id="752">
                        <href>http://maps.google.com/mapfiles/kml/pushpin/ylw-pushpin.png</href>
                    </Icon>
                </IconStyle>
            </Style>
            <Style id="755">
                <IconStyle id="756">
                    <color>ffff0000</color>
                    <colorMode>normal</colorMode>
                    <scale>1</scale>
                    <heading>0</heading>
                    <Icon id="757">
                        <href>http://maps.google.com/mapfiles/kml/pushpin/ylw-pushpin.png</href>
                    </Icon>
                </IconStyle>
            </Style>
            <Style id="760">
                <IconStyle id="761">
                    <color>ffff0000</color>
                    <colorMode>normal</colorMode>
                    <scale>1</scale>
                    <heading>0</heading>
                    <Icon id="762">
                        <href>http://maps.google.com/mapfiles/kml/pushpin/ylw-pushpin.png</href>
                    </Icon>
                </IconStyle>
            </Style>
            <Style id="765">
                <IconStyle id="766">
                    <color>ffff0000</color>
                    <colorMode>normal</colorMode>
                    <scale>1</scale>
                    <heading>0</heading>
                    <Icon id="767">
                        <href>http://maps.google.com/mapfiles/kml/pushpin/ylw-pushpin.png</href>
                    </Icon>
                </IconStyle>
            </Style>
            <Style id="770">
                <IconStyle id="771">
                    <color>ffff0000</color>
                    <colorMode>normal</colorMode>
                    <scale>1</scale>
                    <heading>0</heading>
                    <Icon id="772">
                        <href>http://maps.google.com/mapfiles/kml/pushpin/ylw-pushpin.png</href>
                    </Icon>
                </IconStyle>
            </Style>
            <Style id="775">
                <IconStyle id="776">
                    <color>ffff0000</color>
                    <colorMode>normal</colorMode>
                    <scale>1</scale>
                    <heading>0</heading>
                    <Icon id="777">
                        <href>http://maps.google.com/mapfiles/kml/pushpin/ylw-pushpin.png</href>
                    </Icon>
                </IconStyle>
            </Style>
            <Style id="780">
                <IconStyle id="781">
                    <color>ffff0000</color>
                    <colorMode>normal</colorMode>
                    <scale>1</scale>
                    <heading>0</heading>
                    <Icon id="782">
                        <href>http://maps.google.com/mapfiles/kml/pushpin/ylw-pushpin.png</href>
                    </Icon>
                </IconStyle>
            </Style>
            <Style id="785">
                <IconStyle id="786">
                    <color>ffff0000</color>
                    <colorMode>normal</colorMode>
                    <scale>1</scale>
                    <heading>0</heading>
                    <Icon id="787">
                        <href>http://maps.google.com/mapfiles/kml/pushpin/ylw-pushpin.png</href>
                    </Icon>
                </IconStyle>
            </Style>
            <Style id="790">
                <IconStyle id="791">
                    <color>ffff0000</color>
                    <colorMode>normal</colorMode>
                    <scale>1</scale>
                    <heading>0</heading>
                    <Icon id="792">
                        <href>http://maps.google.com/mapfiles/kml/pushpin/ylw-pushpin.png</href>
                    </Icon>
                </IconStyle>
            </Style>
            <Style id="795">
                <IconStyle id="796">
                    <color>ffff0000</color>
                    <colorMode>normal</colorMode>
                    <scale>1</scale>
                    <heading>0</heading>
                    <Icon id="797">
                        <href>http://maps.google.com/mapfiles/kml/pushpin/ylw-pushpin.png</href>
                    </Icon>
                </IconStyle>
            </Style>
            <name>MARTHA CAROLINA AVILA SOLANO</name>
            <Placemark id="544">
                <name>ELENA MERINO VASQUEZ</name>
                <description>MZ X01 LT 18 UPIS SAN ANTONIO 
Veintiséis de Octubre
Veintiséis de Octubre
Piura
Perú</description>
                <styleUrl>#545</styleUrl>
                <Point id="543">
                    <coordinates>-80.68161,-5.193883,0.0</coordinates>
                </Point>
            </Placemark>
            <Placemark id="549">
                <name>KELLY YUDITZA NINAMAQUE QUIROZ</name>
                <description>Y-01 AH FLORIDA DEL SUR 26OCT 
Veintiséis de Octubre
Veintiséis de Octubre
Piura
Perú</description>
                <styleUrl>#550</styleUrl>
                <Point id="548">
                    <coordinates>-80.6600383,-5.2074717,0.0</coordinates>
                </Point>
            </Placemark>
            <Placemark id="554">
                <name>CHIRA SAAVEDRA OLDER JOEL</name>
                <description>CHIRA SAAVEDRA OLDER JOEL
AAHH NVA ESPERANZA MZ V8 LOTE 8
Veintiséis de Octubre
Piura
Piura
Perú</description>
                <styleUrl>#555</styleUrl>
                <Point id="553">
                    <coordinates>-80.671713,-5.1912904,0.0</coordinates>
                </Point>
            </Placemark>
            <Placemark id="559">
                <name>SANTIAGO CRUZ CALLE</name>
                <description>MZ B LT 4 AMPLIAC SAN ANTONIO 
Veintiséis de Octubre
Veintiséis de Octubre
Piura
Perú</description>
                <styleUrl>#560</styleUrl>
                <Point id="558">
                    <coordinates>-80.6816617,-5.194415,0.0</coordinates>
                </Point>
            </Placemark>
            <Placemark id="564">
                <name>JANET PARDO RIVERA</name>
                <description>SAN ANTONIO MZ X 01 LOTE 26-Piura-Piura
Veintiséis de Octubre
Veintiséis de Octubre
Piura
Perú</description>
                <styleUrl>#565</styleUrl>
                <Point id="563">
                    <coordinates>-80.6816183,-5.1944017,0.0</coordinates>
                </Point>
            </Placemark>
            <Placemark id="569">
                <name>LILIANA CHINININ CORTEZ</name>
                <description>MZ P 02 LT 20 ROSA DE GUADALUPE ALEDAÑOS KUR BERR
Veintiséis de Octubre
Veintiséis de Octubre
Piura
Perú</description>
                <styleUrl>#570</styleUrl>
                <Point id="568">
                    <coordinates>-80.6815848,-5.1899073,0.0</coordinates>
                </Point>
            </Placemark>
            <Placemark id="574">
                <name>DIANA ABAD JIMENEZ</name>
                <description>A.H.A.KURT BEER MZ.A LT.6     
Veintiséis de Octubre
Veintiséis de Octubre
Piura
Perú</description>
                <styleUrl>#575</styleUrl>
                <Point id="573">
                    <coordinates>-80.6803052,-5.1900142,0.0</coordinates>
                </Point>
            </Placemark>
            <Placemark id="579">
                <name>HAYDEE REYES RIVERA</name>
                <description>AH AMPLIACIÓN KURT BER MZ C'1 LOTE 44
Veintiséis de Octubre
Veintiséis de Octubre
Piura
Perú</description>
                <styleUrl>#580</styleUrl>
                <Point id="578">
                    <coordinates>-80.6820591,-5.1905156,0.0</coordinates>
                </Point>
            </Placemark>
            <Placemark id="584">
                <name>TEANNY LISBETH CALLE ALVARADO</name>
                <description>Mz K2 LTE 15
Veintiséis de Octubre
Veintiséis de Octubre
Piura
Perú</description>
                <styleUrl>#585</styleUrl>
                <Point id="583">
                    <coordinates>-80.6822329,-5.1883767,0.0</coordinates>
                </Point>
            </Placemark>
            <Placemark id="589">
                <name>ARACELY MARTINEZ ARMIJOS</name>
                <description>Mz F LOTE 4 AA.HH LOS ARENALES
Veintiséis de Octubre
Veintiséis de Octubre
Piura
Perú</description>
                <styleUrl>#590</styleUrl>
                <Point id="588">
                    <coordinates>-80.6842792,-5.1876288,0.0</coordinates>
                </Point>
            </Placemark>
            <Placemark id="594">
                <name>DIANA ELIZABETH QUISPE GUERRERO</name>
                <description>B - 21 UPIS JESUS DE NAZARET
Veintiséis de Octubre
Veintiséis de Octubre
Piura
Perú</description>
                <styleUrl>#595</styleUrl>
                <Point id="593">
                    <coordinates>-80.6836118,-5.186446,0.0</coordinates>
                </Point>
            </Placemark>
            <Placemark id="599">
                <name>BRENDA CECILIA FARFAN INGA</name>
                <description>Upis Jesús de Nazaret mz. B lot. 14
Veintiséis de Octubre
Veintiséis de Octubre
Piura
Perú</description>
                <styleUrl>#600</styleUrl>
                <Point id="598">
                    <coordinates>-80.6837511,-5.1864127,0.0</coordinates>
                </Point>
            </Placemark>
            <Placemark id="604">
                <name>CONSTRUCTORA Y CONSULTORA DUBAYY INGENIEROS S.A.C.</name>
                <description>CONSTRUCTORA Y CONSULTORA DUBAYY INGENIEROS S.A.C.
AV. MIRAFLORES NRO. 410 URB.  EL PROGRESO SC. UNO
Veintiséis de Octubre
150106Veintiséis de Octubre
Piura
Perú</description>
                <styleUrl>#605</styleUrl>
                <Point id="603">
                    <coordinates>-80.6823877,-5.1861242,0.0</coordinates>
                </Point>
            </Placemark>
            <Placemark id="609">
                <name>ALEXIS DEL PIERO TAMAYO ZAPATA</name>
                <description>Villa Perú Canadá Mz c1 lote 4
Veintiséis de Octubre

Piura
Perú</description>
                <styleUrl>#610</styleUrl>
                <Point id="608">
                    <coordinates>-80.683181,-5.1852233,0.0</coordinates>
                </Point>
            </Placemark>
            <Placemark id="614">
                <name>OLGA COELLO NORIEGA</name>
                <description>MZ H LT 11 UPIS EL CONDADO 26 
Veintiséis de Octubre
Veintiséis de Octubre
Piura
Perú</description>
                <styleUrl>#615</styleUrl>
                <Point id="613">
                    <coordinates>-80.684376,-5.190964,0.0</coordinates>
                </Point>
            </Placemark>
            <Placemark id="619">
                <name>MILAGROS MAGALY RUIZ NUÑEZ</name>
                <description>X 19 virgen Guadalupe
Veintiséis de Octubre
Piura
Piura
Perú</description>
                <styleUrl>#620</styleUrl>
                <Point id="618">
                    <coordinates>-80.6837784,-5.1916213,0.0</coordinates>
                </Point>
            </Placemark>
            <Placemark id="624">
                <name>MARIA ROSARIO JUAREZ SILVA</name>
                <description>UPIS SAN ANTONIO Mz C3 Lt 16  
Veintiséis de Octubre
Piura
Piura
Perú</description>
                <styleUrl>#625</styleUrl>
                <Point id="623">
                    <coordinates>-80.6838154,-5.1928023,0.0</coordinates>
                </Point>
            </Placemark>
            <Placemark id="629">
                <name>ESTHER JIMENEZ JIMENEZ</name>
                <description>MZ S 2-30 AH ROSA DE GUADALUPE
Veintiséis de Octubre
Piura
Piura
Perú</description>
                <styleUrl>#630</styleUrl>
                <Point id="628">
                    <coordinates>-80.682421,-5.190504,0.0</coordinates>
                </Point>
            </Placemark>
            <Placemark id="634">
                <name>PININA QUELIS RAMIREZ LOPEZ</name>
                <description>AA.HH RENACER EN CRISTO Mz B Lte 46 ( FRENTE ROSA DE GUADALUPE)
Veintiséis de Octubre
Piura
Piura
Perú</description>
                <styleUrl>#635</styleUrl>
                <Point id="633">
                    <coordinates>-80.6805455,-5.1934878,0.0</coordinates>
                </Point>
            </Placemark>
            <Placemark id="639">
                <name>LUSCANY SOTO PAUCAR</name>
                <description>LUSCANY SOTO PAUCAR
Mz C2 LT 16 AA.HH ROSA DE GUADALUPE
Veintiséis de Octubre
Piura
Piura
Perú</description>
                <styleUrl>#640</styleUrl>
                <Point id="638">
                    <coordinates>-80.683402,-5.1883964,0.0</coordinates>
                </Point>
            </Placemark>
            <Placemark id="644">
                <name>MERINO REYES ENAVELISA MERCEDES</name>
                <description>JESUS NAZARET MZ B LT 1
Piura

Piura
Perú</description>
                <styleUrl>#645</styleUrl>
                <Point id="643">
                    <coordinates>-80.685055,-5.185708,0.0</coordinates>
                </Point>
            </Placemark>
            <Placemark id="649">
                <name>ADELIA CORREA NIÑO</name>
                <description>VILLA PERU CANADA MZ A1 LT 15 
Veintiséis de Octubre
Piura
Piura
Perú</description>
                <styleUrl>#650</styleUrl>
                <Point id="648">
                    <coordinates>-80.679942,-5.191325,0.0</coordinates>
                </Point>
            </Placemark>
            <Placemark id="654">
                <name>ALEXIS DEL PIERO TAMAYO ZAPATA</name>
                <description>Villa Perú Canadá Mz c1 lote 4
Veintiséis de Octubre

Piura
Perú</description>
                <styleUrl>#655</styleUrl>
                <Point id="653">
                    <coordinates>-80.683181,-5.1852233,0.0</coordinates>
                </Point>
            </Placemark>
            <Placemark id="659">
                <name>ABIGAIL HUANCAS GUIDINO</name>
                <description>Villa Perú Canadá mz F01 lot. 10
Veintiséis de Octubre
Veintiséis de Octubre
Piura
Perú</description>
                <styleUrl>#660</styleUrl>
                <Point id="658">
                    <coordinates>-80.6827933,-5.1862717,0.0</coordinates>
                </Point>
            </Placemark>
            <Placemark id="664">
                <name>MARIA MAGDALENA AREVALO ANCAJIMA</name>
                <description>MZ I1-30 AH VILLA PERU CANADA 
Veintiséis de Octubre
Veintiséis de Octubre
Piura
Perú</description>
                <styleUrl>#665</styleUrl>
                <Point id="663">
                    <coordinates>-80.6813531,-5.1863583,0.0</coordinates>
                </Point>
            </Placemark>
            <Placemark id="669">
                <name>EDITHA HUACCHILLO ROMERO</name>
                <description>MZ K1 LT 28 VILLA PERÚ-CANADA 
Veintiséis de Octubre
Piura
Piura
Perú</description>
                <styleUrl>#670</styleUrl>
                <Point id="668">
                    <coordinates>-80.680979,-5.1868383,0.0</coordinates>
                </Point>
            </Placemark>
            <Placemark id="674">
                <name>JUANA ELIZABETH SANCHEZ SOSA</name>
                <description>MZ N1 LT 33                   
Veintiséis de Octubre
Veintiséis de Octubre
Piura
Perú</description>
                <styleUrl>#675</styleUrl>
                <Point id="673">
                    <coordinates>-80.682452,-5.188582,0.0</coordinates>
                </Point>
            </Placemark>
            <Placemark id="679">
                <name>MERY ROXANA CHAVEZ APONTE</name>
                <description>MZ K1-05 AH VILLA PERU CANADA 
Veintiséis de Octubre
Veintiséis de Octubre
Piura
Perú</description>
                <styleUrl>#680</styleUrl>
                <Point id="678">
                    <coordinates>-80.6807633,-5.1864633,0.0</coordinates>
                </Point>
            </Placemark>
            <Placemark id="684">
                <name>FLOR HAYDEE ROMERO IPANAQUE</name>
                <description>MZ H2 LT 11 AA.HH VILLA PERU CANADA
Veintiséis de Octubre
Veintiséis de Octubre
Piura
Perú</description>
                <styleUrl>#685</styleUrl>
                <Point id="683">
                    <coordinates>-80.6783234,-5.1888124,0.0</coordinates>
                </Point>
            </Placemark>
            <Placemark id="689">
                <name>JOSEFINA PURIZACA VEA DE AQUINO</name>
                <description>MZ H2 LOTE 7 AH VILLA PERU CANADA
Veintiséis de Octubre
Veintiséis de Octubre
Piura
Perú</description>
                <styleUrl>#690</styleUrl>
                <Point id="688">
                    <coordinates>-80.6782636,-5.188718,0.0</coordinates>
                </Point>
            </Placemark>
            <Placemark id="694">
                <name>BLANCA MARITEL SOTO PAUCAR</name>
                <description>AH.VILLA PERU CANADA MZ.M2 LT.24 -
Veintiséis de Octubre
Veintiséis de Octubre
Piura
Perú</description>
                <styleUrl>#695</styleUrl>
                <Point id="693">
                    <coordinates>-80.6768767,-5.1897333,0.0</coordinates>
                </Point>
            </Placemark>
            <Placemark id="699">
                <name>BERTHA SANCHEZ ALVAREZ</name>
                <description>A.H.PERU CANADA MZ.C 3 LT.1   
Veintiséis de Octubre

Piura
Perú</description>
                <styleUrl>#700</styleUrl>
                <Point id="698">
                    <coordinates>-80.6760402,-5.1904285,0.0</coordinates>
                </Point>
            </Placemark>
            <Placemark id="704">
                <name>GLADIS VIERA CHUQUIHUANGA</name>
                <description>MZ F3 LT30 VILLA PERU CANADA  
Veintiséis de Octubre
Veintiséis de Octubre
Piura
Perú</description>
                <styleUrl>#705</styleUrl>
                <Point id="703">
                    <coordinates>-80.681215,-5.191384,0.0</coordinates>
                </Point>
            </Placemark>
            <Placemark id="709">
                <name>MAURO LLONTOP CUSTODIO</name>
                <description>J 3-2 AH VILLA PERU CANADA    
Veintiséis de Octubre
Veintiséis de Octubre
Piura
Perú</description>
                <styleUrl>#710</styleUrl>
                <Point id="708">
                    <coordinates>-80.6741382,-5.1911188,0.0</coordinates>
                </Point>
            </Placemark>
            <Placemark id="714">
                <name>MAGDALENA JARAMILLO PAUCAR</name>
                <description>MZ J3 LT 08                   
Veintiséis de Octubre
Piura
Piura
Perú</description>
                <styleUrl>#715</styleUrl>
                <Point id="713">
                    <coordinates>-80.6738102,-5.1914963,0.0</coordinates>
                </Point>
            </Placemark>
            <Placemark id="719">
                <name>ERIKA LIZET GALVEZ SOSA</name>
                <description>MZ E4 - 6 AH VILLA PERU CANADA
Veintiséis de Octubre
Veintiséis de Octubre
Piura
Perú</description>
                <styleUrl>#720</styleUrl>
                <Point id="718">
                    <coordinates>-80.682462,-5.191461,0.0</coordinates>
                </Point>
            </Placemark>
            <Placemark id="724">
                <name>ROMY PAOLA SANCHEZ GARCIA</name>
                <description>Mz C7 LT 12 AA.HH NUEVA ESPERANZA
Veintiséis de Octubre
Piura
Piura
Perú</description>
                <styleUrl>#725</styleUrl>
                <Point id="723">
                    <coordinates>-80.6772201,-5.1865226,0.0</coordinates>
                </Point>
            </Placemark>
            <Placemark id="729">
                <name>ROCIO DEL PILAR MEZA CAMPOVERDE</name>
                <description>MZ. A7 LTE. 15 AA.HH NUEVA ESPERANZA
Veintiséis de Octubre
Veintiséis de Octubre
Piura
Perú</description>
                <styleUrl>#730</styleUrl>
                <Point id="728">
                    <coordinates>-80.6770126,-5.1860448,0.0</coordinates>
                </Point>
            </Placemark>
            <Placemark id="734">
                <name>ANTONIO EDUARDO IPANAQUE VARILLAS</name>
                <description>MZ A7 LTE 13 AA.HH NUEVA ESPERANZA II ETAPA
Veintiséis de Octubre
Veintiséis de Octubre
Piura
Perú</description>
                <styleUrl>#735</styleUrl>
                <Point id="733">
                    <coordinates>-80.6770758,-5.1861043,0.0</coordinates>
                </Point>
            </Placemark>
            <Placemark id="739">
                <name>RUFINO DE SAAVEDRA TEODOSIA</name>
                <description>A.H.NVA.ESPERANZA MZ.6 LT.20  
Veintiséis de Octubre
Piura
Piura
Perú</description>
                <styleUrl>#740</styleUrl>
                <Point id="738">
                    <coordinates>-80.676569,-5.186463,0.0</coordinates>
                </Point>
            </Placemark>
            <Placemark id="744">
                <name>ROSAS INGA LESLY MARIBEL</name>
                <description>MZ.06 LOT.09 ETAPA 04 AH NUEV 
Veintiséis de Octubre
Veintiséis de Octubre
Piura
Perú</description>
                <styleUrl>#745</styleUrl>
                <Point id="743">
                    <coordinates>-80.674939,-5.186185,0.0</coordinates>
                </Point>
            </Placemark>
            <Placemark id="749">
                <name>COELLO PARRILLA SEGUNDO VICTORINO</name>
                <description>COELLO PARRILLA SEGUNDO VICTORINO

Veintiséis de Octubre
Veintiséis de Octubre
Piura
Perú</description>
                <styleUrl>#750</styleUrl>
                <Point id="748">
                    <coordinates>-80.6745309,-5.1868735,0.0</coordinates>
                </Point>
            </Placemark>
            <Placemark id="754">
                <name>GLADYS ARROYO DE NIÑO</name>
                <description>MZ L6 LT. 20  AA.HH NUEVA ESPERANZA
Veintiséis de Octubre
Piura
Piura
Perú</description>
                <styleUrl>#755</styleUrl>
                <Point id="753">
                    <coordinates>-80.6738907,-5.1869443,0.0</coordinates>
                </Point>
            </Placemark>
            <Placemark id="759">
                <name>JULIA INGA RUIZ</name>
                <description>CA.S.ALLESIN MZ.R6 LT.11      
Veintiséis de Octubre
Piura
Piura
Perú</description>
                <styleUrl>#760</styleUrl>
                <Point id="758">
                    <coordinates>-80.673979,-5.187519,0.0</coordinates>
                </Point>
            </Placemark>
            <Placemark id="764">
                <name>MARUJA CRIOLLO LLACSAHUANGA</name>
                <description>MZA K6 - 09 NVA ESPERANZA     
Veintiséis de Octubre
Piura
Piura
Perú</description>
                <styleUrl>#765</styleUrl>
                <Point id="763">
                    <coordinates>-80.673403,-5.1875831,0.0</coordinates>
                </Point>
            </Placemark>
            <Placemark id="769">
                <name>MELBA TIMOTEO PAUCAR</name>
                <description>MZ.O8-LT.34 NVA.ESPERANZA     
Veintiséis de Octubre
Veintiséis de Octubre
Piura
Perú</description>
                <styleUrl>#770</styleUrl>
                <Point id="768">
                    <coordinates>-80.6721352,-5.1896016,0.0</coordinates>
                </Point>
            </Placemark>
            <Placemark id="774">
                <name>ZOVEIDA CORDOVA SANTOS</name>
                <description>Mz A5 lote 13 Nueva Esperanza av. Mancora.
Veintiséis de Octubre
Veintiséis de Octubre
Piura
Perú</description>
                <styleUrl>#775</styleUrl>
                <Point id="773">
                    <coordinates>-80.670457,-5.18928,0.0</coordinates>
                </Point>
            </Placemark>
            <Placemark id="779">
                <name>ROSA AMELIA SARANGO DE PALACIOS</name>
                <description>MZ I4 LT 13 B NV.ESPERANZA    
Veintiséis de Octubre
Veintiséis de Octubre
Piura
Perú</description>
                <styleUrl>#780</styleUrl>
                <Point id="778">
                    <coordinates>-80.6683965,-5.1886832,0.0</coordinates>
                </Point>
            </Placemark>
            <Placemark id="784">
                <name>WILMER ANTONIO NAVARRO SANTILLAN</name>
                <description>WILMER ANTONIO NAVARRO SANTILLAN
AAHH NVA ESPERANZA MZ A4 LOTE 5
Veintiséis de Octubre
Piura
Piura
Perú</description>
                <styleUrl>#785</styleUrl>
                <Point id="783">
                    <coordinates>-80.6670598,-5.1900342,0.0</coordinates>
                </Point>
            </Placemark>
            <Placemark id="789">
                <name>SILUPU LADINES KATHERYN DEL ROSARIO</name>
                <description>Nueva Esperanza sector 4 mz B4 lot 19
Veintiséis de Octubre
Veintiséis de Octubre
Piura
Perú</description>
                <styleUrl>#790</styleUrl>
                <Point id="788">
                    <coordinates>-80.6682858,-5.1899617,0.0</coordinates>
                </Point>
            </Placemark>
            <Placemark id="794">
                <name>LILY ESPERANZA BAYONA PANTA</name>
                <description>MA A10 LT 27 NVA ESPERANZA    
Veintiséis de Octubre
Piura
Piura
Perú</description>
                <styleUrl>#795</styleUrl>
                <Point id="793">
                    <coordinates>-80.6674067,-5.1910533,0.0</coordinates>
                </Point>
            </Placemark>
        </Folder>
    </Document>
</kml>
