<?xml version="1.0" encoding="UTF-8"?>
<kml xmlns="http://www.opengis.net/kml/2.2" xmlns:gx="http://www.google.com/kml/ext/2.2">
    <Document id="1">
        <Folder id="2">
            <Style id="5">
                <IconStyle id="6">
                    <color>ff0000ff</color>
                    <colorMode>normal</colorMode>
                    <scale>1</scale>
                    <heading>0</heading>
                    <Icon id="7">
                        <href>http://maps.google.com/mapfiles/kml/pushpin/ylw-pushpin.png</href>
                    </Icon>
                </IconStyle>
            </Style>
            <Style id="10">
                <IconStyle id="11">
                    <color>ff0000ff</color>
                    <colorMode>normal</colorMode>
                    <scale>1</scale>
                    <heading>0</heading>
                    <Icon id="12">
                        <href>http://maps.google.com/mapfiles/kml/pushpin/ylw-pushpin.png</href>
                    </Icon>
                </IconStyle>
            </Style>
            <Style id="15">
                <IconStyle id="16">
                    <color>ff0000ff</color>
                    <colorMode>normal</colorMode>
                    <scale>1</scale>
                    <heading>0</heading>
                    <Icon id="17">
                        <href>http://maps.google.com/mapfiles/kml/pushpin/ylw-pushpin.png</href>
                    </Icon>
                </IconStyle>
            </Style>
            <Style id="20">
                <IconStyle id="21">
                    <color>ff0000ff</color>
                    <colorMode>normal</colorMode>
                    <scale>1</scale>
                    <heading>0</heading>
                    <Icon id="22">
                        <href>http://maps.google.com/mapfiles/kml/pushpin/ylw-pushpin.png</href>
                    </Icon>
                </IconStyle>
            </Style>
            <Style id="25">
                <IconStyle id="26">
                    <color>ff0000ff</color>
                    <colorMode>normal</colorMode>
                    <scale>1</scale>
                    <heading>0</heading>
                    <Icon id="27">
                        <href>http://maps.google.com/mapfiles/kml/pushpin/ylw-pushpin.png</href>
                    </Icon>
                </IconStyle>
            </Style>
            <Style id="30">
                <IconStyle id="31">
                    <color>ff0000ff</color>
                    <colorMode>normal</colorMode>
                    <scale>1</scale>
                    <heading>0</heading>
                    <Icon id="32">
                        <href>http://maps.google.com/mapfiles/kml/pushpin/ylw-pushpin.png</href>
                    </Icon>
                </IconStyle>
            </Style>
            <Style id="35">
                <IconStyle id="36">
                    <color>ff0000ff</color>
                    <colorMode>normal</colorMode>
                    <scale>1</scale>
                    <heading>0</heading>
                    <Icon id="37">
                        <href>http://maps.google.com/mapfiles/kml/pushpin/ylw-pushpin.png</href>
                    </Icon>
                </IconStyle>
            </Style>
            <Style id="40">
                <IconStyle id="41">
                    <color>ff0000ff</color>
                    <colorMode>normal</colorMode>
                    <scale>1</scale>
                    <heading>0</heading>
                    <Icon id="42">
                        <href>http://maps.google.com/mapfiles/kml/pushpin/ylw-pushpin.png</href>
                    </Icon>
                </IconStyle>
            </Style>
            <Style id="45">
                <IconStyle id="46">
                    <color>ff0000ff</color>
                    <colorMode>normal</colorMode>
                    <scale>1</scale>
                    <heading>0</heading>
                    <Icon id="47">
                        <href>http://maps.google.com/mapfiles/kml/pushpin/ylw-pushpin.png</href>
                    </Icon>
                </IconStyle>
            </Style>
            <Style id="50">
                <IconStyle id="51">
                    <color>ff0000ff</color>
                    <colorMode>normal</colorMode>
                    <scale>1</scale>
                    <heading>0</heading>
                    <Icon id="52">
                        <href>http://maps.google.com/mapfiles/kml/pushpin/ylw-pushpin.png</href>
                    </Icon>
                </IconStyle>
            </Style>
            <Style id="55">
                <IconStyle id="56">
                    <color>ff0000ff</color>
                    <colorMode>normal</colorMode>
                    <scale>1</scale>
                    <heading>0</heading>
                    <Icon id="57">
                        <href>http://maps.google.com/mapfiles/kml/pushpin/ylw-pushpin.png</href>
                    </Icon>
                </IconStyle>
            </Style>
            <Style id="60">
                <IconStyle id="61">
                    <color>ff0000ff</color>
                    <colorMode>normal</colorMode>
                    <scale>1</scale>
                    <heading>0</heading>
                    <Icon id="62">
                        <href>http://maps.google.com/mapfiles/kml/pushpin/ylw-pushpin.png</href>
                    </Icon>
                </IconStyle>
            </Style>
            <Style id="65">
                <IconStyle id="66">
                    <color>ff0000ff</color>
                    <colorMode>normal</colorMode>
                    <scale>1</scale>
                    <heading>0</heading>
                    <Icon id="67">
                        <href>http://maps.google.com/mapfiles/kml/pushpin/ylw-pushpin.png</href>
                    </Icon>
                </IconStyle>
            </Style>
            <Style id="70">
                <IconStyle id="71">
                    <color>ff0000ff</color>
                    <colorMode>normal</colorMode>
                    <scale>1</scale>
                    <heading>0</heading>
                    <Icon id="72">
                        <href>http://maps.google.com/mapfiles/kml/pushpin/ylw-pushpin.png</href>
                    </Icon>
                </IconStyle>
            </Style>
            <Style id="75">
                <IconStyle id="76">
                    <color>ff0000ff</color>
                    <colorMode>normal</colorMode>
                    <scale>1</scale>
                    <heading>0</heading>
                    <Icon id="77">
                        <href>http://maps.google.com/mapfiles/kml/pushpin/ylw-pushpin.png</href>
                    </Icon>
                </IconStyle>
            </Style>
            <Style id="80">
                <IconStyle id="81">
                    <color>ff0000ff</color>
                    <colorMode>normal</colorMode>
                    <scale>1</scale>
                    <heading>0</heading>
                    <Icon id="82">
                        <href>http://maps.google.com/mapfiles/kml/pushpin/ylw-pushpin.png</href>
                    </Icon>
                </IconStyle>
            </Style>
            <Style id="85">
                <IconStyle id="86">
                    <color>ff0000ff</color>
                    <colorMode>normal</colorMode>
                    <scale>1</scale>
                    <heading>0</heading>
                    <Icon id="87">
                        <href>http://maps.google.com/mapfiles/kml/pushpin/ylw-pushpin.png</href>
                    </Icon>
                </IconStyle>
            </Style>
            <Style id="90">
                <IconStyle id="91">
                    <color>ff0000ff</color>
                    <colorMode>normal</colorMode>
                    <scale>1</scale>
                    <heading>0</heading>
                    <Icon id="92">
                        <href>http://maps.google.com/mapfiles/kml/pushpin/ylw-pushpin.png</href>
                    </Icon>
                </IconStyle>
            </Style>
            <Style id="95">
                <IconStyle id="96">
                    <color>ff0000ff</color>
                    <colorMode>normal</colorMode>
                    <scale>1</scale>
                    <heading>0</heading>
                    <Icon id="97">
                        <href>http://maps.google.com/mapfiles/kml/pushpin/ylw-pushpin.png</href>
                    </Icon>
                </IconStyle>
            </Style>
            <Style id="100">
                <IconStyle id="101">
                    <color>ff0000ff</color>
                    <colorMode>normal</colorMode>
                    <scale>1</scale>
                    <heading>0</heading>
                    <Icon id="102">
                        <href>http://maps.google.com/mapfiles/kml/pushpin/ylw-pushpin.png</href>
                    </Icon>
                </IconStyle>
            </Style>
            <Style id="105">
                <IconStyle id="106">
                    <color>ff0000ff</color>
                    <colorMode>normal</colorMode>
                    <scale>1</scale>
                    <heading>0</heading>
                    <Icon id="107">
                        <href>http://maps.google.com/mapfiles/kml/pushpin/ylw-pushpin.png</href>
                    </Icon>
                </IconStyle>
            </Style>
            <Style id="110">
                <IconStyle id="111">
                    <color>ff0000ff</color>
                    <colorMode>normal</colorMode>
                    <scale>1</scale>
                    <heading>0</heading>
                    <Icon id="112">
                        <href>http://maps.google.com/mapfiles/kml/pushpin/ylw-pushpin.png</href>
                    </Icon>
                </IconStyle>
            </Style>
            <Style id="115">
                <IconStyle id="116">
                    <color>ff0000ff</color>
                    <colorMode>normal</colorMode>
                    <scale>1</scale>
                    <heading>0</heading>
                    <Icon id="117">
                        <href>http://maps.google.com/mapfiles/kml/pushpin/ylw-pushpin.png</href>
                    </Icon>
                </IconStyle>
            </Style>
            <Style id="120">
                <IconStyle id="121">
                    <color>ff0000ff</color>
                    <colorMode>normal</colorMode>
                    <scale>1</scale>
                    <heading>0</heading>
                    <Icon id="122">
                        <href>http://maps.google.com/mapfiles/kml/pushpin/ylw-pushpin.png</href>
                    </Icon>
                </IconStyle>
            </Style>
            <Style id="125">
                <IconStyle id="126">
                    <color>ff0000ff</color>
                    <colorMode>normal</colorMode>
                    <scale>1</scale>
                    <heading>0</heading>
                    <Icon id="127">
                        <href>http://maps.google.com/mapfiles/kml/pushpin/ylw-pushpin.png</href>
                    </Icon>
                </IconStyle>
            </Style>
            <Style id="130">
                <IconStyle id="131">
                    <color>ff0000ff</color>
                    <colorMode>normal</colorMode>
                    <scale>1</scale>
                    <heading>0</heading>
                    <Icon id="132">
                        <href>http://maps.google.com/mapfiles/kml/pushpin/ylw-pushpin.png</href>
                    </Icon>
                </IconStyle>
            </Style>
            <Style id="135">
                <IconStyle id="136">
                    <color>ff0000ff</color>
                    <colorMode>normal</colorMode>
                    <scale>1</scale>
                    <heading>0</heading>
                    <Icon id="137">
                        <href>http://maps.google.com/mapfiles/kml/pushpin/ylw-pushpin.png</href>
                    </Icon>
                </IconStyle>
            </Style>
            <Style id="140">
                <IconStyle id="141">
                    <color>ff0000ff</color>
                    <colorMode>normal</colorMode>
                    <scale>1</scale>
                    <heading>0</heading>
                    <Icon id="142">
                        <href>http://maps.google.com/mapfiles/kml/pushpin/ylw-pushpin.png</href>
                    </Icon>
                </IconStyle>
            </Style>
            <Style id="145">
                <IconStyle id="146">
                    <color>ff0000ff</color>
                    <colorMode>normal</colorMode>
                    <scale>1</scale>
                    <heading>0</heading>
                    <Icon id="147">
                        <href>http://maps.google.com/mapfiles/kml/pushpin/ylw-pushpin.png</href>
                    </Icon>
                </IconStyle>
            </Style>
            <Style id="150">
                <IconStyle id="151">
                    <color>ff0000ff</color>
                    <colorMode>normal</colorMode>
                    <scale>1</scale>
                    <heading>0</heading>
                    <Icon id="152">
                        <href>http://maps.google.com/mapfiles/kml/pushpin/ylw-pushpin.png</href>
                    </Icon>
                </IconStyle>
            </Style>
            <Style id="155">
                <IconStyle id="156">
                    <color>ff0000ff</color>
                    <colorMode>normal</colorMode>
                    <scale>1</scale>
                    <heading>0</heading>
                    <Icon id="157">
                        <href>http://maps.google.com/mapfiles/kml/pushpin/ylw-pushpin.png</href>
                    </Icon>
                </IconStyle>
            </Style>
            <Style id="160">
                <IconStyle id="161">
                    <color>ff0000ff</color>
                    <colorMode>normal</colorMode>
                    <scale>1</scale>
                    <heading>0</heading>
                    <Icon id="162">
                        <href>http://maps.google.com/mapfiles/kml/pushpin/ylw-pushpin.png</href>
                    </Icon>
                </IconStyle>
            </Style>
            <Style id="165">
                <IconStyle id="166">
                    <color>ff0000ff</color>
                    <colorMode>normal</colorMode>
                    <scale>1</scale>
                    <heading>0</heading>
                    <Icon id="167">
                        <href>http://maps.google.com/mapfiles/kml/pushpin/ylw-pushpin.png</href>
                    </Icon>
                </IconStyle>
            </Style>
            <Style id="170">
                <IconStyle id="171">
                    <color>ff0000ff</color>
                    <colorMode>normal</colorMode>
                    <scale>1</scale>
                    <heading>0</heading>
                    <Icon id="172">
                        <href>http://maps.google.com/mapfiles/kml/pushpin/ylw-pushpin.png</href>
                    </Icon>
                </IconStyle>
            </Style>
            <Style id="175">
                <IconStyle id="176">
                    <color>ff0000ff</color>
                    <colorMode>normal</colorMode>
                    <scale>1</scale>
                    <heading>0</heading>
                    <Icon id="177">
                        <href>http://maps.google.com/mapfiles/kml/pushpin/ylw-pushpin.png</href>
                    </Icon>
                </IconStyle>
            </Style>
            <Style id="180">
                <IconStyle id="181">
                    <color>ff0000ff</color>
                    <colorMode>normal</colorMode>
                    <scale>1</scale>
                    <heading>0</heading>
                    <Icon id="182">
                        <href>http://maps.google.com/mapfiles/kml/pushpin/ylw-pushpin.png</href>
                    </Icon>
                </IconStyle>
            </Style>
            <Style id="185">
                <IconStyle id="186">
                    <color>ff0000ff</color>
                    <colorMode>normal</colorMode>
                    <scale>1</scale>
                    <heading>0</heading>
                    <Icon id="187">
                        <href>http://maps.google.com/mapfiles/kml/pushpin/ylw-pushpin.png</href>
                    </Icon>
                </IconStyle>
            </Style>
            <Style id="190">
                <IconStyle id="191">
                    <color>ff0000ff</color>
                    <colorMode>normal</colorMode>
                    <scale>1</scale>
                    <heading>0</heading>
                    <Icon id="192">
                        <href>http://maps.google.com/mapfiles/kml/pushpin/ylw-pushpin.png</href>
                    </Icon>
                </IconStyle>
            </Style>
            <Style id="195">
                <IconStyle id="196">
                    <color>ff0000ff</color>
                    <colorMode>normal</colorMode>
                    <scale>1</scale>
                    <heading>0</heading>
                    <Icon id="197">
                        <href>http://maps.google.com/mapfiles/kml/pushpin/ylw-pushpin.png</href>
                    </Icon>
                </IconStyle>
            </Style>
            <Style id="200">
                <IconStyle id="201">
                    <color>ff0000ff</color>
                    <colorMode>normal</colorMode>
                    <scale>1</scale>
                    <heading>0</heading>
                    <Icon id="202">
                        <href>http://maps.google.com/mapfiles/kml/pushpin/ylw-pushpin.png</href>
                    </Icon>
                </IconStyle>
            </Style>
            <Style id="205">
                <IconStyle id="206">
                    <color>ff0000ff</color>
                    <colorMode>normal</colorMode>
                    <scale>1</scale>
                    <heading>0</heading>
                    <Icon id="207">
                        <href>http://maps.google.com/mapfiles/kml/pushpin/ylw-pushpin.png</href>
                    </Icon>
                </IconStyle>
            </Style>
            <Style id="210">
                <IconStyle id="211">
                    <color>ff0000ff</color>
                    <colorMode>normal</colorMode>
                    <scale>1</scale>
                    <heading>0</heading>
                    <Icon id="212">
                        <href>http://maps.google.com/mapfiles/kml/pushpin/ylw-pushpin.png</href>
                    </Icon>
                </IconStyle>
            </Style>
            <Style id="215">
                <IconStyle id="216">
                    <color>ff0000ff</color>
                    <colorMode>normal</colorMode>
                    <scale>1</scale>
                    <heading>0</heading>
                    <Icon id="217">
                        <href>http://maps.google.com/mapfiles/kml/pushpin/ylw-pushpin.png</href>
                    </Icon>
                </IconStyle>
            </Style>
            <Style id="220">
                <IconStyle id="221">
                    <color>ff0000ff</color>
                    <colorMode>normal</colorMode>
                    <scale>1</scale>
                    <heading>0</heading>
                    <Icon id="222">
                        <href>http://maps.google.com/mapfiles/kml/pushpin/ylw-pushpin.png</href>
                    </Icon>
                </IconStyle>
            </Style>
            <name>ANYI GLEIDY SALDAÑA ESPINOZA</name>
            <Placemark id="4">
                <name>MENDOZA NIEVES MARIA</name>
                <description>A.H.MIGUEL GRAU MZ.E LT.24    
Piura

Piura
Perú</description>
                <styleUrl>#5</styleUrl>
                <Point id="3">
                    <coordinates>-80.635457,-5.208544,0.0</coordinates>
                </Point>
            </Placemark>
            <Placemark id="9">
                <name>YOLINDA BRICEÑO CASTRO</name>
                <description>ALM. M.GRAU II ETP MZ K LT 39 
Piura
Piura
Piura
Perú</description>
                <styleUrl>#10</styleUrl>
                <Point id="8">
                    <coordinates>-80.636645,-5.207094,0.0</coordinates>
                </Point>
            </Placemark>
            <Placemark id="14">
                <name>ELY MARLENE BARRANZUELA CORNEJO</name>
                <description>18 DE MAYO MZ A LT 1 Piura-Piura
Piura
Piura
Piura
Perú</description>
                <styleUrl>#15</styleUrl>
                <Point id="13">
                    <coordinates>-80.6331086,-5.2018044,0.0</coordinates>
                </Point>
            </Placemark>
            <Placemark id="19">
                <name>PIERRE GIANCARLO GARCIA GUTIERREZ</name>
                <description>PIERRE GIANCARLO GARCIA GUTIERREZ
MZ G LT 08 AA. HH LOS TITANES SEGUNDA ETAPA
Piura
Piura
Piura
Perú</description>
                <styleUrl>#20</styleUrl>
                <Point id="18">
                    <coordinates>-80.6341597,-5.2026439,0.0</coordinates>
                </Point>
            </Placemark>
            <Placemark id="24">
                <name>ROSALVA ESTEFA SOCOLA CANOVA</name>
                <description>ALM.M.GRAU MZA B  31 II ETP   
Piura
Piura
Piura
Perú</description>
                <styleUrl>#25</styleUrl>
                <Point id="23">
                    <coordinates>-80.635354,-5.2073818,0.0</coordinates>
                </Point>
            </Placemark>
            <Placemark id="29">
                <name>PIERRE GIANCARLO GARCIA GUTIERREZ</name>
                <description>PIERRE GIANCARLO GARCIA GUTIERREZ
MZ G LT 08 AA. HH LOS TITANES SEGUNDA ETAPA
Piura
Piura
Piura
Perú</description>
                <styleUrl>#30</styleUrl>
                <Point id="28">
                    <coordinates>-80.6341597,-5.2026439,0.0</coordinates>
                </Point>
            </Placemark>
            <Placemark id="34">
                <name>MARITZA SANCARRANCO CORDOVA</name>
                <description>MZ A LOTE 08 AH 18 DE MAYO    
Piura
Piura
Piura
Perú</description>
                <styleUrl>#35</styleUrl>
                <Point id="33">
                    <coordinates>-80.6329195,-5.202352,0.0</coordinates>
                </Point>
            </Placemark>
            <Placemark id="39">
                <name>HUANCA CASTILLO ESTER</name>
                <description>HUANCA CASTILLO ESTER
MZ G LOTE 6 18 DE MAYO Piura
Piura
Piura
Piura
Perú</description>
                <styleUrl>#40</styleUrl>
                <Point id="38">
                    <coordinates>-80.6333393,-5.2027213,0.0</coordinates>
                </Point>
            </Placemark>
            <Placemark id="44">
                <name>EMILIA CHANG DE POICON</name>
                <description>MZA. B4 Q.JULIA Y CIRCUNVALACI
Piura
Piura
Piura
Perú</description>
                <styleUrl>#45</styleUrl>
                <Point id="43">
                    <coordinates>-80.628896,-5.203641,0.0</coordinates>
                </Point>
            </Placemark>
            <Placemark id="49">
                <name>XENHYA YSYS CARMEN LOZANO VICENTE</name>
                <description>QUINTA JULIA B-19
Piura
Piura
Piura
Perú</description>
                <styleUrl>#50</styleUrl>
                <Point id="48">
                    <coordinates>-80.6294,-5.204003,0.0</coordinates>
                </Point>
            </Placemark>
            <Placemark id="54">
                <name>ROSA HERMINIA NUNURA YUPE</name>
                <description>ROSA HERMINIA NUNURA YUPE
AV. DON BOSCO 18 MAYO MZ C LT 16 PIURA
Piura
Piura
Piura
Perú</description>
                <styleUrl>#55</styleUrl>
                <Point id="53">
                    <coordinates>-80.6308666,-5.2026357,0.0</coordinates>
                </Point>
            </Placemark>
            <Placemark id="59">
                <name>MERCEDES PIZARRO DE GONZALES</name>
                <description>MZ E LOTE 08 2DA ETAPA LOS TITANES Piura
Piura
Piura
Piura
Perú</description>
                <styleUrl>#60</styleUrl>
                <Point id="58">
                    <coordinates>-80.63435,-5.201785,0.0</coordinates>
                </Point>
            </Placemark>
            <Placemark id="64">
                <name>YENY VIERA SERNAQUE</name>
                <description>MZ E LTE 41 AA.HH ALMIRANTE MIGUEL GRAU II ETAPA
Piura
Piura
Piura
Perú</description>
                <styleUrl>#65</styleUrl>
                <Point id="63">
                    <coordinates>-80.6350577,-5.2079405,0.0</coordinates>
                </Point>
            </Placemark>
            <Placemark id="69">
                <name>ELY MARLENE BARRANZUELA CORNEJO</name>
                <description>18 DE MAYO MZ A LT 1 Piura-Piura
Piura
Piura
Piura
Perú</description>
                <styleUrl>#70</styleUrl>
                <Point id="68">
                    <coordinates>-80.6331086,-5.2018044,0.0</coordinates>
                </Point>
            </Placemark>
            <Placemark id="74">
                <name>MARIA ESMERALDA BARRIOS VELASQUEZ DE PEÑA</name>
                <description>TITANES MZ.E01 INT.1
Piura

Piura
Perú</description>
                <styleUrl>#75</styleUrl>
                <Point id="73">
                    <coordinates>-80.634125,-5.201791,0.0</coordinates>
                </Point>
            </Placemark>
            <Placemark id="79">
                <name>CARBONEL TROYA DANIEL ARTURO</name>
                <description>MZ E LOTE 19 URB. TITANES 2DA ETAPA
Piura
Piura
Piura
Perú</description>
                <styleUrl>#80</styleUrl>
                <Point id="78">
                    <coordinates>-80.6344848,-5.2021168,0.0</coordinates>
                </Point>
            </Placemark>
            <Placemark id="84">
                <name>VICENTA RAMOS CHAPA</name>
                <description>MZ.Z LT.5 AH.18 DE MAYO       
Piura
Piura
Piura
Perú</description>
                <styleUrl>#85</styleUrl>
                <Point id="83">
                    <coordinates>-80.6341297,-5.2039004,0.0</coordinates>
                </Point>
            </Placemark>
            <Placemark id="89">
                <name>NORMA CARRASCO RAMOS</name>
                <description>MZ H LOTE 03 AH 18 DE MAYO    
Piura
Piura
Piura
Perú</description>
                <styleUrl>#90</styleUrl>
                <Point id="88">
                    <coordinates>-80.632806,-5.203077,0.0</coordinates>
                </Point>
            </Placemark>
            <Placemark id="94">
                <name>CLARA ISA ALCAS ZAPATA</name>
                <description>CLARA ISA ALCAS ZAPATA
AAHH 18 DE MAYO MZ F LOTE 13
Piura
Piura
Piura
Perú</description>
                <styleUrl>#95</styleUrl>
                <Point id="93">
                    <coordinates>-80.6304369,-5.2012828,0.0</coordinates>
                </Point>
            </Placemark>
            <Placemark id="99">
                <name>ROSA ANGELICA MORALES PAIVA</name>
                <description>MZ C LOTE 24 AH 18 DE MAYO    
Piura
Piura
Piura
Perú</description>
                <styleUrl>#100</styleUrl>
                <Point id="98">
                    <coordinates>-80.631166,-5.203178,0.0</coordinates>
                </Point>
            </Placemark>
            <Placemark id="104">
                <name>ANDY PRAXEDES MARQUEZ VALERIO</name>
                <description>ANDY PRAXEDES MARQUEZ VALERIO
Prol. AREQUIPA Mz I LTE 19 AA.HH QUINTA JULIA
Piura
Piura
Piura
Perú</description>
                <styleUrl>#105</styleUrl>
                <Point id="103">
                    <coordinates>-80.6306168,-5.2051865,0.0</coordinates>
                </Point>
            </Placemark>
            <Placemark id="109">
                <name>JESSICA ARACELI GARCIA CRUZ</name>
                <description>MZ.I LT.17 AH.QUINTA JULIA    
Piura

Piura
Perú</description>
                <styleUrl>#110</styleUrl>
                <Point id="108">
                    <coordinates>-80.630597,-5.205312,0.0</coordinates>
                </Point>
            </Placemark>
            <Placemark id="114">
                <name>VICTOR CAIR CAMIZAN DOMINGUEZ</name>
                <description>Mz Q LT 16  AA.HH 18 DE MAYO
Piura
Piura
Piura
Perú</description>
                <styleUrl>#115</styleUrl>
                <Point id="113">
                    <coordinates>-80.6324549,-5.2051608,0.0</coordinates>
                </Point>
            </Placemark>
            <Placemark id="119">
                <name>MARGARITA DIAZ ARIZAGA</name>
                <description>MZ E LOTE 21 AA.HH 6 DE SEPTIEMBRE
Piura
Piura
Piura
Perú</description>
                <styleUrl>#120</styleUrl>
                <Point id="118">
                    <coordinates>-80.631726,-5.2062501,0.0</coordinates>
                </Point>
            </Placemark>
            <Placemark id="124">
                <name>MARLYN DENVER MANRIQUE NUÑEZ</name>
                <description>A.H.6 DE SET.MZ.G LT.1        
Piura
Piura
Piura
Perú</description>
                <styleUrl>#125</styleUrl>
                <Point id="123">
                    <coordinates>-80.6321858,-5.206754,0.0</coordinates>
                </Point>
            </Placemark>
            <Placemark id="129">
                <name>SUAREZ MONTALVAN ELY REBECA</name>
                <description>SUAREZ MONTALVAN ELY REBECA
MZ F LOTE 05 BARRIO SUR
Piura
Piura
Piura
Perú</description>
                <styleUrl>#130</styleUrl>
                <Point id="128">
                    <coordinates>-80.631901,-5.206864,0.0</coordinates>
                </Point>
            </Placemark>
            <Placemark id="134">
                <name>FLORESMILA SAAVEDRA PAUCAR</name>
                <description>AA. HH 06 DE SETIEMBRE MZ B LOTE 20
Piura
Piura
Piura
Perú</description>
                <styleUrl>#135</styleUrl>
                <Point id="133">
                    <coordinates>-80.6310691,-5.2071311,0.0</coordinates>
                </Point>
            </Placemark>
            <Placemark id="139">
                <name>MARICEYDA RIVERA ADRIANZEN</name>
                <description>18 DE MAYO MZ U LT 26 II ETAPA
Piura
Piura
Piura
Perú</description>
                <styleUrl>#140</styleUrl>
                <Point id="138">
                    <coordinates>-80.6343302,-5.2056908,0.0</coordinates>
                </Point>
            </Placemark>
            <Placemark id="144">
                <name>LUZ MARINA RAMIREZ CORDOVA</name>
                <description>MZ. A LT.01 ALM. MIGUEL GRAU  
Piura
Piura
Piura
Perú</description>
                <styleUrl>#145</styleUrl>
                <Point id="143">
                    <coordinates>-80.6350594,-5.2053622,0.0</coordinates>
                </Point>
            </Placemark>
            <Placemark id="149">
                <name>GUTIERREZ SIANCAS YESENIA ARACELI</name>
                <description>GUTIERREZ SIANCAS YESENIA ARACELI
AAHH ALMIRANTE MIGUEL GRAU MZ B LOTE 36 PRIMERA ETAPA
Piura
Piura
Piura
Perú</description>
                <styleUrl>#150</styleUrl>
                <Point id="148">
                    <coordinates>-80.634614,-5.2059972,0.0</coordinates>
                </Point>
            </Placemark>
            <Placemark id="154">
                <name>EDITA DIAZ FERNANDEZ DE SOLANO</name>
                <description>MZ.F-17 AH MIGUEL GRAU I      
Piura
Piura
Piura
Perú</description>
                <styleUrl>#155</styleUrl>
                <Point id="153">
                    <coordinates>-80.6337627,-5.207649,0.0</coordinates>
                </Point>
            </Placemark>
            <Placemark id="159">
                <name>ROSALVA ESTEFA SOCOLA CANOVA</name>
                <description>ALM.M.GRAU MZA B  31 II ETP   
Piura
Piura
Piura
Perú</description>
                <styleUrl>#160</styleUrl>
                <Point id="158">
                    <coordinates>-80.635354,-5.2073818,0.0</coordinates>
                </Point>
            </Placemark>
            <Placemark id="164">
                <name>FAUSTINA PAZ CORDOVA</name>
                <description>Mz A H Lte 08 II ETP ALM.MIGUEL GRAU
Piura
Piura
Piura
Perú</description>
                <styleUrl>#165</styleUrl>
                <Point id="163">
                    <coordinates>-80.6362229,-5.2066796,0.0</coordinates>
                </Point>
            </Placemark>
            <Placemark id="169">
                <name>CRUZ MARIA CAMPOS RIVERA</name>
                <description>MZ LL-08 ET 2 AH ALM. MIG GRAU
Piura
Piura
Piura
Perú</description>
                <styleUrl>#170</styleUrl>
                <Point id="168">
                    <coordinates>-80.6372186,-5.2076857,0.0</coordinates>
                </Point>
            </Placemark>
            <Placemark id="174">
                <name>ALBERTO MIO MENDOZA</name>
                <description>MZ LL LTE 03 AA.HH ALMIRANTE MIGUEL GRAU
Piura
Piura
Piura
Perú</description>
                <styleUrl>#175</styleUrl>
                <Point id="173">
                    <coordinates>-80.6373764,-5.2074389,0.0</coordinates>
                </Point>
            </Placemark>
            <Placemark id="179">
                <name>CRUZ MARIA CAMPOS RIVERA</name>
                <description>MZ LL-08 ET 2 AH ALM. MIG GRAU
Piura
Piura
Piura
Perú</description>
                <styleUrl>#180</styleUrl>
                <Point id="178">
                    <coordinates>-80.6372186,-5.2076857,0.0</coordinates>
                </Point>
            </Placemark>
            <Placemark id="184">
                <name>GABRIELA ANGELICA TINEO LARA</name>
                <description>MZ G LTe 26 AA.HH ALMIRANTE MIGUEL GRAU
Piura
Piura
Piura
Perú</description>
                <styleUrl>#185</styleUrl>
                <Point id="183">
                    <coordinates>-80.6364501,-5.2080996,0.0</coordinates>
                </Point>
            </Placemark>
            <Placemark id="189">
                <name>GLORIA MILENA IBAÑEZ TINEO</name>
                <description>MZ M LOTE 10 ETP.02 AH ALMIR  
Piura
Piura
Piura
Perú</description>
                <styleUrl>#190</styleUrl>
                <Point id="188">
                    <coordinates>-80.636226,-5.208314,0.0</coordinates>
                </Point>
            </Placemark>
            <Placemark id="194">
                <name>QUISPE REYES EDELIA</name>
                <description>A.H.MIGUEL GRAU MZ.N LT.9     
Piura

Piura
Perú</description>
                <styleUrl>#195</styleUrl>
                <Point id="193">
                    <coordinates>-80.635297,-5.208999,0.0</coordinates>
                </Point>
            </Placemark>
            <Placemark id="199">
                <name>IDANI FUENTES HUAMAN</name>
                <description>MZ B LOTE 37 EL FAIQUE
Piura
Piura
Piura
Perú</description>
                <styleUrl>#200</styleUrl>
                <Point id="198">
                    <coordinates>-80.6352633,-5.21085,0.0</coordinates>
                </Point>
            </Placemark>
            <Placemark id="204">
                <name>ELVA RUIZ ALCAS</name>
                <description>Calle prolongación Cuzco MZ. A LTE 35 AA.HH LAS PALMERAS
Piura
Piura
Piura
Perú</description>
                <styleUrl>#205</styleUrl>
                <Point id="203">
                    <coordinates>-80.633919,-5.209542,0.0</coordinates>
                </Point>
            </Placemark>
            <Placemark id="209">
                <name>ROSA ESMIRA SAAVEDRA NUÑEZ</name>
                <description>MZ E LT 25 AH ALM MIGUEL GRAU 
Piura
Piura
Piura
Perú</description>
                <styleUrl>#210</styleUrl>
                <Point id="208">
                    <coordinates>-80.6349428,-5.2069847,0.0</coordinates>
                </Point>
            </Placemark>
            <Placemark id="214">
                <name>NANCY DEL PILAR VALENCIA CHAVEZ</name>
                <description>AAHH ALMIRANTE MIGUEL GRAU MZ F LT 3 Piura-Piura
Piura
Piura
Piura
Perú</description>
                <styleUrl>#215</styleUrl>
                <Point id="213">
                    <coordinates>-80.634124,-5.206932,0.0</coordinates>
                </Point>
            </Placemark>
            <Placemark id="219">
                <name>MARIA TEODORA RONDOY YOVERA</name>
                <description>A.H.ALM.GRAU B LT.1 2DA E     
Piura
Piura
Piura
Perú</description>
                <styleUrl>#220</styleUrl>
                <Point id="218">
                    <coordinates>-80.6356596,-5.2064499,0.0</coordinates>
                </Point>
            </Placemark>
        </Folder>
        <Folder id="223">
            <Style id="226">
                <IconStyle id="227">
                    <color>ffff0000</color>
                    <colorMode>normal</colorMode>
                    <scale>1</scale>
                    <heading>0</heading>
                    <Icon id="228">
                        <href>http://maps.google.com/mapfiles/kml/pushpin/ylw-pushpin.png</href>
                    </Icon>
                </IconStyle>
            </Style>
            <Style id="231">
                <IconStyle id="232">
                    <color>ffff0000</color>
                    <colorMode>normal</colorMode>
                    <scale>1</scale>
                    <heading>0</heading>
                    <Icon id="233">
                        <href>http://maps.google.com/mapfiles/kml/pushpin/ylw-pushpin.png</href>
                    </Icon>
                </IconStyle>
            </Style>
            <Style id="236">
                <IconStyle id="237">
                    <color>ffff0000</color>
                    <colorMode>normal</colorMode>
                    <scale>1</scale>
                    <heading>0</heading>
                    <Icon id="238">
                        <href>http://maps.google.com/mapfiles/kml/pushpin/ylw-pushpin.png</href>
                    </Icon>
                </IconStyle>
            </Style>
            <Style id="241">
                <IconStyle id="242">
                    <color>ffff0000</color>
                    <colorMode>normal</colorMode>
                    <scale>1</scale>
                    <heading>0</heading>
                    <Icon id="243">
                        <href>http://maps.google.com/mapfiles/kml/pushpin/ylw-pushpin.png</href>
                    </Icon>
                </IconStyle>
            </Style>
            <Style id="246">
                <IconStyle id="247">
                    <color>ffff0000</color>
                    <colorMode>normal</colorMode>
                    <scale>1</scale>
                    <heading>0</heading>
                    <Icon id="248">
                        <href>http://maps.google.com/mapfiles/kml/pushpin/ylw-pushpin.png</href>
                    </Icon>
                </IconStyle>
            </Style>
            <Style id="251">
                <IconStyle id="252">
                    <color>ffff0000</color>
                    <colorMode>normal</colorMode>
                    <scale>1</scale>
                    <heading>0</heading>
                    <Icon id="253">
                        <href>http://maps.google.com/mapfiles/kml/pushpin/ylw-pushpin.png</href>
                    </Icon>
                </IconStyle>
            </Style>
            <Style id="256">
                <IconStyle id="257">
                    <color>ffff0000</color>
                    <colorMode>normal</colorMode>
                    <scale>1</scale>
                    <heading>0</heading>
                    <Icon id="258">
                        <href>http://maps.google.com/mapfiles/kml/pushpin/ylw-pushpin.png</href>
                    </Icon>
                </IconStyle>
            </Style>
            <Style id="261">
                <IconStyle id="262">
                    <color>ffff0000</color>
                    <colorMode>normal</colorMode>
                    <scale>1</scale>
                    <heading>0</heading>
                    <Icon id="263">
                        <href>http://maps.google.com/mapfiles/kml/pushpin/ylw-pushpin.png</href>
                    </Icon>
                </IconStyle>
            </Style>
            <Style id="266">
                <IconStyle id="267">
                    <color>ffff0000</color>
                    <colorMode>normal</colorMode>
                    <scale>1</scale>
                    <heading>0</heading>
                    <Icon id="268">
                        <href>http://maps.google.com/mapfiles/kml/pushpin/ylw-pushpin.png</href>
                    </Icon>
                </IconStyle>
            </Style>
            <Style id="271">
                <IconStyle id="272">
                    <color>ffff0000</color>
                    <colorMode>normal</colorMode>
                    <scale>1</scale>
                    <heading>0</heading>
                    <Icon id="273">
                        <href>http://maps.google.com/mapfiles/kml/pushpin/ylw-pushpin.png</href>
                    </Icon>
                </IconStyle>
            </Style>
            <Style id="276">
                <IconStyle id="277">
                    <color>ffff0000</color>
                    <colorMode>normal</colorMode>
                    <scale>1</scale>
                    <heading>0</heading>
                    <Icon id="278">
                        <href>http://maps.google.com/mapfiles/kml/pushpin/ylw-pushpin.png</href>
                    </Icon>
                </IconStyle>
            </Style>
            <Style id="281">
                <IconStyle id="282">
                    <color>ffff0000</color>
                    <colorMode>normal</colorMode>
                    <scale>1</scale>
                    <heading>0</heading>
                    <Icon id="283">
                        <href>http://maps.google.com/mapfiles/kml/pushpin/ylw-pushpin.png</href>
                    </Icon>
                </IconStyle>
            </Style>
            <Style id="286">
                <IconStyle id="287">
                    <color>ffff0000</color>
                    <colorMode>normal</colorMode>
                    <scale>1</scale>
                    <heading>0</heading>
                    <Icon id="288">
                        <href>http://maps.google.com/mapfiles/kml/pushpin/ylw-pushpin.png</href>
                    </Icon>
                </IconStyle>
            </Style>
            <Style id="291">
                <IconStyle id="292">
                    <color>ffff0000</color>
                    <colorMode>normal</colorMode>
                    <scale>1</scale>
                    <heading>0</heading>
                    <Icon id="293">
                        <href>http://maps.google.com/mapfiles/kml/pushpin/ylw-pushpin.png</href>
                    </Icon>
                </IconStyle>
            </Style>
            <Style id="296">
                <IconStyle id="297">
                    <color>ffff0000</color>
                    <colorMode>normal</colorMode>
                    <scale>1</scale>
                    <heading>0</heading>
                    <Icon id="298">
                        <href>http://maps.google.com/mapfiles/kml/pushpin/ylw-pushpin.png</href>
                    </Icon>
                </IconStyle>
            </Style>
            <Style id="301">
                <IconStyle id="302">
                    <color>ffff0000</color>
                    <colorMode>normal</colorMode>
                    <scale>1</scale>
                    <heading>0</heading>
                    <Icon id="303">
                        <href>http://maps.google.com/mapfiles/kml/pushpin/ylw-pushpin.png</href>
                    </Icon>
                </IconStyle>
            </Style>
            <Style id="306">
                <IconStyle id="307">
                    <color>ffff0000</color>
                    <colorMode>normal</colorMode>
                    <scale>1</scale>
                    <heading>0</heading>
                    <Icon id="308">
                        <href>http://maps.google.com/mapfiles/kml/pushpin/ylw-pushpin.png</href>
                    </Icon>
                </IconStyle>
            </Style>
            <Style id="311">
                <IconStyle id="312">
                    <color>ffff0000</color>
                    <colorMode>normal</colorMode>
                    <scale>1</scale>
                    <heading>0</heading>
                    <Icon id="313">
                        <href>http://maps.google.com/mapfiles/kml/pushpin/ylw-pushpin.png</href>
                    </Icon>
                </IconStyle>
            </Style>
            <Style id="316">
                <IconStyle id="317">
                    <color>ffff0000</color>
                    <colorMode>normal</colorMode>
                    <scale>1</scale>
                    <heading>0</heading>
                    <Icon id="318">
                        <href>http://maps.google.com/mapfiles/kml/pushpin/ylw-pushpin.png</href>
                    </Icon>
                </IconStyle>
            </Style>
            <Style id="321">
                <IconStyle id="322">
                    <color>ffff0000</color>
                    <colorMode>normal</colorMode>
                    <scale>1</scale>
                    <heading>0</heading>
                    <Icon id="323">
                        <href>http://maps.google.com/mapfiles/kml/pushpin/ylw-pushpin.png</href>
                    </Icon>
                </IconStyle>
            </Style>
            <Style id="326">
                <IconStyle id="327">
                    <color>ffff0000</color>
                    <colorMode>normal</colorMode>
                    <scale>1</scale>
                    <heading>0</heading>
                    <Icon id="328">
                        <href>http://maps.google.com/mapfiles/kml/pushpin/ylw-pushpin.png</href>
                    </Icon>
                </IconStyle>
            </Style>
            <Style id="331">
                <IconStyle id="332">
                    <color>ffff0000</color>
                    <colorMode>normal</colorMode>
                    <scale>1</scale>
                    <heading>0</heading>
                    <Icon id="333">
                        <href>http://maps.google.com/mapfiles/kml/pushpin/ylw-pushpin.png</href>
                    </Icon>
                </IconStyle>
            </Style>
            <Style id="336">
                <IconStyle id="337">
                    <color>ffff0000</color>
                    <colorMode>normal</colorMode>
                    <scale>1</scale>
                    <heading>0</heading>
                    <Icon id="338">
                        <href>http://maps.google.com/mapfiles/kml/pushpin/ylw-pushpin.png</href>
                    </Icon>
                </IconStyle>
            </Style>
            <Style id="341">
                <IconStyle id="342">
                    <color>ffff0000</color>
                    <colorMode>normal</colorMode>
                    <scale>1</scale>
                    <heading>0</heading>
                    <Icon id="343">
                        <href>http://maps.google.com/mapfiles/kml/pushpin/ylw-pushpin.png</href>
                    </Icon>
                </IconStyle>
            </Style>
            <Style id="346">
                <IconStyle id="347">
                    <color>ffff0000</color>
                    <colorMode>normal</colorMode>
                    <scale>1</scale>
                    <heading>0</heading>
                    <Icon id="348">
                        <href>http://maps.google.com/mapfiles/kml/pushpin/ylw-pushpin.png</href>
                    </Icon>
                </IconStyle>
            </Style>
            <Style id="351">
                <IconStyle id="352">
                    <color>ffff0000</color>
                    <colorMode>normal</colorMode>
                    <scale>1</scale>
                    <heading>0</heading>
                    <Icon id="353">
                        <href>http://maps.google.com/mapfiles/kml/pushpin/ylw-pushpin.png</href>
                    </Icon>
                </IconStyle>
            </Style>
            <Style id="356">
                <IconStyle id="357">
                    <color>ffff0000</color>
                    <colorMode>normal</colorMode>
                    <scale>1</scale>
                    <heading>0</heading>
                    <Icon id="358">
                        <href>http://maps.google.com/mapfiles/kml/pushpin/ylw-pushpin.png</href>
                    </Icon>
                </IconStyle>
            </Style>
            <Style id="361">
                <IconStyle id="362">
                    <color>ffff0000</color>
                    <colorMode>normal</colorMode>
                    <scale>1</scale>
                    <heading>0</heading>
                    <Icon id="363">
                        <href>http://maps.google.com/mapfiles/kml/pushpin/ylw-pushpin.png</href>
                    </Icon>
                </IconStyle>
            </Style>
            <Style id="366">
                <IconStyle id="367">
                    <color>ffff0000</color>
                    <colorMode>normal</colorMode>
                    <scale>1</scale>
                    <heading>0</heading>
                    <Icon id="368">
                        <href>http://maps.google.com/mapfiles/kml/pushpin/ylw-pushpin.png</href>
                    </Icon>
                </IconStyle>
            </Style>
            <Style id="371">
                <IconStyle id="372">
                    <color>ffff0000</color>
                    <colorMode>normal</colorMode>
                    <scale>1</scale>
                    <heading>0</heading>
                    <Icon id="373">
                        <href>http://maps.google.com/mapfiles/kml/pushpin/ylw-pushpin.png</href>
                    </Icon>
                </IconStyle>
            </Style>
            <name>CRISTIAN DARWIN ESPINOZA OLIVA</name>
            <Placemark id="225">
                <name>JOSE MIGUEL MONTES PACHECO</name>
                <description>JOSE MIGUEL MONTES PACHECO
AV.LOS GARDENIAS APV.LOS ROSALES MZA LT.4
Piura
Piura
Piura
Perú</description>
                <styleUrl>#226</styleUrl>
                <Point id="224">
                    <coordinates>-80.6326501,-5.1689832,0.0</coordinates>
                </Point>
            </Placemark>
            <Placemark id="230">
                <name>FILIBERTO ROSAS QUEZADA</name>
                <description>C LOS EJIDOS DEL NORTE MZ B LT5
Piura
Piura
Piura
Perú</description>
                <styleUrl>#231</styleUrl>
                <Point id="229">
                    <coordinates>-80.6194854,-5.1522508,0.0</coordinates>
                </Point>
            </Placemark>
            <Placemark id="235">
                <name>LICORERIA MELENDRES EIRL</name>
                <description>LICORERIA MELENDRES EIRL
URB.LA LAGUNA CHIPE II MZ.R-20
Piura
Piura
Piura
Perú</description>
                <styleUrl>#236</styleUrl>
                <Point id="234">
                    <coordinates>-80.643509,-5.173216,0.0</coordinates>
                </Point>
            </Placemark>
            <Placemark id="240">
                <name>LICORERIA MELENDRES EIRL, ST MARIA DEL PINAR</name>
                <description>LICORERIA MELENDRES EIRL
MZN. D LOTE 26 URB SANTA MARÍA DEL PINAR 2DA ETAPA
Piura
Piura
Piura
Perú</description>
                <styleUrl>#241</styleUrl>
                <Point id="239">
                    <coordinates>-80.6334158,-5.1695393,0.0</coordinates>
                </Point>
            </Placemark>
            <Placemark id="245">
                <name>MIRIAM IVONNE LARROCA MENDOZA</name>
                <description>MIRIAM IVONNE LARROCA MENDOZA
MZ A LTE.17 LOURDES - PIURA
Piura
Piura
Piura
Perú</description>
                <styleUrl>#246</styleUrl>
                <Point id="244">
                    <coordinates>-80.6361306,-5.163958,0.0</coordinates>
                </Point>
            </Placemark>
            <Placemark id="250">
                <name>JOSE MIGUEL MONTES PACHECO</name>
                <description>JOSE MIGUEL MONTES PACHECO
AV.LOS GARDENIAS APV.LOS ROSALES MZA LT.4
Piura
Piura
Piura
Perú</description>
                <styleUrl>#251</styleUrl>
                <Point id="249">
                    <coordinates>-80.6326501,-5.1689832,0.0</coordinates>
                </Point>
            </Placemark>
            <Placemark id="255">
                <name>ROGGER SERGIO HERENCIA RAMIREZ</name>
                <description>ROGGER SERGIO HERENCIA RAMIREZ
URB.LOURDES MZ D LTE.35 - PIURA
Piura
Piura
Piura
Perú</description>
                <styleUrl>#256</styleUrl>
                <Point id="254">
                    <coordinates>-80.6369579,-5.162592,0.0</coordinates>
                </Point>
            </Placemark>
            <Placemark id="260">
                <name>SENDER ORELLANO ERIKA MELISA</name>
                <description>Urb San Felipe MZ A lt 04
Piura
Piura
Piura
Perú</description>
                <styleUrl>#261</styleUrl>
                <Point id="259">
                    <coordinates>-80.633037,-5.181336,0.0</coordinates>
                </Point>
            </Placemark>
            <Placemark id="265">
                <name>MARIA CELESTE CHIRINOS ARELLANO</name>
                <description>MARIA CELESTE CHIRINOS ARELLANO
AV. LOS CEDROS MZ E LT 33 - PIURA
Piura
Piura
Piura
Perú</description>
                <styleUrl>#266</styleUrl>
                <Point id="264">
                    <coordinates>-80.6355676,-5.1644716,0.0</coordinates>
                </Point>
            </Placemark>
            <Placemark id="270">
                <name>GUERRA MORE JACKELINE PIERINA DEL C</name>
                <description>GUERRA MORE JACKELINE PIERINA DEL C
RES.VICUZ BLOK A7 DPTO 102 INT 02 -PIURA
Piura
Piura
Piura
Perú</description>
                <styleUrl>#271</styleUrl>
                <Point id="269">
                    <coordinates>-80.6317518,-5.1742524,0.0</coordinates>
                </Point>
            </Placemark>
            <Placemark id="275">
                <name>PERALTA BUSTAMANTE SANDRA</name>
                <description>AV LAS CASUARINAS MZ.B LT.31  
Piura
Piura
Piura
Perú</description>
                <styleUrl>#276</styleUrl>
                <Point id="274">
                    <coordinates>-80.634169,-5.170133,0.0</coordinates>
                </Point>
            </Placemark>
            <Placemark id="280">
                <name>MARIA LUISA ALVAREZ CALLE</name>
                <description>MZ B LT 30 URB. URB. SANTA MARIA DEL PINAR PIURA
Piura

Piura
Perú</description>
                <styleUrl>#281</styleUrl>
                <Point id="279">
                    <coordinates>-80.633838,-5.170419,0.0</coordinates>
                </Point>
            </Placemark>
            <Placemark id="285">
                <name>ADRIAN MANUEL LAZARO MARTINEZ</name>
                <description>ADRIAN MANUEL LAZARO MARTINEZ
URB. SANTA MARIA DEL PINAR MZ M LT22 - PIURA
Piura
Piura
Piura
Perú</description>
                <styleUrl>#286</styleUrl>
                <Point id="284">
                    <coordinates>-80.6306226,-5.1710988,0.0</coordinates>
                </Point>
            </Placemark>
            <Placemark id="290">
                <name>NILA PAZ MANOSALVA LOZANO</name>
                <description>NILA PAZ MANOSALVA LOZANO
CA. LOS ROSALES MZ A LT.8 URB. LA PROVIDENCIA
Piura
Piura
Piura
Perú</description>
                <styleUrl>#291</styleUrl>
                <Point id="289">
                    <coordinates>-80.6277084,-5.169119,0.0</coordinates>
                </Point>
            </Placemark>
            <Placemark id="295">
                <name>LOPEZ NAVARRO LUIS</name>
                <description>Urb Gardenias mz c lote 2 costado UPAO
Piura

Piura
Perú</description>
                <styleUrl>#296</styleUrl>
                <Point id="294">
                    <coordinates>-80.631334,-5.168168,0.0</coordinates>
                </Point>
            </Placemark>
            <Placemark id="300">
                <name>ZEVALLOS VIVANCO DE VICENTE CLARA TATYANA THAIS</name>
                <description>Condominio garden interior s/n
Piura

Piura
Perú</description>
                <styleUrl>#301</styleUrl>
                <Point id="299">
                    <coordinates>-80.631242,-5.166944,0.0</coordinates>
                </Point>
            </Placemark>
            <Placemark id="305">
                <name>YURI CAROL ESQUIVEL BALDEON</name>
                <description>MZ A LT. 13 APV. M.GRAU LA NVA PROVIDENCIA Piura
Piura
Piura
Piura
Perú</description>
                <styleUrl>#306</styleUrl>
                <Point id="304">
                    <coordinates>-80.631534,-5.163552,0.0</coordinates>
                </Point>
            </Placemark>
            <Placemark id="310">
                <name>REQUENA PEÑA ANDERSON</name>
                <description>MZ A LOTE 7 LA NUEVA PROVIDENC
Piura

Piura
Perú</description>
                <styleUrl>#311</styleUrl>
                <Point id="309">
                    <coordinates>-80.6327375,-5.1636168,0.0</coordinates>
                </Point>
            </Placemark>
            <Placemark id="315">
                <name>ROSA ANA CALLE SAAVEDRA</name>
                <description>ROSA ANA CALLE SAAVEDRA
MZ D LTE.27 UPIS MONTERRICO - PIURA
Piura
Piura
Piura
Perú</description>
                <styleUrl>#316</styleUrl>
                <Point id="314">
                    <coordinates>-80.6321666,-5.1633031,0.0</coordinates>
                </Point>
            </Placemark>
            <Placemark id="320">
                <name>COLMENARES ARIZOLA JOHANA</name>
                <description>Urb. Nueva Providencia MZ A lote 32. Referencia Frente al Parque
Piura
Aguas Verdes
Piura
Perú</description>
                <styleUrl>#321</styleUrl>
                <Point id="319">
                    <coordinates>-80.632539,-5.163833,0.0</coordinates>
                </Point>
            </Placemark>
            <Placemark id="325">
                <name>IDERLY RIVERA HERRERA</name>
                <description>MZ B LT 11 C.H. MIGUEL GRAU-PIURA
Piura
Piura
Piura
Perú</description>
                <styleUrl>#326</styleUrl>
                <Point id="324">
                    <coordinates>-80.6320763,-5.1645262,0.0</coordinates>
                </Point>
            </Placemark>
            <Placemark id="330">
                <name>SAIRA ELIZABETH AYOSA ANASTACIO</name>
                <description>AV.MZ.D LT.15 LA PROVIDENCIA  
Piura
Piura
Piura
Perú</description>
                <styleUrl>#331</styleUrl>
                <Point id="329">
                    <coordinates>-80.6332202,-5.1643389,0.0</coordinates>
                </Point>
            </Placemark>
            <Placemark id="335">
                <name>VICTOR JOSE LAZO GUZMAN</name>
                <description>LOS EJIDOS DEL NORTE 681 FUNDO
Piura
Piura
Piura
Perú</description>
                <styleUrl>#336</styleUrl>
                <Point id="334">
                    <coordinates>-80.6196507,-5.1523332,0.0</coordinates>
                </Point>
            </Placemark>
            <Placemark id="340">
                <name>LAURA ROSAS LAZO</name>
                <description>MZ.80 LT.01 CASERIO LA MARIPOSA
Piura
Piura
Piura
Perú</description>
                <styleUrl>#341</styleUrl>
                <Point id="339">
                    <coordinates>-80.6205291,-5.1516937,0.0</coordinates>
                </Point>
            </Placemark>
            <Placemark id="345">
                <name>ROSAS SANCHEZ GEMA PAOLA</name>
                <description>CAS EJIDOS DEL NORTE MZ.H LT13
Piura
Piura
Piura
Perú</description>
                <styleUrl>#346</styleUrl>
                <Point id="344">
                    <coordinates>-80.620102,-5.1512018,0.0</coordinates>
                </Point>
            </Placemark>
            <Placemark id="350">
                <name>RAFAELA ARCANGEL MENA YAMUNAQUE</name>
                <description>EJIDOS DEL NORTE MZ LB LOTE 2 REFERENCIA ENTRANDO POR EL CALLEJON
Piura
Piura
Piura
Perú</description>
                <styleUrl>#351</styleUrl>
                <Point id="349">
                    <coordinates>-80.6182388,-5.1513432,0.0</coordinates>
                </Point>
            </Placemark>
            <Placemark id="355">
                <name>NILDA ELIZABETH VITE CARDOZO</name>
                <description>CA.LOS EJIDOS 961             
Piura
Piura
Piura
Perú</description>
                <styleUrl>#356</styleUrl>
                <Point id="354">
                    <coordinates>-80.6194863,-5.1512693,0.0</coordinates>
                </Point>
            </Placemark>
            <Placemark id="360">
                <name>MARTHA DEL ROSARIO LAZO GUZMAN DE YAMUNAQUE</name>
                <description>LOS EJIDOS DEL NORTE MZ K LT7 
Piura
Piura
Piura
Perú</description>
                <styleUrl>#361</styleUrl>
                <Point id="359">
                    <coordinates>-80.6189725,-5.1514473,0.0</coordinates>
                </Point>
            </Placemark>
            <Placemark id="365">
                <name>SEÑORITA IVANA BELEN REQUENA SIANCAS</name>
                <description>Av principal MZ B lote 1 ejidos del norte
Piura
Piura
Piura
Perú</description>
                <styleUrl>#366</styleUrl>
                <Point id="364">
                    <coordinates>-80.6194094,-5.1524364,0.0</coordinates>
                </Point>
            </Placemark>
            <Placemark id="370">
                <name>CYNTHIA CAROL ORDINOLA TORRES</name>
                <description>CYNTHIA CAROL ORDINOLA TORRES
CA.P. MAGESTUOSA MZ M1-LT08 LOS COCOS DEL CHIPE
Piura
Piura
Piura
Perú</description>
                <styleUrl>#371</styleUrl>
                <Point id="369">
                    <coordinates>-80.6284418,-5.177721,0.0</coordinates>
                </Point>
            </Placemark>
        </Folder>
    </Document>
</kml>
