<?xml version="1.0" encoding="UTF-8"?>
<kml xmlns="http://www.opengis.net/kml/2.2" xmlns:gx="http://www.google.com/kml/ext/2.2">
    <Document id="1">
        <Folder id="2">
            <Style id="5">
                <IconStyle id="6">
                    <color>ff0000ff</color>
                    <colorMode>normal</colorMode>
                    <scale>1</scale>
                    <heading>0</heading>
                    <Icon id="7">
                        <href>http://maps.google.com/mapfiles/kml/pushpin/ylw-pushpin.png</href>
                    </Icon>
                </IconStyle>
            </Style>
            <Style id="10">
                <IconStyle id="11">
                    <color>ff0000ff</color>
                    <colorMode>normal</colorMode>
                    <scale>1</scale>
                    <heading>0</heading>
                    <Icon id="12">
                        <href>http://maps.google.com/mapfiles/kml/pushpin/ylw-pushpin.png</href>
                    </Icon>
                </IconStyle>
            </Style>
            <Style id="15">
                <IconStyle id="16">
                    <color>ff0000ff</color>
                    <colorMode>normal</colorMode>
                    <scale>1</scale>
                    <heading>0</heading>
                    <Icon id="17">
                        <href>http://maps.google.com/mapfiles/kml/pushpin/ylw-pushpin.png</href>
                    </Icon>
                </IconStyle>
            </Style>
            <Style id="20">
                <IconStyle id="21">
                    <color>ff0000ff</color>
                    <colorMode>normal</colorMode>
                    <scale>1</scale>
                    <heading>0</heading>
                    <Icon id="22">
                        <href>http://maps.google.com/mapfiles/kml/pushpin/ylw-pushpin.png</href>
                    </Icon>
                </IconStyle>
            </Style>
            <Style id="25">
                <IconStyle id="26">
                    <color>ff0000ff</color>
                    <colorMode>normal</colorMode>
                    <scale>1</scale>
                    <heading>0</heading>
                    <Icon id="27">
                        <href>http://maps.google.com/mapfiles/kml/pushpin/ylw-pushpin.png</href>
                    </Icon>
                </IconStyle>
            </Style>
            <Style id="30">
                <IconStyle id="31">
                    <color>ff0000ff</color>
                    <colorMode>normal</colorMode>
                    <scale>1</scale>
                    <heading>0</heading>
                    <Icon id="32">
                        <href>http://maps.google.com/mapfiles/kml/pushpin/ylw-pushpin.png</href>
                    </Icon>
                </IconStyle>
            </Style>
            <Style id="35">
                <IconStyle id="36">
                    <color>ff0000ff</color>
                    <colorMode>normal</colorMode>
                    <scale>1</scale>
                    <heading>0</heading>
                    <Icon id="37">
                        <href>http://maps.google.com/mapfiles/kml/pushpin/ylw-pushpin.png</href>
                    </Icon>
                </IconStyle>
            </Style>
            <Style id="40">
                <IconStyle id="41">
                    <color>ff0000ff</color>
                    <colorMode>normal</colorMode>
                    <scale>1</scale>
                    <heading>0</heading>
                    <Icon id="42">
                        <href>http://maps.google.com/mapfiles/kml/pushpin/ylw-pushpin.png</href>
                    </Icon>
                </IconStyle>
            </Style>
            <Style id="45">
                <IconStyle id="46">
                    <color>ff0000ff</color>
                    <colorMode>normal</colorMode>
                    <scale>1</scale>
                    <heading>0</heading>
                    <Icon id="47">
                        <href>http://maps.google.com/mapfiles/kml/pushpin/ylw-pushpin.png</href>
                    </Icon>
                </IconStyle>
            </Style>
            <Style id="50">
                <IconStyle id="51">
                    <color>ff0000ff</color>
                    <colorMode>normal</colorMode>
                    <scale>1</scale>
                    <heading>0</heading>
                    <Icon id="52">
                        <href>http://maps.google.com/mapfiles/kml/pushpin/ylw-pushpin.png</href>
                    </Icon>
                </IconStyle>
            </Style>
            <Style id="55">
                <IconStyle id="56">
                    <color>ff0000ff</color>
                    <colorMode>normal</colorMode>
                    <scale>1</scale>
                    <heading>0</heading>
                    <Icon id="57">
                        <href>http://maps.google.com/mapfiles/kml/pushpin/ylw-pushpin.png</href>
                    </Icon>
                </IconStyle>
            </Style>
            <Style id="60">
                <IconStyle id="61">
                    <color>ff0000ff</color>
                    <colorMode>normal</colorMode>
                    <scale>1</scale>
                    <heading>0</heading>
                    <Icon id="62">
                        <href>http://maps.google.com/mapfiles/kml/pushpin/ylw-pushpin.png</href>
                    </Icon>
                </IconStyle>
            </Style>
            <Style id="65">
                <IconStyle id="66">
                    <color>ff0000ff</color>
                    <colorMode>normal</colorMode>
                    <scale>1</scale>
                    <heading>0</heading>
                    <Icon id="67">
                        <href>http://maps.google.com/mapfiles/kml/pushpin/ylw-pushpin.png</href>
                    </Icon>
                </IconStyle>
            </Style>
            <Style id="70">
                <IconStyle id="71">
                    <color>ff0000ff</color>
                    <colorMode>normal</colorMode>
                    <scale>1</scale>
                    <heading>0</heading>
                    <Icon id="72">
                        <href>http://maps.google.com/mapfiles/kml/pushpin/ylw-pushpin.png</href>
                    </Icon>
                </IconStyle>
            </Style>
            <Style id="75">
                <IconStyle id="76">
                    <color>ff0000ff</color>
                    <colorMode>normal</colorMode>
                    <scale>1</scale>
                    <heading>0</heading>
                    <Icon id="77">
                        <href>http://maps.google.com/mapfiles/kml/pushpin/ylw-pushpin.png</href>
                    </Icon>
                </IconStyle>
            </Style>
            <Style id="80">
                <IconStyle id="81">
                    <color>ff0000ff</color>
                    <colorMode>normal</colorMode>
                    <scale>1</scale>
                    <heading>0</heading>
                    <Icon id="82">
                        <href>http://maps.google.com/mapfiles/kml/pushpin/ylw-pushpin.png</href>
                    </Icon>
                </IconStyle>
            </Style>
            <Style id="85">
                <IconStyle id="86">
                    <color>ff0000ff</color>
                    <colorMode>normal</colorMode>
                    <scale>1</scale>
                    <heading>0</heading>
                    <Icon id="87">
                        <href>http://maps.google.com/mapfiles/kml/pushpin/ylw-pushpin.png</href>
                    </Icon>
                </IconStyle>
            </Style>
            <Style id="90">
                <IconStyle id="91">
                    <color>ff0000ff</color>
                    <colorMode>normal</colorMode>
                    <scale>1</scale>
                    <heading>0</heading>
                    <Icon id="92">
                        <href>http://maps.google.com/mapfiles/kml/pushpin/ylw-pushpin.png</href>
                    </Icon>
                </IconStyle>
            </Style>
            <Style id="95">
                <IconStyle id="96">
                    <color>ff0000ff</color>
                    <colorMode>normal</colorMode>
                    <scale>1</scale>
                    <heading>0</heading>
                    <Icon id="97">
                        <href>http://maps.google.com/mapfiles/kml/pushpin/ylw-pushpin.png</href>
                    </Icon>
                </IconStyle>
            </Style>
            <Style id="100">
                <IconStyle id="101">
                    <color>ff0000ff</color>
                    <colorMode>normal</colorMode>
                    <scale>1</scale>
                    <heading>0</heading>
                    <Icon id="102">
                        <href>http://maps.google.com/mapfiles/kml/pushpin/ylw-pushpin.png</href>
                    </Icon>
                </IconStyle>
            </Style>
            <Style id="105">
                <IconStyle id="106">
                    <color>ff0000ff</color>
                    <colorMode>normal</colorMode>
                    <scale>1</scale>
                    <heading>0</heading>
                    <Icon id="107">
                        <href>http://maps.google.com/mapfiles/kml/pushpin/ylw-pushpin.png</href>
                    </Icon>
                </IconStyle>
            </Style>
            <Style id="110">
                <IconStyle id="111">
                    <color>ff0000ff</color>
                    <colorMode>normal</colorMode>
                    <scale>1</scale>
                    <heading>0</heading>
                    <Icon id="112">
                        <href>http://maps.google.com/mapfiles/kml/pushpin/ylw-pushpin.png</href>
                    </Icon>
                </IconStyle>
            </Style>
            <name>DAVID ALEXIS ATARAMA PINTO</name>
            <Placemark id="4">
                <name>JOSE ALEX CUNYA CANGO</name>
                <description>MERCADO CAPULLANAS PUESTO 179
Veintiséis de Octubre
Veintiséis de Octubre
Piura
Perú</description>
                <styleUrl>#5</styleUrl>
                <Point id="3">
                    <coordinates>-80.6700528,-5.1753173,0.0</coordinates>
                </Point>
            </Placemark>
            <Placemark id="9">
                <name>CARRANZA GARCIA ELAR</name>
                <description>CARRANZA GARCIA ELAR
MZ N lote 1 SEGUNDA ETAPA TACALA
Castilla
Castilla
Piura
Perú</description>
                <styleUrl>#10</styleUrl>
                <Point id="8">
                    <coordinates>-80.6001815,-5.1827581,0.0</coordinates>
                </Point>
            </Placemark>
            <Placemark id="14">
                <name>JACKELINE ABAD NIÑO</name>
                <description>CA.LOS VIOLETAS MZ H LT 2 AA. HH TACALA III ETAPA CAST
Castilla
Castilla
Piura
Perú</description>
                <styleUrl>#15</styleUrl>
                <Point id="13">
                    <coordinates>-80.596932,-5.1814415,0.0</coordinates>
                </Point>
            </Placemark>
            <Placemark id="19">
                <name>ALACHE HUAMAN DIANA DANICSA</name>
                <description>UR.COSSIO DEL POMAR MZ N3 LT24
Castilla
Castilla
Piura
Perú</description>
                <styleUrl>#20</styleUrl>
                <Point id="18">
                    <coordinates>-80.592036,-5.183786,0.0</coordinates>
                </Point>
            </Placemark>
            <Placemark id="24">
                <name>EL GOLAZO DE TACALA E.I.R.L.</name>
                <description>EL GOLAZO DE TACALA E.I.R.L.
MZA. C1 LOTE. 4A INT. 2 P.J.  TACALA
Castilla
200104Castilla
Piura
Perú</description>
                <styleUrl>#25</styleUrl>
                <Point id="23">
                    <coordinates>-80.59689,-5.1880904,0.0</coordinates>
                </Point>
            </Placemark>
            <Placemark id="29">
                <name>ISAIAS MICHAEL ALVA BAILON</name>
                <description>AV GUARDIA CIVIL Mz C1 Lte 08 - TACALA
Castilla
Castilla
Piura
Perú</description>
                <styleUrl>#30</styleUrl>
                <Point id="28">
                    <coordinates>-80.5965148,-5.1880426,0.0</coordinates>
                </Point>
            </Placemark>
            <Placemark id="34">
                <name>ISAIAS MICHAEL ALVA BAILON</name>
                <description>AV GUARDIA CIVIL Mz C1 Lte 08 - TACALA
Castilla
Castilla
Piura
Perú</description>
                <styleUrl>#35</styleUrl>
                <Point id="33">
                    <coordinates>-80.5965148,-5.1880426,0.0</coordinates>
                </Point>
            </Placemark>
            <Placemark id="39">
                <name>OBDULIO ROSALES MAURICIO</name>
                <description>MZ Q 1 LT 02 URB.COSSIO DEL POMAR 1
Castilla
Castilla
Piura
Perú</description>
                <styleUrl>#40</styleUrl>
                <Point id="38">
                    <coordinates>-80.5925725,-5.1867502,0.0</coordinates>
                </Point>
            </Placemark>
            <Placemark id="44">
                <name>ADRIANA BRIGIDA BAYLON AGUEDA</name>
                <description>MZ M2 LOT 4 COSSIOS POMAR
Castilla

Piura
Perú</description>
                <styleUrl>#45</styleUrl>
                <Point id="43">
                    <coordinates>-80.591232,-5.183821,0.0</coordinates>
                </Point>
            </Placemark>
            <Placemark id="49">
                <name>LARRY DARWIN SULLON BAYONA</name>
                <description>MZ O2 LT 20 AH.COSSIO DEL POMAR  -
Castilla
Piura
Piura
Perú</description>
                <styleUrl>#50</styleUrl>
                <Point id="48">
                    <coordinates>-80.5895958,-5.1846338,0.0</coordinates>
                </Point>
            </Placemark>
            <Placemark id="54">
                <name>CERA VINCES MARIA ERNESTINA</name>
                <description>A.H.C.DEL POMAR MZ.V3 LT.18   
Castilla
Castilla
Piura
Perú</description>
                <styleUrl>#55</styleUrl>
                <Point id="53">
                    <coordinates>-80.59068,-5.182313,0.0</coordinates>
                </Point>
            </Placemark>
            <Placemark id="59">
                <name>ELVIRA GARCIA ALVARADO</name>
                <description>ELVIRA GARCIA ALVARADO
MZ R3 LTE.15 COSSIO DEL POMAR - CASTILLA
Castilla
Piura
Piura
Perú</description>
                <styleUrl>#60</styleUrl>
                <Point id="58">
                    <coordinates>-80.5921081,-5.1818618,0.0</coordinates>
                </Point>
            </Placemark>
            <Placemark id="64">
                <name>LOPEZ JIMENEZ CARMEN ELENA</name>
                <description>MZ LL 3 LT 14 COSSIO DEL POMAR CASTILLA
Castilla
Piura
Piura
Perú</description>
                <styleUrl>#65</styleUrl>
                <Point id="63">
                    <coordinates>-80.592876,-5.182229,0.0</coordinates>
                </Point>
            </Placemark>
            <Placemark id="69">
                <name>BERRU JIMENEZ ELVIRA</name>
                <description>AH TACALA B12-09 I ETAPA      
Castilla
Castilla
Piura
Perú</description>
                <styleUrl>#70</styleUrl>
                <Point id="68">
                    <coordinates>-80.5957091,-5.1831881,0.0</coordinates>
                </Point>
            </Placemark>
            <Placemark id="74">
                <name>SANTOS SANTOS NORA</name>
                <description>MZ Z1 LOTE 7 CUARTA ETAPA TACALA
Castilla
Castilla
Piura
Perú</description>
                <styleUrl>#75</styleUrl>
                <Point id="73">
                    <coordinates>-80.599445,-5.1809256,0.0</coordinates>
                </Point>
            </Placemark>
            <Placemark id="79">
                <name>OLINDA GUEVARA GUERRERO</name>
                <description>OLINDA GUEVARA GUERRERO
MZ A LT 8 AA. HH TACALA II ETP - CASTILLA
Castilla
Castilla
Piura
Perú</description>
                <styleUrl>#80</styleUrl>
                <Point id="78">
                    <coordinates>-80.5976565,-5.1834026,0.0</coordinates>
                </Point>
            </Placemark>
            <Placemark id="84">
                <name>YESICA DEL CARMEN PEÑA LIZANO</name>
                <description>Urbanización Cossío de Pomar MZ B1 lote 2
Castilla
Castilla
Piura
Perú</description>
                <styleUrl>#85</styleUrl>
                <Point id="83">
                    <coordinates>-80.5944715,-5.1869059,0.0</coordinates>
                </Point>
            </Placemark>
            <Placemark id="89">
                <name>EDELMIRA BOBADILLA GARCIA</name>
                <description>MZ B4 LT 08 AAHH. TACALA - CASTILLA
Castilla
Castilla
Piura
Perú</description>
                <styleUrl>#90</styleUrl>
                <Point id="88">
                    <coordinates>-80.5945439,-5.1867626,0.0</coordinates>
                </Point>
            </Placemark>
            <Placemark id="94">
                <name>EDELMIRA BOBADILLA GARCIA</name>
                <description>MZ B4 LT 08 AAHH. TACALA - CASTILLA
Castilla
Castilla
Piura
Perú</description>
                <styleUrl>#95</styleUrl>
                <Point id="93">
                    <coordinates>-80.5945439,-5.1867626,0.0</coordinates>
                </Point>
            </Placemark>
            <Placemark id="99">
                <name>SALAZAR SILUPU YOVANA DEL P</name>
                <description>TACALA MZ F3   LT3            
Castilla

Piura
Perú</description>
                <styleUrl>#100</styleUrl>
                <Point id="98">
                    <coordinates>-80.5969849,-5.1873226,0.0</coordinates>
                </Point>
            </Placemark>
            <Placemark id="104">
                <name>CARMEN CRISANTO MARIA SABINA</name>
                <description>A.H.TACALA MZ.B13 LT.12       
Castilla
Castilla
Piura
Perú</description>
                <styleUrl>#105</styleUrl>
                <Point id="103">
                    <coordinates>-80.5977362,-5.185759,0.0</coordinates>
                </Point>
            </Placemark>
            <Placemark id="109">
                <name>OLINDA ZAPATA ESPINOZA</name>
                <description>MZ M LOTE 12 AA. HH TACALA CASTILLA PIURA
Castilla
Piura
Piura
Perú</description>
                <styleUrl>#110</styleUrl>
                <Point id="108">
                    <coordinates>-80.598883,-5.187564,0.0</coordinates>
                </Point>
            </Placemark>
        </Folder>
        <Folder id="113">
            <Style id="116">
                <IconStyle id="117">
                    <color>ffff0000</color>
                    <colorMode>normal</colorMode>
                    <scale>1</scale>
                    <heading>0</heading>
                    <Icon id="118">
                        <href>http://maps.google.com/mapfiles/kml/pushpin/ylw-pushpin.png</href>
                    </Icon>
                </IconStyle>
            </Style>
            <Style id="121">
                <IconStyle id="122">
                    <color>ffff0000</color>
                    <colorMode>normal</colorMode>
                    <scale>1</scale>
                    <heading>0</heading>
                    <Icon id="123">
                        <href>http://maps.google.com/mapfiles/kml/pushpin/ylw-pushpin.png</href>
                    </Icon>
                </IconStyle>
            </Style>
            <Style id="126">
                <IconStyle id="127">
                    <color>ffff0000</color>
                    <colorMode>normal</colorMode>
                    <scale>1</scale>
                    <heading>0</heading>
                    <Icon id="128">
                        <href>http://maps.google.com/mapfiles/kml/pushpin/ylw-pushpin.png</href>
                    </Icon>
                </IconStyle>
            </Style>
            <Style id="131">
                <IconStyle id="132">
                    <color>ffff0000</color>
                    <colorMode>normal</colorMode>
                    <scale>1</scale>
                    <heading>0</heading>
                    <Icon id="133">
                        <href>http://maps.google.com/mapfiles/kml/pushpin/ylw-pushpin.png</href>
                    </Icon>
                </IconStyle>
            </Style>
            <Style id="136">
                <IconStyle id="137">
                    <color>ffff0000</color>
                    <colorMode>normal</colorMode>
                    <scale>1</scale>
                    <heading>0</heading>
                    <Icon id="138">
                        <href>http://maps.google.com/mapfiles/kml/pushpin/ylw-pushpin.png</href>
                    </Icon>
                </IconStyle>
            </Style>
            <Style id="141">
                <IconStyle id="142">
                    <color>ffff0000</color>
                    <colorMode>normal</colorMode>
                    <scale>1</scale>
                    <heading>0</heading>
                    <Icon id="143">
                        <href>http://maps.google.com/mapfiles/kml/pushpin/ylw-pushpin.png</href>
                    </Icon>
                </IconStyle>
            </Style>
            <Style id="146">
                <IconStyle id="147">
                    <color>ffff0000</color>
                    <colorMode>normal</colorMode>
                    <scale>1</scale>
                    <heading>0</heading>
                    <Icon id="148">
                        <href>http://maps.google.com/mapfiles/kml/pushpin/ylw-pushpin.png</href>
                    </Icon>
                </IconStyle>
            </Style>
            <Style id="151">
                <IconStyle id="152">
                    <color>ffff0000</color>
                    <colorMode>normal</colorMode>
                    <scale>1</scale>
                    <heading>0</heading>
                    <Icon id="153">
                        <href>http://maps.google.com/mapfiles/kml/pushpin/ylw-pushpin.png</href>
                    </Icon>
                </IconStyle>
            </Style>
            <Style id="156">
                <IconStyle id="157">
                    <color>ffff0000</color>
                    <colorMode>normal</colorMode>
                    <scale>1</scale>
                    <heading>0</heading>
                    <Icon id="158">
                        <href>http://maps.google.com/mapfiles/kml/pushpin/ylw-pushpin.png</href>
                    </Icon>
                </IconStyle>
            </Style>
            <Style id="161">
                <IconStyle id="162">
                    <color>ffff0000</color>
                    <colorMode>normal</colorMode>
                    <scale>1</scale>
                    <heading>0</heading>
                    <Icon id="163">
                        <href>http://maps.google.com/mapfiles/kml/pushpin/ylw-pushpin.png</href>
                    </Icon>
                </IconStyle>
            </Style>
            <Style id="166">
                <IconStyle id="167">
                    <color>ffff0000</color>
                    <colorMode>normal</colorMode>
                    <scale>1</scale>
                    <heading>0</heading>
                    <Icon id="168">
                        <href>http://maps.google.com/mapfiles/kml/pushpin/ylw-pushpin.png</href>
                    </Icon>
                </IconStyle>
            </Style>
            <Style id="171">
                <IconStyle id="172">
                    <color>ffff0000</color>
                    <colorMode>normal</colorMode>
                    <scale>1</scale>
                    <heading>0</heading>
                    <Icon id="173">
                        <href>http://maps.google.com/mapfiles/kml/pushpin/ylw-pushpin.png</href>
                    </Icon>
                </IconStyle>
            </Style>
            <Style id="176">
                <IconStyle id="177">
                    <color>ffff0000</color>
                    <colorMode>normal</colorMode>
                    <scale>1</scale>
                    <heading>0</heading>
                    <Icon id="178">
                        <href>http://maps.google.com/mapfiles/kml/pushpin/ylw-pushpin.png</href>
                    </Icon>
                </IconStyle>
            </Style>
            <Style id="181">
                <IconStyle id="182">
                    <color>ffff0000</color>
                    <colorMode>normal</colorMode>
                    <scale>1</scale>
                    <heading>0</heading>
                    <Icon id="183">
                        <href>http://maps.google.com/mapfiles/kml/pushpin/ylw-pushpin.png</href>
                    </Icon>
                </IconStyle>
            </Style>
            <Style id="186">
                <IconStyle id="187">
                    <color>ffff0000</color>
                    <colorMode>normal</colorMode>
                    <scale>1</scale>
                    <heading>0</heading>
                    <Icon id="188">
                        <href>http://maps.google.com/mapfiles/kml/pushpin/ylw-pushpin.png</href>
                    </Icon>
                </IconStyle>
            </Style>
            <Style id="191">
                <IconStyle id="192">
                    <color>ffff0000</color>
                    <colorMode>normal</colorMode>
                    <scale>1</scale>
                    <heading>0</heading>
                    <Icon id="193">
                        <href>http://maps.google.com/mapfiles/kml/pushpin/ylw-pushpin.png</href>
                    </Icon>
                </IconStyle>
            </Style>
            <Style id="196">
                <IconStyle id="197">
                    <color>ffff0000</color>
                    <colorMode>normal</colorMode>
                    <scale>1</scale>
                    <heading>0</heading>
                    <Icon id="198">
                        <href>http://maps.google.com/mapfiles/kml/pushpin/ylw-pushpin.png</href>
                    </Icon>
                </IconStyle>
            </Style>
            <Style id="201">
                <IconStyle id="202">
                    <color>ffff0000</color>
                    <colorMode>normal</colorMode>
                    <scale>1</scale>
                    <heading>0</heading>
                    <Icon id="203">
                        <href>http://maps.google.com/mapfiles/kml/pushpin/ylw-pushpin.png</href>
                    </Icon>
                </IconStyle>
            </Style>
            <Style id="206">
                <IconStyle id="207">
                    <color>ffff0000</color>
                    <colorMode>normal</colorMode>
                    <scale>1</scale>
                    <heading>0</heading>
                    <Icon id="208">
                        <href>http://maps.google.com/mapfiles/kml/pushpin/ylw-pushpin.png</href>
                    </Icon>
                </IconStyle>
            </Style>
            <Style id="211">
                <IconStyle id="212">
                    <color>ffff0000</color>
                    <colorMode>normal</colorMode>
                    <scale>1</scale>
                    <heading>0</heading>
                    <Icon id="213">
                        <href>http://maps.google.com/mapfiles/kml/pushpin/ylw-pushpin.png</href>
                    </Icon>
                </IconStyle>
            </Style>
            <Style id="216">
                <IconStyle id="217">
                    <color>ffff0000</color>
                    <colorMode>normal</colorMode>
                    <scale>1</scale>
                    <heading>0</heading>
                    <Icon id="218">
                        <href>http://maps.google.com/mapfiles/kml/pushpin/ylw-pushpin.png</href>
                    </Icon>
                </IconStyle>
            </Style>
            <Style id="221">
                <IconStyle id="222">
                    <color>ffff0000</color>
                    <colorMode>normal</colorMode>
                    <scale>1</scale>
                    <heading>0</heading>
                    <Icon id="223">
                        <href>http://maps.google.com/mapfiles/kml/pushpin/ylw-pushpin.png</href>
                    </Icon>
                </IconStyle>
            </Style>
            <Style id="226">
                <IconStyle id="227">
                    <color>ffff0000</color>
                    <colorMode>normal</colorMode>
                    <scale>1</scale>
                    <heading>0</heading>
                    <Icon id="228">
                        <href>http://maps.google.com/mapfiles/kml/pushpin/ylw-pushpin.png</href>
                    </Icon>
                </IconStyle>
            </Style>
            <Style id="231">
                <IconStyle id="232">
                    <color>ffff0000</color>
                    <colorMode>normal</colorMode>
                    <scale>1</scale>
                    <heading>0</heading>
                    <Icon id="233">
                        <href>http://maps.google.com/mapfiles/kml/pushpin/ylw-pushpin.png</href>
                    </Icon>
                </IconStyle>
            </Style>
            <Style id="236">
                <IconStyle id="237">
                    <color>ffff0000</color>
                    <colorMode>normal</colorMode>
                    <scale>1</scale>
                    <heading>0</heading>
                    <Icon id="238">
                        <href>http://maps.google.com/mapfiles/kml/pushpin/ylw-pushpin.png</href>
                    </Icon>
                </IconStyle>
            </Style>
            <Style id="241">
                <IconStyle id="242">
                    <color>ffff0000</color>
                    <colorMode>normal</colorMode>
                    <scale>1</scale>
                    <heading>0</heading>
                    <Icon id="243">
                        <href>http://maps.google.com/mapfiles/kml/pushpin/ylw-pushpin.png</href>
                    </Icon>
                </IconStyle>
            </Style>
            <Style id="246">
                <IconStyle id="247">
                    <color>ffff0000</color>
                    <colorMode>normal</colorMode>
                    <scale>1</scale>
                    <heading>0</heading>
                    <Icon id="248">
                        <href>http://maps.google.com/mapfiles/kml/pushpin/ylw-pushpin.png</href>
                    </Icon>
                </IconStyle>
            </Style>
            <Style id="251">
                <IconStyle id="252">
                    <color>ffff0000</color>
                    <colorMode>normal</colorMode>
                    <scale>1</scale>
                    <heading>0</heading>
                    <Icon id="253">
                        <href>http://maps.google.com/mapfiles/kml/pushpin/ylw-pushpin.png</href>
                    </Icon>
                </IconStyle>
            </Style>
            <Style id="256">
                <IconStyle id="257">
                    <color>ffff0000</color>
                    <colorMode>normal</colorMode>
                    <scale>1</scale>
                    <heading>0</heading>
                    <Icon id="258">
                        <href>http://maps.google.com/mapfiles/kml/pushpin/ylw-pushpin.png</href>
                    </Icon>
                </IconStyle>
            </Style>
            <Style id="261">
                <IconStyle id="262">
                    <color>ffff0000</color>
                    <colorMode>normal</colorMode>
                    <scale>1</scale>
                    <heading>0</heading>
                    <Icon id="263">
                        <href>http://maps.google.com/mapfiles/kml/pushpin/ylw-pushpin.png</href>
                    </Icon>
                </IconStyle>
            </Style>
            <Style id="266">
                <IconStyle id="267">
                    <color>ffff0000</color>
                    <colorMode>normal</colorMode>
                    <scale>1</scale>
                    <heading>0</heading>
                    <Icon id="268">
                        <href>http://maps.google.com/mapfiles/kml/pushpin/ylw-pushpin.png</href>
                    </Icon>
                </IconStyle>
            </Style>
            <Style id="271">
                <IconStyle id="272">
                    <color>ffff0000</color>
                    <colorMode>normal</colorMode>
                    <scale>1</scale>
                    <heading>0</heading>
                    <Icon id="273">
                        <href>http://maps.google.com/mapfiles/kml/pushpin/ylw-pushpin.png</href>
                    </Icon>
                </IconStyle>
            </Style>
            <Style id="276">
                <IconStyle id="277">
                    <color>ffff0000</color>
                    <colorMode>normal</colorMode>
                    <scale>1</scale>
                    <heading>0</heading>
                    <Icon id="278">
                        <href>http://maps.google.com/mapfiles/kml/pushpin/ylw-pushpin.png</href>
                    </Icon>
                </IconStyle>
            </Style>
            <Style id="281">
                <IconStyle id="282">
                    <color>ffff0000</color>
                    <colorMode>normal</colorMode>
                    <scale>1</scale>
                    <heading>0</heading>
                    <Icon id="283">
                        <href>http://maps.google.com/mapfiles/kml/pushpin/ylw-pushpin.png</href>
                    </Icon>
                </IconStyle>
            </Style>
            <Style id="286">
                <IconStyle id="287">
                    <color>ffff0000</color>
                    <colorMode>normal</colorMode>
                    <scale>1</scale>
                    <heading>0</heading>
                    <Icon id="288">
                        <href>http://maps.google.com/mapfiles/kml/pushpin/ylw-pushpin.png</href>
                    </Icon>
                </IconStyle>
            </Style>
            <Style id="291">
                <IconStyle id="292">
                    <color>ffff0000</color>
                    <colorMode>normal</colorMode>
                    <scale>1</scale>
                    <heading>0</heading>
                    <Icon id="293">
                        <href>http://maps.google.com/mapfiles/kml/pushpin/ylw-pushpin.png</href>
                    </Icon>
                </IconStyle>
            </Style>
            <Style id="296">
                <IconStyle id="297">
                    <color>ffff0000</color>
                    <colorMode>normal</colorMode>
                    <scale>1</scale>
                    <heading>0</heading>
                    <Icon id="298">
                        <href>http://maps.google.com/mapfiles/kml/pushpin/ylw-pushpin.png</href>
                    </Icon>
                </IconStyle>
            </Style>
            <Style id="301">
                <IconStyle id="302">
                    <color>ffff0000</color>
                    <colorMode>normal</colorMode>
                    <scale>1</scale>
                    <heading>0</heading>
                    <Icon id="303">
                        <href>http://maps.google.com/mapfiles/kml/pushpin/ylw-pushpin.png</href>
                    </Icon>
                </IconStyle>
            </Style>
            <name>MARTHA CAROLINA AVILA SOLANO</name>
            <Placemark id="115">
                <name>ALEXIS DEL PIERO TAMAYO ZAPATA</name>
                <description>Villa Perú Canadá Mz c1 lote 4
Veintiséis de Octubre

Piura
Perú</description>
                <styleUrl>#116</styleUrl>
                <Point id="114">
                    <coordinates>-80.683181,-5.1852233,0.0</coordinates>
                </Point>
            </Placemark>
            <Placemark id="120">
                <name>FABIOLA LIZETT BENITES RAMOS</name>
                <description>La Primavera MZ M 8 A
Castilla

Piura
Perú</description>
                <styleUrl>#121</styleUrl>
                <Point id="119">
                    <coordinates>-80.60811,-5.185303,0.0</coordinates>
                </Point>
            </Placemark>
            <Placemark id="125">
                <name>CORDOVA HUAMAN CLORINDA</name>
                <description>A.H.SAN VALENTIN MZ.C LT.21   
Castilla
Castilla
Piura
Perú</description>
                <styleUrl>#126</styleUrl>
                <Point id="124">
                    <coordinates>-80.603241,-5.188538,0.0</coordinates>
                </Point>
            </Placemark>
            <Placemark id="130">
                <name>GARCIA SARANGO RENE</name>
                <description>SAN VALENTIN MZ C LT 11       
Castilla
Piura
Piura
Perú</description>
                <styleUrl>#131</styleUrl>
                <Point id="129">
                    <coordinates>-80.6029781,-5.1892299,0.0</coordinates>
                </Point>
            </Placemark>
            <Placemark id="135">
                <name>LEYDI YAJAHUANCA TICLIAHUANCA</name>
                <description>MZ. C 13 VIRGEN DE LA PAZ TACALA CASTILLA
Castilla
Castilla
Piura
Perú</description>
                <styleUrl>#136</styleUrl>
                <Point id="134">
                    <coordinates>-80.6028498,-5.1808061,0.0</coordinates>
                </Point>
            </Placemark>
            <Placemark id="140">
                <name>TAVAREZ SANCHEZ YUSMELY CAROLINA</name>
                <description>MZ. M Lt. 08 A.H La Primavera III etapa - Castilla
Castilla
Castilla
Piura
Perú</description>
                <styleUrl>#141</styleUrl>
                <Point id="139">
                    <coordinates>-80.6061774,-5.1836884,0.0</coordinates>
                </Point>
            </Placemark>
            <Placemark id="145">
                <name>GRISELDA SANTOS PELTROCHE</name>
                <description>MZ C2 LT 15 III PRIMAVERA CASTILLA-Piura
Castilla
Castilla
Piura
Perú</description>
                <styleUrl>#146</styleUrl>
                <Point id="144">
                    <coordinates>-80.6078087,-5.183563,0.0</coordinates>
                </Point>
            </Placemark>
            <Placemark id="150">
                <name>MARILU SANDOVAL JIMENEZ</name>
                <description>MZ.U LT. 6. 3RA ETP           
Castilla
Castilla
Piura
Perú</description>
                <styleUrl>#151</styleUrl>
                <Point id="149">
                    <coordinates>-80.6072617,-5.184195,0.0</coordinates>
                </Point>
            </Placemark>
            <Placemark id="155">
                <name>CARMELA MEDINA SILVA DE VELIZ</name>
                <description>MZ. B2 LT. 14 LA PRIMAVERA I  
Castilla
Castilla
Piura
Perú</description>
                <styleUrl>#156</styleUrl>
                <Point id="154">
                    <coordinates>-80.608112,-5.1902692,0.0</coordinates>
                </Point>
            </Placemark>
            <Placemark id="160">
                <name>BRYAN FABRICIO SAAVEDRA OROZCO</name>
                <description>Mz L1 LT. 20 AA.HH LA PRIMAVERA 2 ETAPA
Castilla
Castilla
Piura
Perú</description>
                <styleUrl>#161</styleUrl>
                <Point id="159">
                    <coordinates>-80.6079722,-5.1862563,0.0</coordinates>
                </Point>
            </Placemark>
            <Placemark id="165">
                <name>VALDIVIEZO BERTA CUEVA DE</name>
                <description>MZ. C4 LT.9 PRIMAVERA         
Castilla
Castilla
Piura
Perú</description>
                <styleUrl>#166</styleUrl>
                <Point id="164">
                    <coordinates>-80.6074872,-5.188165,0.0</coordinates>
                </Point>
            </Placemark>
            <Placemark id="170">
                <name>PINTA AGUILAR ROMELIA</name>
                <description>AH SAN VALENTIN MZ D-24       
Castilla
Castilla
Piura
Perú</description>
                <styleUrl>#171</styleUrl>
                <Point id="169">
                    <coordinates>-80.603751,-5.188731,0.0</coordinates>
                </Point>
            </Placemark>
            <Placemark id="175">
                <name>VILLEGAS TAVARA MARCO ANTONIO</name>
                <description>A.H.SAN VALENTIN MZ.O LT.10   
Castilla
Piura
Piura
Perú</description>
                <styleUrl>#176</styleUrl>
                <Point id="174">
                    <coordinates>-80.602542,-5.18929,0.0</coordinates>
                </Point>
            </Placemark>
            <Placemark id="180">
                <name>TEODORA CORDOVA RAMIREZ</name>
                <description>A.H.SEÑOR DE LOS M.MZ-A LT.34A
Castilla
Piura
Piura
Perú</description>
                <styleUrl>#181</styleUrl>
                <Point id="179">
                    <coordinates>-80.6028566,-5.1867085,0.0</coordinates>
                </Point>
            </Placemark>
            <Placemark id="185">
                <name>DOMINGO JOEL CAMPOS OJEDA</name>
                <description>AA. HH VIRGEN DE LA PAZ MZ G LT.07
Castilla
Castilla
Piura
Perú</description>
                <styleUrl>#186</styleUrl>
                <Point id="184">
                    <coordinates>-80.602269,-5.18171,0.0</coordinates>
                </Point>
            </Placemark>
            <Placemark id="190">
                <name>FRECIA ELENA BENITES RAMOS</name>
                <description>Virgen de Guadalupe mz E lot 03 26de Octubre
Veintiséis de Octubre

Piura
Perú</description>
                <styleUrl>#191</styleUrl>
                <Point id="189">
                    <coordinates>-80.603873,-5.181063,0.0</coordinates>
                </Point>
            </Placemark>
            <Placemark id="195">
                <name>CELIA CORDOVA RAMIREZ</name>
                <description>A.H.PRIMAVERA III ET.MZ-E.11  
Castilla
Castilla
Piura
Perú</description>
                <styleUrl>#196</styleUrl>
                <Point id="194">
                    <coordinates>-80.6054456,-5.1834666,0.0</coordinates>
                </Point>
            </Placemark>
            <Placemark id="200">
                <name>CRUZ SOLIS CELIA</name>
                <description>MZ.I LT10 ET03 AH LA PRIMAVERA
Castilla
Castilla
Piura
Perú</description>
                <styleUrl>#201</styleUrl>
                <Point id="199">
                    <coordinates>-80.6047852,-5.1817382,0.0</coordinates>
                </Point>
            </Placemark>
            <Placemark id="205">
                <name>ESCURRA MORALES MILAGROS</name>
                <description>LA PRIMAVERA MZ G LT 4        
Castilla
Castilla
Piura
Perú</description>
                <styleUrl>#206</styleUrl>
                <Point id="204">
                    <coordinates>-80.605371,-5.182073,0.0</coordinates>
                </Point>
            </Placemark>
            <Placemark id="210">
                <name>DELSI FACIO MONTALBAN</name>
                <description>Mz M LTE 5 AA.HH LA PRIMAVERA III ETAPA
Castilla
Castilla
Piura
Perú</description>
                <styleUrl>#211</styleUrl>
                <Point id="209">
                    <coordinates>-80.6063032,-5.1837274,0.0</coordinates>
                </Point>
            </Placemark>
            <Placemark id="215">
                <name>TAVAREZ SANCHEZ YUSMELY CAROLINA</name>
                <description>MZ. M Lt. 08 A.H La Primavera III etapa - Castilla
Castilla
Castilla
Piura
Perú</description>
                <styleUrl>#216</styleUrl>
                <Point id="214">
                    <coordinates>-80.6061774,-5.1836884,0.0</coordinates>
                </Point>
            </Placemark>
            <Placemark id="220">
                <name>FELICITA PUELLES SANTOS</name>
                <description>MZ.D LT.18.3ET.PRIMAVERA      
Castilla
Castilla
Piura
Perú</description>
                <styleUrl>#221</styleUrl>
                <Point id="219">
                    <coordinates>-80.6061995,-5.1837575,0.0</coordinates>
                </Point>
            </Placemark>
            <Placemark id="225">
                <name>FELICITA PUELLES SANTOS</name>
                <description>MZ.D LT.18.3ET.PRIMAVERA      
Castilla
Castilla
Piura
Perú</description>
                <styleUrl>#226</styleUrl>
                <Point id="224">
                    <coordinates>-80.6061995,-5.1837575,0.0</coordinates>
                </Point>
            </Placemark>
            <Placemark id="230">
                <name>LILA VALLADARES DE ARISMENDIS</name>
                <description>URB.LOS ROSALES DE MIRF.MZ.M-1
Castilla
Castilla
Piura
Perú</description>
                <styleUrl>#231</styleUrl>
                <Point id="229">
                    <coordinates>-80.6065474,-5.1805666,0.0</coordinates>
                </Point>
            </Placemark>
            <Placemark id="235">
                <name>ALEJANDRINA CAMPOS OJEDA</name>
                <description>MZ-E2 LT 12 III ET LA PRIMAV. 
Castilla
Castilla
Piura
Perú</description>
                <styleUrl>#236</styleUrl>
                <Point id="234">
                    <coordinates>-80.6073646,-5.1824372,0.0</coordinates>
                </Point>
            </Placemark>
            <Placemark id="240">
                <name>LUZ ANGELICA OCUPA DE SANDOVAL</name>
                <description>MZ L1 LOT 12 II ETAPA A.H     
Castilla
Castilla
Piura
Perú</description>
                <styleUrl>#241</styleUrl>
                <Point id="239">
                    <coordinates>-80.6072498,-5.1862953,0.0</coordinates>
                </Point>
            </Placemark>
            <Placemark id="245">
                <name>SILVIA YURY RIVAS CRUZ DE CORDOVA</name>
                <description>Mz D7 LTE 25 AA.HH LA PRIMAVERA II ETAPA
Castilla
Castilla
Piura
Perú</description>
                <styleUrl>#246</styleUrl>
                <Point id="244">
                    <coordinates>-80.6069667,-5.1864267,0.0</coordinates>
                </Point>
            </Placemark>
            <Placemark id="250">
                <name>MARIA LUISA INGA SILVA</name>
                <description>MZ.C7 LT.8 PRIMAVERA CASTILLA 
Castilla
Castilla
Piura
Perú</description>
                <styleUrl>#251</styleUrl>
                <Point id="249">
                    <coordinates>-80.6078528,-5.1869613,0.0</coordinates>
                </Point>
            </Placemark>
            <Placemark id="255">
                <name>INVERSIONES E &amp; C PIURA E.I.R.L.</name>
                <description>INVERSIONES E &amp; C PIURA E.I.R.L.
MZ.B5 LT.12 INT.2 1RA ET.PRIMA
Castilla
200104Castilla
Piura
Perú</description>
                <styleUrl>#256</styleUrl>
                <Point id="254">
                    <coordinates>-80.6085264,-5.1886006,0.0</coordinates>
                </Point>
            </Placemark>
            <Placemark id="260">
                <name>ROLANDO LOPEZ CALLE</name>
                <description>MZA. A-1 LT.09 LA PRIMAV,CASTI
Castilla
Castilla
Piura
Perú</description>
                <styleUrl>#261</styleUrl>
                <Point id="259">
                    <coordinates>-80.608569,-5.1889902,0.0</coordinates>
                </Point>
            </Placemark>
            <Placemark id="265">
                <name>IRMA GUERRERO CAMPOS</name>
                <description>MZ F1 LT 4 -LA PRIMAVERA I ET
Castilla
Castilla
Piura
Perú</description>
                <styleUrl>#266</styleUrl>
                <Point id="264">
                    <coordinates>-80.6050425,-5.190318,0.0</coordinates>
                </Point>
            </Placemark>
            <Placemark id="270">
                <name>ANGELA GUEVARA CHINGUEL</name>
                <description>Mz J LT 2 AA. HH LA PRIMAVERA II ETAPA
Castilla
Castilla
Piura
Perú</description>
                <styleUrl>#271</styleUrl>
                <Point id="269">
                    <coordinates>-80.6057872,-5.1865676,0.0</coordinates>
                </Point>
            </Placemark>
            <Placemark id="275">
                <name>GLADYS CORDOVA GARCIA</name>
                <description>A.H.LA PRIMAVERA MZ.G LT.3    
Castilla
Castilla
Piura
Perú</description>
                <styleUrl>#276</styleUrl>
                <Point id="274">
                    <coordinates>-80.6056716,-5.186118,0.0</coordinates>
                </Point>
            </Placemark>
            <Placemark id="280">
                <name>OLGA HERRERA GARCIA</name>
                <description>MZ H LT27 II ETA-LA PRIMAV.   
Castilla
Castilla
Piura
Perú</description>
                <styleUrl>#281</styleUrl>
                <Point id="279">
                    <coordinates>-80.6050919,-5.1867155,0.0</coordinates>
                </Point>
            </Placemark>
            <Placemark id="285">
                <name>ESTHER TOCTO JARAMILLO</name>
                <description>CALLE LIRIOS MZ G1 LTE 19 AA.HH LA PRIMAVERA I ETAPA
Castilla
Castilla
Piura
Perú</description>
                <styleUrl>#286</styleUrl>
                <Point id="284">
                    <coordinates>-80.6043735,-5.1899699,0.0</coordinates>
                </Point>
            </Placemark>
            <Placemark id="290">
                <name>NESTOR GUERRERO HERRERA</name>
                <description>MZ F1 LT.25 I ETAPA LA PRIMAVERA -CASTILLA
Castilla
Piura
Piura
Perú</description>
                <styleUrl>#291</styleUrl>
                <Point id="289">
                    <coordinates>-80.6046158,-5.1900919,0.0</coordinates>
                </Point>
            </Placemark>
            <Placemark id="295">
                <name>DORALIZA CORDOVA GARCIA</name>
                <description>MZ C 2 LT.4 I ET.LA PRIMAVERA 
Castilla

Piura
Perú</description>
                <styleUrl>#296</styleUrl>
                <Point id="294">
                    <coordinates>-80.6071157,-5.1900989,0.0</coordinates>
                </Point>
            </Placemark>
            <Placemark id="300">
                <name>SARANGO CASTILLO GABI MARIA ELENA</name>
                <description>MZ B1 LTE.6 I ETAPA LA PRIMAVERA CA
Castilla

Piura
Perú</description>
                <styleUrl>#301</styleUrl>
                <Point id="299">
                    <coordinates>-80.6074375,-5.1908162,0.0</coordinates>
                </Point>
            </Placemark>
        </Folder>
    </Document>
</kml>
