<?xml version="1.0" encoding="UTF-8"?>
<kml xmlns="http://www.opengis.net/kml/2.2" xmlns:gx="http://www.google.com/kml/ext/2.2">
    <Document id="1">
        <Folder id="2">
            <Style id="5">
                <IconStyle id="6">
                    <color>ff0000ff</color>
                    <colorMode>normal</colorMode>
                    <scale>1</scale>
                    <heading>0</heading>
                    <Icon id="7">
                        <href>http://maps.google.com/mapfiles/kml/pushpin/ylw-pushpin.png</href>
                    </Icon>
                </IconStyle>
            </Style>
            <Style id="10">
                <IconStyle id="11">
                    <color>ff0000ff</color>
                    <colorMode>normal</colorMode>
                    <scale>1</scale>
                    <heading>0</heading>
                    <Icon id="12">
                        <href>http://maps.google.com/mapfiles/kml/pushpin/ylw-pushpin.png</href>
                    </Icon>
                </IconStyle>
            </Style>
            <Style id="15">
                <IconStyle id="16">
                    <color>ff0000ff</color>
                    <colorMode>normal</colorMode>
                    <scale>1</scale>
                    <heading>0</heading>
                    <Icon id="17">
                        <href>http://maps.google.com/mapfiles/kml/pushpin/ylw-pushpin.png</href>
                    </Icon>
                </IconStyle>
            </Style>
            <Style id="20">
                <IconStyle id="21">
                    <color>ff0000ff</color>
                    <colorMode>normal</colorMode>
                    <scale>1</scale>
                    <heading>0</heading>
                    <Icon id="22">
                        <href>http://maps.google.com/mapfiles/kml/pushpin/ylw-pushpin.png</href>
                    </Icon>
                </IconStyle>
            </Style>
            <Style id="25">
                <IconStyle id="26">
                    <color>ff0000ff</color>
                    <colorMode>normal</colorMode>
                    <scale>1</scale>
                    <heading>0</heading>
                    <Icon id="27">
                        <href>http://maps.google.com/mapfiles/kml/pushpin/ylw-pushpin.png</href>
                    </Icon>
                </IconStyle>
            </Style>
            <Style id="30">
                <IconStyle id="31">
                    <color>ff0000ff</color>
                    <colorMode>normal</colorMode>
                    <scale>1</scale>
                    <heading>0</heading>
                    <Icon id="32">
                        <href>http://maps.google.com/mapfiles/kml/pushpin/ylw-pushpin.png</href>
                    </Icon>
                </IconStyle>
            </Style>
            <Style id="35">
                <IconStyle id="36">
                    <color>ff0000ff</color>
                    <colorMode>normal</colorMode>
                    <scale>1</scale>
                    <heading>0</heading>
                    <Icon id="37">
                        <href>http://maps.google.com/mapfiles/kml/pushpin/ylw-pushpin.png</href>
                    </Icon>
                </IconStyle>
            </Style>
            <Style id="40">
                <IconStyle id="41">
                    <color>ff0000ff</color>
                    <colorMode>normal</colorMode>
                    <scale>1</scale>
                    <heading>0</heading>
                    <Icon id="42">
                        <href>http://maps.google.com/mapfiles/kml/pushpin/ylw-pushpin.png</href>
                    </Icon>
                </IconStyle>
            </Style>
            <Style id="45">
                <IconStyle id="46">
                    <color>ff0000ff</color>
                    <colorMode>normal</colorMode>
                    <scale>1</scale>
                    <heading>0</heading>
                    <Icon id="47">
                        <href>http://maps.google.com/mapfiles/kml/pushpin/ylw-pushpin.png</href>
                    </Icon>
                </IconStyle>
            </Style>
            <Style id="50">
                <IconStyle id="51">
                    <color>ff0000ff</color>
                    <colorMode>normal</colorMode>
                    <scale>1</scale>
                    <heading>0</heading>
                    <Icon id="52">
                        <href>http://maps.google.com/mapfiles/kml/pushpin/ylw-pushpin.png</href>
                    </Icon>
                </IconStyle>
            </Style>
            <Style id="55">
                <IconStyle id="56">
                    <color>ff0000ff</color>
                    <colorMode>normal</colorMode>
                    <scale>1</scale>
                    <heading>0</heading>
                    <Icon id="57">
                        <href>http://maps.google.com/mapfiles/kml/pushpin/ylw-pushpin.png</href>
                    </Icon>
                </IconStyle>
            </Style>
            <Style id="60">
                <IconStyle id="61">
                    <color>ff0000ff</color>
                    <colorMode>normal</colorMode>
                    <scale>1</scale>
                    <heading>0</heading>
                    <Icon id="62">
                        <href>http://maps.google.com/mapfiles/kml/pushpin/ylw-pushpin.png</href>
                    </Icon>
                </IconStyle>
            </Style>
            <Style id="65">
                <IconStyle id="66">
                    <color>ff0000ff</color>
                    <colorMode>normal</colorMode>
                    <scale>1</scale>
                    <heading>0</heading>
                    <Icon id="67">
                        <href>http://maps.google.com/mapfiles/kml/pushpin/ylw-pushpin.png</href>
                    </Icon>
                </IconStyle>
            </Style>
            <Style id="70">
                <IconStyle id="71">
                    <color>ff0000ff</color>
                    <colorMode>normal</colorMode>
                    <scale>1</scale>
                    <heading>0</heading>
                    <Icon id="72">
                        <href>http://maps.google.com/mapfiles/kml/pushpin/ylw-pushpin.png</href>
                    </Icon>
                </IconStyle>
            </Style>
            <Style id="75">
                <IconStyle id="76">
                    <color>ff0000ff</color>
                    <colorMode>normal</colorMode>
                    <scale>1</scale>
                    <heading>0</heading>
                    <Icon id="77">
                        <href>http://maps.google.com/mapfiles/kml/pushpin/ylw-pushpin.png</href>
                    </Icon>
                </IconStyle>
            </Style>
            <Style id="80">
                <IconStyle id="81">
                    <color>ff0000ff</color>
                    <colorMode>normal</colorMode>
                    <scale>1</scale>
                    <heading>0</heading>
                    <Icon id="82">
                        <href>http://maps.google.com/mapfiles/kml/pushpin/ylw-pushpin.png</href>
                    </Icon>
                </IconStyle>
            </Style>
            <Style id="85">
                <IconStyle id="86">
                    <color>ff0000ff</color>
                    <colorMode>normal</colorMode>
                    <scale>1</scale>
                    <heading>0</heading>
                    <Icon id="87">
                        <href>http://maps.google.com/mapfiles/kml/pushpin/ylw-pushpin.png</href>
                    </Icon>
                </IconStyle>
            </Style>
            <Style id="90">
                <IconStyle id="91">
                    <color>ff0000ff</color>
                    <colorMode>normal</colorMode>
                    <scale>1</scale>
                    <heading>0</heading>
                    <Icon id="92">
                        <href>http://maps.google.com/mapfiles/kml/pushpin/ylw-pushpin.png</href>
                    </Icon>
                </IconStyle>
            </Style>
            <Style id="95">
                <IconStyle id="96">
                    <color>ff0000ff</color>
                    <colorMode>normal</colorMode>
                    <scale>1</scale>
                    <heading>0</heading>
                    <Icon id="97">
                        <href>http://maps.google.com/mapfiles/kml/pushpin/ylw-pushpin.png</href>
                    </Icon>
                </IconStyle>
            </Style>
            <Style id="100">
                <IconStyle id="101">
                    <color>ff0000ff</color>
                    <colorMode>normal</colorMode>
                    <scale>1</scale>
                    <heading>0</heading>
                    <Icon id="102">
                        <href>http://maps.google.com/mapfiles/kml/pushpin/ylw-pushpin.png</href>
                    </Icon>
                </IconStyle>
            </Style>
            <Style id="105">
                <IconStyle id="106">
                    <color>ff0000ff</color>
                    <colorMode>normal</colorMode>
                    <scale>1</scale>
                    <heading>0</heading>
                    <Icon id="107">
                        <href>http://maps.google.com/mapfiles/kml/pushpin/ylw-pushpin.png</href>
                    </Icon>
                </IconStyle>
            </Style>
            <Style id="110">
                <IconStyle id="111">
                    <color>ff0000ff</color>
                    <colorMode>normal</colorMode>
                    <scale>1</scale>
                    <heading>0</heading>
                    <Icon id="112">
                        <href>http://maps.google.com/mapfiles/kml/pushpin/ylw-pushpin.png</href>
                    </Icon>
                </IconStyle>
            </Style>
            <Style id="115">
                <IconStyle id="116">
                    <color>ff0000ff</color>
                    <colorMode>normal</colorMode>
                    <scale>1</scale>
                    <heading>0</heading>
                    <Icon id="117">
                        <href>http://maps.google.com/mapfiles/kml/pushpin/ylw-pushpin.png</href>
                    </Icon>
                </IconStyle>
            </Style>
            <Style id="120">
                <IconStyle id="121">
                    <color>ff0000ff</color>
                    <colorMode>normal</colorMode>
                    <scale>1</scale>
                    <heading>0</heading>
                    <Icon id="122">
                        <href>http://maps.google.com/mapfiles/kml/pushpin/ylw-pushpin.png</href>
                    </Icon>
                </IconStyle>
            </Style>
            <Style id="125">
                <IconStyle id="126">
                    <color>ff0000ff</color>
                    <colorMode>normal</colorMode>
                    <scale>1</scale>
                    <heading>0</heading>
                    <Icon id="127">
                        <href>http://maps.google.com/mapfiles/kml/pushpin/ylw-pushpin.png</href>
                    </Icon>
                </IconStyle>
            </Style>
            <Style id="130">
                <IconStyle id="131">
                    <color>ff0000ff</color>
                    <colorMode>normal</colorMode>
                    <scale>1</scale>
                    <heading>0</heading>
                    <Icon id="132">
                        <href>http://maps.google.com/mapfiles/kml/pushpin/ylw-pushpin.png</href>
                    </Icon>
                </IconStyle>
            </Style>
            <Style id="135">
                <IconStyle id="136">
                    <color>ff0000ff</color>
                    <colorMode>normal</colorMode>
                    <scale>1</scale>
                    <heading>0</heading>
                    <Icon id="137">
                        <href>http://maps.google.com/mapfiles/kml/pushpin/ylw-pushpin.png</href>
                    </Icon>
                </IconStyle>
            </Style>
            <Style id="140">
                <IconStyle id="141">
                    <color>ff0000ff</color>
                    <colorMode>normal</colorMode>
                    <scale>1</scale>
                    <heading>0</heading>
                    <Icon id="142">
                        <href>http://maps.google.com/mapfiles/kml/pushpin/ylw-pushpin.png</href>
                    </Icon>
                </IconStyle>
            </Style>
            <Style id="145">
                <IconStyle id="146">
                    <color>ff0000ff</color>
                    <colorMode>normal</colorMode>
                    <scale>1</scale>
                    <heading>0</heading>
                    <Icon id="147">
                        <href>http://maps.google.com/mapfiles/kml/pushpin/ylw-pushpin.png</href>
                    </Icon>
                </IconStyle>
            </Style>
            <Style id="150">
                <IconStyle id="151">
                    <color>ff0000ff</color>
                    <colorMode>normal</colorMode>
                    <scale>1</scale>
                    <heading>0</heading>
                    <Icon id="152">
                        <href>http://maps.google.com/mapfiles/kml/pushpin/ylw-pushpin.png</href>
                    </Icon>
                </IconStyle>
            </Style>
            <Style id="155">
                <IconStyle id="156">
                    <color>ff0000ff</color>
                    <colorMode>normal</colorMode>
                    <scale>1</scale>
                    <heading>0</heading>
                    <Icon id="157">
                        <href>http://maps.google.com/mapfiles/kml/pushpin/ylw-pushpin.png</href>
                    </Icon>
                </IconStyle>
            </Style>
            <Style id="160">
                <IconStyle id="161">
                    <color>ff0000ff</color>
                    <colorMode>normal</colorMode>
                    <scale>1</scale>
                    <heading>0</heading>
                    <Icon id="162">
                        <href>http://maps.google.com/mapfiles/kml/pushpin/ylw-pushpin.png</href>
                    </Icon>
                </IconStyle>
            </Style>
            <Style id="165">
                <IconStyle id="166">
                    <color>ff0000ff</color>
                    <colorMode>normal</colorMode>
                    <scale>1</scale>
                    <heading>0</heading>
                    <Icon id="167">
                        <href>http://maps.google.com/mapfiles/kml/pushpin/ylw-pushpin.png</href>
                    </Icon>
                </IconStyle>
            </Style>
            <Style id="170">
                <IconStyle id="171">
                    <color>ff0000ff</color>
                    <colorMode>normal</colorMode>
                    <scale>1</scale>
                    <heading>0</heading>
                    <Icon id="172">
                        <href>http://maps.google.com/mapfiles/kml/pushpin/ylw-pushpin.png</href>
                    </Icon>
                </IconStyle>
            </Style>
            <Style id="175">
                <IconStyle id="176">
                    <color>ff0000ff</color>
                    <colorMode>normal</colorMode>
                    <scale>1</scale>
                    <heading>0</heading>
                    <Icon id="177">
                        <href>http://maps.google.com/mapfiles/kml/pushpin/ylw-pushpin.png</href>
                    </Icon>
                </IconStyle>
            </Style>
            <Style id="180">
                <IconStyle id="181">
                    <color>ff0000ff</color>
                    <colorMode>normal</colorMode>
                    <scale>1</scale>
                    <heading>0</heading>
                    <Icon id="182">
                        <href>http://maps.google.com/mapfiles/kml/pushpin/ylw-pushpin.png</href>
                    </Icon>
                </IconStyle>
            </Style>
            <Style id="185">
                <IconStyle id="186">
                    <color>ff0000ff</color>
                    <colorMode>normal</colorMode>
                    <scale>1</scale>
                    <heading>0</heading>
                    <Icon id="187">
                        <href>http://maps.google.com/mapfiles/kml/pushpin/ylw-pushpin.png</href>
                    </Icon>
                </IconStyle>
            </Style>
            <Style id="190">
                <IconStyle id="191">
                    <color>ff0000ff</color>
                    <colorMode>normal</colorMode>
                    <scale>1</scale>
                    <heading>0</heading>
                    <Icon id="192">
                        <href>http://maps.google.com/mapfiles/kml/pushpin/ylw-pushpin.png</href>
                    </Icon>
                </IconStyle>
            </Style>
            <Style id="195">
                <IconStyle id="196">
                    <color>ff0000ff</color>
                    <colorMode>normal</colorMode>
                    <scale>1</scale>
                    <heading>0</heading>
                    <Icon id="197">
                        <href>http://maps.google.com/mapfiles/kml/pushpin/ylw-pushpin.png</href>
                    </Icon>
                </IconStyle>
            </Style>
            <Style id="200">
                <IconStyle id="201">
                    <color>ff0000ff</color>
                    <colorMode>normal</colorMode>
                    <scale>1</scale>
                    <heading>0</heading>
                    <Icon id="202">
                        <href>http://maps.google.com/mapfiles/kml/pushpin/ylw-pushpin.png</href>
                    </Icon>
                </IconStyle>
            </Style>
            <Style id="205">
                <IconStyle id="206">
                    <color>ff0000ff</color>
                    <colorMode>normal</colorMode>
                    <scale>1</scale>
                    <heading>0</heading>
                    <Icon id="207">
                        <href>http://maps.google.com/mapfiles/kml/pushpin/ylw-pushpin.png</href>
                    </Icon>
                </IconStyle>
            </Style>
            <Style id="210">
                <IconStyle id="211">
                    <color>ff0000ff</color>
                    <colorMode>normal</colorMode>
                    <scale>1</scale>
                    <heading>0</heading>
                    <Icon id="212">
                        <href>http://maps.google.com/mapfiles/kml/pushpin/ylw-pushpin.png</href>
                    </Icon>
                </IconStyle>
            </Style>
            <Style id="215">
                <IconStyle id="216">
                    <color>ff0000ff</color>
                    <colorMode>normal</colorMode>
                    <scale>1</scale>
                    <heading>0</heading>
                    <Icon id="217">
                        <href>http://maps.google.com/mapfiles/kml/pushpin/ylw-pushpin.png</href>
                    </Icon>
                </IconStyle>
            </Style>
            <Style id="220">
                <IconStyle id="221">
                    <color>ff0000ff</color>
                    <colorMode>normal</colorMode>
                    <scale>1</scale>
                    <heading>0</heading>
                    <Icon id="222">
                        <href>http://maps.google.com/mapfiles/kml/pushpin/ylw-pushpin.png</href>
                    </Icon>
                </IconStyle>
            </Style>
            <Style id="225">
                <IconStyle id="226">
                    <color>ff0000ff</color>
                    <colorMode>normal</colorMode>
                    <scale>1</scale>
                    <heading>0</heading>
                    <Icon id="227">
                        <href>http://maps.google.com/mapfiles/kml/pushpin/ylw-pushpin.png</href>
                    </Icon>
                </IconStyle>
            </Style>
            <name>ANYI GLEIDY SALDAÑA ESPINOZA</name>
            <Placemark id="4">
                <name>LORENA CRISTINA JIMENEZ JIMENEZ</name>
                <description>MZ.J LT.26 AH.SAN ISIDRO
Veintiséis de Octubre
Piura
Piura
Perú</description>
                <styleUrl>#5</styleUrl>
                <Point id="3">
                    <coordinates>-80.647789,-5.1594523,0.0</coordinates>
                </Point>
            </Placemark>
            <Placemark id="9">
                <name>SANDRA YSABEL ARRUNATEGUI SIANCAS</name>
                <description>MZ.C LT.22 AH.MONICA ZAPATA   
Piura
Piura
Piura
Perú</description>
                <styleUrl>#10</styleUrl>
                <Point id="8">
                    <coordinates>-80.648823,-5.159043,0.0</coordinates>
                </Point>
            </Placemark>
            <Placemark id="14">
                <name>LICORERIA MELENDRES EIRL, VEINTISEIS DE OCTUBRE</name>
                <description>LICORERIA MELENDRES EIRL
MZ F LOTE 08 AA.HH SAN ISIDRO
Piura
Piura
Piura
Perú</description>
                <styleUrl>#15</styleUrl>
                <Point id="13">
                    <coordinates>-80.6484129,-5.1609697,0.0</coordinates>
                </Point>
            </Placemark>
            <Placemark id="19">
                <name>SEGUNDO ANTONIO CASTILLO RIJALBA</name>
                <description>Mz B LTE SUB 23A URB. BAHIA VERDE I ETAPA (BODEGA LA PRINCIPALMONTE BELLO)
Piura
Piura
Piura
Perú</description>
                <styleUrl>#20</styleUrl>
                <Point id="18">
                    <coordinates>-80.6542825,-5.1470158,0.0</coordinates>
                </Point>
            </Placemark>
            <Placemark id="24">
                <name>EDWIN HUGO ROMAN ARRUNATEGUI</name>
                <description>MZ.C LT.22 AH.SAN ISIDRO      
Piura
Piura
Piura
Perú</description>
                <styleUrl>#25</styleUrl>
                <Point id="23">
                    <coordinates>-80.6482666,-5.1606727,0.0</coordinates>
                </Point>
            </Placemark>
            <Placemark id="29">
                <name>ROSA ELENA RAMOS PALACIOS</name>
                <description>MZ D LOTE 19 LOS ANGELES
Piura
Piura
Piura
Perú</description>
                <styleUrl>#30</styleUrl>
                <Point id="28">
                    <coordinates>-80.654292,-5.157898,0.0</coordinates>
                </Point>
            </Placemark>
            <Placemark id="34">
                <name>MARLENI PAOLA AQUINO FIESTAS</name>
                <description>A.H.SAN ISIDRO MZ.D LT.3      
Piura
Piura
Piura
Perú</description>
                <styleUrl>#35</styleUrl>
                <Point id="33">
                    <coordinates>-80.6482991,-5.1598259,0.0</coordinates>
                </Point>
            </Placemark>
            <Placemark id="39">
                <name>SANDRA YSABEL ARRUNATEGUI SIANCAS</name>
                <description>MZ.C LT.22 AH.MONICA ZAPATA   
Piura
Piura
Piura
Perú</description>
                <styleUrl>#40</styleUrl>
                <Point id="38">
                    <coordinates>-80.648823,-5.159043,0.0</coordinates>
                </Point>
            </Placemark>
            <Placemark id="44">
                <name>NELLY AYDEE BERRU LOPEZ</name>
                <description>MZ.G LT.12 MONICA ZAPATA      
Piura
Piura
Piura
Perú</description>
                <styleUrl>#45</styleUrl>
                <Point id="43">
                    <coordinates>-80.6506814,-5.1585079,0.0</coordinates>
                </Point>
            </Placemark>
            <Placemark id="49">
                <name>MARIA SOCORRO CRIOLLO JIMENEZ</name>
                <description>A.H.LOS ANGELES MZ.S LT.E 21  
Piura
Piura
Piura
Perú</description>
                <styleUrl>#50</styleUrl>
                <Point id="48">
                    <coordinates>-80.6533395,-5.1598398,0.0</coordinates>
                </Point>
            </Placemark>
            <Placemark id="54">
                <name>MARIA ELIZABETH HERRERA ASTUDILLO</name>
                <description>MZ E LT 33 LOS ANGELES        
Piura
Piura
Piura
Perú</description>
                <styleUrl>#55</styleUrl>
                <Point id="53">
                    <coordinates>-80.654662,-5.15873,0.0</coordinates>
                </Point>
            </Placemark>
            <Placemark id="59">
                <name>MARIANELA CHAMAYA LLATAS</name>
                <description>A.H.LOS ANGELES MZ.G LT.16    
Veintiséis de Octubre
Piura
Piura
Perú</description>
                <styleUrl>#60</styleUrl>
                <Point id="58">
                    <coordinates>-80.6552781,-5.1590531,0.0</coordinates>
                </Point>
            </Placemark>
            <Placemark id="64">
                <name>ALDA ESTHER LIZANA PEÑA</name>
                <description>MZ G LOTE 9 LOS ANGELES
Veintiséis de Octubre
Veintiséis de Octubre
Piura
Perú</description>
                <styleUrl>#65</styleUrl>
                <Point id="63">
                    <coordinates>-80.655657,-5.1585203,0.0</coordinates>
                </Point>
            </Placemark>
            <Placemark id="69">
                <name>MARITZA ELIZABETH GARCIA HUAMAN</name>
                <description>MZ F LT.19 AH LOS ANGELES     
Piura
Piura
Piura
Perú</description>
                <styleUrl>#70</styleUrl>
                <Point id="68">
                    <coordinates>-80.6551143,-5.1561099,0.0</coordinates>
                </Point>
            </Placemark>
            <Placemark id="74">
                <name>EVA GOMEZ LOPEZ</name>
                <description>AMPLIACION LOS ANGELES MZ C' LT 18
Piura
Piura
Piura
Perú</description>
                <styleUrl>#75</styleUrl>
                <Point id="73">
                    <coordinates>-80.6565435,-5.156264,0.0</coordinates>
                </Point>
            </Placemark>
            <Placemark id="79">
                <name>EDITH ANA BELÉN CHIROQUE HERNANDEZ DE TICLIAHUANCA</name>
                <description>G- 10 ET 2 AH LOS ANGELES     
Piura
Piura
Piura
Perú</description>
                <styleUrl>#80</styleUrl>
                <Point id="78">
                    <coordinates>-80.6548422,-5.1555572,0.0</coordinates>
                </Point>
            </Placemark>
            <Placemark id="84">
                <name>DANNY EDITH CASTILLO JIMENEZ</name>
                <description>Mz c lote 29 los faiques
Piura
Piura
Piura
Perú</description>
                <styleUrl>#85</styleUrl>
                <Point id="83">
                    <coordinates>-80.6540655,-5.1539802,0.0</coordinates>
                </Point>
            </Placemark>
            <Placemark id="89">
                <name>GLORIA ELIZABETH ASCURRA CARRASCO</name>
                <description>MZ E LOTE 3 UPIS GABRIEL MADRID
Piura
Piura
Piura
Perú</description>
                <styleUrl>#90</styleUrl>
                <Point id="88">
                    <coordinates>-80.6533816,-5.1557581,0.0</coordinates>
                </Point>
            </Placemark>
            <Placemark id="94">
                <name>YASMIN ALEXANDRA TRONCOS JIMENEZ</name>
                <description>MZ L2 LOTE 12 OLLANTA HUMALA 26 DE OCTUBRE
Piura
Piura
Piura
Perú</description>
                <styleUrl>#95</styleUrl>
                <Point id="93">
                    <coordinates>-80.6543333,-5.1531939,0.0</coordinates>
                </Point>
            </Placemark>
            <Placemark id="99">
                <name>ELIA MORE GARCIA</name>
                <description>Mz k2 lote 10 Ollanta humala
Piura
Piura
Piura
Perú</description>
                <styleUrl>#100</styleUrl>
                <Point id="98">
                    <coordinates>-80.653922,-5.1527223,0.0</coordinates>
                </Point>
            </Placemark>
            <Placemark id="104">
                <name>PAJUELO CUROTTO MIGUEL ANGEL</name>
                <description>CALLE SAN PEDRO 390 CRUCE CON JUNIN CASTILLA
Castilla
Castilla
Piura
Perú</description>
                <styleUrl>#105</styleUrl>
                <Point id="103">
                    <coordinates>-80.620087,-5.2017431,0.0</coordinates>
                </Point>
            </Placemark>
            <Placemark id="109">
                <name>FRANCISCA CUNIA GARCIA</name>
                <description>AH OLLANTA HUMALA E2-23 PIURSA
Piura
Piura
Piura
Perú</description>
                <styleUrl>#110</styleUrl>
                <Point id="108">
                    <coordinates>-80.6569905,-5.1517551,0.0</coordinates>
                </Point>
            </Placemark>
            <Placemark id="114">
                <name>YESENIA ANCAJIMA CHUMACERO</name>
                <description>MZ B 02 LT.01 AH OLLANTA HUM  
Veintiséis de Octubre
Piura
Piura
Perú</description>
                <styleUrl>#115</styleUrl>
                <Point id="113">
                    <coordinates>-80.6585701,-5.1522186,0.0</coordinates>
                </Point>
            </Placemark>
            <Placemark id="119">
                <name>LIDIA LOURDES CHAUCCA CCONOCUICA</name>
                <description>MZ.B1 LT.10 AH.LA MOLINA II ET
Veintiséis de Octubre
Piura
Piura
Perú</description>
                <styleUrl>#120</styleUrl>
                <Point id="118">
                    <coordinates>-80.659228,-5.158727,0.0</coordinates>
                </Point>
            </Placemark>
            <Placemark id="124">
                <name>CESAR YANGUA BRAVO</name>
                <description>MZ B 03 LT.01 AH OLLANTA HUM  
Veintiséis de Octubre
Piura
Piura
Perú</description>
                <styleUrl>#125</styleUrl>
                <Point id="123">
                    <coordinates>-80.658551,-5.153448,0.0</coordinates>
                </Point>
            </Placemark>
            <Placemark id="129">
                <name>LEIDY YANINA PARDO CHINCHAY</name>
                <description>A.H.LOS ANGELES MZ.C LT.24    
Piura
Piura
Piura
Perú</description>
                <styleUrl>#130</styleUrl>
                <Point id="128">
                    <coordinates>-80.654869,-5.157275,0.0</coordinates>
                </Point>
            </Placemark>
            <Placemark id="134">
                <name>EDWIN CASTILLO JIMENEZ</name>
                <description>MZ K LOTE 13 LA MOLINA 2 SECTOR A
Veintiséis de Octubre
Veintiséis de Octubre
Piura
Perú</description>
                <styleUrl>#135</styleUrl>
                <Point id="133">
                    <coordinates>-80.6585347,-5.1598691,0.0</coordinates>
                </Point>
            </Placemark>
            <Placemark id="139">
                <name>ELMIDA RIVERA JIMENEZ</name>
                <description>AAHH LA MOLINA SECTOR 1 MZ C LOTE 4
Veintiséis de Octubre
Piura
Piura
Perú</description>
                <styleUrl>#140</styleUrl>
                <Point id="138">
                    <coordinates>-80.6593544,-5.1625367,0.0</coordinates>
                </Point>
            </Placemark>
            <Placemark id="144">
                <name>BLANCA OLINDA LOPEZ BERRU</name>
                <description>EL ROSAL MZ B LT 23           
Veintiséis de Octubre
Veintiséis de Octubre
Piura
Perú</description>
                <styleUrl>#145</styleUrl>
                <Point id="143">
                    <coordinates>-80.655717,-5.162298,0.0</coordinates>
                </Point>
            </Placemark>
            <Placemark id="149">
                <name>ADELIA SANTOYO OROZCO</name>
                <description>A.H.EL ROSAL MZ.C LT.8        
Veintiséis de Octubre
Veintiséis de Octubre
Piura
Perú</description>
                <styleUrl>#150</styleUrl>
                <Point id="148">
                    <coordinates>-80.6557349,-5.1621961,0.0</coordinates>
                </Point>
            </Placemark>
            <Placemark id="154">
                <name>LINDAURA CORDOVA LOPEZ</name>
                <description>Mz I LOTE 21 URB. LOS CORALES II
Piura
Piura
Piura
Perú</description>
                <styleUrl>#155</styleUrl>
                <Point id="153">
                    <coordinates>-80.647778,-5.147391,0.0</coordinates>
                </Point>
            </Placemark>
            <Placemark id="159">
                <name>ANGELICA GARCIA JIMENEZ</name>
                <description>EL ROSAL MZ A LT 13 26 DE OCTUBRE
Veintiséis de Octubre

Piura
Perú</description>
                <styleUrl>#160</styleUrl>
                <Point id="158">
                    <coordinates>-80.6543376,-5.1619165,0.0</coordinates>
                </Point>
            </Placemark>
            <Placemark id="164">
                <name>MELVA JULCA CHANTA</name>
                <description>MZ O-02 AH MANUEL SEOANE      
Veintiséis de Octubre
Piura
Piura
Perú</description>
                <styleUrl>#165</styleUrl>
                <Point id="163">
                    <coordinates>-80.6537349,-5.1637211,0.0</coordinates>
                </Point>
            </Placemark>
            <Placemark id="169">
                <name>SEGUNDO ANTONIO CASTILLO RIJALBA</name>
                <description>Mz B LTE SUB 23A URB. BAHIA VERDE I ETAPA (BODEGA LA PRINCIPALMONTE BELLO)
Piura
Piura
Piura
Perú</description>
                <styleUrl>#170</styleUrl>
                <Point id="168">
                    <coordinates>-80.6542825,-5.1470158,0.0</coordinates>
                </Point>
            </Placemark>
            <Placemark id="174">
                <name>DELIA CALLE PINTADO</name>
                <description>A.H.FLORIDA NORTE MZ.A LT.13  
Veintiséis de Octubre
Veintiséis de Octubre
Piura
Perú</description>
                <styleUrl>#175</styleUrl>
                <Point id="173">
                    <coordinates>-80.653425,-5.1630687,0.0</coordinates>
                </Point>
            </Placemark>
            <Placemark id="179">
                <name>SILVIA JANEE JIMENEZ CORDOVA</name>
                <description>MZ E LOTE 16 LA FLORIDA
Veintiséis de Octubre
Veintiséis de Octubre
Piura
Perú</description>
                <styleUrl>#180</styleUrl>
                <Point id="178">
                    <coordinates>-80.6533791,-5.1626527,0.0</coordinates>
                </Point>
            </Placemark>
            <Placemark id="184">
                <name>MARIA YSABEL ALAMA ALAMA</name>
                <description>A.H.LOS OLIVOS MZ.F LT.E 11   
Piura
Piura
Piura
Perú</description>
                <styleUrl>#185</styleUrl>
                <Point id="183">
                    <coordinates>-80.6525576,-5.1622834,0.0</coordinates>
                </Point>
            </Placemark>
            <Placemark id="189">
                <name>TELSIDA CORDOVA CORDOVA</name>
                <description>MZ-F LT-13 LOS OLIVOS.        
Piura
Piura
Piura
Perú</description>
                <styleUrl>#190</styleUrl>
                <Point id="188">
                    <coordinates>-80.6524978,-5.1621723,0.0</coordinates>
                </Point>
            </Placemark>
            <Placemark id="194">
                <name>KATERINE YESSICA COLAN QUICHIZ</name>
                <description>MZA-I LOTE 22 AH. LOS OLIVOS  
Piura
Piura
Piura
Perú</description>
                <styleUrl>#195</styleUrl>
                <Point id="193">
                    <coordinates>-80.651998,-5.161592,0.0</coordinates>
                </Point>
            </Placemark>
            <Placemark id="199">
                <name>NATIVIDAD RIVERA ABAD</name>
                <description>LOS OLIVOS MZ M LOTE 13
Piura
Piura
Piura
Perú</description>
                <styleUrl>#200</styleUrl>
                <Point id="198">
                    <coordinates>-80.6508084,-5.1609382,0.0</coordinates>
                </Point>
            </Placemark>
            <Placemark id="204">
                <name>NATIVIDAD RIVERA ABAD</name>
                <description>LOS OLIVOS MZ M LOTE 13
Piura
Piura
Piura
Perú</description>
                <styleUrl>#205</styleUrl>
                <Point id="203">
                    <coordinates>-80.6508084,-5.1609382,0.0</coordinates>
                </Point>
            </Placemark>
            <Placemark id="209">
                <name>NATHALIA GONZA YANAYACO DE ZAPATA</name>
                <description>O 2 LOS OLIVOS                
Piura
Piura
Piura
Perú</description>
                <styleUrl>#210</styleUrl>
                <Point id="208">
                    <coordinates>-80.6510334,-5.1629883,0.0</coordinates>
                </Point>
            </Placemark>
            <Placemark id="214">
                <name>LEONARDO HUACHEZ DOMINGUEZ</name>
                <description>LEONARDO HUACHEZ DOMINGUEZ
AA. HH LOS OLIVOS MZ D LT 16 - 26 DE OCTUBRE
Piura

Piura
Perú</description>
                <styleUrl>#215</styleUrl>
                <Point id="213">
                    <coordinates>-80.6510671,-5.1634203,0.0</coordinates>
                </Point>
            </Placemark>
            <Placemark id="219">
                <name>BRENDA KARINA JIMENEZ LLACSAHUACHE</name>
                <description>MZA D 05 LOS OLIVOS           
Piura
Piura
Piura
Perú</description>
                <styleUrl>#220</styleUrl>
                <Point id="218">
                    <coordinates>-80.651846,-5.1638593,0.0</coordinates>
                </Point>
            </Placemark>
            <Placemark id="224">
                <name>CELIA ESTHER LOPEZ GARCIA</name>
                <description>MZ C LT 18 B. LOS OLIVOS      
Piura
Piura
Piura
Perú</description>
                <styleUrl>#225</styleUrl>
                <Point id="223">
                    <coordinates>-80.650443,-5.164199,0.0</coordinates>
                </Point>
            </Placemark>
        </Folder>
        <Folder id="228">
            <Style id="231">
                <IconStyle id="232">
                    <color>ffff0000</color>
                    <colorMode>normal</colorMode>
                    <scale>1</scale>
                    <heading>0</heading>
                    <Icon id="233">
                        <href>http://maps.google.com/mapfiles/kml/pushpin/ylw-pushpin.png</href>
                    </Icon>
                </IconStyle>
            </Style>
            <Style id="236">
                <IconStyle id="237">
                    <color>ffff0000</color>
                    <colorMode>normal</colorMode>
                    <scale>1</scale>
                    <heading>0</heading>
                    <Icon id="238">
                        <href>http://maps.google.com/mapfiles/kml/pushpin/ylw-pushpin.png</href>
                    </Icon>
                </IconStyle>
            </Style>
            <Style id="241">
                <IconStyle id="242">
                    <color>ffff0000</color>
                    <colorMode>normal</colorMode>
                    <scale>1</scale>
                    <heading>0</heading>
                    <Icon id="243">
                        <href>http://maps.google.com/mapfiles/kml/pushpin/ylw-pushpin.png</href>
                    </Icon>
                </IconStyle>
            </Style>
            <Style id="246">
                <IconStyle id="247">
                    <color>ffff0000</color>
                    <colorMode>normal</colorMode>
                    <scale>1</scale>
                    <heading>0</heading>
                    <Icon id="248">
                        <href>http://maps.google.com/mapfiles/kml/pushpin/ylw-pushpin.png</href>
                    </Icon>
                </IconStyle>
            </Style>
            <Style id="251">
                <IconStyle id="252">
                    <color>ffff0000</color>
                    <colorMode>normal</colorMode>
                    <scale>1</scale>
                    <heading>0</heading>
                    <Icon id="253">
                        <href>http://maps.google.com/mapfiles/kml/pushpin/ylw-pushpin.png</href>
                    </Icon>
                </IconStyle>
            </Style>
            <Style id="256">
                <IconStyle id="257">
                    <color>ffff0000</color>
                    <colorMode>normal</colorMode>
                    <scale>1</scale>
                    <heading>0</heading>
                    <Icon id="258">
                        <href>http://maps.google.com/mapfiles/kml/pushpin/ylw-pushpin.png</href>
                    </Icon>
                </IconStyle>
            </Style>
            <Style id="261">
                <IconStyle id="262">
                    <color>ffff0000</color>
                    <colorMode>normal</colorMode>
                    <scale>1</scale>
                    <heading>0</heading>
                    <Icon id="263">
                        <href>http://maps.google.com/mapfiles/kml/pushpin/ylw-pushpin.png</href>
                    </Icon>
                </IconStyle>
            </Style>
            <Style id="266">
                <IconStyle id="267">
                    <color>ffff0000</color>
                    <colorMode>normal</colorMode>
                    <scale>1</scale>
                    <heading>0</heading>
                    <Icon id="268">
                        <href>http://maps.google.com/mapfiles/kml/pushpin/ylw-pushpin.png</href>
                    </Icon>
                </IconStyle>
            </Style>
            <Style id="271">
                <IconStyle id="272">
                    <color>ffff0000</color>
                    <colorMode>normal</colorMode>
                    <scale>1</scale>
                    <heading>0</heading>
                    <Icon id="273">
                        <href>http://maps.google.com/mapfiles/kml/pushpin/ylw-pushpin.png</href>
                    </Icon>
                </IconStyle>
            </Style>
            <name>KATHERINE REBECA DE JESUS CARDOZA LEE</name>
            <Placemark id="230">
                <name>LILIANA COBEÑAS MOROCHO</name>
                <description>MZ 35 PUESTO 2 / MERCADO Piura
Piura
Piura
Piura
Perú</description>
                <styleUrl>#231</styleUrl>
                <Point id="229">
                    <coordinates>-80.6339409,-5.18773,0.0</coordinates>
                </Point>
            </Placemark>
            <Placemark id="235">
                <name>LUZ MARIA NAQUICHE YOVERA</name>
                <description>MZ 15 PUESTO 16 ANEXO INTERIOR MERCADO Piura
Piura
Piura
Piura
Perú</description>
                <styleUrl>#236</styleUrl>
                <Point id="234">
                    <coordinates>-80.6336977,-5.1875688,0.0</coordinates>
                </Point>
            </Placemark>
            <Placemark id="240">
                <name>UMELIA GAONA PATIÑO</name>
                <description>MZ 12 PUESTO 14 / MERCADO ANEXO
Piura
Piura
Piura
Perú</description>
                <styleUrl>#241</styleUrl>
                <Point id="239">
                    <coordinates>-80.6339045,-5.1873986,0.0</coordinates>
                </Point>
            </Placemark>
            <Placemark id="245">
                <name>JACQUELINE COBEÑAS MOROCHO</name>
                <description>MZ 20 PUESTO 16 / ANX Piura
Piura
Piura
Piura
Perú</description>
                <styleUrl>#246</styleUrl>
                <Point id="244">
                    <coordinates>-80.6334793,-5.18767,0.0</coordinates>
                </Point>
            </Placemark>
            <Placemark id="250">
                <name>GINO YOMAR PALACIOS RAMOS</name>
                <description>MZA. 22 PTTO. 2 INTERIOR MERCADO ANEXO
Piura
Piura
Piura
Perú</description>
                <styleUrl>#251</styleUrl>
                <Point id="249">
                    <coordinates>-80.6333547,-5.1876962,0.0</coordinates>
                </Point>
            </Placemark>
            <Placemark id="255">
                <name>RAFAEL LIVIAPOMA JULCA</name>
                <description>PUESTO 43 / ANEXO MERCADO Piura
Piura
Piura
Piura
Perú</description>
                <styleUrl>#256</styleUrl>
                <Point id="254">
                    <coordinates>-80.6331423,-5.1873426,0.0</coordinates>
                </Point>
            </Placemark>
            <Placemark id="260">
                <name>PRODUCT.PIURANOS MECHITA EIRL</name>
                <description>PRODUCT.PIURANOS MECHITA EIRL
PUESTO 36 MERCADO CAPULLANAS
Veintiséis de Octubre

Piura
Perú</description>
                <styleUrl>#261</styleUrl>
                <Point id="259">
                    <coordinates>-80.6699586,-5.1756069,0.0</coordinates>
                </Point>
            </Placemark>
            <Placemark id="265">
                <name>CESAR AUGUSTO VILLEGAS MARQUEZ</name>
                <description>MZ 35 PUESTO 8 / MERCADO DE Piura
Piura
Piura
Piura
Perú</description>
                <styleUrl>#266</styleUrl>
                <Point id="264">
                    <coordinates>-80.6338668,-5.1875545,0.0</coordinates>
                </Point>
            </Placemark>
            <Placemark id="270">
                <name>MARIA CORINA GONZALES PASACHE</name>
                <description>MZ 35 PUESTO 1/ MERCADO Piura
Piura
Piura
Piura
Perú</description>
                <styleUrl>#271</styleUrl>
                <Point id="269">
                    <coordinates>-80.633916,-5.1877389,0.0</coordinates>
                </Point>
            </Placemark>
        </Folder>
    </Document>
</kml>
