<?xml version="1.0" encoding="UTF-8"?>
<kml xmlns="http://www.opengis.net/kml/2.2" xmlns:gx="http://www.google.com/kml/ext/2.2">
    <Document id="375">
        <Folder id="376">
            <Style id="379">
                <IconStyle id="380">
                    <color>ff0000ff</color>
                    <colorMode>normal</colorMode>
                    <scale>1</scale>
                    <heading>0</heading>
                    <Icon id="381">
                        <href>http://maps.google.com/mapfiles/kml/pushpin/ylw-pushpin.png</href>
                    </Icon>
                </IconStyle>
            </Style>
            <Style id="384">
                <IconStyle id="385">
                    <color>ff0000ff</color>
                    <colorMode>normal</colorMode>
                    <scale>1</scale>
                    <heading>0</heading>
                    <Icon id="386">
                        <href>http://maps.google.com/mapfiles/kml/pushpin/ylw-pushpin.png</href>
                    </Icon>
                </IconStyle>
            </Style>
            <Style id="389">
                <IconStyle id="390">
                    <color>ff0000ff</color>
                    <colorMode>normal</colorMode>
                    <scale>1</scale>
                    <heading>0</heading>
                    <Icon id="391">
                        <href>http://maps.google.com/mapfiles/kml/pushpin/ylw-pushpin.png</href>
                    </Icon>
                </IconStyle>
            </Style>
            <Style id="394">
                <IconStyle id="395">
                    <color>ff0000ff</color>
                    <colorMode>normal</colorMode>
                    <scale>1</scale>
                    <heading>0</heading>
                    <Icon id="396">
                        <href>http://maps.google.com/mapfiles/kml/pushpin/ylw-pushpin.png</href>
                    </Icon>
                </IconStyle>
            </Style>
            <Style id="399">
                <IconStyle id="400">
                    <color>ff0000ff</color>
                    <colorMode>normal</colorMode>
                    <scale>1</scale>
                    <heading>0</heading>
                    <Icon id="401">
                        <href>http://maps.google.com/mapfiles/kml/pushpin/ylw-pushpin.png</href>
                    </Icon>
                </IconStyle>
            </Style>
            <Style id="404">
                <IconStyle id="405">
                    <color>ff0000ff</color>
                    <colorMode>normal</colorMode>
                    <scale>1</scale>
                    <heading>0</heading>
                    <Icon id="406">
                        <href>http://maps.google.com/mapfiles/kml/pushpin/ylw-pushpin.png</href>
                    </Icon>
                </IconStyle>
            </Style>
            <Style id="409">
                <IconStyle id="410">
                    <color>ff0000ff</color>
                    <colorMode>normal</colorMode>
                    <scale>1</scale>
                    <heading>0</heading>
                    <Icon id="411">
                        <href>http://maps.google.com/mapfiles/kml/pushpin/ylw-pushpin.png</href>
                    </Icon>
                </IconStyle>
            </Style>
            <Style id="414">
                <IconStyle id="415">
                    <color>ff0000ff</color>
                    <colorMode>normal</colorMode>
                    <scale>1</scale>
                    <heading>0</heading>
                    <Icon id="416">
                        <href>http://maps.google.com/mapfiles/kml/pushpin/ylw-pushpin.png</href>
                    </Icon>
                </IconStyle>
            </Style>
            <Style id="419">
                <IconStyle id="420">
                    <color>ff0000ff</color>
                    <colorMode>normal</colorMode>
                    <scale>1</scale>
                    <heading>0</heading>
                    <Icon id="421">
                        <href>http://maps.google.com/mapfiles/kml/pushpin/ylw-pushpin.png</href>
                    </Icon>
                </IconStyle>
            </Style>
            <Style id="424">
                <IconStyle id="425">
                    <color>ff0000ff</color>
                    <colorMode>normal</colorMode>
                    <scale>1</scale>
                    <heading>0</heading>
                    <Icon id="426">
                        <href>http://maps.google.com/mapfiles/kml/pushpin/ylw-pushpin.png</href>
                    </Icon>
                </IconStyle>
            </Style>
            <Style id="429">
                <IconStyle id="430">
                    <color>ff0000ff</color>
                    <colorMode>normal</colorMode>
                    <scale>1</scale>
                    <heading>0</heading>
                    <Icon id="431">
                        <href>http://maps.google.com/mapfiles/kml/pushpin/ylw-pushpin.png</href>
                    </Icon>
                </IconStyle>
            </Style>
            <Style id="434">
                <IconStyle id="435">
                    <color>ff0000ff</color>
                    <colorMode>normal</colorMode>
                    <scale>1</scale>
                    <heading>0</heading>
                    <Icon id="436">
                        <href>http://maps.google.com/mapfiles/kml/pushpin/ylw-pushpin.png</href>
                    </Icon>
                </IconStyle>
            </Style>
            <Style id="439">
                <IconStyle id="440">
                    <color>ff0000ff</color>
                    <colorMode>normal</colorMode>
                    <scale>1</scale>
                    <heading>0</heading>
                    <Icon id="441">
                        <href>http://maps.google.com/mapfiles/kml/pushpin/ylw-pushpin.png</href>
                    </Icon>
                </IconStyle>
            </Style>
            <Style id="444">
                <IconStyle id="445">
                    <color>ff0000ff</color>
                    <colorMode>normal</colorMode>
                    <scale>1</scale>
                    <heading>0</heading>
                    <Icon id="446">
                        <href>http://maps.google.com/mapfiles/kml/pushpin/ylw-pushpin.png</href>
                    </Icon>
                </IconStyle>
            </Style>
            <Style id="449">
                <IconStyle id="450">
                    <color>ff0000ff</color>
                    <colorMode>normal</colorMode>
                    <scale>1</scale>
                    <heading>0</heading>
                    <Icon id="451">
                        <href>http://maps.google.com/mapfiles/kml/pushpin/ylw-pushpin.png</href>
                    </Icon>
                </IconStyle>
            </Style>
            <Style id="454">
                <IconStyle id="455">
                    <color>ff0000ff</color>
                    <colorMode>normal</colorMode>
                    <scale>1</scale>
                    <heading>0</heading>
                    <Icon id="456">
                        <href>http://maps.google.com/mapfiles/kml/pushpin/ylw-pushpin.png</href>
                    </Icon>
                </IconStyle>
            </Style>
            <Style id="459">
                <IconStyle id="460">
                    <color>ff0000ff</color>
                    <colorMode>normal</colorMode>
                    <scale>1</scale>
                    <heading>0</heading>
                    <Icon id="461">
                        <href>http://maps.google.com/mapfiles/kml/pushpin/ylw-pushpin.png</href>
                    </Icon>
                </IconStyle>
            </Style>
            <Style id="464">
                <IconStyle id="465">
                    <color>ff0000ff</color>
                    <colorMode>normal</colorMode>
                    <scale>1</scale>
                    <heading>0</heading>
                    <Icon id="466">
                        <href>http://maps.google.com/mapfiles/kml/pushpin/ylw-pushpin.png</href>
                    </Icon>
                </IconStyle>
            </Style>
            <Style id="469">
                <IconStyle id="470">
                    <color>ff0000ff</color>
                    <colorMode>normal</colorMode>
                    <scale>1</scale>
                    <heading>0</heading>
                    <Icon id="471">
                        <href>http://maps.google.com/mapfiles/kml/pushpin/ylw-pushpin.png</href>
                    </Icon>
                </IconStyle>
            </Style>
            <Style id="474">
                <IconStyle id="475">
                    <color>ff0000ff</color>
                    <colorMode>normal</colorMode>
                    <scale>1</scale>
                    <heading>0</heading>
                    <Icon id="476">
                        <href>http://maps.google.com/mapfiles/kml/pushpin/ylw-pushpin.png</href>
                    </Icon>
                </IconStyle>
            </Style>
            <Style id="479">
                <IconStyle id="480">
                    <color>ff0000ff</color>
                    <colorMode>normal</colorMode>
                    <scale>1</scale>
                    <heading>0</heading>
                    <Icon id="481">
                        <href>http://maps.google.com/mapfiles/kml/pushpin/ylw-pushpin.png</href>
                    </Icon>
                </IconStyle>
            </Style>
            <Style id="484">
                <IconStyle id="485">
                    <color>ff0000ff</color>
                    <colorMode>normal</colorMode>
                    <scale>1</scale>
                    <heading>0</heading>
                    <Icon id="486">
                        <href>http://maps.google.com/mapfiles/kml/pushpin/ylw-pushpin.png</href>
                    </Icon>
                </IconStyle>
            </Style>
            <Style id="489">
                <IconStyle id="490">
                    <color>ff0000ff</color>
                    <colorMode>normal</colorMode>
                    <scale>1</scale>
                    <heading>0</heading>
                    <Icon id="491">
                        <href>http://maps.google.com/mapfiles/kml/pushpin/ylw-pushpin.png</href>
                    </Icon>
                </IconStyle>
            </Style>
            <Style id="494">
                <IconStyle id="495">
                    <color>ff0000ff</color>
                    <colorMode>normal</colorMode>
                    <scale>1</scale>
                    <heading>0</heading>
                    <Icon id="496">
                        <href>http://maps.google.com/mapfiles/kml/pushpin/ylw-pushpin.png</href>
                    </Icon>
                </IconStyle>
            </Style>
            <Style id="499">
                <IconStyle id="500">
                    <color>ff0000ff</color>
                    <colorMode>normal</colorMode>
                    <scale>1</scale>
                    <heading>0</heading>
                    <Icon id="501">
                        <href>http://maps.google.com/mapfiles/kml/pushpin/ylw-pushpin.png</href>
                    </Icon>
                </IconStyle>
            </Style>
            <Style id="504">
                <IconStyle id="505">
                    <color>ff0000ff</color>
                    <colorMode>normal</colorMode>
                    <scale>1</scale>
                    <heading>0</heading>
                    <Icon id="506">
                        <href>http://maps.google.com/mapfiles/kml/pushpin/ylw-pushpin.png</href>
                    </Icon>
                </IconStyle>
            </Style>
            <Style id="509">
                <IconStyle id="510">
                    <color>ff0000ff</color>
                    <colorMode>normal</colorMode>
                    <scale>1</scale>
                    <heading>0</heading>
                    <Icon id="511">
                        <href>http://maps.google.com/mapfiles/kml/pushpin/ylw-pushpin.png</href>
                    </Icon>
                </IconStyle>
            </Style>
            <Style id="514">
                <IconStyle id="515">
                    <color>ff0000ff</color>
                    <colorMode>normal</colorMode>
                    <scale>1</scale>
                    <heading>0</heading>
                    <Icon id="516">
                        <href>http://maps.google.com/mapfiles/kml/pushpin/ylw-pushpin.png</href>
                    </Icon>
                </IconStyle>
            </Style>
            <Style id="519">
                <IconStyle id="520">
                    <color>ff0000ff</color>
                    <colorMode>normal</colorMode>
                    <scale>1</scale>
                    <heading>0</heading>
                    <Icon id="521">
                        <href>http://maps.google.com/mapfiles/kml/pushpin/ylw-pushpin.png</href>
                    </Icon>
                </IconStyle>
            </Style>
            <name>JOSE DAVID QUISPE RENTERIA</name>
            <Placemark id="378">
                <name>ALEJANDRO JIMENEZ OLIVERA</name>
                <description>Apurímac 687 Piura
Piura

Piura
Perú</description>
                <styleUrl>#379</styleUrl>
                <Point id="377">
                    <coordinates>-80.629021,-5.197944,0.0</coordinates>
                </Point>
            </Placemark>
            <Placemark id="383">
                <name>CRISTINA DEL ROSARIO DIESTRA ZAVALETA</name>
                <description>CA.11 260 MZ.R LT 39 SAN JOSE 
Veintiséis de Octubre
Veintiséis de Octubre
Piura
Perú</description>
                <styleUrl>#384</styleUrl>
                <Point id="382">
                    <coordinates>-80.644448,-5.195416,0.0</coordinates>
                </Point>
            </Placemark>
            <Placemark id="388">
                <name>NAUCAR LIZANA RUBY MARIBEL</name>
                <description>Avenida Loreto esquina con ica- exterior centro comercial el algarrobo
Piura

Piura
Perú</description>
                <styleUrl>#389</styleUrl>
                <Point id="387">
                    <coordinates>-80.629872,-5.19491,0.0</coordinates>
                </Point>
            </Placemark>
            <Placemark id="393">
                <name>ADELA ANALY QUINDE CORTES</name>
                <description>AV CIRCUNVALACION 181 Piura CENTRO
Veintiséis de Octubre
Veintiséis de Octubre
Piura
Perú</description>
                <styleUrl>#394</styleUrl>
                <Point id="392">
                    <coordinates>-80.663173,-5.184875,0.0</coordinates>
                </Point>
            </Placemark>
            <Placemark id="398">
                <name>RIVERA AGUIRRE JESUS ARMANDO</name>
                <description>AV.LORETO 522                 
Piura

Piura
Perú</description>
                <styleUrl>#399</styleUrl>
                <Point id="397">
                    <coordinates>-80.629237,-5.192888,0.0</coordinates>
                </Point>
            </Placemark>
            <Placemark id="403">
                <name>AMANDA ME CHAPILLIQUEN VDA DE ROJAS</name>
                <description>JR.J"113.URB.SANJOSE"         
Veintiséis de Octubre
Piura
Piura
Perú</description>
                <styleUrl>#404</styleUrl>
                <Point id="402">
                    <coordinates>-80.6416636,-5.1954132,0.0</coordinates>
                </Point>
            </Placemark>
            <Placemark id="408">
                <name>JORGE LUIS SILVA SALDARRIAGA</name>
                <description>Prócer mendivuro 171
Piura

Piura
Perú</description>
                <styleUrl>#409</styleUrl>
                <Point id="407">
                    <coordinates>-80.634024,-5.19415,0.0</coordinates>
                </Point>
            </Placemark>
            <Placemark id="413">
                <name>SANTACRUZ JIMENEZ MARIA DEL ROSARIO</name>
                <description>CALLE MERINO NRO URB 257 ANTES DE LLEGAR A LA AV SAN MARTIN  A UNAS 10 CASA DE LA SRA ESCOLLOCLARK - PIUR
Piura
Piura
Piura
Perú</description>
                <styleUrl>#414</styleUrl>
                <Point id="412">
                    <coordinates>-80.6344949,-5.1938668,0.0</coordinates>
                </Point>
            </Placemark>
            <Placemark id="418">
                <name>MARLENE VELASQUEZ JUAREZ</name>
                <description>AV SAN MARTIN 302 URB BUENOS AIRES
Piura
Piura
Piura
Perú</description>
                <styleUrl>#419</styleUrl>
                <Point id="417">
                    <coordinates>-80.6354128,-5.195887,0.0</coordinates>
                </Point>
            </Placemark>
            <Placemark id="423">
                <name>NUÑEZ CAMPOS MARIA MICAELA</name>
                <description>Urbanización San José calle 5 mzÑ Lote 40
Veintiséis de Octubre
Veintiséis de Octubre
Piura
Perú</description>
                <styleUrl>#424</styleUrl>
                <Point id="422">
                    <coordinates>-80.6431138,-5.1944229,0.0</coordinates>
                </Point>
            </Placemark>
            <Placemark id="428">
                <name>LILIANA DEL SOCORRO TIMANA ROSADO</name>
                <description>MZ C LT 16 URB SAN JOSE       
Veintiséis de Octubre
Piura
Piura
Perú</description>
                <styleUrl>#429</styleUrl>
                <Point id="427">
                    <coordinates>-80.6429351,-5.1960567,0.0</coordinates>
                </Point>
            </Placemark>
            <Placemark id="433">
                <name>DELFILIA ENCALADA ARMIJOS</name>
                <description>Urbanización Santa Ana MZ P Lote 4 Bodega Punto Clave
Piura
Piura
Piura
Perú</description>
                <styleUrl>#434</styleUrl>
                <Point id="432">
                    <coordinates>-80.6411148,-5.1878723,0.0</coordinates>
                </Point>
            </Placemark>
            <Placemark id="438">
                <name>ZUÑIGA CARMEN MONTERO DE</name>
                <description>ZUÑIGA CARMEN MONTERO DE
JR TAMBOGRANDE S-20 II ET. STA.ANA
Piura
Piura
Piura
Perú</description>
                <styleUrl>#439</styleUrl>
                <Point id="437">
                    <coordinates>-80.6390319,-5.1892945,0.0</coordinates>
                </Point>
            </Placemark>
            <Placemark id="443">
                <name>JAVIER ANTONIO GUTIERREZ AVALOS</name>
                <description>Urbanización San Lorenzo MZ B lote 16
Piura
Piura
Piura
Perú</description>
                <styleUrl>#444</styleUrl>
                <Point id="442">
                    <coordinates>-80.6383108,-5.1908059,0.0</coordinates>
                </Point>
            </Placemark>
            <Placemark id="448">
                <name>BLANCA FLOR TORRES JIMENEZ</name>
                <description>A.H.BUENOS AIRES  MZ.B LT.01  
Piura
Piura
Piura
Perú</description>
                <styleUrl>#449</styleUrl>
                <Point id="447">
                    <coordinates>-80.6392298,-5.1946106,0.0</coordinates>
                </Point>
            </Placemark>
            <Placemark id="453">
                <name>TERESA BERMEJO CASTRO</name>
                <description>JR.HUANCAVELICA 1449 A.H BUENO
Piura
Piura
Piura
Perú</description>
                <styleUrl>#454</styleUrl>
                <Point id="452">
                    <coordinates>-80.6366531,-5.1946684,0.0</coordinates>
                </Point>
            </Placemark>
            <Placemark id="458">
                <name>MIRIAM MOGOLLON VALLE</name>
                <description>MIRIAM MOGOLLON VALLE
JR APURIMAC 1402 BS.AS.Piura
Piura
Piura
Piura
Perú</description>
                <styleUrl>#459</styleUrl>
                <Point id="457">
                    <coordinates>-80.6364599,-5.1956451,0.0</coordinates>
                </Point>
            </Placemark>
            <Placemark id="463">
                <name>INVERSIONES APARICIO GUTIERREZ MANUEL E.I.R.L.</name>
                <description>INVERSIONES APARICIO GUTIERREZ MANUEL E.I.R.L.
MZA. I LOTE. 21 A.H. LOS TITANES
Piura
200101Piura
Piura
Perú</description>
                <styleUrl>#464</styleUrl>
                <Point id="462">
                    <coordinates>-80.6333829,-5.2011473,0.0</coordinates>
                </Point>
            </Placemark>
            <Placemark id="468">
                <name>CARRILLO DE LEON GEYBY BETTY</name>
                <description>CARRILLO DE LEON GEYBY BETTY
CIRCUNVALACION 1053 PIURA
Piura
Piura
Piura
Perú</description>
                <styleUrl>#469</styleUrl>
                <Point id="467">
                    <coordinates>-80.6328601,-5.2004798,0.0</coordinates>
                </Point>
            </Placemark>
            <Placemark id="473">
                <name>ALMACENES ANDREA MALDONADO S.A.C.</name>
                <description>ALMACENES ANDREA MALDONADO S.A.C.
AV. CIRCUNVALACION NRO. 1014 URB.  LOS TITANES ET. UNO
Piura
200101Piura
Piura
Perú</description>
                <styleUrl>#474</styleUrl>
                <Point id="472">
                    <coordinates>-80.6325702,-5.2003251,0.0</coordinates>
                </Point>
            </Placemark>
            <Placemark id="478">
                <name>JOSE ANTONIO ROJAS CRUZ</name>
                <description>Av. Loreto 1228
Piura
Piura
Piura
Perú</description>
                <styleUrl>#479</styleUrl>
                <Point id="477">
                    <coordinates>-80.6310025,-5.1996449,0.0</coordinates>
                </Point>
            </Placemark>
            <Placemark id="483">
                <name>AYALA YARLEQUE MANUELA DEL P.</name>
                <description>JUNIN SUR.1329 CENTRO         
Piura
Piura
Piura
Perú</description>
                <styleUrl>#484</styleUrl>
                <Point id="482">
                    <coordinates>-80.63009,-5.200311,0.0</coordinates>
                </Point>
            </Placemark>
            <Placemark id="488">
                <name>ELIZABETH KATHERINE ZUÑIGA PURIZAGA</name>
                <description>CALLE.AREQUIPA 1499-B Piura
Piura
Piura
Piura
Perú</description>
                <styleUrl>#489</styleUrl>
                <Point id="487">
                    <coordinates>-80.6295813,-5.2028151,0.0</coordinates>
                </Point>
            </Placemark>
            <Placemark id="493">
                <name>ISRAEL BERNABE TERCERO ROJAS CALDERON</name>
                <description>A.H.ALAN PERU  MZ.A LT.10B    
Piura
Piura
Piura
Perú</description>
                <styleUrl>#494</styleUrl>
                <Point id="492">
                    <coordinates>-80.6280606,-5.2026618,0.0</coordinates>
                </Point>
            </Placemark>
            <Placemark id="498">
                <name>MILAGROS DEL PILAR CASTRO PURIZAGA</name>
                <description>CA.AREQUIPA 1444 BARRIO CENTRO
Piura
Piura
Piura
Perú</description>
                <styleUrl>#499</styleUrl>
                <Point id="497">
                    <coordinates>-80.6293115,-5.2021975,0.0</coordinates>
                </Point>
            </Placemark>
            <Placemark id="503">
                <name>HOTELIER S.A.C</name>
                <description>HOTELIER S.A.C
MI. EGUIGUREN 606             
Piura

Piura
Perú</description>
                <styleUrl>#504</styleUrl>
                <Point id="502">
                    <coordinates>-80.6246445,-5.1960436,0.0</coordinates>
                </Point>
            </Placemark>
            <Placemark id="508">
                <name>ECONORTE QR S.A.C</name>
                <description>ECONORTE QR S.A.C
CALLE JUNIN 524 CENTRO        
Piura
Piura
Piura
Perú</description>
                <styleUrl>#509</styleUrl>
                <Point id="507">
                    <coordinates>-80.628384,-5.193325,0.0</coordinates>
                </Point>
            </Placemark>
            <Placemark id="513">
                <name>MARIA LUISA PORTAL DE CALLE</name>
                <description>CA.TACNA 931 CERCADO URBANO   
Piura
Piura
Piura
Perú</description>
                <styleUrl>#514</styleUrl>
                <Point id="512">
                    <coordinates>-80.627633,-5.200575,0.0</coordinates>
                </Point>
            </Placemark>
            <Placemark id="518">
                <name>JAIME LEOPOLDO VILLAVICENCIO ACUÑA</name>
                <description>JAIME LEOPOLDO VILLAVICENCIO ACUÑA
CALLE AREQUIPA 1301 CENTRO PIURA
Piura
Piura
Piura
Perú</description>
                <styleUrl>#519</styleUrl>
                <Point id="517">
                    <coordinates>-80.6286189,-5.2009043,0.0</coordinates>
                </Point>
            </Placemark>
        </Folder>
        <Folder id="522">
            <Style id="525">
                <IconStyle id="526">
                    <color>ffff0000</color>
                    <colorMode>normal</colorMode>
                    <scale>1</scale>
                    <heading>0</heading>
                    <Icon id="527">
                        <href>http://maps.google.com/mapfiles/kml/pushpin/ylw-pushpin.png</href>
                    </Icon>
                </IconStyle>
            </Style>
            <Style id="530">
                <IconStyle id="531">
                    <color>ffff0000</color>
                    <colorMode>normal</colorMode>
                    <scale>1</scale>
                    <heading>0</heading>
                    <Icon id="532">
                        <href>http://maps.google.com/mapfiles/kml/pushpin/ylw-pushpin.png</href>
                    </Icon>
                </IconStyle>
            </Style>
            <Style id="535">
                <IconStyle id="536">
                    <color>ffff0000</color>
                    <colorMode>normal</colorMode>
                    <scale>1</scale>
                    <heading>0</heading>
                    <Icon id="537">
                        <href>http://maps.google.com/mapfiles/kml/pushpin/ylw-pushpin.png</href>
                    </Icon>
                </IconStyle>
            </Style>
            <Style id="540">
                <IconStyle id="541">
                    <color>ffff0000</color>
                    <colorMode>normal</colorMode>
                    <scale>1</scale>
                    <heading>0</heading>
                    <Icon id="542">
                        <href>http://maps.google.com/mapfiles/kml/pushpin/ylw-pushpin.png</href>
                    </Icon>
                </IconStyle>
            </Style>
            <Style id="545">
                <IconStyle id="546">
                    <color>ffff0000</color>
                    <colorMode>normal</colorMode>
                    <scale>1</scale>
                    <heading>0</heading>
                    <Icon id="547">
                        <href>http://maps.google.com/mapfiles/kml/pushpin/ylw-pushpin.png</href>
                    </Icon>
                </IconStyle>
            </Style>
            <Style id="550">
                <IconStyle id="551">
                    <color>ffff0000</color>
                    <colorMode>normal</colorMode>
                    <scale>1</scale>
                    <heading>0</heading>
                    <Icon id="552">
                        <href>http://maps.google.com/mapfiles/kml/pushpin/ylw-pushpin.png</href>
                    </Icon>
                </IconStyle>
            </Style>
            <Style id="555">
                <IconStyle id="556">
                    <color>ffff0000</color>
                    <colorMode>normal</colorMode>
                    <scale>1</scale>
                    <heading>0</heading>
                    <Icon id="557">
                        <href>http://maps.google.com/mapfiles/kml/pushpin/ylw-pushpin.png</href>
                    </Icon>
                </IconStyle>
            </Style>
            <Style id="560">
                <IconStyle id="561">
                    <color>ffff0000</color>
                    <colorMode>normal</colorMode>
                    <scale>1</scale>
                    <heading>0</heading>
                    <Icon id="562">
                        <href>http://maps.google.com/mapfiles/kml/pushpin/ylw-pushpin.png</href>
                    </Icon>
                </IconStyle>
            </Style>
            <Style id="565">
                <IconStyle id="566">
                    <color>ffff0000</color>
                    <colorMode>normal</colorMode>
                    <scale>1</scale>
                    <heading>0</heading>
                    <Icon id="567">
                        <href>http://maps.google.com/mapfiles/kml/pushpin/ylw-pushpin.png</href>
                    </Icon>
                </IconStyle>
            </Style>
            <Style id="570">
                <IconStyle id="571">
                    <color>ffff0000</color>
                    <colorMode>normal</colorMode>
                    <scale>1</scale>
                    <heading>0</heading>
                    <Icon id="572">
                        <href>http://maps.google.com/mapfiles/kml/pushpin/ylw-pushpin.png</href>
                    </Icon>
                </IconStyle>
            </Style>
            <Style id="575">
                <IconStyle id="576">
                    <color>ffff0000</color>
                    <colorMode>normal</colorMode>
                    <scale>1</scale>
                    <heading>0</heading>
                    <Icon id="577">
                        <href>http://maps.google.com/mapfiles/kml/pushpin/ylw-pushpin.png</href>
                    </Icon>
                </IconStyle>
            </Style>
            <Style id="580">
                <IconStyle id="581">
                    <color>ffff0000</color>
                    <colorMode>normal</colorMode>
                    <scale>1</scale>
                    <heading>0</heading>
                    <Icon id="582">
                        <href>http://maps.google.com/mapfiles/kml/pushpin/ylw-pushpin.png</href>
                    </Icon>
                </IconStyle>
            </Style>
            <Style id="585">
                <IconStyle id="586">
                    <color>ffff0000</color>
                    <colorMode>normal</colorMode>
                    <scale>1</scale>
                    <heading>0</heading>
                    <Icon id="587">
                        <href>http://maps.google.com/mapfiles/kml/pushpin/ylw-pushpin.png</href>
                    </Icon>
                </IconStyle>
            </Style>
            <Style id="590">
                <IconStyle id="591">
                    <color>ffff0000</color>
                    <colorMode>normal</colorMode>
                    <scale>1</scale>
                    <heading>0</heading>
                    <Icon id="592">
                        <href>http://maps.google.com/mapfiles/kml/pushpin/ylw-pushpin.png</href>
                    </Icon>
                </IconStyle>
            </Style>
            <Style id="595">
                <IconStyle id="596">
                    <color>ffff0000</color>
                    <colorMode>normal</colorMode>
                    <scale>1</scale>
                    <heading>0</heading>
                    <Icon id="597">
                        <href>http://maps.google.com/mapfiles/kml/pushpin/ylw-pushpin.png</href>
                    </Icon>
                </IconStyle>
            </Style>
            <Style id="600">
                <IconStyle id="601">
                    <color>ffff0000</color>
                    <colorMode>normal</colorMode>
                    <scale>1</scale>
                    <heading>0</heading>
                    <Icon id="602">
                        <href>http://maps.google.com/mapfiles/kml/pushpin/ylw-pushpin.png</href>
                    </Icon>
                </IconStyle>
            </Style>
            <Style id="605">
                <IconStyle id="606">
                    <color>ffff0000</color>
                    <colorMode>normal</colorMode>
                    <scale>1</scale>
                    <heading>0</heading>
                    <Icon id="607">
                        <href>http://maps.google.com/mapfiles/kml/pushpin/ylw-pushpin.png</href>
                    </Icon>
                </IconStyle>
            </Style>
            <Style id="610">
                <IconStyle id="611">
                    <color>ffff0000</color>
                    <colorMode>normal</colorMode>
                    <scale>1</scale>
                    <heading>0</heading>
                    <Icon id="612">
                        <href>http://maps.google.com/mapfiles/kml/pushpin/ylw-pushpin.png</href>
                    </Icon>
                </IconStyle>
            </Style>
            <Style id="615">
                <IconStyle id="616">
                    <color>ffff0000</color>
                    <colorMode>normal</colorMode>
                    <scale>1</scale>
                    <heading>0</heading>
                    <Icon id="617">
                        <href>http://maps.google.com/mapfiles/kml/pushpin/ylw-pushpin.png</href>
                    </Icon>
                </IconStyle>
            </Style>
            <Style id="620">
                <IconStyle id="621">
                    <color>ffff0000</color>
                    <colorMode>normal</colorMode>
                    <scale>1</scale>
                    <heading>0</heading>
                    <Icon id="622">
                        <href>http://maps.google.com/mapfiles/kml/pushpin/ylw-pushpin.png</href>
                    </Icon>
                </IconStyle>
            </Style>
            <Style id="625">
                <IconStyle id="626">
                    <color>ffff0000</color>
                    <colorMode>normal</colorMode>
                    <scale>1</scale>
                    <heading>0</heading>
                    <Icon id="627">
                        <href>http://maps.google.com/mapfiles/kml/pushpin/ylw-pushpin.png</href>
                    </Icon>
                </IconStyle>
            </Style>
            <Style id="630">
                <IconStyle id="631">
                    <color>ffff0000</color>
                    <colorMode>normal</colorMode>
                    <scale>1</scale>
                    <heading>0</heading>
                    <Icon id="632">
                        <href>http://maps.google.com/mapfiles/kml/pushpin/ylw-pushpin.png</href>
                    </Icon>
                </IconStyle>
            </Style>
            <Style id="635">
                <IconStyle id="636">
                    <color>ffff0000</color>
                    <colorMode>normal</colorMode>
                    <scale>1</scale>
                    <heading>0</heading>
                    <Icon id="637">
                        <href>http://maps.google.com/mapfiles/kml/pushpin/ylw-pushpin.png</href>
                    </Icon>
                </IconStyle>
            </Style>
            <Style id="640">
                <IconStyle id="641">
                    <color>ffff0000</color>
                    <colorMode>normal</colorMode>
                    <scale>1</scale>
                    <heading>0</heading>
                    <Icon id="642">
                        <href>http://maps.google.com/mapfiles/kml/pushpin/ylw-pushpin.png</href>
                    </Icon>
                </IconStyle>
            </Style>
            <Style id="645">
                <IconStyle id="646">
                    <color>ffff0000</color>
                    <colorMode>normal</colorMode>
                    <scale>1</scale>
                    <heading>0</heading>
                    <Icon id="647">
                        <href>http://maps.google.com/mapfiles/kml/pushpin/ylw-pushpin.png</href>
                    </Icon>
                </IconStyle>
            </Style>
            <Style id="650">
                <IconStyle id="651">
                    <color>ffff0000</color>
                    <colorMode>normal</colorMode>
                    <scale>1</scale>
                    <heading>0</heading>
                    <Icon id="652">
                        <href>http://maps.google.com/mapfiles/kml/pushpin/ylw-pushpin.png</href>
                    </Icon>
                </IconStyle>
            </Style>
            <Style id="655">
                <IconStyle id="656">
                    <color>ffff0000</color>
                    <colorMode>normal</colorMode>
                    <scale>1</scale>
                    <heading>0</heading>
                    <Icon id="657">
                        <href>http://maps.google.com/mapfiles/kml/pushpin/ylw-pushpin.png</href>
                    </Icon>
                </IconStyle>
            </Style>
            <Style id="660">
                <IconStyle id="661">
                    <color>ffff0000</color>
                    <colorMode>normal</colorMode>
                    <scale>1</scale>
                    <heading>0</heading>
                    <Icon id="662">
                        <href>http://maps.google.com/mapfiles/kml/pushpin/ylw-pushpin.png</href>
                    </Icon>
                </IconStyle>
            </Style>
            <Style id="665">
                <IconStyle id="666">
                    <color>ffff0000</color>
                    <colorMode>normal</colorMode>
                    <scale>1</scale>
                    <heading>0</heading>
                    <Icon id="667">
                        <href>http://maps.google.com/mapfiles/kml/pushpin/ylw-pushpin.png</href>
                    </Icon>
                </IconStyle>
            </Style>
            <name>ZOILA ALBERTINA DE JESUS MORANTE CARRASCO</name>
            <Placemark id="524">
                <name>MIRIAN ELIZABETH GUERRERO NAVARRO</name>
                <description>HUALLAYA 312 PACHITEA Piura-Piura
Piura
Piura
Piura
Perú</description>
                <styleUrl>#525</styleUrl>
                <Point id="523">
                    <coordinates>-80.6303277,-5.1895541,0.0</coordinates>
                </Point>
            </Placemark>
            <Placemark id="529">
                <name>MARIA ELIDA CARRASCO CABRERA</name>
                <description>MARIA ELIDA CARRASCO CABRERA
MZ M LT 23 2DA. ETAPA MIRAFLORES - pared lateral colegio San Gabriel
Castilla
Piura
Piura
Perú</description>
                <styleUrl>#530</styleUrl>
                <Point id="528">
                    <coordinates>-80.6214543,-5.1848703,0.0</coordinates>
                </Point>
            </Placemark>
            <Placemark id="534">
                <name>HEYLLY SADITH CHOTA CHINGUEL</name>
                <description>MZ d lote 15 ASC villa universitaria
Castilla

Piura
Perú</description>
                <styleUrl>#535</styleUrl>
                <Point id="533">
                    <coordinates>-80.582475,-5.182572,0.0</coordinates>
                </Point>
            </Placemark>
            <Placemark id="539">
                <name>CONTRERAS MARCELIANO SANDRA MAGDALENA</name>
                <description>CONTRERAS MARCELIANO SANDRA MAGDALENA
Urb Las Palmeras I Etapa, av Las Palmeras sub lote 93 A Mz C3 Castilla, Piura, Piura
Castilla

Piura
Perú</description>
                <styleUrl>#540</styleUrl>
                <Point id="538">
                    <coordinates>-80.633202,-5.229448,0.0</coordinates>
                </Point>
            </Placemark>
            <Placemark id="544">
                <name>CONTRERAS MARCELIANO SANDRA MAGDALENA</name>
                <description>CONTRERAS MARCELIANO SANDRA MAGDALENA
Urb Las Palmeras I Etapa, av Las Palmeras sub lote 93 A Mz C3 Castilla, Piura, Piura
Castilla

Piura
Perú</description>
                <styleUrl>#545</styleUrl>
                <Point id="543">
                    <coordinates>-80.633202,-5.229448,0.0</coordinates>
                </Point>
            </Placemark>
            <Placemark id="549">
                <name>OASIS SUPERMERCADOS S.A.C.</name>
                <description>Urbanización Las Palmeras -centenario MZ B lote 15
Castilla
200104Castilla
Piura
Perú</description>
                <styleUrl>#550</styleUrl>
                <Point id="548">
                    <coordinates>-80.6326304,-5.2250136,0.0</coordinates>
                </Point>
            </Placemark>
            <Placemark id="554">
                <name>JENNY SANDRA HIDALGO MIRANDA</name>
                <description>URB. MONTE VERDE MZ.D LT.11   
Castilla
Piura
Piura
Perú</description>
                <styleUrl>#555</styleUrl>
                <Point id="553">
                    <coordinates>-80.636791,-5.23031,0.0</coordinates>
                </Point>
            </Placemark>
            <Placemark id="559">
                <name>SANTOS TOCTO LABAN</name>
                <description>Mz G LTE 13 Upis. PUEBLO LIBRE
Castilla
Castilla
Piura
Perú</description>
                <styleUrl>#560</styleUrl>
                <Point id="558">
                    <coordinates>-80.5799816,-5.180551,0.0</coordinates>
                </Point>
            </Placemark>
            <Placemark id="564">
                <name>JUAN OCTAVIO QUINDE JUMBO</name>
                <description>MARAÑON LAMBAYEQUE #385 Piura-Piura
Piura
Piura
Piura
Perú</description>
                <styleUrl>#565</styleUrl>
                <Point id="563">
                    <coordinates>-80.629546,-5.1905161,0.0</coordinates>
                </Point>
            </Placemark>
            <Placemark id="569">
                <name>DENNY ANGHELO NOBLECILLA AREVALO</name>
                <description>URB.MIRAFLORES 2 ETP MZ N LT 7 CASTILLASOC
Castilla
Piura
Piura
Perú</description>
                <styleUrl>#570</styleUrl>
                <Point id="568">
                    <coordinates>-80.622057,-5.1850346,0.0</coordinates>
                </Point>
            </Placemark>
            <Placemark id="574">
                <name>MARIA ELIDA CARRASCO CABRERA</name>
                <description>MARIA ELIDA CARRASCO CABRERA
MZ M LT 23 2DA. ETAPA MIRAFLORES - pared lateral colegio San Gabriel
Castilla
Piura
Piura
Perú</description>
                <styleUrl>#575</styleUrl>
                <Point id="573">
                    <coordinates>-80.6214543,-5.1848703,0.0</coordinates>
                </Point>
            </Placemark>
            <Placemark id="579">
                <name>CINTHIA MARIELLA CRUZ ORTIZ</name>
                <description>CINTHIA MARIELLA CRUZ ORTIZ
AV. LUIS MONTERO MZ Z LT 2 URB.MIRA
Castilla
Castilla
Piura
Perú</description>
                <styleUrl>#580</styleUrl>
                <Point id="578">
                    <coordinates>-80.617903,-5.1886279,0.0</coordinates>
                </Point>
            </Placemark>
            <Placemark id="584">
                <name>GUZMAN DIAZ ROCIO DE FATIMA</name>
                <description>CA.JOSE OLAYA 211 INT 1 CASTIL
Castilla

Piura
Perú</description>
                <styleUrl>#585</styleUrl>
                <Point id="583">
                    <coordinates>-80.6212777,-5.1965187,0.0</coordinates>
                </Point>
            </Placemark>
            <Placemark id="589">
                <name>BERRU VILLEGAS KARINA DOMENICA</name>
                <description>AV CAYETANO HEREDIA 1100 - INTERIOR HOSPITAL MILITAR - COMEDOR Comedor del hospital militar
Castilla
Piura
Piura
Perú</description>
                <styleUrl>#590</styleUrl>
                <Point id="588">
                    <coordinates>-80.6200949,-5.1960544,0.0</coordinates>
                </Point>
            </Placemark>
            <Placemark id="594">
                <name>ALEXY GUARDADO LYNCH</name>
                <description>1 ERA PACHITEA 200 ASENTAMIENTO HUMANO PACHITEA REFERENCIA A 2NCUADRAS DE REGISTRO PUBLICOS
Piura
Piura
Piura
Perú</description>
                <styleUrl>#595</styleUrl>
                <Point id="593">
                    <coordinates>-80.6302299,-5.1880373,0.0</coordinates>
                </Point>
            </Placemark>
            <Placemark id="599">
                <name>ANHUAMAN ASENCIO SANTOS JESUS</name>
                <description>CA.SAN PEDRO S/N ASOC. VILLA FAP
Castilla
Piura
Piura
Perú</description>
                <styleUrl>#600</styleUrl>
                <Point id="598">
                    <coordinates>-80.618179,-5.195508,0.0</coordinates>
                </Point>
            </Placemark>
            <Placemark id="604">
                <name>YENY ELIZABETH BALLESTEROS MOGOLLON</name>
                <description>CALLE LOS CLAVELES MZN.X LOTE 8 URB. MIRAFLORES 1ERA ETAPA
Castilla

Piura
Perú</description>
                <styleUrl>#605</styleUrl>
                <Point id="603">
                    <coordinates>-80.619299,-5.190485,0.0</coordinates>
                </Point>
            </Placemark>
            <Placemark id="609">
                <name>FABIOLA MONJARAS RUIZ DE SOMOCURCIO</name>
                <description>FABIOLA MONJARAS RUIZ DE SOMOCURCIO
CA.CAPULIES MZ Ñ LT 10 URB.MIRAFLORES - CASTILLA
Castilla

Piura
Perú</description>
                <styleUrl>#610</styleUrl>
                <Point id="608">
                    <coordinates>-80.6208089,-5.1924447,0.0</coordinates>
                </Point>
            </Placemark>
            <Placemark id="614">
                <name>RAQUEL MA VALDIVIEZO PALACIOS DE S.</name>
                <description>LOS CARDOS MZC1 LTE.16 I ETAPA MIRAFLORES
Castilla
Piura
Piura
Perú</description>
                <styleUrl>#615</styleUrl>
                <Point id="613">
                    <coordinates>-80.6211225,-5.1887699,0.0</coordinates>
                </Point>
            </Placemark>
            <Placemark id="619">
                <name>ROSA BERTHA MORALES SANCHEZ</name>
                <description>CUZCO 116-BARRIO NORTE-Piura  
Piura
Piura
Piura
Perú</description>
                <styleUrl>#620</styleUrl>
                <Point id="618">
                    <coordinates>-80.6260943,-5.1899606,0.0</coordinates>
                </Point>
            </Placemark>
            <Placemark id="624">
                <name>ESTHER LILIANA CORDOVA LESCANO</name>
                <description>CA.CAJAMARCA. 614 PACHITEA - PIURA
Piura

Piura
Perú</description>
                <styleUrl>#625</styleUrl>
                <Point id="623">
                    <coordinates>-80.6281026,-5.1902732,0.0</coordinates>
                </Point>
            </Placemark>
            <Placemark id="629">
                <name>MARIA DEL PILAR CABRERA CASTILLO</name>
                <description>1ERA DE PACHITEA #185 PACHITEA-Piura
Piura
Piura
Piura
Perú</description>
                <styleUrl>#630</styleUrl>
                <Point id="628">
                    <coordinates>-80.6301715,-5.1879894,0.0</coordinates>
                </Point>
            </Placemark>
            <Placemark id="634">
                <name>MILAGROS BONILLA FERNANDEZ</name>
                <description>CA.PACHITEA 280               
Piura
Piura
Piura
Perú</description>
                <styleUrl>#635</styleUrl>
                <Point id="633">
                    <coordinates>-80.6307884,-5.1890164,0.0</coordinates>
                </Point>
            </Placemark>
            <Placemark id="639">
                <name>VIOLETA DEL PILAR ALVARADO ALVARADO</name>
                <description>INTERIOR PLAZA DEL MAR PUESTO B-16
Piura
Piura
Piura
Perú</description>
                <styleUrl>#640</styleUrl>
                <Point id="638">
                    <coordinates>-80.633715,-5.186475,0.0</coordinates>
                </Point>
            </Placemark>
            <Placemark id="644">
                <name>GALLO VARGAS ANA MARIA</name>
                <description>JR.SAN MARTIN 804 PACHITEA    
Piura
Piura
Piura
Perú</description>
                <styleUrl>#645</styleUrl>
                <Point id="643">
                    <coordinates>-80.631856,-5.187066,0.0</coordinates>
                </Point>
            </Placemark>
            <Placemark id="649">
                <name>KELLY KARINA SILUPU GARCIA</name>
                <description>CALLE AMAZONAS 150 Piura
Piura
Piura
Piura
Perú</description>
                <styleUrl>#650</styleUrl>
                <Point id="648">
                    <coordinates>-80.6288382,-5.1879418,0.0</coordinates>
                </Point>
            </Placemark>
            <Placemark id="654">
                <name>ZAPATA MENA SOCORRO DEL P.</name>
                <description>SAN CRISTOBAL 292 B NORTE     
Piura
Piura
Piura
Perú</description>
                <styleUrl>#655</styleUrl>
                <Point id="653">
                    <coordinates>-80.6273032,-5.1864129,0.0</coordinates>
                </Point>
            </Placemark>
            <Placemark id="659">
                <name>NEGOCIOS DIMAR EMPRESA INDIVIDUAL DE RESPONSABILIDAD LIMITADA</name>
                <description>JR. JUNIN NRO. 262 PIURA CERCADO
Piura
200101Piura
Piura
Perú</description>
                <styleUrl>#660</styleUrl>
                <Point id="658">
                    <coordinates>-80.6274353,-5.1913207,0.0</coordinates>
                </Point>
            </Placemark>
            <Placemark id="664">
                <name>FRANCISCA ELVIRA ABAD BOYER</name>
                <description>JUNIN 505-N¬268-Piura-Piura
Piura
Piura
Piura
Perú</description>
                <styleUrl>#665</styleUrl>
                <Point id="663">
                    <coordinates>-80.6275189,-5.1913476,0.0</coordinates>
                </Point>
            </Placemark>
        </Folder>
    </Document>
</kml>
