<?xml version="1.0" encoding="UTF-8"?>
<kml xmlns="http://www.opengis.net/kml/2.2" xmlns:gx="http://www.google.com/kml/ext/2.2">
    <Document id="1398">
        <Folder id="1399">
            <Style id="1402">
                <IconStyle id="1403">
                    <color>ff0000ff</color>
                    <colorMode>normal</colorMode>
                    <scale>1</scale>
                    <heading>0</heading>
                    <Icon id="1404">
                        <href>http://maps.google.com/mapfiles/kml/pushpin/ylw-pushpin.png</href>
                    </Icon>
                </IconStyle>
            </Style>
            <Style id="1407">
                <IconStyle id="1408">
                    <color>ff0000ff</color>
                    <colorMode>normal</colorMode>
                    <scale>1</scale>
                    <heading>0</heading>
                    <Icon id="1409">
                        <href>http://maps.google.com/mapfiles/kml/pushpin/ylw-pushpin.png</href>
                    </Icon>
                </IconStyle>
            </Style>
            <Style id="1412">
                <IconStyle id="1413">
                    <color>ff0000ff</color>
                    <colorMode>normal</colorMode>
                    <scale>1</scale>
                    <heading>0</heading>
                    <Icon id="1414">
                        <href>http://maps.google.com/mapfiles/kml/pushpin/ylw-pushpin.png</href>
                    </Icon>
                </IconStyle>
            </Style>
            <Style id="1417">
                <IconStyle id="1418">
                    <color>ff0000ff</color>
                    <colorMode>normal</colorMode>
                    <scale>1</scale>
                    <heading>0</heading>
                    <Icon id="1419">
                        <href>http://maps.google.com/mapfiles/kml/pushpin/ylw-pushpin.png</href>
                    </Icon>
                </IconStyle>
            </Style>
            <Style id="1422">
                <IconStyle id="1423">
                    <color>ff0000ff</color>
                    <colorMode>normal</colorMode>
                    <scale>1</scale>
                    <heading>0</heading>
                    <Icon id="1424">
                        <href>http://maps.google.com/mapfiles/kml/pushpin/ylw-pushpin.png</href>
                    </Icon>
                </IconStyle>
            </Style>
            <Style id="1427">
                <IconStyle id="1428">
                    <color>ff0000ff</color>
                    <colorMode>normal</colorMode>
                    <scale>1</scale>
                    <heading>0</heading>
                    <Icon id="1429">
                        <href>http://maps.google.com/mapfiles/kml/pushpin/ylw-pushpin.png</href>
                    </Icon>
                </IconStyle>
            </Style>
            <Style id="1432">
                <IconStyle id="1433">
                    <color>ff0000ff</color>
                    <colorMode>normal</colorMode>
                    <scale>1</scale>
                    <heading>0</heading>
                    <Icon id="1434">
                        <href>http://maps.google.com/mapfiles/kml/pushpin/ylw-pushpin.png</href>
                    </Icon>
                </IconStyle>
            </Style>
            <Style id="1437">
                <IconStyle id="1438">
                    <color>ff0000ff</color>
                    <colorMode>normal</colorMode>
                    <scale>1</scale>
                    <heading>0</heading>
                    <Icon id="1439">
                        <href>http://maps.google.com/mapfiles/kml/pushpin/ylw-pushpin.png</href>
                    </Icon>
                </IconStyle>
            </Style>
            <Style id="1442">
                <IconStyle id="1443">
                    <color>ff0000ff</color>
                    <colorMode>normal</colorMode>
                    <scale>1</scale>
                    <heading>0</heading>
                    <Icon id="1444">
                        <href>http://maps.google.com/mapfiles/kml/pushpin/ylw-pushpin.png</href>
                    </Icon>
                </IconStyle>
            </Style>
            <Style id="1447">
                <IconStyle id="1448">
                    <color>ff0000ff</color>
                    <colorMode>normal</colorMode>
                    <scale>1</scale>
                    <heading>0</heading>
                    <Icon id="1449">
                        <href>http://maps.google.com/mapfiles/kml/pushpin/ylw-pushpin.png</href>
                    </Icon>
                </IconStyle>
            </Style>
            <Style id="1452">
                <IconStyle id="1453">
                    <color>ff0000ff</color>
                    <colorMode>normal</colorMode>
                    <scale>1</scale>
                    <heading>0</heading>
                    <Icon id="1454">
                        <href>http://maps.google.com/mapfiles/kml/pushpin/ylw-pushpin.png</href>
                    </Icon>
                </IconStyle>
            </Style>
            <Style id="1457">
                <IconStyle id="1458">
                    <color>ff0000ff</color>
                    <colorMode>normal</colorMode>
                    <scale>1</scale>
                    <heading>0</heading>
                    <Icon id="1459">
                        <href>http://maps.google.com/mapfiles/kml/pushpin/ylw-pushpin.png</href>
                    </Icon>
                </IconStyle>
            </Style>
            <Style id="1462">
                <IconStyle id="1463">
                    <color>ff0000ff</color>
                    <colorMode>normal</colorMode>
                    <scale>1</scale>
                    <heading>0</heading>
                    <Icon id="1464">
                        <href>http://maps.google.com/mapfiles/kml/pushpin/ylw-pushpin.png</href>
                    </Icon>
                </IconStyle>
            </Style>
            <Style id="1467">
                <IconStyle id="1468">
                    <color>ff0000ff</color>
                    <colorMode>normal</colorMode>
                    <scale>1</scale>
                    <heading>0</heading>
                    <Icon id="1469">
                        <href>http://maps.google.com/mapfiles/kml/pushpin/ylw-pushpin.png</href>
                    </Icon>
                </IconStyle>
            </Style>
            <Style id="1472">
                <IconStyle id="1473">
                    <color>ff0000ff</color>
                    <colorMode>normal</colorMode>
                    <scale>1</scale>
                    <heading>0</heading>
                    <Icon id="1474">
                        <href>http://maps.google.com/mapfiles/kml/pushpin/ylw-pushpin.png</href>
                    </Icon>
                </IconStyle>
            </Style>
            <Style id="1477">
                <IconStyle id="1478">
                    <color>ff0000ff</color>
                    <colorMode>normal</colorMode>
                    <scale>1</scale>
                    <heading>0</heading>
                    <Icon id="1479">
                        <href>http://maps.google.com/mapfiles/kml/pushpin/ylw-pushpin.png</href>
                    </Icon>
                </IconStyle>
            </Style>
            <Style id="1482">
                <IconStyle id="1483">
                    <color>ff0000ff</color>
                    <colorMode>normal</colorMode>
                    <scale>1</scale>
                    <heading>0</heading>
                    <Icon id="1484">
                        <href>http://maps.google.com/mapfiles/kml/pushpin/ylw-pushpin.png</href>
                    </Icon>
                </IconStyle>
            </Style>
            <Style id="1487">
                <IconStyle id="1488">
                    <color>ff0000ff</color>
                    <colorMode>normal</colorMode>
                    <scale>1</scale>
                    <heading>0</heading>
                    <Icon id="1489">
                        <href>http://maps.google.com/mapfiles/kml/pushpin/ylw-pushpin.png</href>
                    </Icon>
                </IconStyle>
            </Style>
            <Style id="1492">
                <IconStyle id="1493">
                    <color>ff0000ff</color>
                    <colorMode>normal</colorMode>
                    <scale>1</scale>
                    <heading>0</heading>
                    <Icon id="1494">
                        <href>http://maps.google.com/mapfiles/kml/pushpin/ylw-pushpin.png</href>
                    </Icon>
                </IconStyle>
            </Style>
            <Style id="1497">
                <IconStyle id="1498">
                    <color>ff0000ff</color>
                    <colorMode>normal</colorMode>
                    <scale>1</scale>
                    <heading>0</heading>
                    <Icon id="1499">
                        <href>http://maps.google.com/mapfiles/kml/pushpin/ylw-pushpin.png</href>
                    </Icon>
                </IconStyle>
            </Style>
            <Style id="1502">
                <IconStyle id="1503">
                    <color>ff0000ff</color>
                    <colorMode>normal</colorMode>
                    <scale>1</scale>
                    <heading>0</heading>
                    <Icon id="1504">
                        <href>http://maps.google.com/mapfiles/kml/pushpin/ylw-pushpin.png</href>
                    </Icon>
                </IconStyle>
            </Style>
            <Style id="1507">
                <IconStyle id="1508">
                    <color>ff0000ff</color>
                    <colorMode>normal</colorMode>
                    <scale>1</scale>
                    <heading>0</heading>
                    <Icon id="1509">
                        <href>http://maps.google.com/mapfiles/kml/pushpin/ylw-pushpin.png</href>
                    </Icon>
                </IconStyle>
            </Style>
            <Style id="1512">
                <IconStyle id="1513">
                    <color>ff0000ff</color>
                    <colorMode>normal</colorMode>
                    <scale>1</scale>
                    <heading>0</heading>
                    <Icon id="1514">
                        <href>http://maps.google.com/mapfiles/kml/pushpin/ylw-pushpin.png</href>
                    </Icon>
                </IconStyle>
            </Style>
            <Style id="1517">
                <IconStyle id="1518">
                    <color>ff0000ff</color>
                    <colorMode>normal</colorMode>
                    <scale>1</scale>
                    <heading>0</heading>
                    <Icon id="1519">
                        <href>http://maps.google.com/mapfiles/kml/pushpin/ylw-pushpin.png</href>
                    </Icon>
                </IconStyle>
            </Style>
            <Style id="1522">
                <IconStyle id="1523">
                    <color>ff0000ff</color>
                    <colorMode>normal</colorMode>
                    <scale>1</scale>
                    <heading>0</heading>
                    <Icon id="1524">
                        <href>http://maps.google.com/mapfiles/kml/pushpin/ylw-pushpin.png</href>
                    </Icon>
                </IconStyle>
            </Style>
            <Style id="1527">
                <IconStyle id="1528">
                    <color>ff0000ff</color>
                    <colorMode>normal</colorMode>
                    <scale>1</scale>
                    <heading>0</heading>
                    <Icon id="1529">
                        <href>http://maps.google.com/mapfiles/kml/pushpin/ylw-pushpin.png</href>
                    </Icon>
                </IconStyle>
            </Style>
            <Style id="1532">
                <IconStyle id="1533">
                    <color>ff0000ff</color>
                    <colorMode>normal</colorMode>
                    <scale>1</scale>
                    <heading>0</heading>
                    <Icon id="1534">
                        <href>http://maps.google.com/mapfiles/kml/pushpin/ylw-pushpin.png</href>
                    </Icon>
                </IconStyle>
            </Style>
            <Style id="1537">
                <IconStyle id="1538">
                    <color>ff0000ff</color>
                    <colorMode>normal</colorMode>
                    <scale>1</scale>
                    <heading>0</heading>
                    <Icon id="1539">
                        <href>http://maps.google.com/mapfiles/kml/pushpin/ylw-pushpin.png</href>
                    </Icon>
                </IconStyle>
            </Style>
            <Style id="1542">
                <IconStyle id="1543">
                    <color>ff0000ff</color>
                    <colorMode>normal</colorMode>
                    <scale>1</scale>
                    <heading>0</heading>
                    <Icon id="1544">
                        <href>http://maps.google.com/mapfiles/kml/pushpin/ylw-pushpin.png</href>
                    </Icon>
                </IconStyle>
            </Style>
            <Style id="1547">
                <IconStyle id="1548">
                    <color>ff0000ff</color>
                    <colorMode>normal</colorMode>
                    <scale>1</scale>
                    <heading>0</heading>
                    <Icon id="1549">
                        <href>http://maps.google.com/mapfiles/kml/pushpin/ylw-pushpin.png</href>
                    </Icon>
                </IconStyle>
            </Style>
            <Style id="1552">
                <IconStyle id="1553">
                    <color>ff0000ff</color>
                    <colorMode>normal</colorMode>
                    <scale>1</scale>
                    <heading>0</heading>
                    <Icon id="1554">
                        <href>http://maps.google.com/mapfiles/kml/pushpin/ylw-pushpin.png</href>
                    </Icon>
                </IconStyle>
            </Style>
            <Style id="1557">
                <IconStyle id="1558">
                    <color>ff0000ff</color>
                    <colorMode>normal</colorMode>
                    <scale>1</scale>
                    <heading>0</heading>
                    <Icon id="1559">
                        <href>http://maps.google.com/mapfiles/kml/pushpin/ylw-pushpin.png</href>
                    </Icon>
                </IconStyle>
            </Style>
            <Style id="1562">
                <IconStyle id="1563">
                    <color>ff0000ff</color>
                    <colorMode>normal</colorMode>
                    <scale>1</scale>
                    <heading>0</heading>
                    <Icon id="1564">
                        <href>http://maps.google.com/mapfiles/kml/pushpin/ylw-pushpin.png</href>
                    </Icon>
                </IconStyle>
            </Style>
            <Style id="1567">
                <IconStyle id="1568">
                    <color>ff0000ff</color>
                    <colorMode>normal</colorMode>
                    <scale>1</scale>
                    <heading>0</heading>
                    <Icon id="1569">
                        <href>http://maps.google.com/mapfiles/kml/pushpin/ylw-pushpin.png</href>
                    </Icon>
                </IconStyle>
            </Style>
            <Style id="1572">
                <IconStyle id="1573">
                    <color>ff0000ff</color>
                    <colorMode>normal</colorMode>
                    <scale>1</scale>
                    <heading>0</heading>
                    <Icon id="1574">
                        <href>http://maps.google.com/mapfiles/kml/pushpin/ylw-pushpin.png</href>
                    </Icon>
                </IconStyle>
            </Style>
            <Style id="1577">
                <IconStyle id="1578">
                    <color>ff0000ff</color>
                    <colorMode>normal</colorMode>
                    <scale>1</scale>
                    <heading>0</heading>
                    <Icon id="1579">
                        <href>http://maps.google.com/mapfiles/kml/pushpin/ylw-pushpin.png</href>
                    </Icon>
                </IconStyle>
            </Style>
            <Style id="1582">
                <IconStyle id="1583">
                    <color>ff0000ff</color>
                    <colorMode>normal</colorMode>
                    <scale>1</scale>
                    <heading>0</heading>
                    <Icon id="1584">
                        <href>http://maps.google.com/mapfiles/kml/pushpin/ylw-pushpin.png</href>
                    </Icon>
                </IconStyle>
            </Style>
            <Style id="1587">
                <IconStyle id="1588">
                    <color>ff0000ff</color>
                    <colorMode>normal</colorMode>
                    <scale>1</scale>
                    <heading>0</heading>
                    <Icon id="1589">
                        <href>http://maps.google.com/mapfiles/kml/pushpin/ylw-pushpin.png</href>
                    </Icon>
                </IconStyle>
            </Style>
            <Style id="1592">
                <IconStyle id="1593">
                    <color>ff0000ff</color>
                    <colorMode>normal</colorMode>
                    <scale>1</scale>
                    <heading>0</heading>
                    <Icon id="1594">
                        <href>http://maps.google.com/mapfiles/kml/pushpin/ylw-pushpin.png</href>
                    </Icon>
                </IconStyle>
            </Style>
            <Style id="1597">
                <IconStyle id="1598">
                    <color>ff0000ff</color>
                    <colorMode>normal</colorMode>
                    <scale>1</scale>
                    <heading>0</heading>
                    <Icon id="1599">
                        <href>http://maps.google.com/mapfiles/kml/pushpin/ylw-pushpin.png</href>
                    </Icon>
                </IconStyle>
            </Style>
            <Style id="1602">
                <IconStyle id="1603">
                    <color>ff0000ff</color>
                    <colorMode>normal</colorMode>
                    <scale>1</scale>
                    <heading>0</heading>
                    <Icon id="1604">
                        <href>http://maps.google.com/mapfiles/kml/pushpin/ylw-pushpin.png</href>
                    </Icon>
                </IconStyle>
            </Style>
            <Style id="1607">
                <IconStyle id="1608">
                    <color>ff0000ff</color>
                    <colorMode>normal</colorMode>
                    <scale>1</scale>
                    <heading>0</heading>
                    <Icon id="1609">
                        <href>http://maps.google.com/mapfiles/kml/pushpin/ylw-pushpin.png</href>
                    </Icon>
                </IconStyle>
            </Style>
            <Style id="1612">
                <IconStyle id="1613">
                    <color>ff0000ff</color>
                    <colorMode>normal</colorMode>
                    <scale>1</scale>
                    <heading>0</heading>
                    <Icon id="1614">
                        <href>http://maps.google.com/mapfiles/kml/pushpin/ylw-pushpin.png</href>
                    </Icon>
                </IconStyle>
            </Style>
            <Style id="1617">
                <IconStyle id="1618">
                    <color>ff0000ff</color>
                    <colorMode>normal</colorMode>
                    <scale>1</scale>
                    <heading>0</heading>
                    <Icon id="1619">
                        <href>http://maps.google.com/mapfiles/kml/pushpin/ylw-pushpin.png</href>
                    </Icon>
                </IconStyle>
            </Style>
            <Style id="1622">
                <IconStyle id="1623">
                    <color>ff0000ff</color>
                    <colorMode>normal</colorMode>
                    <scale>1</scale>
                    <heading>0</heading>
                    <Icon id="1624">
                        <href>http://maps.google.com/mapfiles/kml/pushpin/ylw-pushpin.png</href>
                    </Icon>
                </IconStyle>
            </Style>
            <Style id="1627">
                <IconStyle id="1628">
                    <color>ff0000ff</color>
                    <colorMode>normal</colorMode>
                    <scale>1</scale>
                    <heading>0</heading>
                    <Icon id="1629">
                        <href>http://maps.google.com/mapfiles/kml/pushpin/ylw-pushpin.png</href>
                    </Icon>
                </IconStyle>
            </Style>
            <Style id="1632">
                <IconStyle id="1633">
                    <color>ff0000ff</color>
                    <colorMode>normal</colorMode>
                    <scale>1</scale>
                    <heading>0</heading>
                    <Icon id="1634">
                        <href>http://maps.google.com/mapfiles/kml/pushpin/ylw-pushpin.png</href>
                    </Icon>
                </IconStyle>
            </Style>
            <Style id="1637">
                <IconStyle id="1638">
                    <color>ff0000ff</color>
                    <colorMode>normal</colorMode>
                    <scale>1</scale>
                    <heading>0</heading>
                    <Icon id="1639">
                        <href>http://maps.google.com/mapfiles/kml/pushpin/ylw-pushpin.png</href>
                    </Icon>
                </IconStyle>
            </Style>
            <name>JOSE DAVID QUISPE RENTERIA</name>
            <Placemark id="1401">
                <name>SORAYA NATALIA TENORIO LLACTAHUAMAN</name>
                <description>MERCADO SAN FRANCISCO M-6
Castilla
Castilla
Piura
Perú</description>
                <styleUrl>#1402</styleUrl>
                <Point id="1400">
                    <coordinates>-80.58699,-5.185744,0.0</coordinates>
                </Point>
            </Placemark>
            <Placemark id="1406">
                <name>MARIA MATILDE RIVAS PEÑA</name>
                <description>MZ B D1 lt 22   Ah Ricardo Jauregui
Veintiséis de Octubre
Veintiséis de Octubre
Piura
Perú</description>
                <styleUrl>#1407</styleUrl>
                <Point id="1405">
                    <coordinates>-80.652333,-5.196675,0.0</coordinates>
                </Point>
            </Placemark>
            <Placemark id="1411">
                <name>MARIA ANGELICA CORDOVA PEÑA</name>
                <description>CA.YUGOSLAVIA MZ B LT 11 AA. HH JORGE CHAVEZ - PIURA
Veintiséis de Octubre
Piura
Piura
Perú</description>
                <styleUrl>#1412</styleUrl>
                <Point id="1410">
                    <coordinates>-80.6533238,-5.1978343,0.0</coordinates>
                </Point>
            </Placemark>
            <Placemark id="1416">
                <name>SOCORRO PANTA DE GIRON</name>
                <description>MZ.G1 LTE.16 AA.HH RICARDO JAUREGUI
Veintiséis de Octubre
Piura
Piura
Perú</description>
                <styleUrl>#1417</styleUrl>
                <Point id="1415">
                    <coordinates>-80.651919,-5.196797,0.0</coordinates>
                </Point>
            </Placemark>
            <Placemark id="1421">
                <name>STEFHANIE KAROL CAMINO CARHUATOCTO</name>
                <description>MzC1 lote 5 Ricardo Jauregui
Veintiséis de Octubre
Veintiséis de Octubre
Piura
Perú</description>
                <styleUrl>#1422</styleUrl>
                <Point id="1420">
                    <coordinates>-80.653254,-5.195696,0.0</coordinates>
                </Point>
            </Placemark>
            <Placemark id="1426">
                <name>MARIELLA ELIZABETH MENDOZA PALACIOS</name>
                <description>MZ.D1 LT.26 AH RICARDO JAUREGU
Veintiséis de Octubre
Veintiséis de Octubre
Piura
Perú</description>
                <styleUrl>#1427</styleUrl>
                <Point id="1425">
                    <coordinates>-80.6526739,-5.1963216,0.0</coordinates>
                </Point>
            </Placemark>
            <Placemark id="1431">
                <name>ANA MELVA NAVARRO TRONCOS</name>
                <description>ANA MELVA NAVARRO TRONCOS
MZ K5 LT 16 AH. TUPAC AMA'- PIUR
Veintiséis de Octubre
Piura
Piura
Perú</description>
                <styleUrl>#1432</styleUrl>
                <Point id="1430">
                    <coordinates>-80.6564964,-5.1968592,0.0</coordinates>
                </Point>
            </Placemark>
            <Placemark id="1436">
                <name>QUINTANA SULLON JHEFEERSON</name>
                <description>TUPAC AMARU II.ETP.MZ.A LT.22 
Veintiséis de Octubre

Piura
Perú</description>
                <styleUrl>#1437</styleUrl>
                <Point id="1435">
                    <coordinates>-80.656563,-5.197077,0.0</coordinates>
                </Point>
            </Placemark>
            <Placemark id="1441">
                <name>CLAUDIA MARIELLA ALVAREZ ARROYO</name>
                <description>TUPAC AMARU II MZ D LT13 26 DE OCTUBRE-Piura
Veintiséis de Octubre
Veintiséis de Octubre
Piura
Perú</description>
                <styleUrl>#1442</styleUrl>
                <Point id="1440">
                    <coordinates>-80.6573912,-5.1970761,0.0</coordinates>
                </Point>
            </Placemark>
            <Placemark id="1446">
                <name>DELMA DIANA RUESTA NIMA</name>
                <description>MZ.F LT.08 TUPAC AMARU II.ETP 
Veintiséis de Octubre
Piura
Piura
Perú</description>
                <styleUrl>#1447</styleUrl>
                <Point id="1445">
                    <coordinates>-80.655817,-5.197896,0.0</coordinates>
                </Point>
            </Placemark>
            <Placemark id="1451">
                <name>RICARDO JIMENEZ GOMEZ</name>
                <description>Calle las américas mz I LOTE 5 Tupac amaru 2da etapa
Veintiséis de Octubre
Piura
Piura
Perú</description>
                <styleUrl>#1452</styleUrl>
                <Point id="1450">
                    <coordinates>-80.6562674,-5.1984562,0.0</coordinates>
                </Point>
            </Placemark>
            <Placemark id="1456">
                <name>DELIA ELIZABETH YAIPEN GONZALES</name>
                <description>Mz H LTE 6 AA.HH TUPAC AMARU II ( COMEDOR POPULAR VIRGEN DE LA PUERTA)
Veintiséis de Octubre
Veintiséis de Octubre
Piura
Perú</description>
                <styleUrl>#1457</styleUrl>
                <Point id="1455">
                    <coordinates>-80.6570571,-5.1981159,0.0</coordinates>
                </Point>
            </Placemark>
            <Placemark id="1461">
                <name>TERESA JESUS SILUPU NIMA</name>
                <description>TERESA JESUS SILUPU NIMA
CA.SIMON BOLIVAR MZ.K LTE.16 T.AMARU
Veintiséis de Octubre
Piura
Piura
Perú</description>
                <styleUrl>#1462</styleUrl>
                <Point id="1460">
                    <coordinates>-80.6561535,-5.1988846,0.0</coordinates>
                </Point>
            </Placemark>
            <Placemark id="1466">
                <name>YOLANDA RIVERA FLORES</name>
                <description>TUPAC AMARU II ETAPA MZ R LT9 26 DE OCTUBRE-Piura
Veintiséis de Octubre
Veintiséis de Octubre
Piura
Perú</description>
                <styleUrl>#1467</styleUrl>
                <Point id="1465">
                    <coordinates>-80.6586718,-5.1988096,0.0</coordinates>
                </Point>
            </Placemark>
            <Placemark id="1471">
                <name>EMERITA HERRERA MARCHAN</name>
                <description>EMERITA HERRERA MARCHAN
CA.SAN FRANCISCO MZ S LTE.7 II ETAPA T. AMARU
Veintiséis de Octubre
Piura
Piura
Perú</description>
                <styleUrl>#1472</styleUrl>
                <Point id="1470">
                    <coordinates>-80.6582742,-5.1990966,0.0</coordinates>
                </Point>
            </Placemark>
            <Placemark id="1476">
                <name>AROLDO CORREA SARANGO</name>
                <description>A.H.TUPAC AMARU MZ.S LT.9     
Veintiséis de Octubre
Veintiséis de Octubre
Piura
Perú</description>
                <styleUrl>#1477</styleUrl>
                <Point id="1475">
                    <coordinates>-80.658217,-5.199558,0.0</coordinates>
                </Point>
            </Placemark>
            <Placemark id="1481">
                <name>MARIA ESPER GARCIA ROJAS DE HERRERA</name>
                <description>AV.SAN MARTIN AA. HH TUPAC AMARU IIETAPA MZM LT.6
Veintiséis de Octubre

Piura
Perú</description>
                <styleUrl>#1482</styleUrl>
                <Point id="1480">
                    <coordinates>-80.6573947,-5.1996027,0.0</coordinates>
                </Point>
            </Placemark>
            <Placemark id="1486">
                <name>FATIMA CONCEPCION CEVALLOS RODRIGUEZ</name>
                <description>CALLE MEXICO TUPA AMARU 1 ETAPA MZ D5-18
Veintiséis de Octubre
Veintiséis de Octubre
Piura
Perú</description>
                <styleUrl>#1487</styleUrl>
                <Point id="1485">
                    <coordinates>-80.6561827,-5.1951473,0.0</coordinates>
                </Point>
            </Placemark>
            <Placemark id="1491">
                <name>MARIA DEL ROSARIO ALAMA MORAN</name>
                <description>HOLANDA B3-27 TUPAC AMARU 1 ETAPA
Veintiséis de Octubre
Veintiséis de Octubre
Piura
Perú</description>
                <styleUrl>#1492</styleUrl>
                <Point id="1490">
                    <coordinates>-80.6575037,-5.1952315,0.0</coordinates>
                </Point>
            </Placemark>
            <Placemark id="1496">
                <name>JUANA EMMA GUERRERO RODRIGUEZ</name>
                <description>CAAA. HHHOLANDA MZ B3 LT 26 AA. HH
Veintiséis de Octubre
Piura
Piura
Perú</description>
                <styleUrl>#1497</styleUrl>
                <Point id="1495">
                    <coordinates>-80.6574686,-5.1953144,0.0</coordinates>
                </Point>
            </Placemark>
            <Placemark id="1501">
                <name>JANET DEL CARMEN GUZMAN CARDOZA</name>
                <description>A.H.T.AMARU 3 ETP MZ.H3 LT.8  
Veintiséis de Octubre
Piura
Piura
Perú</description>
                <styleUrl>#1502</styleUrl>
                <Point id="1500">
                    <coordinates>-80.656404,-5.199411,0.0</coordinates>
                </Point>
            </Placemark>
            <Placemark id="1506">
                <name>ALAN MIGUEL TORRES MULATILLO</name>
                <description>MZ C3 lote 29 Tupac amaru 3era etapa , calle Italia
Veintiséis de Octubre
Veintiséis de Octubre
Piura
Perú</description>
                <styleUrl>#1507</styleUrl>
                <Point id="1505">
                    <coordinates>-80.657242,-5.200428,0.0</coordinates>
                </Point>
            </Placemark>
            <Placemark id="1511">
                <name>MARIA DEL PILAR YARLEQUE GALAN</name>
                <description>Manzana i3 lote 20 Túpac Amaru 3 etapa
Veintiséis de Octubre
Veintiséis de Octubre
Piura
Perú</description>
                <styleUrl>#1512</styleUrl>
                <Point id="1510">
                    <coordinates>-80.659965,-5.200403,0.0</coordinates>
                </Point>
            </Placemark>
            <Placemark id="1516">
                <name>EMMA VILIA CAMPOS VICENTE</name>
                <description>CALLE ABRAHAM DE VALDELOMAR MZ I3-32
Veintiséis de Octubre
Veintiséis de Octubre
Piura
Perú</description>
                <styleUrl>#1517</styleUrl>
                <Point id="1515">
                    <coordinates>-80.659504,-5.2010154,0.0</coordinates>
                </Point>
            </Placemark>
            <Placemark id="1521">
                <name>DALIA ZAPATA VILLEGAS</name>
                <description>MZ J3 lote 21 Tupac amaru 3era etapa , calle San Francisco
Veintiséis de Octubre
Veintiséis de Octubre
Piura
Perú</description>
                <styleUrl>#1522</styleUrl>
                <Point id="1520">
                    <coordinates>-80.6591288,-5.2012775,0.0</coordinates>
                </Point>
            </Placemark>
            <Placemark id="1526">
                <name>MONICA RUIZ PAZ</name>
                <description>K3-6 ET 3 AH TUPAC AMARU Piura
Veintiséis de Octubre
Veintiséis de Octubre
Piura
Perú</description>
                <styleUrl>#1527</styleUrl>
                <Point id="1525">
                    <coordinates>-80.6580721,-5.2013055,0.0</coordinates>
                </Point>
            </Placemark>
            <Placemark id="1531">
                <name>NELIDA FLORES LOPEZ</name>
                <description>K3-3 ET 3 AH TUPAC AMARU Piura
Veintiséis de Octubre
Veintiséis de Octubre
Piura
Perú</description>
                <styleUrl>#1532</styleUrl>
                <Point id="1530">
                    <coordinates>-80.6583925,-5.2013664,0.0</coordinates>
                </Point>
            </Placemark>
            <Placemark id="1536">
                <name>CARMEN ANITA CHUQUIHUANGA VACA</name>
                <description>Av. FRANCIA Mz. E Lt.3  A.H.JESUS NAZARETH
Veintiséis de Octubre
Veintiséis de Octubre
Piura
Perú</description>
                <styleUrl>#1537</styleUrl>
                <Point id="1535">
                    <coordinates>-80.6567954,-5.2061866,0.0</coordinates>
                </Point>
            </Placemark>
            <Placemark id="1541">
                <name>MARIA FANY MORENO CHUMACERO</name>
                <description>O3-19 ET 3 AHTUPAC AMARU PIURA
Veintiséis de Octubre
Piura
Piura
Perú</description>
                <styleUrl>#1542</styleUrl>
                <Point id="1540">
                    <coordinates>-80.656428,-5.200985,0.0</coordinates>
                </Point>
            </Placemark>
            <Placemark id="1546">
                <name>FRANCO GARCIA NARCISA DEL P</name>
                <description>A.H.JORGE CHAVEZ MZ.R LT.19   
Veintiséis de Octubre

Piura
Perú</description>
                <styleUrl>#1547</styleUrl>
                <Point id="1545">
                    <coordinates>-80.653452,-5.198651,0.0</coordinates>
                </Point>
            </Placemark>
            <Placemark id="1551">
                <name>ANASTACIA CUBAS TENORIO</name>
                <description>A.H.JORGE CHAVEZ I ETP MZ.H-36
Veintiséis de Octubre
Veintiséis de Octubre
Piura
Perú</description>
                <styleUrl>#1552</styleUrl>
                <Point id="1550">
                    <coordinates>-80.653607,-5.199506,0.0</coordinates>
                </Point>
            </Placemark>
            <Placemark id="1556">
                <name>MARIA ELIOFINA JUAREZ PALACIOS DE RUFINO</name>
                <description>MZH LT.18 AH. AAH.JORGE CHAVEZ
Veintiséis de Octubre
Piura
Piura
Perú</description>
                <styleUrl>#1557</styleUrl>
                <Point id="1555">
                    <coordinates>-80.6530843,-5.1994661,0.0</coordinates>
                </Point>
            </Placemark>
            <Placemark id="1561">
                <name>MARIA ROSA CHINININ DE YANGUA</name>
                <description>MZA A 23 ALFONSO UGARTE       
Veintiséis de Octubre
Piura
Piura
Perú</description>
                <styleUrl>#1562</styleUrl>
                <Point id="1560">
                    <coordinates>-80.6525159,-5.1995902,0.0</coordinates>
                </Point>
            </Placemark>
            <Placemark id="1566">
                <name>ROSA ISABEL MORILLO JUAREZ</name>
                <description>MZ A LOTE 7 AA.HH 26 DE AGOSTO
Veintiséis de Octubre
Veintiséis de Octubre
Piura
Perú</description>
                <styleUrl>#1567</styleUrl>
                <Point id="1565">
                    <coordinates>-80.6524812,-5.2004726,0.0</coordinates>
                </Point>
            </Placemark>
            <Placemark id="1571">
                <name>BLADESMILDA CORDOVA RUIZ</name>
                <description>MZ A LOT 33 A.H 26 DE AGOSTO
Veintiséis de Octubre
Veintiséis de Octubre
Piura
Perú</description>
                <styleUrl>#1572</styleUrl>
                <Point id="1570">
                    <coordinates>-80.6530771,-5.2009367,0.0</coordinates>
                </Point>
            </Placemark>
            <Placemark id="1576">
                <name>DORIS EDITA CORDOVA CORDOVA</name>
                <description>MZ A2 LTE 29 AA.HH ARMANDO VILLANUEVA DEL CAMPO.
Veintiséis de Octubre
Veintiséis de Octubre
Piura
Perú</description>
                <styleUrl>#1577</styleUrl>
                <Point id="1575">
                    <coordinates>-80.6535097,-5.2022561,0.0</coordinates>
                </Point>
            </Placemark>
            <Placemark id="1581">
                <name>CLARIBEL CORREA ABAD</name>
                <description>Mz D LTE 12 AA.HH ARMANDO VILLANUEVA
Veintiséis de Octubre
Veintiséis de Octubre
Piura
Perú</description>
                <styleUrl>#1582</styleUrl>
                <Point id="1580">
                    <coordinates>-80.6544687,-5.2029795,0.0</coordinates>
                </Point>
            </Placemark>
            <Placemark id="1586">
                <name>RUTH MIRIAM VARGAS RETO</name>
                <description>Mz E LTE 32 AA.HH ARMANDO VILLANUEVA DEL CAMPO
Veintiséis de Octubre
Veintiséis de Octubre
Piura
Perú</description>
                <styleUrl>#1587</styleUrl>
                <Point id="1585">
                    <coordinates>-80.6548846,-5.2033415,0.0</coordinates>
                </Point>
            </Placemark>
            <Placemark id="1591">
                <name>MARIA AMELIA SERNAQUE SERNAQUE</name>
                <description>Mz A LTE 13 AA.HH LA PENINSULA
Veintiséis de Octubre
Veintiséis de Octubre
Piura
Perú</description>
                <styleUrl>#1592</styleUrl>
                <Point id="1590">
                    <coordinates>-80.6563167,-5.2039283,0.0</coordinates>
                </Point>
            </Placemark>
            <Placemark id="1596">
                <name>JOSEFINA JIMENEZ JIMENEZ</name>
                <description>G-7 AH JESUS DE NAZARET 26OCT 
Veintiséis de Octubre
Veintiséis de Octubre
Piura
Perú</description>
                <styleUrl>#1597</styleUrl>
                <Point id="1595">
                    <coordinates>-80.656646,-5.202772,0.0</coordinates>
                </Point>
            </Placemark>
            <Placemark id="1601">
                <name>MARIA MARGOT RUIZ ALCAS</name>
                <description>Mz E LT 10  AA.HH JESUS DE NAZARETH
Veintiséis de Octubre
Veintiséis de Octubre
Piura
Perú</description>
                <styleUrl>#1602</styleUrl>
                <Point id="1600">
                    <coordinates>-80.6563097,-5.2018019,0.0</coordinates>
                </Point>
            </Placemark>
            <Placemark id="1606">
                <name>ANITA MULATILLO YAMO</name>
                <description>MZ J LT 24 JORGE CHAVEZ 2DA ET
Veintiséis de Octubre
Veintiséis de Octubre
Piura
Perú</description>
                <styleUrl>#1607</styleUrl>
                <Point id="1605">
                    <coordinates>-80.654628,-5.1991324,0.0</coordinates>
                </Point>
            </Placemark>
            <Placemark id="1611">
                <name>TOMAS BRUNO PINGO</name>
                <description>TOMAS BRUNO PINGO
MZ A3 LT.1 CA.MARRUECOS R. JAUREGUIESQUINA FRANCIA
Veintiséis de Octubre

Piura
Perú</description>
                <styleUrl>#1612</styleUrl>
                <Point id="1610">
                    <coordinates>-80.6549921,-5.1965455,0.0</coordinates>
                </Point>
            </Placemark>
            <Placemark id="1616">
                <name>MARIA AVELINA SILUPU BRUNO</name>
                <description>Av Francia MZ G5 lote 15 AAHH Tupac amaruc 1era etapa
Veintiséis de Octubre
Veintiséis de Octubre
Piura
Perú</description>
                <styleUrl>#1617</styleUrl>
                <Point id="1615">
                    <coordinates>-80.655167,-5.196784,0.0</coordinates>
                </Point>
            </Placemark>
            <Placemark id="1621">
                <name>MARIA AVELINA SILUPU BRUNO</name>
                <description>Av Francia MZ G5 lote 15 AAHH Tupac amaruc 1era etapa
Veintiséis de Octubre
Veintiséis de Octubre
Piura
Perú</description>
                <styleUrl>#1622</styleUrl>
                <Point id="1620">
                    <coordinates>-80.655167,-5.196784,0.0</coordinates>
                </Point>
            </Placemark>
            <Placemark id="1626">
                <name>ELIDA ALCIRA VALLE CALLE</name>
                <description>TUPAC AMARU I ETAPA MZ G5 LOTE 12-26 DE OCTUBRE-Piura
Veintiséis de Octubre
Veintiséis de Octubre
Piura
Perú</description>
                <styleUrl>#1627</styleUrl>
                <Point id="1625">
                    <coordinates>-80.6550057,-5.1965821,0.0</coordinates>
                </Point>
            </Placemark>
            <Placemark id="1631">
                <name>SARA GIANINA MEJIA ALAYO</name>
                <description>AAHH 11 de abril mz c4 lote 21
Veintiséis de Octubre
Veintiséis de Octubre
Piura
Perú</description>
                <styleUrl>#1632</styleUrl>
                <Point id="1630">
                    <coordinates>-80.6558512,-5.1934448,0.0</coordinates>
                </Point>
            </Placemark>
            <Placemark id="1636">
                <name>JOYSSE JANET MENDIVIL CHUYES</name>
                <description>POLONIA MZ A LT9 AH FATIMA    
Veintiséis de Octubre
Veintiséis de Octubre
Piura
Perú</description>
                <styleUrl>#1637</styleUrl>
                <Point id="1635">
                    <coordinates>-80.6536361,-5.1940051,0.0</coordinates>
                </Point>
            </Placemark>
        </Folder>
        <Folder id="1640">
            <Style id="1643">
                <IconStyle id="1644">
                    <color>ffff0000</color>
                    <colorMode>normal</colorMode>
                    <scale>1</scale>
                    <heading>0</heading>
                    <Icon id="1645">
                        <href>http://maps.google.com/mapfiles/kml/pushpin/ylw-pushpin.png</href>
                    </Icon>
                </IconStyle>
            </Style>
            <Style id="1648">
                <IconStyle id="1649">
                    <color>ffff0000</color>
                    <colorMode>normal</colorMode>
                    <scale>1</scale>
                    <heading>0</heading>
                    <Icon id="1650">
                        <href>http://maps.google.com/mapfiles/kml/pushpin/ylw-pushpin.png</href>
                    </Icon>
                </IconStyle>
            </Style>
            <Style id="1653">
                <IconStyle id="1654">
                    <color>ffff0000</color>
                    <colorMode>normal</colorMode>
                    <scale>1</scale>
                    <heading>0</heading>
                    <Icon id="1655">
                        <href>http://maps.google.com/mapfiles/kml/pushpin/ylw-pushpin.png</href>
                    </Icon>
                </IconStyle>
            </Style>
            <Style id="1658">
                <IconStyle id="1659">
                    <color>ffff0000</color>
                    <colorMode>normal</colorMode>
                    <scale>1</scale>
                    <heading>0</heading>
                    <Icon id="1660">
                        <href>http://maps.google.com/mapfiles/kml/pushpin/ylw-pushpin.png</href>
                    </Icon>
                </IconStyle>
            </Style>
            <Style id="1663">
                <IconStyle id="1664">
                    <color>ffff0000</color>
                    <colorMode>normal</colorMode>
                    <scale>1</scale>
                    <heading>0</heading>
                    <Icon id="1665">
                        <href>http://maps.google.com/mapfiles/kml/pushpin/ylw-pushpin.png</href>
                    </Icon>
                </IconStyle>
            </Style>
            <Style id="1668">
                <IconStyle id="1669">
                    <color>ffff0000</color>
                    <colorMode>normal</colorMode>
                    <scale>1</scale>
                    <heading>0</heading>
                    <Icon id="1670">
                        <href>http://maps.google.com/mapfiles/kml/pushpin/ylw-pushpin.png</href>
                    </Icon>
                </IconStyle>
            </Style>
            <Style id="1673">
                <IconStyle id="1674">
                    <color>ffff0000</color>
                    <colorMode>normal</colorMode>
                    <scale>1</scale>
                    <heading>0</heading>
                    <Icon id="1675">
                        <href>http://maps.google.com/mapfiles/kml/pushpin/ylw-pushpin.png</href>
                    </Icon>
                </IconStyle>
            </Style>
            <Style id="1678">
                <IconStyle id="1679">
                    <color>ffff0000</color>
                    <colorMode>normal</colorMode>
                    <scale>1</scale>
                    <heading>0</heading>
                    <Icon id="1680">
                        <href>http://maps.google.com/mapfiles/kml/pushpin/ylw-pushpin.png</href>
                    </Icon>
                </IconStyle>
            </Style>
            <Style id="1683">
                <IconStyle id="1684">
                    <color>ffff0000</color>
                    <colorMode>normal</colorMode>
                    <scale>1</scale>
                    <heading>0</heading>
                    <Icon id="1685">
                        <href>http://maps.google.com/mapfiles/kml/pushpin/ylw-pushpin.png</href>
                    </Icon>
                </IconStyle>
            </Style>
            <Style id="1688">
                <IconStyle id="1689">
                    <color>ffff0000</color>
                    <colorMode>normal</colorMode>
                    <scale>1</scale>
                    <heading>0</heading>
                    <Icon id="1690">
                        <href>http://maps.google.com/mapfiles/kml/pushpin/ylw-pushpin.png</href>
                    </Icon>
                </IconStyle>
            </Style>
            <Style id="1693">
                <IconStyle id="1694">
                    <color>ffff0000</color>
                    <colorMode>normal</colorMode>
                    <scale>1</scale>
                    <heading>0</heading>
                    <Icon id="1695">
                        <href>http://maps.google.com/mapfiles/kml/pushpin/ylw-pushpin.png</href>
                    </Icon>
                </IconStyle>
            </Style>
            <Style id="1698">
                <IconStyle id="1699">
                    <color>ffff0000</color>
                    <colorMode>normal</colorMode>
                    <scale>1</scale>
                    <heading>0</heading>
                    <Icon id="1700">
                        <href>http://maps.google.com/mapfiles/kml/pushpin/ylw-pushpin.png</href>
                    </Icon>
                </IconStyle>
            </Style>
            <Style id="1703">
                <IconStyle id="1704">
                    <color>ffff0000</color>
                    <colorMode>normal</colorMode>
                    <scale>1</scale>
                    <heading>0</heading>
                    <Icon id="1705">
                        <href>http://maps.google.com/mapfiles/kml/pushpin/ylw-pushpin.png</href>
                    </Icon>
                </IconStyle>
            </Style>
            <Style id="1708">
                <IconStyle id="1709">
                    <color>ffff0000</color>
                    <colorMode>normal</colorMode>
                    <scale>1</scale>
                    <heading>0</heading>
                    <Icon id="1710">
                        <href>http://maps.google.com/mapfiles/kml/pushpin/ylw-pushpin.png</href>
                    </Icon>
                </IconStyle>
            </Style>
            <Style id="1713">
                <IconStyle id="1714">
                    <color>ffff0000</color>
                    <colorMode>normal</colorMode>
                    <scale>1</scale>
                    <heading>0</heading>
                    <Icon id="1715">
                        <href>http://maps.google.com/mapfiles/kml/pushpin/ylw-pushpin.png</href>
                    </Icon>
                </IconStyle>
            </Style>
            <Style id="1718">
                <IconStyle id="1719">
                    <color>ffff0000</color>
                    <colorMode>normal</colorMode>
                    <scale>1</scale>
                    <heading>0</heading>
                    <Icon id="1720">
                        <href>http://maps.google.com/mapfiles/kml/pushpin/ylw-pushpin.png</href>
                    </Icon>
                </IconStyle>
            </Style>
            <Style id="1723">
                <IconStyle id="1724">
                    <color>ffff0000</color>
                    <colorMode>normal</colorMode>
                    <scale>1</scale>
                    <heading>0</heading>
                    <Icon id="1725">
                        <href>http://maps.google.com/mapfiles/kml/pushpin/ylw-pushpin.png</href>
                    </Icon>
                </IconStyle>
            </Style>
            <Style id="1728">
                <IconStyle id="1729">
                    <color>ffff0000</color>
                    <colorMode>normal</colorMode>
                    <scale>1</scale>
                    <heading>0</heading>
                    <Icon id="1730">
                        <href>http://maps.google.com/mapfiles/kml/pushpin/ylw-pushpin.png</href>
                    </Icon>
                </IconStyle>
            </Style>
            <Style id="1733">
                <IconStyle id="1734">
                    <color>ffff0000</color>
                    <colorMode>normal</colorMode>
                    <scale>1</scale>
                    <heading>0</heading>
                    <Icon id="1735">
                        <href>http://maps.google.com/mapfiles/kml/pushpin/ylw-pushpin.png</href>
                    </Icon>
                </IconStyle>
            </Style>
            <Style id="1738">
                <IconStyle id="1739">
                    <color>ffff0000</color>
                    <colorMode>normal</colorMode>
                    <scale>1</scale>
                    <heading>0</heading>
                    <Icon id="1740">
                        <href>http://maps.google.com/mapfiles/kml/pushpin/ylw-pushpin.png</href>
                    </Icon>
                </IconStyle>
            </Style>
            <Style id="1743">
                <IconStyle id="1744">
                    <color>ffff0000</color>
                    <colorMode>normal</colorMode>
                    <scale>1</scale>
                    <heading>0</heading>
                    <Icon id="1745">
                        <href>http://maps.google.com/mapfiles/kml/pushpin/ylw-pushpin.png</href>
                    </Icon>
                </IconStyle>
            </Style>
            <Style id="1748">
                <IconStyle id="1749">
                    <color>ffff0000</color>
                    <colorMode>normal</colorMode>
                    <scale>1</scale>
                    <heading>0</heading>
                    <Icon id="1750">
                        <href>http://maps.google.com/mapfiles/kml/pushpin/ylw-pushpin.png</href>
                    </Icon>
                </IconStyle>
            </Style>
            <Style id="1753">
                <IconStyle id="1754">
                    <color>ffff0000</color>
                    <colorMode>normal</colorMode>
                    <scale>1</scale>
                    <heading>0</heading>
                    <Icon id="1755">
                        <href>http://maps.google.com/mapfiles/kml/pushpin/ylw-pushpin.png</href>
                    </Icon>
                </IconStyle>
            </Style>
            <Style id="1758">
                <IconStyle id="1759">
                    <color>ffff0000</color>
                    <colorMode>normal</colorMode>
                    <scale>1</scale>
                    <heading>0</heading>
                    <Icon id="1760">
                        <href>http://maps.google.com/mapfiles/kml/pushpin/ylw-pushpin.png</href>
                    </Icon>
                </IconStyle>
            </Style>
            <Style id="1763">
                <IconStyle id="1764">
                    <color>ffff0000</color>
                    <colorMode>normal</colorMode>
                    <scale>1</scale>
                    <heading>0</heading>
                    <Icon id="1765">
                        <href>http://maps.google.com/mapfiles/kml/pushpin/ylw-pushpin.png</href>
                    </Icon>
                </IconStyle>
            </Style>
            <Style id="1768">
                <IconStyle id="1769">
                    <color>ffff0000</color>
                    <colorMode>normal</colorMode>
                    <scale>1</scale>
                    <heading>0</heading>
                    <Icon id="1770">
                        <href>http://maps.google.com/mapfiles/kml/pushpin/ylw-pushpin.png</href>
                    </Icon>
                </IconStyle>
            </Style>
            <Style id="1773">
                <IconStyle id="1774">
                    <color>ffff0000</color>
                    <colorMode>normal</colorMode>
                    <scale>1</scale>
                    <heading>0</heading>
                    <Icon id="1775">
                        <href>http://maps.google.com/mapfiles/kml/pushpin/ylw-pushpin.png</href>
                    </Icon>
                </IconStyle>
            </Style>
            <Style id="1778">
                <IconStyle id="1779">
                    <color>ffff0000</color>
                    <colorMode>normal</colorMode>
                    <scale>1</scale>
                    <heading>0</heading>
                    <Icon id="1780">
                        <href>http://maps.google.com/mapfiles/kml/pushpin/ylw-pushpin.png</href>
                    </Icon>
                </IconStyle>
            </Style>
            <Style id="1783">
                <IconStyle id="1784">
                    <color>ffff0000</color>
                    <colorMode>normal</colorMode>
                    <scale>1</scale>
                    <heading>0</heading>
                    <Icon id="1785">
                        <href>http://maps.google.com/mapfiles/kml/pushpin/ylw-pushpin.png</href>
                    </Icon>
                </IconStyle>
            </Style>
            <Style id="1788">
                <IconStyle id="1789">
                    <color>ffff0000</color>
                    <colorMode>normal</colorMode>
                    <scale>1</scale>
                    <heading>0</heading>
                    <Icon id="1790">
                        <href>http://maps.google.com/mapfiles/kml/pushpin/ylw-pushpin.png</href>
                    </Icon>
                </IconStyle>
            </Style>
            <Style id="1793">
                <IconStyle id="1794">
                    <color>ffff0000</color>
                    <colorMode>normal</colorMode>
                    <scale>1</scale>
                    <heading>0</heading>
                    <Icon id="1795">
                        <href>http://maps.google.com/mapfiles/kml/pushpin/ylw-pushpin.png</href>
                    </Icon>
                </IconStyle>
            </Style>
            <Style id="1798">
                <IconStyle id="1799">
                    <color>ffff0000</color>
                    <colorMode>normal</colorMode>
                    <scale>1</scale>
                    <heading>0</heading>
                    <Icon id="1800">
                        <href>http://maps.google.com/mapfiles/kml/pushpin/ylw-pushpin.png</href>
                    </Icon>
                </IconStyle>
            </Style>
            <Style id="1803">
                <IconStyle id="1804">
                    <color>ffff0000</color>
                    <colorMode>normal</colorMode>
                    <scale>1</scale>
                    <heading>0</heading>
                    <Icon id="1805">
                        <href>http://maps.google.com/mapfiles/kml/pushpin/ylw-pushpin.png</href>
                    </Icon>
                </IconStyle>
            </Style>
            <Style id="1808">
                <IconStyle id="1809">
                    <color>ffff0000</color>
                    <colorMode>normal</colorMode>
                    <scale>1</scale>
                    <heading>0</heading>
                    <Icon id="1810">
                        <href>http://maps.google.com/mapfiles/kml/pushpin/ylw-pushpin.png</href>
                    </Icon>
                </IconStyle>
            </Style>
            <Style id="1813">
                <IconStyle id="1814">
                    <color>ffff0000</color>
                    <colorMode>normal</colorMode>
                    <scale>1</scale>
                    <heading>0</heading>
                    <Icon id="1815">
                        <href>http://maps.google.com/mapfiles/kml/pushpin/ylw-pushpin.png</href>
                    </Icon>
                </IconStyle>
            </Style>
            <Style id="1818">
                <IconStyle id="1819">
                    <color>ffff0000</color>
                    <colorMode>normal</colorMode>
                    <scale>1</scale>
                    <heading>0</heading>
                    <Icon id="1820">
                        <href>http://maps.google.com/mapfiles/kml/pushpin/ylw-pushpin.png</href>
                    </Icon>
                </IconStyle>
            </Style>
            <Style id="1823">
                <IconStyle id="1824">
                    <color>ffff0000</color>
                    <colorMode>normal</colorMode>
                    <scale>1</scale>
                    <heading>0</heading>
                    <Icon id="1825">
                        <href>http://maps.google.com/mapfiles/kml/pushpin/ylw-pushpin.png</href>
                    </Icon>
                </IconStyle>
            </Style>
            <Style id="1828">
                <IconStyle id="1829">
                    <color>ffff0000</color>
                    <colorMode>normal</colorMode>
                    <scale>1</scale>
                    <heading>0</heading>
                    <Icon id="1830">
                        <href>http://maps.google.com/mapfiles/kml/pushpin/ylw-pushpin.png</href>
                    </Icon>
                </IconStyle>
            </Style>
            <Style id="1833">
                <IconStyle id="1834">
                    <color>ffff0000</color>
                    <colorMode>normal</colorMode>
                    <scale>1</scale>
                    <heading>0</heading>
                    <Icon id="1835">
                        <href>http://maps.google.com/mapfiles/kml/pushpin/ylw-pushpin.png</href>
                    </Icon>
                </IconStyle>
            </Style>
            <Style id="1838">
                <IconStyle id="1839">
                    <color>ffff0000</color>
                    <colorMode>normal</colorMode>
                    <scale>1</scale>
                    <heading>0</heading>
                    <Icon id="1840">
                        <href>http://maps.google.com/mapfiles/kml/pushpin/ylw-pushpin.png</href>
                    </Icon>
                </IconStyle>
            </Style>
            <Style id="1843">
                <IconStyle id="1844">
                    <color>ffff0000</color>
                    <colorMode>normal</colorMode>
                    <scale>1</scale>
                    <heading>0</heading>
                    <Icon id="1845">
                        <href>http://maps.google.com/mapfiles/kml/pushpin/ylw-pushpin.png</href>
                    </Icon>
                </IconStyle>
            </Style>
            <Style id="1848">
                <IconStyle id="1849">
                    <color>ffff0000</color>
                    <colorMode>normal</colorMode>
                    <scale>1</scale>
                    <heading>0</heading>
                    <Icon id="1850">
                        <href>http://maps.google.com/mapfiles/kml/pushpin/ylw-pushpin.png</href>
                    </Icon>
                </IconStyle>
            </Style>
            <Style id="1853">
                <IconStyle id="1854">
                    <color>ffff0000</color>
                    <colorMode>normal</colorMode>
                    <scale>1</scale>
                    <heading>0</heading>
                    <Icon id="1855">
                        <href>http://maps.google.com/mapfiles/kml/pushpin/ylw-pushpin.png</href>
                    </Icon>
                </IconStyle>
            </Style>
            <Style id="1858">
                <IconStyle id="1859">
                    <color>ffff0000</color>
                    <colorMode>normal</colorMode>
                    <scale>1</scale>
                    <heading>0</heading>
                    <Icon id="1860">
                        <href>http://maps.google.com/mapfiles/kml/pushpin/ylw-pushpin.png</href>
                    </Icon>
                </IconStyle>
            </Style>
            <Style id="1863">
                <IconStyle id="1864">
                    <color>ffff0000</color>
                    <colorMode>normal</colorMode>
                    <scale>1</scale>
                    <heading>0</heading>
                    <Icon id="1865">
                        <href>http://maps.google.com/mapfiles/kml/pushpin/ylw-pushpin.png</href>
                    </Icon>
                </IconStyle>
            </Style>
            <Style id="1868">
                <IconStyle id="1869">
                    <color>ffff0000</color>
                    <colorMode>normal</colorMode>
                    <scale>1</scale>
                    <heading>0</heading>
                    <Icon id="1870">
                        <href>http://maps.google.com/mapfiles/kml/pushpin/ylw-pushpin.png</href>
                    </Icon>
                </IconStyle>
            </Style>
            <Style id="1873">
                <IconStyle id="1874">
                    <color>ffff0000</color>
                    <colorMode>normal</colorMode>
                    <scale>1</scale>
                    <heading>0</heading>
                    <Icon id="1875">
                        <href>http://maps.google.com/mapfiles/kml/pushpin/ylw-pushpin.png</href>
                    </Icon>
                </IconStyle>
            </Style>
            <Style id="1878">
                <IconStyle id="1879">
                    <color>ffff0000</color>
                    <colorMode>normal</colorMode>
                    <scale>1</scale>
                    <heading>0</heading>
                    <Icon id="1880">
                        <href>http://maps.google.com/mapfiles/kml/pushpin/ylw-pushpin.png</href>
                    </Icon>
                </IconStyle>
            </Style>
            <Style id="1883">
                <IconStyle id="1884">
                    <color>ffff0000</color>
                    <colorMode>normal</colorMode>
                    <scale>1</scale>
                    <heading>0</heading>
                    <Icon id="1885">
                        <href>http://maps.google.com/mapfiles/kml/pushpin/ylw-pushpin.png</href>
                    </Icon>
                </IconStyle>
            </Style>
            <Style id="1888">
                <IconStyle id="1889">
                    <color>ffff0000</color>
                    <colorMode>normal</colorMode>
                    <scale>1</scale>
                    <heading>0</heading>
                    <Icon id="1890">
                        <href>http://maps.google.com/mapfiles/kml/pushpin/ylw-pushpin.png</href>
                    </Icon>
                </IconStyle>
            </Style>
            <name>ZOILA ALBERTINA DE JESUS MORANTE CARRASCO</name>
            <Placemark id="1642">
                <name>MADELEINE CRIOLLO COLLAHUAZO</name>
                <description>MEXICO B17-28 STA JULIA Piura
Veintiséis de Octubre
Veintiséis de Octubre
Piura
Perú</description>
                <styleUrl>#1643</styleUrl>
                <Point id="1641">
                    <coordinates>-80.658541,-5.194468,0.0</coordinates>
                </Point>
            </Placemark>
            <Placemark id="1647">
                <name>JOSE GERARDO CHIRA RAMIREZ</name>
                <description>CALLE LOBOTOS MZN.H1LOTE 13 ASENTAMIENTO HUMANO NUEVA ESPERANZA SECTOR 1
Veintiséis de Octubre
Veintiséis de Octubre
Piura
Perú</description>
                <styleUrl>#1648</styleUrl>
                <Point id="1646">
                    <coordinates>-80.6617044,-5.1929408,0.0</coordinates>
                </Point>
            </Placemark>
            <Placemark id="1652">
                <name>GUISELLA DEL PILAR CHUQUIHUANGA TAVARA</name>
                <description>Calle Alaska Mz C 20 Lt. 21 veintiséis de octubre
Veintiséis de Octubre
Veintiséis de Octubre
Piura
Perú</description>
                <styleUrl>#1653</styleUrl>
                <Point id="1651">
                    <coordinates>-80.6609555,-5.1956308,0.0</coordinates>
                </Point>
            </Placemark>
            <Placemark id="1657">
                <name>JOSEFA RETETE RONDOY</name>
                <description>AAHH NVA ESPERANZA SECTOR 10 MZ V10 LOTE 15
Veintiséis de Octubre
Veintiséis de Octubre
Piura
Perú</description>
                <styleUrl>#1658</styleUrl>
                <Point id="1656">
                    <coordinates>-80.6647808,-5.1965433,0.0</coordinates>
                </Point>
            </Placemark>
            <Placemark id="1662">
                <name>MERLY ELIZABETH GARCIA ALVARADO</name>
                <description>MZN  L 10 asentamiento VILLA ALTA
Veintiséis de Octubre

Piura
Perú</description>
                <styleUrl>#1663</styleUrl>
                <Point id="1661">
                    <coordinates>-80.6732532,-5.1975577,0.0</coordinates>
                </Point>
            </Placemark>
            <Placemark id="1667">
                <name>BERTHA NORA ROSILLO VELIZ</name>
                <description>MZ O 10 LOTE 5 AA.HH NUEVA ESPERANZA SECTOR 10
Veintiséis de Octubre
Veintiséis de Octubre
Piura
Perú</description>
                <styleUrl>#1668</styleUrl>
                <Point id="1666">
                    <coordinates>-80.6655678,-5.1941749,0.0</coordinates>
                </Point>
            </Placemark>
            <Placemark id="1672">
                <name>SOCORRO DEL MILAGRO FARFAN ABAD</name>
                <description>B 12 ASENTAMIENTO HUMANO VILLA KUTTNER
Veintiséis de Octubre
Veintiséis de Octubre
Piura
Perú</description>
                <styleUrl>#1673</styleUrl>
                <Point id="1671">
                    <coordinates>-80.6714435,-5.1940964,0.0</coordinates>
                </Point>
            </Placemark>
            <Placemark id="1677">
                <name>JORGE LUIS GUERRERO PEÑA</name>
                <description>MZN . N LOTE 13 VIA KUTTBER
Veintiséis de Octubre
Veintiséis de Octubre
Piura
Perú</description>
                <styleUrl>#1678</styleUrl>
                <Point id="1676">
                    <coordinates>-80.6706501,-5.1962151,0.0</coordinates>
                </Point>
            </Placemark>
            <Placemark id="1682">
                <name>MARIA ENA CORREA VALLE</name>
                <description>AAHH NVA ESPERANZA MZ I2 LOTE 6 CALLE NEGRITOS
Veintiséis de Octubre
Veintiséis de Octubre
Piura
Perú</description>
                <styleUrl>#1683</styleUrl>
                <Point id="1681">
                    <coordinates>-80.6629307,-5.1926211,0.0</coordinates>
                </Point>
            </Placemark>
            <Placemark id="1687">
                <name>LEISY MARIETA FIESTAS FARFAN</name>
                <description>AAHH NVA ESPERANZA MZ B2 LOTE 29
Veintiséis de Octubre
Veintiséis de Octubre
Piura
Perú</description>
                <styleUrl>#1688</styleUrl>
                <Point id="1686">
                    <coordinates>-80.6633298,-5.1922172,0.0</coordinates>
                </Point>
            </Placemark>
            <Placemark id="1692">
                <name>TEODULA CORDOVA FLORES</name>
                <description>MZ B2 LT28 CALLE TAMARINDO NUEVA ESPERANZA 26 DE OCTUBRE-Piura
Veintiséis de Octubre
Veintiséis de Octubre
Piura
Perú</description>
                <styleUrl>#1693</styleUrl>
                <Point id="1691">
                    <coordinates>-80.6636537,-5.1919527,0.0</coordinates>
                </Point>
            </Placemark>
            <Placemark id="1697">
                <name>JOSE GERARDO CHIRA RAMIREZ</name>
                <description>CALLE LOBOTOS MZN.H1LOTE 13 ASENTAMIENTO HUMANO NUEVA ESPERANZA SECTOR 1
Veintiséis de Octubre
Veintiséis de Octubre
Piura
Perú</description>
                <styleUrl>#1698</styleUrl>
                <Point id="1696">
                    <coordinates>-80.6617044,-5.1929408,0.0</coordinates>
                </Point>
            </Placemark>
            <Placemark id="1702">
                <name>MARITZA SOLEDAD LORO SEMINARIO</name>
                <description>A.H.NVA ESPERANZA MZ.D2 LT.14 
Veintiséis de Octubre
Veintiséis de Octubre
Piura
Perú</description>
                <styleUrl>#1703</styleUrl>
                <Point id="1701">
                    <coordinates>-80.6642625,-5.1907182,0.0</coordinates>
                </Point>
            </Placemark>
            <Placemark id="1707">
                <name>LUZBINDA HORTENCIA*BOD. CUEVA NUÑEZ</name>
                <description>AV. CIRCUNVALACION MZC3 LTE.29 NVA.ESPERANZA
Piura
Piura
Piura
Perú</description>
                <styleUrl>#1708</styleUrl>
                <Point id="1706">
                    <coordinates>-80.664671,-5.1892985,0.0</coordinates>
                </Point>
            </Placemark>
            <Placemark id="1712">
                <name>NELLY ELIZABETH AVILA RAMIREZ</name>
                <description>AAHH NVA ESPERANZA MZ D1LOTE 4
Veintiséis de Octubre
Veintiséis de Octubre
Piura
Perú</description>
                <styleUrl>#1713</styleUrl>
                <Point id="1711">
                    <coordinates>-80.6621417,-5.1916999,0.0</coordinates>
                </Point>
            </Placemark>
            <Placemark id="1717">
                <name>LUZ AMANDA MORALES CHUMACERO</name>
                <description>MZN. F3 LOTE 15 ASENTAMIENTO HUMANO NUEVA ESPERANZA SECTOR 3
Veintiséis de Octubre
Veintiséis de Octubre
Piura
Perú</description>
                <styleUrl>#1718</styleUrl>
                <Point id="1716">
                    <coordinates>-80.6656702,-5.1911903,0.0</coordinates>
                </Point>
            </Placemark>
            <Placemark id="1722">
                <name>CHERRES VIDAL MARIA DE LOS MILAGROS</name>
                <description>CHERRES VIDAL MARIA DE LOS MILAGROS
AAHH NVA ESPERANZA SECTOR 10 MZ Q10- LOTE 2
Veintiséis de Octubre
Piura
Piura
Perú</description>
                <styleUrl>#1723</styleUrl>
                <Point id="1721">
                    <coordinates>-80.6628901,-5.1937951,0.0</coordinates>
                </Point>
            </Placemark>
            <Placemark id="1727">
                <name>NINAMAQUE SALINAS MARIA O.</name>
                <description>V.ALVARADO J10-05 NV.ESPERANZA
Veintiséis de Octubre

Piura
Perú</description>
                <styleUrl>#1728</styleUrl>
                <Point id="1726">
                    <coordinates>-80.664642,-5.192561,0.0</coordinates>
                </Point>
            </Placemark>
            <Placemark id="1732">
                <name>SOL PIERINA BARRANTES VASQUEZ</name>
                <description>AAHH NVA ESPERANZA CALLE JUAN VELAZCO MZ J10 LOTE 2
Veintiséis de Octubre
Piura
Piura
Perú</description>
                <styleUrl>#1733</styleUrl>
                <Point id="1731">
                    <coordinates>-80.6646468,-5.1924078,0.0</coordinates>
                </Point>
            </Placemark>
            <Placemark id="1737">
                <name>AUSTRELBERTA QUEZADA HUANCAS</name>
                <description>J.VELASCO MZ F2-28 N.ESPERANZA
Veintiséis de Octubre
Piura
Piura
Perú</description>
                <styleUrl>#1738</styleUrl>
                <Point id="1736">
                    <coordinates>-80.6644975,-5.1925387,0.0</coordinates>
                </Point>
            </Placemark>
            <Placemark id="1742">
                <name>EDITA JOHANI CHINCHAY SALCEDO</name>
                <description>AAHH VILLA ALTA MZ V LOTE 07
Veintiséis de Octubre
Veintiséis de Octubre
Piura
Perú</description>
                <styleUrl>#1743</styleUrl>
                <Point id="1741">
                    <coordinates>-80.67207,-5.19898,0.0</coordinates>
                </Point>
            </Placemark>
            <Placemark id="1747">
                <name>BERNARDO LLOCLLA LALANGUI</name>
                <description>MZ F2 LTE 26 JUAN VELASCO ALVARADO NUEVA ESPERANZA
Veintiséis de Octubre
Veintiséis de Octubre
Piura
Perú</description>
                <styleUrl>#1748</styleUrl>
                <Point id="1746">
                    <coordinates>-80.6647918,-5.1922813,0.0</coordinates>
                </Point>
            </Placemark>
            <Placemark id="1752">
                <name>MARIA LUCIA MONTERO ROMAN</name>
                <description>K 19 VILLA ALTA
Veintiséis de Octubre
Veintiséis de Octubre
Piura
Perú</description>
                <styleUrl>#1753</styleUrl>
                <Point id="1751">
                    <coordinates>-80.6716029,-5.1943363,0.0</coordinates>
                </Point>
            </Placemark>
            <Placemark id="1757">
                <name>MARLENI FLOREZ ARANIBAR</name>
                <description>AAHH VILLA ALTA 2DA ETAPA MZ J LOTE 11
Veintiséis de Octubre
Veintiséis de Octubre
Piura
Perú</description>
                <styleUrl>#1758</styleUrl>
                <Point id="1756">
                    <coordinates>-80.6729913,-5.197251,0.0</coordinates>
                </Point>
            </Placemark>
            <Placemark id="1762">
                <name>HILDA RAMIREZ NONAJULCA</name>
                <description>AAHH VILLA ALTA MZ A LOTE 24
Veintiséis de Octubre
Veintiséis de Octubre
Piura
Perú</description>
                <styleUrl>#1763</styleUrl>
                <Point id="1761">
                    <coordinates>-80.6721611,-5.1961907,0.0</coordinates>
                </Point>
            </Placemark>
            <Placemark id="1767">
                <name>MARIA VICTORIA GARCIA DE ALVARADO</name>
                <description>AAHH VILLA ALTA MZ D LOTE 5 PRIMERA ETAPA
Veintiséis de Octubre
Veintiséis de Octubre
Piura
Perú</description>
                <styleUrl>#1768</styleUrl>
                <Point id="1766">
                    <coordinates>-80.6720816,-5.1973217,0.0</coordinates>
                </Point>
            </Placemark>
            <Placemark id="1772">
                <name>SARITA YOVANI CUEBA VILLEGAS</name>
                <description>AAHH VILLA ALTA MZ G LOTE 9
Veintiséis de Octubre
Veintiséis de Octubre
Piura
Perú</description>
                <styleUrl>#1773</styleUrl>
                <Point id="1771">
                    <coordinates>-80.6710313,-5.1973607,0.0</coordinates>
                </Point>
            </Placemark>
            <Placemark id="1777">
                <name>NILDA SEBASTIANA REYES VIGIL</name>
                <description>UPIS ROMAN MZ G LOTE 1.  26 DE OCTUBRE
Veintiséis de Octubre
Veintiséis de Octubre
Piura
Perú</description>
                <styleUrl>#1778</styleUrl>
                <Point id="1776">
                    <coordinates>-80.6694402,-5.1978258,0.0</coordinates>
                </Point>
            </Placemark>
            <Placemark id="1782">
                <name>NOEMI YANAYACO CHAMBA</name>
                <description>ASOC.VILLALTA B-14            
Veintiséis de Octubre
Veintiséis de Octubre
Piura
Perú</description>
                <styleUrl>#1783</styleUrl>
                <Point id="1781">
                    <coordinates>-80.670592,-5.196534,0.0</coordinates>
                </Point>
            </Placemark>
            <Placemark id="1787">
                <name>RAMIREZ CRUZ ANNER GONZALO</name>
                <description>RAMIREZ CRUZ ANNER GONZALO
AAHH VILLA ALTA MZ A LOTE 36
Veintiséis de Octubre
Veintiséis de Octubre
Piura
Perú</description>
                <styleUrl>#1788</styleUrl>
                <Point id="1786">
                    <coordinates>-80.6721163,-5.1957951,0.0</coordinates>
                </Point>
            </Placemark>
            <Placemark id="1792">
                <name>GLORIA CUEVA LIMA</name>
                <description>AAHH VILLA KURT BEER MZ H LOTE 23
Veintiséis de Octubre
Veintiséis de Octubre
Piura
Perú</description>
                <styleUrl>#1793</styleUrl>
                <Point id="1791">
                    <coordinates>-80.6712475,-5.1941615,0.0</coordinates>
                </Point>
            </Placemark>
            <Placemark id="1797">
                <name>YOLANDA GONZALES GARCIA</name>
                <description>AAHH KURT BEER MZ D LOTE 22
Veintiséis de Octubre
Veintiséis de Octubre
Piura
Perú</description>
                <styleUrl>#1798</styleUrl>
                <Point id="1796">
                    <coordinates>-80.669978,-5.1947114,0.0</coordinates>
                </Point>
            </Placemark>
            <Placemark id="1802">
                <name>MARIZELA CHUMACERO VILLA</name>
                <description>NUEVA ESPERANZA MZ G'-10  LOTE  13 26 DE OCTUBRE-Piura
Veintiséis de Octubre
Veintiséis de Octubre
Piura
Perú</description>
                <styleUrl>#1803</styleUrl>
                <Point id="1801">
                    <coordinates>-80.6676171,-5.1939723,0.0</coordinates>
                </Point>
            </Placemark>
            <Placemark id="1807">
                <name>MARLENY MARMOLEJO QUINTANILLA</name>
                <description>AAHH NVA ESPERANZA MZ  I10 Lote 2
Veintiséis de Octubre
Piura
Piura
Perú</description>
                <styleUrl>#1808</styleUrl>
                <Point id="1806">
                    <coordinates>-80.6663443,-5.1935227,0.0</coordinates>
                </Point>
            </Placemark>
            <Placemark id="1812">
                <name>SOCORRITO DEL PILAR RENTERIA RAMOS</name>
                <description>NVA.ESPERANZA SECTOR 10 MZ N10 LOTE 21
Veintiséis de Octubre
Piura
Piura
Perú</description>
                <styleUrl>#1813</styleUrl>
                <Point id="1811">
                    <coordinates>-80.6650617,-5.1942617,0.0</coordinates>
                </Point>
            </Placemark>
            <Placemark id="1817">
                <name>JENIFER SOSA FLORES</name>
                <description>MZ.W10-13 AH NVA ESPERANZA 2 E
Veintiséis de Octubre
Veintiséis de Octubre
Piura
Perú</description>
                <styleUrl>#1818</styleUrl>
                <Point id="1816">
                    <coordinates>-80.6648807,-5.1965233,0.0</coordinates>
                </Point>
            </Placemark>
            <Placemark id="1822">
                <name>GABY MABEL JUAREZ MARQUEZ</name>
                <description>AAHH NVA ESPERANZA 2DA ETAPA MZ  Z10-4A CALLE NICARAGUA  COSTADO CONVENTO MADRE DEL REDECTOR
Veintiséis de Octubre
Veintiséis de Octubre
Piura
Perú</description>
                <styleUrl>#1823</styleUrl>
                <Point id="1821">
                    <coordinates>-80.6637113,-5.1963617,0.0</coordinates>
                </Point>
            </Placemark>
            <Placemark id="1827">
                <name>ELITA VARGAS IBERICO</name>
                <description>CA.JOSE OLAYA MZ R 10 LT 25 AA. HH
Veintiséis de Octubre
Piura
Piura
Perú</description>
                <styleUrl>#1828</styleUrl>
                <Point id="1826">
                    <coordinates>-80.6631427,-5.1946615,0.0</coordinates>
                </Point>
            </Placemark>
            <Placemark id="1832">
                <name>LESLY GERALDINNE ZETA ZAPATA</name>
                <description>CALLE ALASKA ASENTAMIENTO HUMANO SANTA JULIA C20 LOTE 18
Veintiséis de Octubre
Veintiséis de Octubre
Piura
Perú</description>
                <styleUrl>#1833</styleUrl>
                <Point id="1831">
                    <coordinates>-80.6612058,-5.1956137,0.0</coordinates>
                </Point>
            </Placemark>
            <Placemark id="1837">
                <name>YESSICA DEL PILAR CASTILLO GARCIA</name>
                <description>AV. ARGENTINAZN. B20 LOTE 8 SANTA JULIA
Veintiséis de Octubre
Veintiséis de Octubre
Piura
Perú</description>
                <styleUrl>#1838</styleUrl>
                <Point id="1836">
                    <coordinates>-80.6617104,-5.1956589,0.0</coordinates>
                </Point>
            </Placemark>
            <Placemark id="1842">
                <name>GAROL GARCIA HERRERA</name>
                <description>Calle cuba MZ D21 lote 14 AAHH santa Julia
Veintiséis de Octubre
Veintiséis de Octubre
Piura
Perú</description>
                <styleUrl>#1843</styleUrl>
                <Point id="1841">
                    <coordinates>-80.6603233,-5.1969162,0.0</coordinates>
                </Point>
            </Placemark>
            <Placemark id="1847">
                <name>GUADALUPE LOPEZ ROMAN</name>
                <description>GUADALUPE LOPEZ ROMAN
CA.CUBA E21-5 STA.JULIA PIURA
Veintiséis de Octubre
Piura
Piura
Perú</description>
                <styleUrl>#1848</styleUrl>
                <Point id="1846">
                    <coordinates>-80.6598388,-5.1972461,0.0</coordinates>
                </Point>
            </Placemark>
            <Placemark id="1852">
                <name>LEYLA LLAPAPASCA VALLADARES</name>
                <description>MZ A 22 LT 08 AH STA JULIA    
Veintiséis de Octubre
Piura
Piura
Perú</description>
                <styleUrl>#1853</styleUrl>
                <Point id="1851">
                    <coordinates>-80.659541,-5.196752,0.0</coordinates>
                </Point>
            </Placemark>
            <Placemark id="1857">
                <name>JOHANA APARICIA UMBO AGUILAR</name>
                <description>JOHANA APARICIA UMBO AGUILAR
CA.CANADA MZ A 22 LT 3 AA. HH SANTA
Veintiséis de Octubre
Piura
Piura
Perú</description>
                <styleUrl>#1858</styleUrl>
                <Point id="1856">
                    <coordinates>-80.6594324,-5.1963115,0.0</coordinates>
                </Point>
            </Placemark>
            <Placemark id="1862">
                <name>ELSA HAYDE HOLGUIN CORREA</name>
                <description>Mz C14 - 10 Av Brazil santa julia
Veintiséis de Octubre
Veintiséis de Octubre
Piura
Perú</description>
                <styleUrl>#1863</styleUrl>
                <Point id="1861">
                    <coordinates>-80.6577844,-5.1930149,0.0</coordinates>
                </Point>
            </Placemark>
            <Placemark id="1867">
                <name>EIGLEN CRUZ PERALTA</name>
                <description>Calle Venezuela C14 Lt. 40 Sta. Julia - veintiséis de Octubre
Veintiséis de Octubre
Veintiséis de Octubre
Piura
Perú</description>
                <styleUrl>#1868</styleUrl>
                <Point id="1866">
                    <coordinates>-80.6580963,-5.1926235,0.0</coordinates>
                </Point>
            </Placemark>
            <Placemark id="1872">
                <name>DEYSI JUDITH CULQUICONDOR CORREA</name>
                <description>DEYSI JUDITH CULQUICONDOR CORREA
AV. PANAMA MZ D14 LT. 02 AA. HH STAJULIA
Veintiséis de Octubre
Piura
Piura
Perú</description>
                <styleUrl>#1873</styleUrl>
                <Point id="1871">
                    <coordinates>-80.6607269,-5.1925315,0.0</coordinates>
                </Point>
            </Placemark>
            <Placemark id="1877">
                <name>OLIVARES GOMEZ PEDRO</name>
                <description>MZ. A-18 LT-10 AV. PERU SANTA 
Veintiséis de Octubre

Piura
Perú</description>
                <styleUrl>#1878</styleUrl>
                <Point id="1876">
                    <coordinates>-80.6597197,-5.1934383,0.0</coordinates>
                </Point>
            </Placemark>
            <Placemark id="1882">
                <name>BENEDICTA SEMINARIO DE JIMENEZ</name>
                <description>AV.PERU B1.17                 
Veintiséis de Octubre
Veintiséis de Octubre
Piura
Perú</description>
                <styleUrl>#1883</styleUrl>
                <Point id="1881">
                    <coordinates>-80.6618117,-5.1929092,0.0</coordinates>
                </Point>
            </Placemark>
            <Placemark id="1887">
                <name>BENEDICTA SEMINARIO DE JIMENEZ</name>
                <description>AV.PERU B1.17                 
Veintiséis de Octubre
Veintiséis de Octubre
Piura
Perú</description>
                <styleUrl>#1888</styleUrl>
                <Point id="1886">
                    <coordinates>-80.6618117,-5.1929092,0.0</coordinates>
                </Point>
            </Placemark>
        </Folder>
    </Document>
</kml>
