<?xml version="1.0" encoding="UTF-8"?>
<kml xmlns="http://www.opengis.net/kml/2.2" xmlns:gx="http://www.google.com/kml/ext/2.2">
    <Document id="330">
        <Folder id="331">
            <Style id="334">
                <IconStyle id="335">
                    <color>ff0000ff</color>
                    <colorMode>normal</colorMode>
                    <scale>1</scale>
                    <heading>0</heading>
                    <Icon id="336">
                        <href>http://maps.google.com/mapfiles/kml/pushpin/ylw-pushpin.png</href>
                    </Icon>
                </IconStyle>
            </Style>
            <Style id="339">
                <IconStyle id="340">
                    <color>ff0000ff</color>
                    <colorMode>normal</colorMode>
                    <scale>1</scale>
                    <heading>0</heading>
                    <Icon id="341">
                        <href>http://maps.google.com/mapfiles/kml/pushpin/ylw-pushpin.png</href>
                    </Icon>
                </IconStyle>
            </Style>
            <Style id="344">
                <IconStyle id="345">
                    <color>ff0000ff</color>
                    <colorMode>normal</colorMode>
                    <scale>1</scale>
                    <heading>0</heading>
                    <Icon id="346">
                        <href>http://maps.google.com/mapfiles/kml/pushpin/ylw-pushpin.png</href>
                    </Icon>
                </IconStyle>
            </Style>
            <Style id="349">
                <IconStyle id="350">
                    <color>ff0000ff</color>
                    <colorMode>normal</colorMode>
                    <scale>1</scale>
                    <heading>0</heading>
                    <Icon id="351">
                        <href>http://maps.google.com/mapfiles/kml/pushpin/ylw-pushpin.png</href>
                    </Icon>
                </IconStyle>
            </Style>
            <Style id="354">
                <IconStyle id="355">
                    <color>ff0000ff</color>
                    <colorMode>normal</colorMode>
                    <scale>1</scale>
                    <heading>0</heading>
                    <Icon id="356">
                        <href>http://maps.google.com/mapfiles/kml/pushpin/ylw-pushpin.png</href>
                    </Icon>
                </IconStyle>
            </Style>
            <Style id="359">
                <IconStyle id="360">
                    <color>ff0000ff</color>
                    <colorMode>normal</colorMode>
                    <scale>1</scale>
                    <heading>0</heading>
                    <Icon id="361">
                        <href>http://maps.google.com/mapfiles/kml/pushpin/ylw-pushpin.png</href>
                    </Icon>
                </IconStyle>
            </Style>
            <Style id="364">
                <IconStyle id="365">
                    <color>ff0000ff</color>
                    <colorMode>normal</colorMode>
                    <scale>1</scale>
                    <heading>0</heading>
                    <Icon id="366">
                        <href>http://maps.google.com/mapfiles/kml/pushpin/ylw-pushpin.png</href>
                    </Icon>
                </IconStyle>
            </Style>
            <Style id="369">
                <IconStyle id="370">
                    <color>ff0000ff</color>
                    <colorMode>normal</colorMode>
                    <scale>1</scale>
                    <heading>0</heading>
                    <Icon id="371">
                        <href>http://maps.google.com/mapfiles/kml/pushpin/ylw-pushpin.png</href>
                    </Icon>
                </IconStyle>
            </Style>
            <Style id="374">
                <IconStyle id="375">
                    <color>ff0000ff</color>
                    <colorMode>normal</colorMode>
                    <scale>1</scale>
                    <heading>0</heading>
                    <Icon id="376">
                        <href>http://maps.google.com/mapfiles/kml/pushpin/ylw-pushpin.png</href>
                    </Icon>
                </IconStyle>
            </Style>
            <Style id="379">
                <IconStyle id="380">
                    <color>ff0000ff</color>
                    <colorMode>normal</colorMode>
                    <scale>1</scale>
                    <heading>0</heading>
                    <Icon id="381">
                        <href>http://maps.google.com/mapfiles/kml/pushpin/ylw-pushpin.png</href>
                    </Icon>
                </IconStyle>
            </Style>
            <Style id="384">
                <IconStyle id="385">
                    <color>ff0000ff</color>
                    <colorMode>normal</colorMode>
                    <scale>1</scale>
                    <heading>0</heading>
                    <Icon id="386">
                        <href>http://maps.google.com/mapfiles/kml/pushpin/ylw-pushpin.png</href>
                    </Icon>
                </IconStyle>
            </Style>
            <Style id="389">
                <IconStyle id="390">
                    <color>ff0000ff</color>
                    <colorMode>normal</colorMode>
                    <scale>1</scale>
                    <heading>0</heading>
                    <Icon id="391">
                        <href>http://maps.google.com/mapfiles/kml/pushpin/ylw-pushpin.png</href>
                    </Icon>
                </IconStyle>
            </Style>
            <Style id="394">
                <IconStyle id="395">
                    <color>ff0000ff</color>
                    <colorMode>normal</colorMode>
                    <scale>1</scale>
                    <heading>0</heading>
                    <Icon id="396">
                        <href>http://maps.google.com/mapfiles/kml/pushpin/ylw-pushpin.png</href>
                    </Icon>
                </IconStyle>
            </Style>
            <Style id="399">
                <IconStyle id="400">
                    <color>ff0000ff</color>
                    <colorMode>normal</colorMode>
                    <scale>1</scale>
                    <heading>0</heading>
                    <Icon id="401">
                        <href>http://maps.google.com/mapfiles/kml/pushpin/ylw-pushpin.png</href>
                    </Icon>
                </IconStyle>
            </Style>
            <Style id="404">
                <IconStyle id="405">
                    <color>ff0000ff</color>
                    <colorMode>normal</colorMode>
                    <scale>1</scale>
                    <heading>0</heading>
                    <Icon id="406">
                        <href>http://maps.google.com/mapfiles/kml/pushpin/ylw-pushpin.png</href>
                    </Icon>
                </IconStyle>
            </Style>
            <Style id="409">
                <IconStyle id="410">
                    <color>ff0000ff</color>
                    <colorMode>normal</colorMode>
                    <scale>1</scale>
                    <heading>0</heading>
                    <Icon id="411">
                        <href>http://maps.google.com/mapfiles/kml/pushpin/ylw-pushpin.png</href>
                    </Icon>
                </IconStyle>
            </Style>
            <Style id="414">
                <IconStyle id="415">
                    <color>ff0000ff</color>
                    <colorMode>normal</colorMode>
                    <scale>1</scale>
                    <heading>0</heading>
                    <Icon id="416">
                        <href>http://maps.google.com/mapfiles/kml/pushpin/ylw-pushpin.png</href>
                    </Icon>
                </IconStyle>
            </Style>
            <Style id="419">
                <IconStyle id="420">
                    <color>ff0000ff</color>
                    <colorMode>normal</colorMode>
                    <scale>1</scale>
                    <heading>0</heading>
                    <Icon id="421">
                        <href>http://maps.google.com/mapfiles/kml/pushpin/ylw-pushpin.png</href>
                    </Icon>
                </IconStyle>
            </Style>
            <Style id="424">
                <IconStyle id="425">
                    <color>ff0000ff</color>
                    <colorMode>normal</colorMode>
                    <scale>1</scale>
                    <heading>0</heading>
                    <Icon id="426">
                        <href>http://maps.google.com/mapfiles/kml/pushpin/ylw-pushpin.png</href>
                    </Icon>
                </IconStyle>
            </Style>
            <Style id="429">
                <IconStyle id="430">
                    <color>ff0000ff</color>
                    <colorMode>normal</colorMode>
                    <scale>1</scale>
                    <heading>0</heading>
                    <Icon id="431">
                        <href>http://maps.google.com/mapfiles/kml/pushpin/ylw-pushpin.png</href>
                    </Icon>
                </IconStyle>
            </Style>
            <Style id="434">
                <IconStyle id="435">
                    <color>ff0000ff</color>
                    <colorMode>normal</colorMode>
                    <scale>1</scale>
                    <heading>0</heading>
                    <Icon id="436">
                        <href>http://maps.google.com/mapfiles/kml/pushpin/ylw-pushpin.png</href>
                    </Icon>
                </IconStyle>
            </Style>
            <Style id="439">
                <IconStyle id="440">
                    <color>ff0000ff</color>
                    <colorMode>normal</colorMode>
                    <scale>1</scale>
                    <heading>0</heading>
                    <Icon id="441">
                        <href>http://maps.google.com/mapfiles/kml/pushpin/ylw-pushpin.png</href>
                    </Icon>
                </IconStyle>
            </Style>
            <Style id="444">
                <IconStyle id="445">
                    <color>ff0000ff</color>
                    <colorMode>normal</colorMode>
                    <scale>1</scale>
                    <heading>0</heading>
                    <Icon id="446">
                        <href>http://maps.google.com/mapfiles/kml/pushpin/ylw-pushpin.png</href>
                    </Icon>
                </IconStyle>
            </Style>
            <Style id="449">
                <IconStyle id="450">
                    <color>ff0000ff</color>
                    <colorMode>normal</colorMode>
                    <scale>1</scale>
                    <heading>0</heading>
                    <Icon id="451">
                        <href>http://maps.google.com/mapfiles/kml/pushpin/ylw-pushpin.png</href>
                    </Icon>
                </IconStyle>
            </Style>
            <Style id="454">
                <IconStyle id="455">
                    <color>ff0000ff</color>
                    <colorMode>normal</colorMode>
                    <scale>1</scale>
                    <heading>0</heading>
                    <Icon id="456">
                        <href>http://maps.google.com/mapfiles/kml/pushpin/ylw-pushpin.png</href>
                    </Icon>
                </IconStyle>
            </Style>
            <Style id="459">
                <IconStyle id="460">
                    <color>ff0000ff</color>
                    <colorMode>normal</colorMode>
                    <scale>1</scale>
                    <heading>0</heading>
                    <Icon id="461">
                        <href>http://maps.google.com/mapfiles/kml/pushpin/ylw-pushpin.png</href>
                    </Icon>
                </IconStyle>
            </Style>
            <Style id="464">
                <IconStyle id="465">
                    <color>ff0000ff</color>
                    <colorMode>normal</colorMode>
                    <scale>1</scale>
                    <heading>0</heading>
                    <Icon id="466">
                        <href>http://maps.google.com/mapfiles/kml/pushpin/ylw-pushpin.png</href>
                    </Icon>
                </IconStyle>
            </Style>
            <Style id="469">
                <IconStyle id="470">
                    <color>ff0000ff</color>
                    <colorMode>normal</colorMode>
                    <scale>1</scale>
                    <heading>0</heading>
                    <Icon id="471">
                        <href>http://maps.google.com/mapfiles/kml/pushpin/ylw-pushpin.png</href>
                    </Icon>
                </IconStyle>
            </Style>
            <Style id="474">
                <IconStyle id="475">
                    <color>ff0000ff</color>
                    <colorMode>normal</colorMode>
                    <scale>1</scale>
                    <heading>0</heading>
                    <Icon id="476">
                        <href>http://maps.google.com/mapfiles/kml/pushpin/ylw-pushpin.png</href>
                    </Icon>
                </IconStyle>
            </Style>
            <name>JOSE DAVID QUISPE RENTERIA</name>
            <Placemark id="333">
                <name>TORRES TIMANA HEIDY</name>
                <description>CA.MOQUEGUA 893
Piura

Piura
Perú</description>
                <styleUrl>#334</styleUrl>
                <Point id="332">
                    <coordinates>-80.631332,-5.198109,0.0</coordinates>
                </Point>
            </Placemark>
            <Placemark id="338">
                <name>AMANDA ME CHAPILLIQUEN VDA DE ROJAS</name>
                <description>JR.J"113.URB.SANJOSE"         
Veintiséis de Octubre
Piura
Piura
Perú</description>
                <styleUrl>#339</styleUrl>
                <Point id="337">
                    <coordinates>-80.6416636,-5.1954132,0.0</coordinates>
                </Point>
            </Placemark>
            <Placemark id="343">
                <name>CRISTINA DEL ROSARIO DIESTRA ZAVALETA</name>
                <description>CA.11 260 MZ.R LT 39 SAN JOSE 
Veintiséis de Octubre
Veintiséis de Octubre
Piura
Perú</description>
                <styleUrl>#344</styleUrl>
                <Point id="342">
                    <coordinates>-80.644448,-5.195416,0.0</coordinates>
                </Point>
            </Placemark>
            <Placemark id="348">
                <name>ADELA ANALY QUINDE CORTES</name>
                <description>AV CIRCUNVALACION 181 Piura CENTRO
Veintiséis de Octubre
Veintiséis de Octubre
Piura
Perú</description>
                <styleUrl>#349</styleUrl>
                <Point id="347">
                    <coordinates>-80.663173,-5.184875,0.0</coordinates>
                </Point>
            </Placemark>
            <Placemark id="353">
                <name>DELFILIA ENCALADA ARMIJOS</name>
                <description>Urbanización Santa Ana MZ P Lote 4 Bodega Punto Clave
Piura
Piura
Piura
Perú</description>
                <styleUrl>#354</styleUrl>
                <Point id="352">
                    <coordinates>-80.6411148,-5.1878723,0.0</coordinates>
                </Point>
            </Placemark>
            <Placemark id="358">
                <name>JAVIER ANTONIO GUTIERREZ AVALOS</name>
                <description>Urbanización San Lorenzo MZ B lote 16
Piura
Piura
Piura
Perú</description>
                <styleUrl>#359</styleUrl>
                <Point id="357">
                    <coordinates>-80.6383108,-5.1908059,0.0</coordinates>
                </Point>
            </Placemark>
            <Placemark id="363">
                <name>NAUCAR LIZANA RUBY MARIBEL</name>
                <description>Avenida Loreto esquina con ica- exterior centro comercial el algarrobo
Piura

Piura
Perú</description>
                <styleUrl>#364</styleUrl>
                <Point id="362">
                    <coordinates>-80.629872,-5.19491,0.0</coordinates>
                </Point>
            </Placemark>
            <Placemark id="368">
                <name>YTALO ROLANDO REYES CASANOVA</name>
                <description>AV.CIRCUNVALACION 1840 S.J.   
Veintiséis de Octubre
Veintiséis de Octubre
Piura
Perú</description>
                <styleUrl>#369</styleUrl>
                <Point id="367">
                    <coordinates>-80.643096,-5.196687,0.0</coordinates>
                </Point>
            </Placemark>
            <Placemark id="373">
                <name>TIENDA LA ABUELITA ROSITA SAC</name>
                <description>TIENDA LA ABUELITA ROSITA SAC
CA.CUZCO 720                  
Piura
Piura
Piura
Perú</description>
                <styleUrl>#374</styleUrl>
                <Point id="372">
                    <coordinates>-80.628242,-5.195706,0.0</coordinates>
                </Point>
            </Placemark>
            <Placemark id="378">
                <name>LILIANA DEL SOCORRO TIMANA ROSADO</name>
                <description>MZ C LT 16 URB SAN JOSE       
Veintiséis de Octubre
Piura
Piura
Perú</description>
                <styleUrl>#379</styleUrl>
                <Point id="377">
                    <coordinates>-80.6429351,-5.1960567,0.0</coordinates>
                </Point>
            </Placemark>
            <Placemark id="383">
                <name>MARIA SOLEDAD PARRILLA CHAMBA</name>
                <description>SAN JOSE CA.11N149
Piura

Piura
Perú</description>
                <styleUrl>#384</styleUrl>
                <Point id="382">
                    <coordinates>-80.643026,-5.1961005,0.0</coordinates>
                </Point>
            </Placemark>
            <Placemark id="388">
                <name>DELFILIA ENCALADA ARMIJOS</name>
                <description>Urbanización Santa Ana MZ P Lote 4 Bodega Punto Clave
Piura
Piura
Piura
Perú</description>
                <styleUrl>#389</styleUrl>
                <Point id="387">
                    <coordinates>-80.6411148,-5.1878723,0.0</coordinates>
                </Point>
            </Placemark>
            <Placemark id="393">
                <name>ZUÑIGA CARMEN MONTERO DE</name>
                <description>ZUÑIGA CARMEN MONTERO DE
JR TAMBOGRANDE S-20 II ET. STA.ANA
Piura
Piura
Piura
Perú</description>
                <styleUrl>#394</styleUrl>
                <Point id="392">
                    <coordinates>-80.6390319,-5.1892945,0.0</coordinates>
                </Point>
            </Placemark>
            <Placemark id="398">
                <name>JAVIER ANTONIO GUTIERREZ AVALOS</name>
                <description>Urbanización San Lorenzo MZ B lote 16
Piura
Piura
Piura
Perú</description>
                <styleUrl>#399</styleUrl>
                <Point id="397">
                    <coordinates>-80.6383108,-5.1908059,0.0</coordinates>
                </Point>
            </Placemark>
            <Placemark id="403">
                <name>CASTRO TRELLES LILIANA</name>
                <description>CASTRO TRELLES LILIANA
CALLE BOLIVAR 328 A.H.BUENOS AIRES
Piura
Piura
Piura
Perú</description>
                <styleUrl>#404</styleUrl>
                <Point id="402">
                    <coordinates>-80.6364907,-5.1956783,0.0</coordinates>
                </Point>
            </Placemark>
            <Placemark id="408">
                <name>JOSE ANTONIO ROJAS CRUZ</name>
                <description>Av. Loreto 1228
Piura
Piura
Piura
Perú</description>
                <styleUrl>#409</styleUrl>
                <Point id="407">
                    <coordinates>-80.6310025,-5.1996449,0.0</coordinates>
                </Point>
            </Placemark>
            <Placemark id="413">
                <name>ANA ISABEL ROSAS PRADO</name>
                <description>Agencia Ronco av. Loreto cerca a ovalo Bolognesi
Piura
Piura
Piura
Perú</description>
                <styleUrl>#414</styleUrl>
                <Point id="412">
                    <coordinates>-80.6304806,-5.199965,0.0</coordinates>
                </Point>
            </Placemark>
            <Placemark id="418">
                <name>TERESA BERMEJO CASTRO</name>
                <description>JR.HUANCAVELICA 1449 A.H BUENO
Piura
Piura
Piura
Perú</description>
                <styleUrl>#419</styleUrl>
                <Point id="417">
                    <coordinates>-80.6366531,-5.1946684,0.0</coordinates>
                </Point>
            </Placemark>
            <Placemark id="423">
                <name>MARLENE VELASQUEZ JUAREZ</name>
                <description>AV SAN MARTIN 302 URB BUENOS AIRES
Piura
Piura
Piura
Perú</description>
                <styleUrl>#424</styleUrl>
                <Point id="422">
                    <coordinates>-80.6354128,-5.195887,0.0</coordinates>
                </Point>
            </Placemark>
            <Placemark id="428">
                <name>VALDIVIEZO CHANDUVI MARIA DEL PILAR</name>
                <description>CALLE MOQUEGUA  NRO 358  TIENDA LA ESPAÑOLITA FRENTE A LA IGLESIA SAN SEBASTIÁN
Piura
Piura
Piura
Perú</description>
                <styleUrl>#429</styleUrl>
                <Point id="427">
                    <coordinates>-80.6270866,-5.1990007,0.0</coordinates>
                </Point>
            </Placemark>
            <Placemark id="433">
                <name>MARISOL OTERO GUTIERREZ</name>
                <description>CA.TACNA 996 BARRIO SUR       
Piura
Piura
Piura
Perú</description>
                <styleUrl>#434</styleUrl>
                <Point id="432">
                    <coordinates>-80.6283013,-5.2010048,0.0</coordinates>
                </Point>
            </Placemark>
            <Placemark id="438">
                <name>ISRAEL BERNABE TERCERO ROJAS CALDERON</name>
                <description>A.H.ALAN PERU  MZ.A LT.10B    
Piura
Piura
Piura
Perú</description>
                <styleUrl>#439</styleUrl>
                <Point id="437">
                    <coordinates>-80.6280606,-5.2026618,0.0</coordinates>
                </Point>
            </Placemark>
            <Placemark id="443">
                <name>MILAGROS DEL PILAR CASTRO PURIZAGA</name>
                <description>CA.AREQUIPA 1444 BARRIO CENTRO
Piura
Piura
Piura
Perú</description>
                <styleUrl>#444</styleUrl>
                <Point id="442">
                    <coordinates>-80.6293115,-5.2021975,0.0</coordinates>
                </Point>
            </Placemark>
            <Placemark id="448">
                <name>ELIZABETH KATHERINE ZUÑIGA PURIZAGA</name>
                <description>CALLE.AREQUIPA 1499-B Piura
Piura
Piura
Piura
Perú</description>
                <styleUrl>#449</styleUrl>
                <Point id="447">
                    <coordinates>-80.6295813,-5.2028151,0.0</coordinates>
                </Point>
            </Placemark>
            <Placemark id="453">
                <name>INVERSIONES APARICIO GUTIERREZ MANUEL E.I.R.L.</name>
                <description>INVERSIONES APARICIO GUTIERREZ MANUEL E.I.R.L.
MZA. I LOTE. 21 A.H. LOS TITANES
Piura
200101Piura
Piura
Perú</description>
                <styleUrl>#454</styleUrl>
                <Point id="452">
                    <coordinates>-80.6333829,-5.2011473,0.0</coordinates>
                </Point>
            </Placemark>
            <Placemark id="458">
                <name>CARRILLO DE LEON GEYBY BETTY</name>
                <description>CARRILLO DE LEON GEYBY BETTY
CIRCUNVALACION 1053 PIURA
Piura
Piura
Piura
Perú</description>
                <styleUrl>#459</styleUrl>
                <Point id="457">
                    <coordinates>-80.6328601,-5.2004798,0.0</coordinates>
                </Point>
            </Placemark>
            <Placemark id="463">
                <name>ALMACENES ANDREA MALDONADO S.A.C.</name>
                <description>ALMACENES ANDREA MALDONADO S.A.C.
AV. CIRCUNVALACION NRO. 1014 URB.  LOS TITANES ET. UNO
Piura
200101Piura
Piura
Perú</description>
                <styleUrl>#464</styleUrl>
                <Point id="462">
                    <coordinates>-80.6325702,-5.2003251,0.0</coordinates>
                </Point>
            </Placemark>
            <Placemark id="468">
                <name>ECONORTE QR S.A.C</name>
                <description>ECONORTE QR S.A.C
CALLE JUNIN 524 CENTRO        
Piura
Piura
Piura
Perú</description>
                <styleUrl>#469</styleUrl>
                <Point id="467">
                    <coordinates>-80.628384,-5.193325,0.0</coordinates>
                </Point>
            </Placemark>
            <Placemark id="473">
                <name>JAIME LEOPOLDO VILLAVICENCIO ACUÑA</name>
                <description>JAIME LEOPOLDO VILLAVICENCIO ACUÑA
CALLE AREQUIPA 1301 CENTRO PIURA
Piura
Piura
Piura
Perú</description>
                <styleUrl>#474</styleUrl>
                <Point id="472">
                    <coordinates>-80.6286189,-5.2009043,0.0</coordinates>
                </Point>
            </Placemark>
        </Folder>
        <Folder id="477">
            <Style id="480">
                <IconStyle id="481">
                    <color>ffff0000</color>
                    <colorMode>normal</colorMode>
                    <scale>1</scale>
                    <heading>0</heading>
                    <Icon id="482">
                        <href>http://maps.google.com/mapfiles/kml/pushpin/ylw-pushpin.png</href>
                    </Icon>
                </IconStyle>
            </Style>
            <Style id="485">
                <IconStyle id="486">
                    <color>ffff0000</color>
                    <colorMode>normal</colorMode>
                    <scale>1</scale>
                    <heading>0</heading>
                    <Icon id="487">
                        <href>http://maps.google.com/mapfiles/kml/pushpin/ylw-pushpin.png</href>
                    </Icon>
                </IconStyle>
            </Style>
            <Style id="490">
                <IconStyle id="491">
                    <color>ffff0000</color>
                    <colorMode>normal</colorMode>
                    <scale>1</scale>
                    <heading>0</heading>
                    <Icon id="492">
                        <href>http://maps.google.com/mapfiles/kml/pushpin/ylw-pushpin.png</href>
                    </Icon>
                </IconStyle>
            </Style>
            <Style id="495">
                <IconStyle id="496">
                    <color>ffff0000</color>
                    <colorMode>normal</colorMode>
                    <scale>1</scale>
                    <heading>0</heading>
                    <Icon id="497">
                        <href>http://maps.google.com/mapfiles/kml/pushpin/ylw-pushpin.png</href>
                    </Icon>
                </IconStyle>
            </Style>
            <Style id="500">
                <IconStyle id="501">
                    <color>ffff0000</color>
                    <colorMode>normal</colorMode>
                    <scale>1</scale>
                    <heading>0</heading>
                    <Icon id="502">
                        <href>http://maps.google.com/mapfiles/kml/pushpin/ylw-pushpin.png</href>
                    </Icon>
                </IconStyle>
            </Style>
            <Style id="505">
                <IconStyle id="506">
                    <color>ffff0000</color>
                    <colorMode>normal</colorMode>
                    <scale>1</scale>
                    <heading>0</heading>
                    <Icon id="507">
                        <href>http://maps.google.com/mapfiles/kml/pushpin/ylw-pushpin.png</href>
                    </Icon>
                </IconStyle>
            </Style>
            <Style id="510">
                <IconStyle id="511">
                    <color>ffff0000</color>
                    <colorMode>normal</colorMode>
                    <scale>1</scale>
                    <heading>0</heading>
                    <Icon id="512">
                        <href>http://maps.google.com/mapfiles/kml/pushpin/ylw-pushpin.png</href>
                    </Icon>
                </IconStyle>
            </Style>
            <Style id="515">
                <IconStyle id="516">
                    <color>ffff0000</color>
                    <colorMode>normal</colorMode>
                    <scale>1</scale>
                    <heading>0</heading>
                    <Icon id="517">
                        <href>http://maps.google.com/mapfiles/kml/pushpin/ylw-pushpin.png</href>
                    </Icon>
                </IconStyle>
            </Style>
            <Style id="520">
                <IconStyle id="521">
                    <color>ffff0000</color>
                    <colorMode>normal</colorMode>
                    <scale>1</scale>
                    <heading>0</heading>
                    <Icon id="522">
                        <href>http://maps.google.com/mapfiles/kml/pushpin/ylw-pushpin.png</href>
                    </Icon>
                </IconStyle>
            </Style>
            <Style id="525">
                <IconStyle id="526">
                    <color>ffff0000</color>
                    <colorMode>normal</colorMode>
                    <scale>1</scale>
                    <heading>0</heading>
                    <Icon id="527">
                        <href>http://maps.google.com/mapfiles/kml/pushpin/ylw-pushpin.png</href>
                    </Icon>
                </IconStyle>
            </Style>
            <Style id="530">
                <IconStyle id="531">
                    <color>ffff0000</color>
                    <colorMode>normal</colorMode>
                    <scale>1</scale>
                    <heading>0</heading>
                    <Icon id="532">
                        <href>http://maps.google.com/mapfiles/kml/pushpin/ylw-pushpin.png</href>
                    </Icon>
                </IconStyle>
            </Style>
            <Style id="535">
                <IconStyle id="536">
                    <color>ffff0000</color>
                    <colorMode>normal</colorMode>
                    <scale>1</scale>
                    <heading>0</heading>
                    <Icon id="537">
                        <href>http://maps.google.com/mapfiles/kml/pushpin/ylw-pushpin.png</href>
                    </Icon>
                </IconStyle>
            </Style>
            <Style id="540">
                <IconStyle id="541">
                    <color>ffff0000</color>
                    <colorMode>normal</colorMode>
                    <scale>1</scale>
                    <heading>0</heading>
                    <Icon id="542">
                        <href>http://maps.google.com/mapfiles/kml/pushpin/ylw-pushpin.png</href>
                    </Icon>
                </IconStyle>
            </Style>
            <Style id="545">
                <IconStyle id="546">
                    <color>ffff0000</color>
                    <colorMode>normal</colorMode>
                    <scale>1</scale>
                    <heading>0</heading>
                    <Icon id="547">
                        <href>http://maps.google.com/mapfiles/kml/pushpin/ylw-pushpin.png</href>
                    </Icon>
                </IconStyle>
            </Style>
            <Style id="550">
                <IconStyle id="551">
                    <color>ffff0000</color>
                    <colorMode>normal</colorMode>
                    <scale>1</scale>
                    <heading>0</heading>
                    <Icon id="552">
                        <href>http://maps.google.com/mapfiles/kml/pushpin/ylw-pushpin.png</href>
                    </Icon>
                </IconStyle>
            </Style>
            <Style id="555">
                <IconStyle id="556">
                    <color>ffff0000</color>
                    <colorMode>normal</colorMode>
                    <scale>1</scale>
                    <heading>0</heading>
                    <Icon id="557">
                        <href>http://maps.google.com/mapfiles/kml/pushpin/ylw-pushpin.png</href>
                    </Icon>
                </IconStyle>
            </Style>
            <Style id="560">
                <IconStyle id="561">
                    <color>ffff0000</color>
                    <colorMode>normal</colorMode>
                    <scale>1</scale>
                    <heading>0</heading>
                    <Icon id="562">
                        <href>http://maps.google.com/mapfiles/kml/pushpin/ylw-pushpin.png</href>
                    </Icon>
                </IconStyle>
            </Style>
            <Style id="565">
                <IconStyle id="566">
                    <color>ffff0000</color>
                    <colorMode>normal</colorMode>
                    <scale>1</scale>
                    <heading>0</heading>
                    <Icon id="567">
                        <href>http://maps.google.com/mapfiles/kml/pushpin/ylw-pushpin.png</href>
                    </Icon>
                </IconStyle>
            </Style>
            <Style id="570">
                <IconStyle id="571">
                    <color>ffff0000</color>
                    <colorMode>normal</colorMode>
                    <scale>1</scale>
                    <heading>0</heading>
                    <Icon id="572">
                        <href>http://maps.google.com/mapfiles/kml/pushpin/ylw-pushpin.png</href>
                    </Icon>
                </IconStyle>
            </Style>
            <Style id="575">
                <IconStyle id="576">
                    <color>ffff0000</color>
                    <colorMode>normal</colorMode>
                    <scale>1</scale>
                    <heading>0</heading>
                    <Icon id="577">
                        <href>http://maps.google.com/mapfiles/kml/pushpin/ylw-pushpin.png</href>
                    </Icon>
                </IconStyle>
            </Style>
            <Style id="580">
                <IconStyle id="581">
                    <color>ffff0000</color>
                    <colorMode>normal</colorMode>
                    <scale>1</scale>
                    <heading>0</heading>
                    <Icon id="582">
                        <href>http://maps.google.com/mapfiles/kml/pushpin/ylw-pushpin.png</href>
                    </Icon>
                </IconStyle>
            </Style>
            <Style id="585">
                <IconStyle id="586">
                    <color>ffff0000</color>
                    <colorMode>normal</colorMode>
                    <scale>1</scale>
                    <heading>0</heading>
                    <Icon id="587">
                        <href>http://maps.google.com/mapfiles/kml/pushpin/ylw-pushpin.png</href>
                    </Icon>
                </IconStyle>
            </Style>
            <name>ZOILA ALBERTINA DE JESUS MORANTE CARRASCO</name>
            <Placemark id="479">
                <name>CILLONIZ DE CRUZ MERCEDES RICARDINA</name>
                <description>CILLONIZ DE CRUZ MERCEDES RICARDINA
CUZCO 282 CERCADO DE PIURA
Piura
Piura
Piura
Perú</description>
                <styleUrl>#480</styleUrl>
                <Point id="478">
                    <coordinates>-80.6269172,-5.1917044,0.0</coordinates>
                </Point>
            </Placemark>
            <Placemark id="484">
                <name>VALERA MORENO JUAN FRANCISCO</name>
                <description>VALERA MORENO JUAN FRANCISCO
Urbanización Santa Isabel calle los Naranjos # 260 al costado de Limones Piuranos
Piura
Piura
Piura
Perú</description>
                <styleUrl>#485</styleUrl>
                <Point id="483">
                    <coordinates>-80.6289601,-5.1843165,0.0</coordinates>
                </Point>
            </Placemark>
            <Placemark id="489">
                <name>FLORES DE SALCEDO ROSA AMELIA</name>
                <description>FLORES DE SALCEDO ROSA AMELIA
CA.ZARUMILLA 120 PACHITEA - PIURA
Piura
Piura
Piura
Perú</description>
                <styleUrl>#490</styleUrl>
                <Point id="488">
                    <coordinates>-80.6304246,-5.1869619,0.0</coordinates>
                </Point>
            </Placemark>
            <Placemark id="494">
                <name>JUAN CARLOS ARELLANO GOMEZ</name>
                <description>José Olaya s/ n parque colegio don Bosco
Castilla

Piura
Perú</description>
                <styleUrl>#495</styleUrl>
                <Point id="493">
                    <coordinates>-80.621189,-5.19451,0.0</coordinates>
                </Point>
            </Placemark>
            <Placemark id="499">
                <name>VALENCIA SALAZAR ABEL</name>
                <description>VALENCIA SALAZAR ABEL
MZ K LTE.14 URB.MIRAFLORES II ETAPA- CASTILLA
Castilla
Castilla
Piura
Perú</description>
                <styleUrl>#500</styleUrl>
                <Point id="498">
                    <coordinates>-80.6218484,-5.1832753,0.0</coordinates>
                </Point>
            </Placemark>
            <Placemark id="504">
                <name>ANHUAMAN ASENCIO SANTOS JESUS</name>
                <description>CA.SAN PEDRO S/N ASOC. VILLA FAP
Castilla
Piura
Piura
Perú</description>
                <styleUrl>#505</styleUrl>
                <Point id="503">
                    <coordinates>-80.618179,-5.195508,0.0</coordinates>
                </Point>
            </Placemark>
            <Placemark id="509">
                <name>CLAUDIA FRANCISCA TORRES SENMACHE</name>
                <description>CLAUDIA FRANCISCA TORRES SENMACHE
AA. HH TANGARARA MZ A LT.08 PIURA
Piura
Piura
Piura
Perú</description>
                <styleUrl>#510</styleUrl>
                <Point id="508">
                    <coordinates>-80.6337731,-5.1850849,0.0</coordinates>
                </Point>
            </Placemark>
            <Placemark id="514">
                <name>VALENCIA SALAZAR ABEL</name>
                <description>VALENCIA SALAZAR ABEL
MZ K LTE.14 URB.MIRAFLORES II ETAPA- CASTILLA
Castilla
Castilla
Piura
Perú</description>
                <styleUrl>#515</styleUrl>
                <Point id="513">
                    <coordinates>-80.6218484,-5.1832753,0.0</coordinates>
                </Point>
            </Placemark>
            <Placemark id="519">
                <name>RAQUEL MA VALDIVIEZO PALACIOS DE S.</name>
                <description>LOS CARDOS MZC1 LTE.16 I ETAPA MIRAFLORES
Castilla
Piura
Piura
Perú</description>
                <styleUrl>#520</styleUrl>
                <Point id="518">
                    <coordinates>-80.6211225,-5.1887699,0.0</coordinates>
                </Point>
            </Placemark>
            <Placemark id="524">
                <name>YENY ELIZABETH BALLESTEROS MOGOLLON</name>
                <description>CALLE LOS CLAVELES MZN.X LOTE 8 URB. MIRAFLORES 1ERA ETAPA
Castilla

Piura
Perú</description>
                <styleUrl>#525</styleUrl>
                <Point id="523">
                    <coordinates>-80.619299,-5.190485,0.0</coordinates>
                </Point>
            </Placemark>
            <Placemark id="529">
                <name>ANHUAMAN ASENCIO SANTOS JESUS</name>
                <description>CA.SAN PEDRO S/N ASOC. VILLA FAP
Castilla
Piura
Piura
Perú</description>
                <styleUrl>#530</styleUrl>
                <Point id="528">
                    <coordinates>-80.618179,-5.195508,0.0</coordinates>
                </Point>
            </Placemark>
            <Placemark id="534">
                <name>BERRU VILLEGAS KARINA DOMENICA</name>
                <description>AV CAYETANO HEREDIA 1100 - INTERIOR HOSPITAL MILITAR - COMEDOR Comedor del hospital militar
Castilla
Piura
Piura
Perú</description>
                <styleUrl>#535</styleUrl>
                <Point id="533">
                    <coordinates>-80.6200949,-5.1960544,0.0</coordinates>
                </Point>
            </Placemark>
            <Placemark id="539">
                <name>ESTHER LILIANA CORDOVA LESCANO</name>
                <description>CA.CAJAMARCA. 614 PACHITEA - PIURA
Piura

Piura
Perú</description>
                <styleUrl>#540</styleUrl>
                <Point id="538">
                    <coordinates>-80.6281026,-5.1902732,0.0</coordinates>
                </Point>
            </Placemark>
            <Placemark id="544">
                <name>MILAGROS BONILLA FERNANDEZ</name>
                <description>CA.PACHITEA 280               
Piura
Piura
Piura
Perú</description>
                <styleUrl>#545</styleUrl>
                <Point id="543">
                    <coordinates>-80.6307884,-5.1890164,0.0</coordinates>
                </Point>
            </Placemark>
            <Placemark id="549">
                <name>MARIA DEL PILAR CABRERA CASTILLO</name>
                <description>1ERA DE PACHITEA #185 PACHITEA-Piura
Piura
Piura
Piura
Perú</description>
                <styleUrl>#550</styleUrl>
                <Point id="548">
                    <coordinates>-80.6301715,-5.1879894,0.0</coordinates>
                </Point>
            </Placemark>
            <Placemark id="554">
                <name>MICHILOT TAVARA MILAGROS</name>
                <description>AV.SULLANA 196                
Piura
Piura
Piura
Perú</description>
                <styleUrl>#555</styleUrl>
                <Point id="553">
                    <coordinates>-80.6302445,-5.1907355,0.0</coordinates>
                </Point>
            </Placemark>
            <Placemark id="559">
                <name>ALEXY GUARDADO LYNCH</name>
                <description>1 ERA PACHITEA 200 ASENTAMIENTO HUMANO PACHITEA REFERENCIA A 2NCUADRAS DE REGISTRO PUBLICOS
Piura
Piura
Piura
Perú</description>
                <styleUrl>#560</styleUrl>
                <Point id="558">
                    <coordinates>-80.6302299,-5.1880373,0.0</coordinates>
                </Point>
            </Placemark>
            <Placemark id="564">
                <name>ZAPATA MENA SOCORRO DEL P.</name>
                <description>SAN CRISTOBAL 292 B NORTE     
Piura
Piura
Piura
Perú</description>
                <styleUrl>#565</styleUrl>
                <Point id="563">
                    <coordinates>-80.6273032,-5.1864129,0.0</coordinates>
                </Point>
            </Placemark>
            <Placemark id="569">
                <name>GONZALES DE HUIMAN LUZ TARCILA</name>
                <description>GONZALES DE HUIMAN LUZ TARCILA
AV. LORETO NORTE 240 PIURA
Piura
Piura
Piura
Perú</description>
                <styleUrl>#570</styleUrl>
                <Point id="568">
                    <coordinates>-80.6264954,-5.1872035,0.0</coordinates>
                </Point>
            </Placemark>
            <Placemark id="574">
                <name>LUZ DEL SOCORRO PALACIOS RAMIREZ</name>
                <description>CA.CUZCO 309                  
Piura
Piura
Piura
Perú</description>
                <styleUrl>#575</styleUrl>
                <Point id="573">
                    <coordinates>-80.6269799,-5.1917583,0.0</coordinates>
                </Point>
            </Placemark>
            <Placemark id="579">
                <name>NEGOCIOS DIMAR EMPRESA INDIVIDUAL DE RESPONSABILIDAD LIMITADA</name>
                <description>JR. JUNIN NRO. 262 PIURA CERCADO
Piura
200101Piura
Piura
Perú</description>
                <styleUrl>#580</styleUrl>
                <Point id="578">
                    <coordinates>-80.6274353,-5.1913207,0.0</coordinates>
                </Point>
            </Placemark>
            <Placemark id="584">
                <name>FRANCISCA ELVIRA ABAD BOYER</name>
                <description>JUNIN 505-N¬268-Piura-Piura
Piura
Piura
Piura
Perú</description>
                <styleUrl>#585</styleUrl>
                <Point id="583">
                    <coordinates>-80.6275189,-5.1913476,0.0</coordinates>
                </Point>
            </Placemark>
        </Folder>
    </Document>
</kml>
