<?xml version="1.0" encoding="UTF-8"?>
<kml xmlns="http://www.opengis.net/kml/2.2" xmlns:gx="http://www.google.com/kml/ext/2.2">
    <Document id="953">
        <Folder id="954">
            <Style id="957">
                <IconStyle id="958">
                    <color>ff0000ff</color>
                    <colorMode>normal</colorMode>
                    <scale>1</scale>
                    <heading>0</heading>
                    <Icon id="959">
                        <href>http://maps.google.com/mapfiles/kml/pushpin/ylw-pushpin.png</href>
                    </Icon>
                </IconStyle>
            </Style>
            <Style id="962">
                <IconStyle id="963">
                    <color>ff0000ff</color>
                    <colorMode>normal</colorMode>
                    <scale>1</scale>
                    <heading>0</heading>
                    <Icon id="964">
                        <href>http://maps.google.com/mapfiles/kml/pushpin/ylw-pushpin.png</href>
                    </Icon>
                </IconStyle>
            </Style>
            <Style id="967">
                <IconStyle id="968">
                    <color>ff0000ff</color>
                    <colorMode>normal</colorMode>
                    <scale>1</scale>
                    <heading>0</heading>
                    <Icon id="969">
                        <href>http://maps.google.com/mapfiles/kml/pushpin/ylw-pushpin.png</href>
                    </Icon>
                </IconStyle>
            </Style>
            <Style id="972">
                <IconStyle id="973">
                    <color>ff0000ff</color>
                    <colorMode>normal</colorMode>
                    <scale>1</scale>
                    <heading>0</heading>
                    <Icon id="974">
                        <href>http://maps.google.com/mapfiles/kml/pushpin/ylw-pushpin.png</href>
                    </Icon>
                </IconStyle>
            </Style>
            <Style id="977">
                <IconStyle id="978">
                    <color>ff0000ff</color>
                    <colorMode>normal</colorMode>
                    <scale>1</scale>
                    <heading>0</heading>
                    <Icon id="979">
                        <href>http://maps.google.com/mapfiles/kml/pushpin/ylw-pushpin.png</href>
                    </Icon>
                </IconStyle>
            </Style>
            <Style id="982">
                <IconStyle id="983">
                    <color>ff0000ff</color>
                    <colorMode>normal</colorMode>
                    <scale>1</scale>
                    <heading>0</heading>
                    <Icon id="984">
                        <href>http://maps.google.com/mapfiles/kml/pushpin/ylw-pushpin.png</href>
                    </Icon>
                </IconStyle>
            </Style>
            <Style id="987">
                <IconStyle id="988">
                    <color>ff0000ff</color>
                    <colorMode>normal</colorMode>
                    <scale>1</scale>
                    <heading>0</heading>
                    <Icon id="989">
                        <href>http://maps.google.com/mapfiles/kml/pushpin/ylw-pushpin.png</href>
                    </Icon>
                </IconStyle>
            </Style>
            <Style id="992">
                <IconStyle id="993">
                    <color>ff0000ff</color>
                    <colorMode>normal</colorMode>
                    <scale>1</scale>
                    <heading>0</heading>
                    <Icon id="994">
                        <href>http://maps.google.com/mapfiles/kml/pushpin/ylw-pushpin.png</href>
                    </Icon>
                </IconStyle>
            </Style>
            <Style id="997">
                <IconStyle id="998">
                    <color>ff0000ff</color>
                    <colorMode>normal</colorMode>
                    <scale>1</scale>
                    <heading>0</heading>
                    <Icon id="999">
                        <href>http://maps.google.com/mapfiles/kml/pushpin/ylw-pushpin.png</href>
                    </Icon>
                </IconStyle>
            </Style>
            <Style id="1002">
                <IconStyle id="1003">
                    <color>ff0000ff</color>
                    <colorMode>normal</colorMode>
                    <scale>1</scale>
                    <heading>0</heading>
                    <Icon id="1004">
                        <href>http://maps.google.com/mapfiles/kml/pushpin/ylw-pushpin.png</href>
                    </Icon>
                </IconStyle>
            </Style>
            <Style id="1007">
                <IconStyle id="1008">
                    <color>ff0000ff</color>
                    <colorMode>normal</colorMode>
                    <scale>1</scale>
                    <heading>0</heading>
                    <Icon id="1009">
                        <href>http://maps.google.com/mapfiles/kml/pushpin/ylw-pushpin.png</href>
                    </Icon>
                </IconStyle>
            </Style>
            <Style id="1012">
                <IconStyle id="1013">
                    <color>ff0000ff</color>
                    <colorMode>normal</colorMode>
                    <scale>1</scale>
                    <heading>0</heading>
                    <Icon id="1014">
                        <href>http://maps.google.com/mapfiles/kml/pushpin/ylw-pushpin.png</href>
                    </Icon>
                </IconStyle>
            </Style>
            <Style id="1017">
                <IconStyle id="1018">
                    <color>ff0000ff</color>
                    <colorMode>normal</colorMode>
                    <scale>1</scale>
                    <heading>0</heading>
                    <Icon id="1019">
                        <href>http://maps.google.com/mapfiles/kml/pushpin/ylw-pushpin.png</href>
                    </Icon>
                </IconStyle>
            </Style>
            <Style id="1022">
                <IconStyle id="1023">
                    <color>ff0000ff</color>
                    <colorMode>normal</colorMode>
                    <scale>1</scale>
                    <heading>0</heading>
                    <Icon id="1024">
                        <href>http://maps.google.com/mapfiles/kml/pushpin/ylw-pushpin.png</href>
                    </Icon>
                </IconStyle>
            </Style>
            <Style id="1027">
                <IconStyle id="1028">
                    <color>ff0000ff</color>
                    <colorMode>normal</colorMode>
                    <scale>1</scale>
                    <heading>0</heading>
                    <Icon id="1029">
                        <href>http://maps.google.com/mapfiles/kml/pushpin/ylw-pushpin.png</href>
                    </Icon>
                </IconStyle>
            </Style>
            <Style id="1032">
                <IconStyle id="1033">
                    <color>ff0000ff</color>
                    <colorMode>normal</colorMode>
                    <scale>1</scale>
                    <heading>0</heading>
                    <Icon id="1034">
                        <href>http://maps.google.com/mapfiles/kml/pushpin/ylw-pushpin.png</href>
                    </Icon>
                </IconStyle>
            </Style>
            <Style id="1037">
                <IconStyle id="1038">
                    <color>ff0000ff</color>
                    <colorMode>normal</colorMode>
                    <scale>1</scale>
                    <heading>0</heading>
                    <Icon id="1039">
                        <href>http://maps.google.com/mapfiles/kml/pushpin/ylw-pushpin.png</href>
                    </Icon>
                </IconStyle>
            </Style>
            <Style id="1042">
                <IconStyle id="1043">
                    <color>ff0000ff</color>
                    <colorMode>normal</colorMode>
                    <scale>1</scale>
                    <heading>0</heading>
                    <Icon id="1044">
                        <href>http://maps.google.com/mapfiles/kml/pushpin/ylw-pushpin.png</href>
                    </Icon>
                </IconStyle>
            </Style>
            <Style id="1047">
                <IconStyle id="1048">
                    <color>ff0000ff</color>
                    <colorMode>normal</colorMode>
                    <scale>1</scale>
                    <heading>0</heading>
                    <Icon id="1049">
                        <href>http://maps.google.com/mapfiles/kml/pushpin/ylw-pushpin.png</href>
                    </Icon>
                </IconStyle>
            </Style>
            <Style id="1052">
                <IconStyle id="1053">
                    <color>ff0000ff</color>
                    <colorMode>normal</colorMode>
                    <scale>1</scale>
                    <heading>0</heading>
                    <Icon id="1054">
                        <href>http://maps.google.com/mapfiles/kml/pushpin/ylw-pushpin.png</href>
                    </Icon>
                </IconStyle>
            </Style>
            <Style id="1057">
                <IconStyle id="1058">
                    <color>ff0000ff</color>
                    <colorMode>normal</colorMode>
                    <scale>1</scale>
                    <heading>0</heading>
                    <Icon id="1059">
                        <href>http://maps.google.com/mapfiles/kml/pushpin/ylw-pushpin.png</href>
                    </Icon>
                </IconStyle>
            </Style>
            <Style id="1062">
                <IconStyle id="1063">
                    <color>ff0000ff</color>
                    <colorMode>normal</colorMode>
                    <scale>1</scale>
                    <heading>0</heading>
                    <Icon id="1064">
                        <href>http://maps.google.com/mapfiles/kml/pushpin/ylw-pushpin.png</href>
                    </Icon>
                </IconStyle>
            </Style>
            <Style id="1067">
                <IconStyle id="1068">
                    <color>ff0000ff</color>
                    <colorMode>normal</colorMode>
                    <scale>1</scale>
                    <heading>0</heading>
                    <Icon id="1069">
                        <href>http://maps.google.com/mapfiles/kml/pushpin/ylw-pushpin.png</href>
                    </Icon>
                </IconStyle>
            </Style>
            <Style id="1072">
                <IconStyle id="1073">
                    <color>ff0000ff</color>
                    <colorMode>normal</colorMode>
                    <scale>1</scale>
                    <heading>0</heading>
                    <Icon id="1074">
                        <href>http://maps.google.com/mapfiles/kml/pushpin/ylw-pushpin.png</href>
                    </Icon>
                </IconStyle>
            </Style>
            <Style id="1077">
                <IconStyle id="1078">
                    <color>ff0000ff</color>
                    <colorMode>normal</colorMode>
                    <scale>1</scale>
                    <heading>0</heading>
                    <Icon id="1079">
                        <href>http://maps.google.com/mapfiles/kml/pushpin/ylw-pushpin.png</href>
                    </Icon>
                </IconStyle>
            </Style>
            <Style id="1082">
                <IconStyle id="1083">
                    <color>ff0000ff</color>
                    <colorMode>normal</colorMode>
                    <scale>1</scale>
                    <heading>0</heading>
                    <Icon id="1084">
                        <href>http://maps.google.com/mapfiles/kml/pushpin/ylw-pushpin.png</href>
                    </Icon>
                </IconStyle>
            </Style>
            <Style id="1087">
                <IconStyle id="1088">
                    <color>ff0000ff</color>
                    <colorMode>normal</colorMode>
                    <scale>1</scale>
                    <heading>0</heading>
                    <Icon id="1089">
                        <href>http://maps.google.com/mapfiles/kml/pushpin/ylw-pushpin.png</href>
                    </Icon>
                </IconStyle>
            </Style>
            <Style id="1092">
                <IconStyle id="1093">
                    <color>ff0000ff</color>
                    <colorMode>normal</colorMode>
                    <scale>1</scale>
                    <heading>0</heading>
                    <Icon id="1094">
                        <href>http://maps.google.com/mapfiles/kml/pushpin/ylw-pushpin.png</href>
                    </Icon>
                </IconStyle>
            </Style>
            <Style id="1097">
                <IconStyle id="1098">
                    <color>ff0000ff</color>
                    <colorMode>normal</colorMode>
                    <scale>1</scale>
                    <heading>0</heading>
                    <Icon id="1099">
                        <href>http://maps.google.com/mapfiles/kml/pushpin/ylw-pushpin.png</href>
                    </Icon>
                </IconStyle>
            </Style>
            <Style id="1102">
                <IconStyle id="1103">
                    <color>ff0000ff</color>
                    <colorMode>normal</colorMode>
                    <scale>1</scale>
                    <heading>0</heading>
                    <Icon id="1104">
                        <href>http://maps.google.com/mapfiles/kml/pushpin/ylw-pushpin.png</href>
                    </Icon>
                </IconStyle>
            </Style>
            <Style id="1107">
                <IconStyle id="1108">
                    <color>ff0000ff</color>
                    <colorMode>normal</colorMode>
                    <scale>1</scale>
                    <heading>0</heading>
                    <Icon id="1109">
                        <href>http://maps.google.com/mapfiles/kml/pushpin/ylw-pushpin.png</href>
                    </Icon>
                </IconStyle>
            </Style>
            <Style id="1112">
                <IconStyle id="1113">
                    <color>ff0000ff</color>
                    <colorMode>normal</colorMode>
                    <scale>1</scale>
                    <heading>0</heading>
                    <Icon id="1114">
                        <href>http://maps.google.com/mapfiles/kml/pushpin/ylw-pushpin.png</href>
                    </Icon>
                </IconStyle>
            </Style>
            <Style id="1117">
                <IconStyle id="1118">
                    <color>ff0000ff</color>
                    <colorMode>normal</colorMode>
                    <scale>1</scale>
                    <heading>0</heading>
                    <Icon id="1119">
                        <href>http://maps.google.com/mapfiles/kml/pushpin/ylw-pushpin.png</href>
                    </Icon>
                </IconStyle>
            </Style>
            <Style id="1122">
                <IconStyle id="1123">
                    <color>ff0000ff</color>
                    <colorMode>normal</colorMode>
                    <scale>1</scale>
                    <heading>0</heading>
                    <Icon id="1124">
                        <href>http://maps.google.com/mapfiles/kml/pushpin/ylw-pushpin.png</href>
                    </Icon>
                </IconStyle>
            </Style>
            <Style id="1127">
                <IconStyle id="1128">
                    <color>ff0000ff</color>
                    <colorMode>normal</colorMode>
                    <scale>1</scale>
                    <heading>0</heading>
                    <Icon id="1129">
                        <href>http://maps.google.com/mapfiles/kml/pushpin/ylw-pushpin.png</href>
                    </Icon>
                </IconStyle>
            </Style>
            <Style id="1132">
                <IconStyle id="1133">
                    <color>ff0000ff</color>
                    <colorMode>normal</colorMode>
                    <scale>1</scale>
                    <heading>0</heading>
                    <Icon id="1134">
                        <href>http://maps.google.com/mapfiles/kml/pushpin/ylw-pushpin.png</href>
                    </Icon>
                </IconStyle>
            </Style>
            <Style id="1137">
                <IconStyle id="1138">
                    <color>ff0000ff</color>
                    <colorMode>normal</colorMode>
                    <scale>1</scale>
                    <heading>0</heading>
                    <Icon id="1139">
                        <href>http://maps.google.com/mapfiles/kml/pushpin/ylw-pushpin.png</href>
                    </Icon>
                </IconStyle>
            </Style>
            <Style id="1142">
                <IconStyle id="1143">
                    <color>ff0000ff</color>
                    <colorMode>normal</colorMode>
                    <scale>1</scale>
                    <heading>0</heading>
                    <Icon id="1144">
                        <href>http://maps.google.com/mapfiles/kml/pushpin/ylw-pushpin.png</href>
                    </Icon>
                </IconStyle>
            </Style>
            <Style id="1147">
                <IconStyle id="1148">
                    <color>ff0000ff</color>
                    <colorMode>normal</colorMode>
                    <scale>1</scale>
                    <heading>0</heading>
                    <Icon id="1149">
                        <href>http://maps.google.com/mapfiles/kml/pushpin/ylw-pushpin.png</href>
                    </Icon>
                </IconStyle>
            </Style>
            <Style id="1152">
                <IconStyle id="1153">
                    <color>ff0000ff</color>
                    <colorMode>normal</colorMode>
                    <scale>1</scale>
                    <heading>0</heading>
                    <Icon id="1154">
                        <href>http://maps.google.com/mapfiles/kml/pushpin/ylw-pushpin.png</href>
                    </Icon>
                </IconStyle>
            </Style>
            <Style id="1157">
                <IconStyle id="1158">
                    <color>ff0000ff</color>
                    <colorMode>normal</colorMode>
                    <scale>1</scale>
                    <heading>0</heading>
                    <Icon id="1159">
                        <href>http://maps.google.com/mapfiles/kml/pushpin/ylw-pushpin.png</href>
                    </Icon>
                </IconStyle>
            </Style>
            <Style id="1162">
                <IconStyle id="1163">
                    <color>ff0000ff</color>
                    <colorMode>normal</colorMode>
                    <scale>1</scale>
                    <heading>0</heading>
                    <Icon id="1164">
                        <href>http://maps.google.com/mapfiles/kml/pushpin/ylw-pushpin.png</href>
                    </Icon>
                </IconStyle>
            </Style>
            <Style id="1167">
                <IconStyle id="1168">
                    <color>ff0000ff</color>
                    <colorMode>normal</colorMode>
                    <scale>1</scale>
                    <heading>0</heading>
                    <Icon id="1169">
                        <href>http://maps.google.com/mapfiles/kml/pushpin/ylw-pushpin.png</href>
                    </Icon>
                </IconStyle>
            </Style>
            <Style id="1172">
                <IconStyle id="1173">
                    <color>ff0000ff</color>
                    <colorMode>normal</colorMode>
                    <scale>1</scale>
                    <heading>0</heading>
                    <Icon id="1174">
                        <href>http://maps.google.com/mapfiles/kml/pushpin/ylw-pushpin.png</href>
                    </Icon>
                </IconStyle>
            </Style>
            <Style id="1177">
                <IconStyle id="1178">
                    <color>ff0000ff</color>
                    <colorMode>normal</colorMode>
                    <scale>1</scale>
                    <heading>0</heading>
                    <Icon id="1179">
                        <href>http://maps.google.com/mapfiles/kml/pushpin/ylw-pushpin.png</href>
                    </Icon>
                </IconStyle>
            </Style>
            <Style id="1182">
                <IconStyle id="1183">
                    <color>ff0000ff</color>
                    <colorMode>normal</colorMode>
                    <scale>1</scale>
                    <heading>0</heading>
                    <Icon id="1184">
                        <href>http://maps.google.com/mapfiles/kml/pushpin/ylw-pushpin.png</href>
                    </Icon>
                </IconStyle>
            </Style>
            <Style id="1187">
                <IconStyle id="1188">
                    <color>ff0000ff</color>
                    <colorMode>normal</colorMode>
                    <scale>1</scale>
                    <heading>0</heading>
                    <Icon id="1189">
                        <href>http://maps.google.com/mapfiles/kml/pushpin/ylw-pushpin.png</href>
                    </Icon>
                </IconStyle>
            </Style>
            <Style id="1192">
                <IconStyle id="1193">
                    <color>ff0000ff</color>
                    <colorMode>normal</colorMode>
                    <scale>1</scale>
                    <heading>0</heading>
                    <Icon id="1194">
                        <href>http://maps.google.com/mapfiles/kml/pushpin/ylw-pushpin.png</href>
                    </Icon>
                </IconStyle>
            </Style>
            <name>MANUEL ENRIQUE ZAPATA QUEVEDO</name>
            <Placemark id="956">
                <name>JUANA DEL PILAR LITANO SANDOVAL</name>
                <description>AH KEIKO SOFIA C-10 CATACAOS
Catacaos

Piura
Perú</description>
                <styleUrl>#957</styleUrl>
                <Point id="955">
                    <coordinates>-80.681,-5.268774,0.0</coordinates>
                </Point>
            </Placemark>
            <Placemark id="961">
                <name>WILMER MOISES SEMINARIO LITANO</name>
                <description>JR. ALEJANDRO TABOADA723 - CATACAOSACAOS
Catacaos
Catacaos
Piura
Perú</description>
                <styleUrl>#962</styleUrl>
                <Point id="960">
                    <coordinates>-80.6749021,-5.2706716,0.0</coordinates>
                </Point>
            </Placemark>
            <Placemark id="966">
                <name>TEMPORA VILCHEZ SANDOVAL</name>
                <description>JR. Arequipa 1882
Catacaos
Piura
Piura
Perú</description>
                <styleUrl>#967</styleUrl>
                <Point id="965">
                    <coordinates>-80.687751,-5.280405,0.0</coordinates>
                </Point>
            </Placemark>
            <Placemark id="971">
                <name>ROSA ANGELICA ANCAJIMA HUIMAN</name>
                <description>MONTE SULLON  2147 CATACAOS
Catacaos

Piura
Perú</description>
                <styleUrl>#972</styleUrl>
                <Point id="970">
                    <coordinates>-80.68706,-5.280063,0.0</coordinates>
                </Point>
            </Placemark>
            <Placemark id="976">
                <name>CLARA PADILLA SANDOVAL</name>
                <description>JR COMERCIO 2130  MONTE SULLON CATACAOS
Catacaos

Piura
Perú</description>
                <styleUrl>#977</styleUrl>
                <Point id="975">
                    <coordinates>-80.686505,-5.2798303,0.0</coordinates>
                </Point>
            </Placemark>
            <Placemark id="981">
                <name>JESUS MARIA YARLEQUE CHERO</name>
                <description>JR.COMERCIO NÂ°1809 - MONTESULLON
Catacaos
Catacaos
Piura
Perú</description>
                <styleUrl>#982</styleUrl>
                <Point id="980">
                    <coordinates>-80.68268,-5.278086,0.0</coordinates>
                </Point>
            </Placemark>
            <Placemark id="986">
                <name>CHERO SULLON KATTY MABEL</name>
                <description>JR NARIHUALA 136 MONTE SULLON CATACAOS
Catacaos

Piura
Perú</description>
                <styleUrl>#987</styleUrl>
                <Point id="985">
                    <coordinates>-80.6820268,-5.2784388,0.0</coordinates>
                </Point>
            </Placemark>
            <Placemark id="991">
                <name>MARIA JULIA SERNAQUE CHERO</name>
                <description>JIRON NARIHUALA 125 MONTE SULLON CATACAOS
Catacaos

Piura
Perú</description>
                <styleUrl>#992</styleUrl>
                <Point id="990">
                    <coordinates>-80.680922,-5.2770312,0.0</coordinates>
                </Point>
            </Placemark>
            <Placemark id="996">
                <name>LALUPU SANDOVAL MARIA</name>
                <description>JIRON AREQUIPA 1304 MONTE SULLON
Catacaos
Catacaos
Piura
Perú</description>
                <styleUrl>#997</styleUrl>
                <Point id="995">
                    <coordinates>-80.6809901,-5.2737744,0.0</coordinates>
                </Point>
            </Placemark>
            <Placemark id="1001">
                <name>EDUARDO AVILA VILCHEZ</name>
                <description>JIRON MAYNAS 365 MONTE SULLON CATACAOS



Perú</description>
                <styleUrl>#1002</styleUrl>
                <Point id="1000">
                    <coordinates>-80.6801959,-5.2751733,0.0</coordinates>
                </Point>
            </Placemark>
            <Placemark id="1006">
                <name>MARIA JOVA BANCES CASTRO</name>
                <description>AV BOLOGNESI 168 MONTE SULLON
Catacaos

Piura
Perú</description>
                <styleUrl>#1007</styleUrl>
                <Point id="1005">
                    <coordinates>-80.67727,-5.277014,0.0</coordinates>
                </Point>
            </Placemark>
            <Placemark id="1011">
                <name>MODESTA AGUIRRE ZAVALA</name>
                <description>AH 17 SETIEMBRE  D-7
Catacaos

Piura
Perú</description>
                <styleUrl>#1012</styleUrl>
                <Point id="1010">
                    <coordinates>-80.677995,-5.276622,0.0</coordinates>
                </Point>
            </Placemark>
            <Placemark id="1016">
                <name>DIANA CARINA SERNAQUE CHERO</name>
                <description>AH NUEVO HORIZONTE A -6 CATACAOS MONTE SULLON
Catacaos

Piura
Perú</description>
                <styleUrl>#1017</styleUrl>
                <Point id="1015">
                    <coordinates>-80.6788596,-5.2766177,0.0</coordinates>
                </Point>
            </Placemark>
            <Placemark id="1021">
                <name>JOSE EMILIO SOSA FLORES</name>
                <description>JR TRUJILLO 1121 MONTE SULLON
Catacaos

Piura
Perú</description>
                <styleUrl>#1022</styleUrl>
                <Point id="1020">
                    <coordinates>-80.6786988,-5.2757287,0.0</coordinates>
                </Point>
            </Placemark>
            <Placemark id="1026">
                <name>ROSA QUINTANA CHERO</name>
                <description>JR TRUJILLO 1920 MONTE SULLON MEDIDOR 1119
Catacaos

Piura
Perú</description>
                <styleUrl>#1027</styleUrl>
                <Point id="1025">
                    <coordinates>-80.6786529,-5.2756448,0.0</coordinates>
                </Point>
            </Placemark>
            <Placemark id="1031">
                <name>RAMOS DE LALUPU JUANA ROSA</name>
                <description>RAMOS DE LALUPU JUANA ROSA
COMERCIO NÂ°1272 MONTE SULLON CATAC
Catacaos

Piura
Perú</description>
                <styleUrl>#1032</styleUrl>
                <Point id="1030">
                    <coordinates>-80.6790077,-5.2746911,0.0</coordinates>
                </Point>
            </Placemark>
            <Placemark id="1036">
                <name>JULIA EMILIA TRELLES DE LIZANO</name>
                <description>JR.COMERCIO NÂª1176 MONTE SULLON
Catacaos

Piura
Perú</description>
                <styleUrl>#1037</styleUrl>
                <Point id="1035">
                    <coordinates>-80.6785719,-5.2734575,0.0</coordinates>
                </Point>
            </Placemark>
            <Placemark id="1041">
                <name>KASANDRA LISSET CHORRES GARCIA</name>
                <description>JR AREQUIPA 1106 CATACAOS.MONTE SULLON
Catacaos

Piura
Perú</description>
                <styleUrl>#1042</styleUrl>
                <Point id="1040">
                    <coordinates>-80.6791101,-5.272254,0.0</coordinates>
                </Point>
            </Placemark>
            <Placemark id="1046">
                <name>MILAGROS DEL PILAR RUIZ ZAPATA</name>
                <description>JR MAYNAS 100 montesullo Catacaos
Catacaos

Piura
Perú</description>
                <styleUrl>#1047</styleUrl>
                <Point id="1045">
                    <coordinates>-80.678597,-5.272124,0.0</coordinates>
                </Point>
            </Placemark>
            <Placemark id="1051">
                <name>MARIA DANITZA MORALES PICON DE VALVERDE</name>
                <description>CALLE PIURA 1497 MONTE SULLON CATACAOS
Catacaos

Piura
Perú</description>
                <styleUrl>#1052</styleUrl>
                <Point id="1050">
                    <coordinates>-80.677033,-5.2689664,0.0</coordinates>
                </Point>
            </Placemark>
            <Placemark id="1056">
                <name>GLADYS YOVERA TIMANA</name>
                <description>JR. TRUJILLO NÂ°905 - MONTESULLON CATACAOS
Catacaos

Piura
Perú</description>
                <styleUrl>#1057</styleUrl>
                <Point id="1055">
                    <coordinates>-80.6776249,-5.2734249,0.0</coordinates>
                </Point>
            </Placemark>
            <Placemark id="1061">
                <name>MARIA MA LOPEZ CHIROQUE DE VILLEGAS</name>
                <description>JR. PIURA NÂ°1379 - CATACAOS
Catacaos
Piura
Piura
Perú</description>
                <styleUrl>#1062</styleUrl>
                <Point id="1060">
                    <coordinates>-80.6765357,-5.2715628,0.0</coordinates>
                </Point>
            </Placemark>
            <Placemark id="1066">
                <name>LLACSAHUANGA HUACCHILLO ROSA AURORA</name>
                <description>JR GRAU 508
Catacaos
Catacaos
Piura
Perú</description>
                <styleUrl>#1067</styleUrl>
                <Point id="1065">
                    <coordinates>-80.6757562,-5.2712272,0.0</coordinates>
                </Point>
            </Placemark>
            <Placemark id="1071">
                <name>JARITZA ISABEL MORE JUAREZ</name>
                <description>CALLE GRAU 553 CATACAOS
Catacaos

Piura
Perú</description>
                <styleUrl>#1072</styleUrl>
                <Point id="1070">
                    <coordinates>-80.6770178,-5.2721242,0.0</coordinates>
                </Point>
            </Placemark>
            <Placemark id="1076">
                <name>MARIA PATRICIA CHERO SALDARRIAGA</name>
                <description>CA.JOSEFINA RAMOS MZ A LT 17 -CATACAOS
Catacaos
Catacaos
Piura
Perú</description>
                <styleUrl>#1077</styleUrl>
                <Point id="1075">
                    <coordinates>-80.6755037,-5.2731262,0.0</coordinates>
                </Point>
            </Placemark>
            <Placemark id="1081">
                <name>NATIVIDAD SANDOVAL CHERO</name>
                <description>Ah TUPAC AMARU A-15 CATACACOS
Catacaos


Perú</description>
                <styleUrl>#1082</styleUrl>
                <Point id="1080">
                    <coordinates>-80.675527,-5.273045,0.0</coordinates>
                </Point>
            </Placemark>
            <Placemark id="1086">
                <name>DARWIN DAVID CHUNGA SILUPU</name>
                <description>AH TUPAC AMARU  D-7MONTE SULLON CATACAOS
Catacaos

Piura
Perú</description>
                <styleUrl>#1087</styleUrl>
                <Point id="1085">
                    <coordinates>-80.6755888,-5.2737543,0.0</coordinates>
                </Point>
            </Placemark>
            <Placemark id="1091">
                <name>ELIZABETH CHIROQUE SULLON</name>
                <description>MZ B LT 14 AH TUPAC AMARU CATACAOS
Catacaos
Catacaos
Piura
Perú</description>
                <styleUrl>#1092</styleUrl>
                <Point id="1090">
                    <coordinates>-80.675504,-5.2737606,0.0</coordinates>
                </Point>
            </Placemark>
            <Placemark id="1096">
                <name>MARIA FELICITA IPANAQUE DE CHAVEZ</name>
                <description>AAHH TUPAC AMARUC MZ B- 4 CALLE BOLOGNESI CATACAOS 
Catacaos
Catacaos
Piura
Perú</description>
                <styleUrl>#1097</styleUrl>
                <Point id="1095">
                    <coordinates>-80.6751177,-5.2744692,0.0</coordinates>
                </Point>
            </Placemark>
            <Placemark id="1101">
                <name>JESICA JULIANA SILVA CHERO</name>
                <description>AAHH 2DA ETAPA CALLE SAN ANDRES MZ D LT 8
Catacaos

Piura
Perú</description>
                <styleUrl>#1102</styleUrl>
                <Point id="1100">
                    <coordinates>-80.6739473,-5.2745487,0.0</coordinates>
                </Point>
            </Placemark>
            <Placemark id="1106">
                <name>CARRASCO FARFAN PIERINA</name>
                <description>AAHH TALLANES 2DA ETAPA MZ C LT 2
Catacaos

Piura
Perú</description>
                <styleUrl>#1107</styleUrl>
                <Point id="1105">
                    <coordinates>-80.673902,-5.2744896,0.0</coordinates>
                </Point>
            </Placemark>
            <Placemark id="1111">
                <name>LILLIAM AMPARO VASQUEZ DE CARRASCO</name>
                <description>JR. ALEJANDRO TABOADA 872 CATACAOS
Catacaos
Catacaos
Piura
Perú</description>
                <styleUrl>#1112</styleUrl>
                <Point id="1110">
                    <coordinates>-80.6756769,-5.2718842,0.0</coordinates>
                </Point>
            </Placemark>
            <Placemark id="1116">
                <name>JULIO CESAR YARLEQUE GOMEZ</name>
                <description>ALEJANDRO TABOADA 804 804
Catacaos
Catacaos
Piura
Perú</description>
                <styleUrl>#1117</styleUrl>
                <Point id="1115">
                    <coordinates>-80.6752451,-5.2713224,0.0</coordinates>
                </Point>
            </Placemark>
            <Placemark id="1121">
                <name>CHUYE COVEÑAS JESSICA</name>
                <description>Calle Grau #480 - CATACAOS
Catacaos
Catacaos
Piura
Perú</description>
                <styleUrl>#1122</styleUrl>
                <Point id="1120">
                    <coordinates>-80.6755083,-5.2703722,0.0</coordinates>
                </Point>
            </Placemark>
            <Placemark id="1126">
                <name>ROSA ISABEL RIOS CASTRO</name>
                <description>CALLE PIURA 1270 CATACAOS
Catacaos

Piura
Perú</description>
                <styleUrl>#1127</styleUrl>
                <Point id="1125">
                    <coordinates>-80.6762707,-5.2705307,0.0</coordinates>
                </Point>
            </Placemark>
            <Placemark id="1131">
                <name>JULIA VALDIVIEZO CHERO</name>
                <description>CA. COMERCIO NÂ°997 - CATACAOS
Catacaos
Piura
Piura
Perú</description>
                <styleUrl>#1132</styleUrl>
                <Point id="1130">
                    <coordinates>-80.6775987,-5.2703464,0.0</coordinates>
                </Point>
            </Placemark>
            <Placemark id="1136">
                <name>MARIA VERONICA VILLEGAS AQUINO</name>
                <description>CA.SIETE MZ G LT 4 AH.J DE MORI 2 E
Catacaos
Piura
Piura
Perú</description>
                <styleUrl>#1137</styleUrl>
                <Point id="1135">
                    <coordinates>-80.6806168,-5.267193,0.0</coordinates>
                </Point>
            </Placemark>
            <Placemark id="1141">
                <name>DIANA FIORELA RAMOS QUEZADA</name>
                <description>Aahh Keiko Sofía mz b lt 20
Catacaos
Piura
Piura
Perú</description>
                <styleUrl>#1142</styleUrl>
                <Point id="1140">
                    <coordinates>-80.6806652,-5.2684695,0.0</coordinates>
                </Point>
            </Placemark>
            <Placemark id="1146">
                <name>REYNA MARIBEL OJEDA VILCHEZ</name>
                <description>Ah Keiko Sofía A 20
Catacaos


Perú</description>
                <styleUrl>#1147</styleUrl>
                <Point id="1145">
                    <coordinates>-80.679967,-5.268806,0.0</coordinates>
                </Point>
            </Placemark>
            <Placemark id="1151">
                <name>LOURDES VALENCIA RIVAS</name>
                <description>LOURDES VALENCIA RIVAS
CALLE AREQUIPA 1010
Catacaos
Piura
Piura
Perú</description>
                <styleUrl>#1152</styleUrl>
                <Point id="1150">
                    <coordinates>-80.6782578,-5.2703207,0.0</coordinates>
                </Point>
            </Placemark>
            <Placemark id="1156">
                <name>LILIANA DEL SOCORRO CARMEN SALAZAR</name>
                <description>Jirón comercio 978 - monte sullon
Catacaos
Catacaos
Piura
Perú</description>
                <styleUrl>#1157</styleUrl>
                <Point id="1155">
                    <coordinates>-80.6775987,-5.2703464,0.0</coordinates>
                </Point>
            </Placemark>
            <Placemark id="1161">
                <name>LILIAN LORENA FERNANDEZ VERA</name>
                <description>LILIAN LORENA FERNANDEZ VERA
JR. TRUJILLO NÂº656 CERCADO DE CATA
Catacaos
Piura
Piura
Perú</description>
                <styleUrl>#1162</styleUrl>
                <Point id="1160">
                    <coordinates>-80.6767229,-5.2697344,0.0</coordinates>
                </Point>
            </Placemark>
            <Placemark id="1166">
                <name>SANDOVAL AMELIA JIBAJA DE</name>
                <description>SANDOVAL AMELIA JIBAJA DE
TRUJILLO NÂª608 CATACAOS
Catacaos
Piura
Piura
Perú</description>
                <styleUrl>#1167</styleUrl>
                <Point id="1165">
                    <coordinates>-80.6748252,-5.2683689,0.0</coordinates>
                </Point>
            </Placemark>
            <Placemark id="1171">
                <name>JOSE MERCEDES VILELA VILCHEZ</name>
                <description>Trujillo 604
Catacaos
Piura
Piura
Perú</description>
                <styleUrl>#1172</styleUrl>
                <Point id="1170">
                    <coordinates>-80.6751719,-5.2686967,0.0</coordinates>
                </Point>
            </Placemark>
            <Placemark id="1176">
                <name>MARIA REGINA SANTAMARIA DIAZ</name>
                <description>JR mariano díaz 1567
Catacaos
Catacaos
Piura
Perú</description>
                <styleUrl>#1177</styleUrl>
                <Point id="1175">
                    <coordinates>-80.6751866,-5.2691541,0.0</coordinates>
                </Point>
            </Placemark>
            <Placemark id="1181">
                <name>FABIOLA PATRICIA JUAREZ ALZAMORA</name>
                <description>CA MARIANO DIAZ CDRA 1585 ATRAS DE LA CORTADA
Catacaos
Catacaos
Piura
Perú</description>
                <styleUrl>#1182</styleUrl>
                <Point id="1180">
                    <coordinates>-80.677275,-5.2723943,0.0</coordinates>
                </Point>
            </Placemark>
            <Placemark id="1186">
                <name>ORTIZ VILLEGAS SOCORRO</name>
                <description>Calle tumbes #969 - CATACAOS
Catacaos
Catacaos
Piura
Perú</description>
                <styleUrl>#1187</styleUrl>
                <Point id="1185">
                    <coordinates>-80.6734385,-5.269316,0.0</coordinates>
                </Point>
            </Placemark>
            <Placemark id="1191">
                <name>MARIA CEFERINA YOVERA FLORES</name>
                <description>JR Alejandro Taboada #600 Ref. A espaldas del ganso azul
Catacaos
Piura
Piura
Perú</description>
                <styleUrl>#1192</styleUrl>
                <Point id="1190">
                    <coordinates>-80.673832,-5.2689558,0.0</coordinates>
                </Point>
            </Placemark>
        </Folder>
    </Document>
</kml>
