<?xml version="1.0" encoding="UTF-8"?>
<kml xmlns="http://www.opengis.net/kml/2.2" xmlns:gx="http://www.google.com/kml/ext/2.2">
    <Document id="669">
        <Folder id="670">
            <Style id="673">
                <IconStyle id="674">
                    <color>ff0000ff</color>
                    <colorMode>normal</colorMode>
                    <scale>1</scale>
                    <heading>0</heading>
                    <Icon id="675">
                        <href>http://maps.google.com/mapfiles/kml/pushpin/ylw-pushpin.png</href>
                    </Icon>
                </IconStyle>
            </Style>
            <Style id="678">
                <IconStyle id="679">
                    <color>ff0000ff</color>
                    <colorMode>normal</colorMode>
                    <scale>1</scale>
                    <heading>0</heading>
                    <Icon id="680">
                        <href>http://maps.google.com/mapfiles/kml/pushpin/ylw-pushpin.png</href>
                    </Icon>
                </IconStyle>
            </Style>
            <Style id="683">
                <IconStyle id="684">
                    <color>ff0000ff</color>
                    <colorMode>normal</colorMode>
                    <scale>1</scale>
                    <heading>0</heading>
                    <Icon id="685">
                        <href>http://maps.google.com/mapfiles/kml/pushpin/ylw-pushpin.png</href>
                    </Icon>
                </IconStyle>
            </Style>
            <Style id="688">
                <IconStyle id="689">
                    <color>ff0000ff</color>
                    <colorMode>normal</colorMode>
                    <scale>1</scale>
                    <heading>0</heading>
                    <Icon id="690">
                        <href>http://maps.google.com/mapfiles/kml/pushpin/ylw-pushpin.png</href>
                    </Icon>
                </IconStyle>
            </Style>
            <Style id="693">
                <IconStyle id="694">
                    <color>ff0000ff</color>
                    <colorMode>normal</colorMode>
                    <scale>1</scale>
                    <heading>0</heading>
                    <Icon id="695">
                        <href>http://maps.google.com/mapfiles/kml/pushpin/ylw-pushpin.png</href>
                    </Icon>
                </IconStyle>
            </Style>
            <Style id="698">
                <IconStyle id="699">
                    <color>ff0000ff</color>
                    <colorMode>normal</colorMode>
                    <scale>1</scale>
                    <heading>0</heading>
                    <Icon id="700">
                        <href>http://maps.google.com/mapfiles/kml/pushpin/ylw-pushpin.png</href>
                    </Icon>
                </IconStyle>
            </Style>
            <Style id="703">
                <IconStyle id="704">
                    <color>ff0000ff</color>
                    <colorMode>normal</colorMode>
                    <scale>1</scale>
                    <heading>0</heading>
                    <Icon id="705">
                        <href>http://maps.google.com/mapfiles/kml/pushpin/ylw-pushpin.png</href>
                    </Icon>
                </IconStyle>
            </Style>
            <Style id="708">
                <IconStyle id="709">
                    <color>ff0000ff</color>
                    <colorMode>normal</colorMode>
                    <scale>1</scale>
                    <heading>0</heading>
                    <Icon id="710">
                        <href>http://maps.google.com/mapfiles/kml/pushpin/ylw-pushpin.png</href>
                    </Icon>
                </IconStyle>
            </Style>
            <Style id="713">
                <IconStyle id="714">
                    <color>ff0000ff</color>
                    <colorMode>normal</colorMode>
                    <scale>1</scale>
                    <heading>0</heading>
                    <Icon id="715">
                        <href>http://maps.google.com/mapfiles/kml/pushpin/ylw-pushpin.png</href>
                    </Icon>
                </IconStyle>
            </Style>
            <Style id="718">
                <IconStyle id="719">
                    <color>ff0000ff</color>
                    <colorMode>normal</colorMode>
                    <scale>1</scale>
                    <heading>0</heading>
                    <Icon id="720">
                        <href>http://maps.google.com/mapfiles/kml/pushpin/ylw-pushpin.png</href>
                    </Icon>
                </IconStyle>
            </Style>
            <Style id="723">
                <IconStyle id="724">
                    <color>ff0000ff</color>
                    <colorMode>normal</colorMode>
                    <scale>1</scale>
                    <heading>0</heading>
                    <Icon id="725">
                        <href>http://maps.google.com/mapfiles/kml/pushpin/ylw-pushpin.png</href>
                    </Icon>
                </IconStyle>
            </Style>
            <Style id="728">
                <IconStyle id="729">
                    <color>ff0000ff</color>
                    <colorMode>normal</colorMode>
                    <scale>1</scale>
                    <heading>0</heading>
                    <Icon id="730">
                        <href>http://maps.google.com/mapfiles/kml/pushpin/ylw-pushpin.png</href>
                    </Icon>
                </IconStyle>
            </Style>
            <Style id="733">
                <IconStyle id="734">
                    <color>ff0000ff</color>
                    <colorMode>normal</colorMode>
                    <scale>1</scale>
                    <heading>0</heading>
                    <Icon id="735">
                        <href>http://maps.google.com/mapfiles/kml/pushpin/ylw-pushpin.png</href>
                    </Icon>
                </IconStyle>
            </Style>
            <Style id="738">
                <IconStyle id="739">
                    <color>ff0000ff</color>
                    <colorMode>normal</colorMode>
                    <scale>1</scale>
                    <heading>0</heading>
                    <Icon id="740">
                        <href>http://maps.google.com/mapfiles/kml/pushpin/ylw-pushpin.png</href>
                    </Icon>
                </IconStyle>
            </Style>
            <Style id="743">
                <IconStyle id="744">
                    <color>ff0000ff</color>
                    <colorMode>normal</colorMode>
                    <scale>1</scale>
                    <heading>0</heading>
                    <Icon id="745">
                        <href>http://maps.google.com/mapfiles/kml/pushpin/ylw-pushpin.png</href>
                    </Icon>
                </IconStyle>
            </Style>
            <Style id="748">
                <IconStyle id="749">
                    <color>ff0000ff</color>
                    <colorMode>normal</colorMode>
                    <scale>1</scale>
                    <heading>0</heading>
                    <Icon id="750">
                        <href>http://maps.google.com/mapfiles/kml/pushpin/ylw-pushpin.png</href>
                    </Icon>
                </IconStyle>
            </Style>
            <Style id="753">
                <IconStyle id="754">
                    <color>ff0000ff</color>
                    <colorMode>normal</colorMode>
                    <scale>1</scale>
                    <heading>0</heading>
                    <Icon id="755">
                        <href>http://maps.google.com/mapfiles/kml/pushpin/ylw-pushpin.png</href>
                    </Icon>
                </IconStyle>
            </Style>
            <Style id="758">
                <IconStyle id="759">
                    <color>ff0000ff</color>
                    <colorMode>normal</colorMode>
                    <scale>1</scale>
                    <heading>0</heading>
                    <Icon id="760">
                        <href>http://maps.google.com/mapfiles/kml/pushpin/ylw-pushpin.png</href>
                    </Icon>
                </IconStyle>
            </Style>
            <Style id="763">
                <IconStyle id="764">
                    <color>ff0000ff</color>
                    <colorMode>normal</colorMode>
                    <scale>1</scale>
                    <heading>0</heading>
                    <Icon id="765">
                        <href>http://maps.google.com/mapfiles/kml/pushpin/ylw-pushpin.png</href>
                    </Icon>
                </IconStyle>
            </Style>
            <Style id="768">
                <IconStyle id="769">
                    <color>ff0000ff</color>
                    <colorMode>normal</colorMode>
                    <scale>1</scale>
                    <heading>0</heading>
                    <Icon id="770">
                        <href>http://maps.google.com/mapfiles/kml/pushpin/ylw-pushpin.png</href>
                    </Icon>
                </IconStyle>
            </Style>
            <Style id="773">
                <IconStyle id="774">
                    <color>ff0000ff</color>
                    <colorMode>normal</colorMode>
                    <scale>1</scale>
                    <heading>0</heading>
                    <Icon id="775">
                        <href>http://maps.google.com/mapfiles/kml/pushpin/ylw-pushpin.png</href>
                    </Icon>
                </IconStyle>
            </Style>
            <Style id="778">
                <IconStyle id="779">
                    <color>ff0000ff</color>
                    <colorMode>normal</colorMode>
                    <scale>1</scale>
                    <heading>0</heading>
                    <Icon id="780">
                        <href>http://maps.google.com/mapfiles/kml/pushpin/ylw-pushpin.png</href>
                    </Icon>
                </IconStyle>
            </Style>
            <Style id="783">
                <IconStyle id="784">
                    <color>ff0000ff</color>
                    <colorMode>normal</colorMode>
                    <scale>1</scale>
                    <heading>0</heading>
                    <Icon id="785">
                        <href>http://maps.google.com/mapfiles/kml/pushpin/ylw-pushpin.png</href>
                    </Icon>
                </IconStyle>
            </Style>
            <Style id="788">
                <IconStyle id="789">
                    <color>ff0000ff</color>
                    <colorMode>normal</colorMode>
                    <scale>1</scale>
                    <heading>0</heading>
                    <Icon id="790">
                        <href>http://maps.google.com/mapfiles/kml/pushpin/ylw-pushpin.png</href>
                    </Icon>
                </IconStyle>
            </Style>
            <Style id="793">
                <IconStyle id="794">
                    <color>ff0000ff</color>
                    <colorMode>normal</colorMode>
                    <scale>1</scale>
                    <heading>0</heading>
                    <Icon id="795">
                        <href>http://maps.google.com/mapfiles/kml/pushpin/ylw-pushpin.png</href>
                    </Icon>
                </IconStyle>
            </Style>
            <name>BRAYAN ALEXANDER IPANAQUE CASTRO</name>
            <Placemark id="672">
                <name>BEST SKY S.R.L.</name>
                <description>BEST SKY S.R.L.
AV. CAYETANO HEREDIA MZA. A 1 LOTE. 08 OTR.  CERCADO
Catacaos
200105Piura
Piura
Perú</description>
                <styleUrl>#673</styleUrl>
                <Point id="671">
                    <coordinates>-80.6700281,-5.2635855,0.0</coordinates>
                </Point>
            </Placemark>
            <Placemark id="677">
                <name>RAMOS ALAMO AYUMI MADELEINE</name>
                <description>RAMOS ALAMO AYUMI MADELEINE
JR. COMERCIO 600 CATACAOS
Catacaos
Catacaos
Piura
Perú</description>
                <styleUrl>#678</styleUrl>
                <Point id="676">
                    <coordinates>-80.676772,-5.266907,0.0</coordinates>
                </Point>
            </Placemark>
            <Placemark id="682">
                <name>RAMOS ALAMO AYUMI MADELEINE</name>
                <description>RAMOS ALAMO AYUMI MADELEINE
JR. COMERCIO 600 CATACAOS
Catacaos
Catacaos
Piura
Perú</description>
                <styleUrl>#683</styleUrl>
                <Point id="681">
                    <coordinates>-80.676772,-5.266907,0.0</coordinates>
                </Point>
            </Placemark>
            <Placemark id="687">
                <name>RAMOS ALAMO AYUMI MADELEINE</name>
                <description>RAMOS ALAMO AYUMI MADELEINE
JR. COMERCIO 600 CATACAOS
Catacaos
Catacaos
Piura
Perú</description>
                <styleUrl>#688</styleUrl>
                <Point id="686">
                    <coordinates>-80.676772,-5.266907,0.0</coordinates>
                </Point>
            </Placemark>
            <Placemark id="692">
                <name>BEST SKY S.R.L.</name>
                <description>BEST SKY S.R.L.
AV. CAYETANO HEREDIA MZA. A 1 LOTE. 08 OTR.  CERCADO
Catacaos
200105Piura
Piura
Perú</description>
                <styleUrl>#693</styleUrl>
                <Point id="691">
                    <coordinates>-80.6700281,-5.2635855,0.0</coordinates>
                </Point>
            </Placemark>
            <Placemark id="697">
                <name>MARITZA TRELLES MONTES</name>
                <description>JR ALEJANDRO TABOADA NRO 189
Catacaos
Catacaos
Piura
Perú</description>
                <styleUrl>#698</styleUrl>
                <Point id="696">
                    <coordinates>-80.6715303,-5.2631281,0.0</coordinates>
                </Point>
            </Placemark>
            <Placemark id="702">
                <name>CARMEN DEL ROSARIO ALFARO SANDOVAL</name>
                <description>JR . Taboada 138
Catacaos
Catacaos
Piura
Perú</description>
                <styleUrl>#703</styleUrl>
                <Point id="701">
                    <coordinates>-80.6716893,-5.2634952,0.0</coordinates>
                </Point>
            </Placemark>
            <Placemark id="707">
                <name>LUCIANO FLORES VIERA</name>
                <description>AAHH JOSE CARLOS MARIÁTEGUI MZ F LOTE 11 - CATACAOS 
Catacaos
Catacaos
Piura
Perú</description>
                <styleUrl>#708</styleUrl>
                <Point id="706">
                    <coordinates>-80.6703172,-5.2594222,0.0</coordinates>
                </Point>
            </Placemark>
            <Placemark id="712">
                <name>MIRIAM FANY AMAYA LA CHIRA</name>
                <description>JR. PIURA N°360-342 - CATACAOS
Catacaos
Catacaos
Piura
Perú</description>
                <styleUrl>#713</styleUrl>
                <Point id="711">
                    <coordinates>-80.6740089,-5.262534,0.0</coordinates>
                </Point>
            </Placemark>
            <Placemark id="717">
                <name>ANGELICA MARIA IPANAQUE YOVERA</name>
                <description>JR.PIURA 341- 329 CATACAOS
Catacaos
Catacaos
Piura
Perú</description>
                <styleUrl>#718</styleUrl>
                <Point id="716">
                    <coordinates>-80.6737762,-5.2623149,0.0</coordinates>
                </Point>
            </Placemark>
            <Placemark id="722">
                <name>PATRICIA QUIROZ CHAVEZ</name>
                <description>San Francisco 501
Catacaos
Catacaos
Piura
Perú</description>
                <styleUrl>#723</styleUrl>
                <Point id="721">
                    <coordinates>-80.6748766,-5.2636496,0.0</coordinates>
                </Point>
            </Placemark>
            <Placemark id="727">
                <name>GISELA FABIOLA PALACIOS LEON</name>
                <description>Zepita 283 frente el colegio jacobo crz villegas ex27
Catacaos
Catacaos
Piura
Perú</description>
                <styleUrl>#728</styleUrl>
                <Point id="726">
                    <coordinates>-80.6751358,-5.2626895,0.0</coordinates>
                </Point>
            </Placemark>
            <Placemark id="732">
                <name>FREDDY ALEXANDER GUTIERREZ SULLON</name>
                <description>CALLE ALFONSO ANCAJIMA MZ A -16 AAHH JACOBO CRUZ
Catacaos
Catacaos
Piura
Perú</description>
                <styleUrl>#733</styleUrl>
                <Point id="731">
                    <coordinates>-80.6775632,-5.2637998,0.0</coordinates>
                </Point>
            </Placemark>
            <Placemark id="737">
                <name>WALTER ENRIQUE BARRIOS OLIVARES</name>
                <description>CALLE EMILIO RAMÍREZ S/N CATACAOS 
Catacaos
Catacaos
Piura
Perú</description>
                <styleUrl>#738</styleUrl>
                <Point id="736">
                    <coordinates>-80.6775412,-5.2640429,0.0</coordinates>
                </Point>
            </Placemark>
            <Placemark id="742">
                <name>CARMEN ROCIO GUTIERREZ TRELLES</name>
                <description>PROLONGACION CAYETANO HEREDIA MZG,-2 CATACAOS
Catacaos
Catacaos
Piura
Perú</description>
                <styleUrl>#743</styleUrl>
                <Point id="741">
                    <coordinates>-80.6789658,-5.2644886,0.0</coordinates>
                </Point>
            </Placemark>
            <Placemark id="747">
                <name>YANET MORALES HUIMAN</name>
                <description>Ampliación José Cayetano Heredia mz c lt 13
Catacaos
Catacaos
Piura
Perú</description>
                <styleUrl>#748</styleUrl>
                <Point id="746">
                    <coordinates>-80.6813167,-5.264135,0.0</coordinates>
                </Point>
            </Placemark>
            <Placemark id="752">
                <name>DAVID ADRIAN PRIETO ANCAJIMA</name>
                <description>DAVID ADRIAN PRIETO ANCAJIMA
MZA. D LOTE. 02 A.H. JUAN DE MORI I
Catacaos
Catacaos
Piura
Perú</description>
                <styleUrl>#753</styleUrl>
                <Point id="751">
                    <coordinates>-80.6802002,-5.2659837,0.0</coordinates>
                </Point>
            </Placemark>
            <Placemark id="757">
                <name>MARIA JUDITH MAZA PASACHE</name>
                <description>Calle 3 Mz H Lote 1
Catacaos
Catacaos
Piura
Perú</description>
                <styleUrl>#758</styleUrl>
                <Point id="756">
                    <coordinates>-80.678495,-5.2665167,0.0</coordinates>
                </Point>
            </Placemark>
            <Placemark id="762">
                <name>ELSA SOCORRO CHU DE YENG</name>
                <description>AV CAYETANO HEREDIA NRO 700
Catacaos
Catacaos
Piura
Perú</description>
                <styleUrl>#763</styleUrl>
                <Point id="761">
                    <coordinates>-80.6746662,-5.2653466,0.0</coordinates>
                </Point>
            </Placemark>
            <Placemark id="767">
                <name>DIAMANTINA VILLEGAS YARLEQUE</name>
                <description>JR PIURA 1052 CATACAOS
Catacaos
Piura
Piura
Perú</description>
                <styleUrl>#768</styleUrl>
                <Point id="766">
                    <coordinates>-80.6753042,-5.2680277,0.0</coordinates>
                </Point>
            </Placemark>
            <Placemark id="772">
                <name>BITIA RAQUEL SILUPU VEGA</name>
                <description>JR MARIANO DIAZ 1497 - CATACAOS
Catacaos
Catacaos
Piura
Perú</description>
                <styleUrl>#773</styleUrl>
                <Point id="771">
                    <coordinates>-80.6749151,-5.2684206,0.0</coordinates>
                </Point>
            </Placemark>
            <Placemark id="777">
                <name>PEDRO SILVA SOSA</name>
                <description>CAL. ALEJANDRO TABOADA NÂ°532 - CATACAOS
Catacaos
Catacaos
Piura
Perú</description>
                <styleUrl>#778</styleUrl>
                <Point id="776">
                    <coordinates>-80.6734889,-5.2683312,0.0</coordinates>
                </Point>
            </Placemark>
            <Placemark id="782">
                <name>MILAGROS LORENA NAVARRO INGA</name>
                <description>JR. TUMBES NÂ°807 .-CATACAOS
Catacaos
Catacaos
Piura
Perú</description>
                <styleUrl>#783</styleUrl>
                <Point id="781">
                    <coordinates>-80.6740195,-5.2677571,0.0</coordinates>
                </Point>
            </Placemark>
            <Placemark id="787">
                <name>JULISSA VANESSA LAZO BAUTISTA</name>
                <description>JR. MARIANO DIAZ NÂ°1320 C.P.-CATAC
Catacaos
Catacaos
Piura
Perú</description>
                <styleUrl>#788</styleUrl>
                <Point id="786">
                    <coordinates>-80.6746032,-5.2672532,0.0</coordinates>
                </Point>
            </Placemark>
            <Placemark id="792">
                <name>ANGELICA PAZ DE RAMOS</name>
                <description>ANGELICA PAZ DE RAMOS
PLG. ALEJANDRO TABOADA 349 CERC.
Catacaos
Catacaos
Piura
Perú</description>
                <styleUrl>#793</styleUrl>
                <Point id="791">
                    <coordinates>-80.6730447,-5.2670194,0.0</coordinates>
                </Point>
            </Placemark>
        </Folder>
    </Document>
</kml>
