<?xml version="1.0" encoding="UTF-8"?>
<kml xmlns="http://www.opengis.net/kml/2.2" xmlns:gx="http://www.google.com/kml/ext/2.2">
    <Document id="149">
        <Folder id="150">
            <Style id="153">
                <IconStyle id="154">
                    <color>ff0000ff</color>
                    <colorMode>normal</colorMode>
                    <scale>1</scale>
                    <heading>0</heading>
                    <Icon id="155">
                        <href>http://maps.google.com/mapfiles/kml/pushpin/ylw-pushpin.png</href>
                    </Icon>
                </IconStyle>
            </Style>
            <Style id="158">
                <IconStyle id="159">
                    <color>ff0000ff</color>
                    <colorMode>normal</colorMode>
                    <scale>1</scale>
                    <heading>0</heading>
                    <Icon id="160">
                        <href>http://maps.google.com/mapfiles/kml/pushpin/ylw-pushpin.png</href>
                    </Icon>
                </IconStyle>
            </Style>
            <Style id="163">
                <IconStyle id="164">
                    <color>ff0000ff</color>
                    <colorMode>normal</colorMode>
                    <scale>1</scale>
                    <heading>0</heading>
                    <Icon id="165">
                        <href>http://maps.google.com/mapfiles/kml/pushpin/ylw-pushpin.png</href>
                    </Icon>
                </IconStyle>
            </Style>
            <Style id="168">
                <IconStyle id="169">
                    <color>ff0000ff</color>
                    <colorMode>normal</colorMode>
                    <scale>1</scale>
                    <heading>0</heading>
                    <Icon id="170">
                        <href>http://maps.google.com/mapfiles/kml/pushpin/ylw-pushpin.png</href>
                    </Icon>
                </IconStyle>
            </Style>
            <Style id="173">
                <IconStyle id="174">
                    <color>ff0000ff</color>
                    <colorMode>normal</colorMode>
                    <scale>1</scale>
                    <heading>0</heading>
                    <Icon id="175">
                        <href>http://maps.google.com/mapfiles/kml/pushpin/ylw-pushpin.png</href>
                    </Icon>
                </IconStyle>
            </Style>
            <Style id="178">
                <IconStyle id="179">
                    <color>ff0000ff</color>
                    <colorMode>normal</colorMode>
                    <scale>1</scale>
                    <heading>0</heading>
                    <Icon id="180">
                        <href>http://maps.google.com/mapfiles/kml/pushpin/ylw-pushpin.png</href>
                    </Icon>
                </IconStyle>
            </Style>
            <Style id="183">
                <IconStyle id="184">
                    <color>ff0000ff</color>
                    <colorMode>normal</colorMode>
                    <scale>1</scale>
                    <heading>0</heading>
                    <Icon id="185">
                        <href>http://maps.google.com/mapfiles/kml/pushpin/ylw-pushpin.png</href>
                    </Icon>
                </IconStyle>
            </Style>
            <Style id="188">
                <IconStyle id="189">
                    <color>ff0000ff</color>
                    <colorMode>normal</colorMode>
                    <scale>1</scale>
                    <heading>0</heading>
                    <Icon id="190">
                        <href>http://maps.google.com/mapfiles/kml/pushpin/ylw-pushpin.png</href>
                    </Icon>
                </IconStyle>
            </Style>
            <Style id="193">
                <IconStyle id="194">
                    <color>ff0000ff</color>
                    <colorMode>normal</colorMode>
                    <scale>1</scale>
                    <heading>0</heading>
                    <Icon id="195">
                        <href>http://maps.google.com/mapfiles/kml/pushpin/ylw-pushpin.png</href>
                    </Icon>
                </IconStyle>
            </Style>
            <Style id="198">
                <IconStyle id="199">
                    <color>ff0000ff</color>
                    <colorMode>normal</colorMode>
                    <scale>1</scale>
                    <heading>0</heading>
                    <Icon id="200">
                        <href>http://maps.google.com/mapfiles/kml/pushpin/ylw-pushpin.png</href>
                    </Icon>
                </IconStyle>
            </Style>
            <Style id="203">
                <IconStyle id="204">
                    <color>ff0000ff</color>
                    <colorMode>normal</colorMode>
                    <scale>1</scale>
                    <heading>0</heading>
                    <Icon id="205">
                        <href>http://maps.google.com/mapfiles/kml/pushpin/ylw-pushpin.png</href>
                    </Icon>
                </IconStyle>
            </Style>
            <Style id="208">
                <IconStyle id="209">
                    <color>ff0000ff</color>
                    <colorMode>normal</colorMode>
                    <scale>1</scale>
                    <heading>0</heading>
                    <Icon id="210">
                        <href>http://maps.google.com/mapfiles/kml/pushpin/ylw-pushpin.png</href>
                    </Icon>
                </IconStyle>
            </Style>
            <Style id="213">
                <IconStyle id="214">
                    <color>ff0000ff</color>
                    <colorMode>normal</colorMode>
                    <scale>1</scale>
                    <heading>0</heading>
                    <Icon id="215">
                        <href>http://maps.google.com/mapfiles/kml/pushpin/ylw-pushpin.png</href>
                    </Icon>
                </IconStyle>
            </Style>
            <Style id="218">
                <IconStyle id="219">
                    <color>ff0000ff</color>
                    <colorMode>normal</colorMode>
                    <scale>1</scale>
                    <heading>0</heading>
                    <Icon id="220">
                        <href>http://maps.google.com/mapfiles/kml/pushpin/ylw-pushpin.png</href>
                    </Icon>
                </IconStyle>
            </Style>
            <Style id="223">
                <IconStyle id="224">
                    <color>ff0000ff</color>
                    <colorMode>normal</colorMode>
                    <scale>1</scale>
                    <heading>0</heading>
                    <Icon id="225">
                        <href>http://maps.google.com/mapfiles/kml/pushpin/ylw-pushpin.png</href>
                    </Icon>
                </IconStyle>
            </Style>
            <Style id="228">
                <IconStyle id="229">
                    <color>ff0000ff</color>
                    <colorMode>normal</colorMode>
                    <scale>1</scale>
                    <heading>0</heading>
                    <Icon id="230">
                        <href>http://maps.google.com/mapfiles/kml/pushpin/ylw-pushpin.png</href>
                    </Icon>
                </IconStyle>
            </Style>
            <Style id="233">
                <IconStyle id="234">
                    <color>ff0000ff</color>
                    <colorMode>normal</colorMode>
                    <scale>1</scale>
                    <heading>0</heading>
                    <Icon id="235">
                        <href>http://maps.google.com/mapfiles/kml/pushpin/ylw-pushpin.png</href>
                    </Icon>
                </IconStyle>
            </Style>
            <Style id="238">
                <IconStyle id="239">
                    <color>ff0000ff</color>
                    <colorMode>normal</colorMode>
                    <scale>1</scale>
                    <heading>0</heading>
                    <Icon id="240">
                        <href>http://maps.google.com/mapfiles/kml/pushpin/ylw-pushpin.png</href>
                    </Icon>
                </IconStyle>
            </Style>
            <Style id="243">
                <IconStyle id="244">
                    <color>ff0000ff</color>
                    <colorMode>normal</colorMode>
                    <scale>1</scale>
                    <heading>0</heading>
                    <Icon id="245">
                        <href>http://maps.google.com/mapfiles/kml/pushpin/ylw-pushpin.png</href>
                    </Icon>
                </IconStyle>
            </Style>
            <Style id="248">
                <IconStyle id="249">
                    <color>ff0000ff</color>
                    <colorMode>normal</colorMode>
                    <scale>1</scale>
                    <heading>0</heading>
                    <Icon id="250">
                        <href>http://maps.google.com/mapfiles/kml/pushpin/ylw-pushpin.png</href>
                    </Icon>
                </IconStyle>
            </Style>
            <Style id="253">
                <IconStyle id="254">
                    <color>ff0000ff</color>
                    <colorMode>normal</colorMode>
                    <scale>1</scale>
                    <heading>0</heading>
                    <Icon id="255">
                        <href>http://maps.google.com/mapfiles/kml/pushpin/ylw-pushpin.png</href>
                    </Icon>
                </IconStyle>
            </Style>
            <Style id="258">
                <IconStyle id="259">
                    <color>ff0000ff</color>
                    <colorMode>normal</colorMode>
                    <scale>1</scale>
                    <heading>0</heading>
                    <Icon id="260">
                        <href>http://maps.google.com/mapfiles/kml/pushpin/ylw-pushpin.png</href>
                    </Icon>
                </IconStyle>
            </Style>
            <Style id="263">
                <IconStyle id="264">
                    <color>ff0000ff</color>
                    <colorMode>normal</colorMode>
                    <scale>1</scale>
                    <heading>0</heading>
                    <Icon id="265">
                        <href>http://maps.google.com/mapfiles/kml/pushpin/ylw-pushpin.png</href>
                    </Icon>
                </IconStyle>
            </Style>
            <Style id="268">
                <IconStyle id="269">
                    <color>ff0000ff</color>
                    <colorMode>normal</colorMode>
                    <scale>1</scale>
                    <heading>0</heading>
                    <Icon id="270">
                        <href>http://maps.google.com/mapfiles/kml/pushpin/ylw-pushpin.png</href>
                    </Icon>
                </IconStyle>
            </Style>
            <Style id="273">
                <IconStyle id="274">
                    <color>ff0000ff</color>
                    <colorMode>normal</colorMode>
                    <scale>1</scale>
                    <heading>0</heading>
                    <Icon id="275">
                        <href>http://maps.google.com/mapfiles/kml/pushpin/ylw-pushpin.png</href>
                    </Icon>
                </IconStyle>
            </Style>
            <Style id="278">
                <IconStyle id="279">
                    <color>ff0000ff</color>
                    <colorMode>normal</colorMode>
                    <scale>1</scale>
                    <heading>0</heading>
                    <Icon id="280">
                        <href>http://maps.google.com/mapfiles/kml/pushpin/ylw-pushpin.png</href>
                    </Icon>
                </IconStyle>
            </Style>
            <Style id="283">
                <IconStyle id="284">
                    <color>ff0000ff</color>
                    <colorMode>normal</colorMode>
                    <scale>1</scale>
                    <heading>0</heading>
                    <Icon id="285">
                        <href>http://maps.google.com/mapfiles/kml/pushpin/ylw-pushpin.png</href>
                    </Icon>
                </IconStyle>
            </Style>
            <Style id="288">
                <IconStyle id="289">
                    <color>ff0000ff</color>
                    <colorMode>normal</colorMode>
                    <scale>1</scale>
                    <heading>0</heading>
                    <Icon id="290">
                        <href>http://maps.google.com/mapfiles/kml/pushpin/ylw-pushpin.png</href>
                    </Icon>
                </IconStyle>
            </Style>
            <Style id="293">
                <IconStyle id="294">
                    <color>ff0000ff</color>
                    <colorMode>normal</colorMode>
                    <scale>1</scale>
                    <heading>0</heading>
                    <Icon id="295">
                        <href>http://maps.google.com/mapfiles/kml/pushpin/ylw-pushpin.png</href>
                    </Icon>
                </IconStyle>
            </Style>
            <Style id="298">
                <IconStyle id="299">
                    <color>ff0000ff</color>
                    <colorMode>normal</colorMode>
                    <scale>1</scale>
                    <heading>0</heading>
                    <Icon id="300">
                        <href>http://maps.google.com/mapfiles/kml/pushpin/ylw-pushpin.png</href>
                    </Icon>
                </IconStyle>
            </Style>
            <Style id="303">
                <IconStyle id="304">
                    <color>ff0000ff</color>
                    <colorMode>normal</colorMode>
                    <scale>1</scale>
                    <heading>0</heading>
                    <Icon id="305">
                        <href>http://maps.google.com/mapfiles/kml/pushpin/ylw-pushpin.png</href>
                    </Icon>
                </IconStyle>
            </Style>
            <Style id="308">
                <IconStyle id="309">
                    <color>ff0000ff</color>
                    <colorMode>normal</colorMode>
                    <scale>1</scale>
                    <heading>0</heading>
                    <Icon id="310">
                        <href>http://maps.google.com/mapfiles/kml/pushpin/ylw-pushpin.png</href>
                    </Icon>
                </IconStyle>
            </Style>
            <Style id="313">
                <IconStyle id="314">
                    <color>ff0000ff</color>
                    <colorMode>normal</colorMode>
                    <scale>1</scale>
                    <heading>0</heading>
                    <Icon id="315">
                        <href>http://maps.google.com/mapfiles/kml/pushpin/ylw-pushpin.png</href>
                    </Icon>
                </IconStyle>
            </Style>
            <Style id="318">
                <IconStyle id="319">
                    <color>ff0000ff</color>
                    <colorMode>normal</colorMode>
                    <scale>1</scale>
                    <heading>0</heading>
                    <Icon id="320">
                        <href>http://maps.google.com/mapfiles/kml/pushpin/ylw-pushpin.png</href>
                    </Icon>
                </IconStyle>
            </Style>
            <Style id="323">
                <IconStyle id="324">
                    <color>ff0000ff</color>
                    <colorMode>normal</colorMode>
                    <scale>1</scale>
                    <heading>0</heading>
                    <Icon id="325">
                        <href>http://maps.google.com/mapfiles/kml/pushpin/ylw-pushpin.png</href>
                    </Icon>
                </IconStyle>
            </Style>
            <Style id="328">
                <IconStyle id="329">
                    <color>ff0000ff</color>
                    <colorMode>normal</colorMode>
                    <scale>1</scale>
                    <heading>0</heading>
                    <Icon id="330">
                        <href>http://maps.google.com/mapfiles/kml/pushpin/ylw-pushpin.png</href>
                    </Icon>
                </IconStyle>
            </Style>
            <Style id="333">
                <IconStyle id="334">
                    <color>ff0000ff</color>
                    <colorMode>normal</colorMode>
                    <scale>1</scale>
                    <heading>0</heading>
                    <Icon id="335">
                        <href>http://maps.google.com/mapfiles/kml/pushpin/ylw-pushpin.png</href>
                    </Icon>
                </IconStyle>
            </Style>
            <Style id="338">
                <IconStyle id="339">
                    <color>ff0000ff</color>
                    <colorMode>normal</colorMode>
                    <scale>1</scale>
                    <heading>0</heading>
                    <Icon id="340">
                        <href>http://maps.google.com/mapfiles/kml/pushpin/ylw-pushpin.png</href>
                    </Icon>
                </IconStyle>
            </Style>
            <Style id="343">
                <IconStyle id="344">
                    <color>ff0000ff</color>
                    <colorMode>normal</colorMode>
                    <scale>1</scale>
                    <heading>0</heading>
                    <Icon id="345">
                        <href>http://maps.google.com/mapfiles/kml/pushpin/ylw-pushpin.png</href>
                    </Icon>
                </IconStyle>
            </Style>
            <Style id="348">
                <IconStyle id="349">
                    <color>ff0000ff</color>
                    <colorMode>normal</colorMode>
                    <scale>1</scale>
                    <heading>0</heading>
                    <Icon id="350">
                        <href>http://maps.google.com/mapfiles/kml/pushpin/ylw-pushpin.png</href>
                    </Icon>
                </IconStyle>
            </Style>
            <Style id="353">
                <IconStyle id="354">
                    <color>ff0000ff</color>
                    <colorMode>normal</colorMode>
                    <scale>1</scale>
                    <heading>0</heading>
                    <Icon id="355">
                        <href>http://maps.google.com/mapfiles/kml/pushpin/ylw-pushpin.png</href>
                    </Icon>
                </IconStyle>
            </Style>
            <Style id="358">
                <IconStyle id="359">
                    <color>ff0000ff</color>
                    <colorMode>normal</colorMode>
                    <scale>1</scale>
                    <heading>0</heading>
                    <Icon id="360">
                        <href>http://maps.google.com/mapfiles/kml/pushpin/ylw-pushpin.png</href>
                    </Icon>
                </IconStyle>
            </Style>
            <Style id="363">
                <IconStyle id="364">
                    <color>ff0000ff</color>
                    <colorMode>normal</colorMode>
                    <scale>1</scale>
                    <heading>0</heading>
                    <Icon id="365">
                        <href>http://maps.google.com/mapfiles/kml/pushpin/ylw-pushpin.png</href>
                    </Icon>
                </IconStyle>
            </Style>
            <Style id="368">
                <IconStyle id="369">
                    <color>ff0000ff</color>
                    <colorMode>normal</colorMode>
                    <scale>1</scale>
                    <heading>0</heading>
                    <Icon id="370">
                        <href>http://maps.google.com/mapfiles/kml/pushpin/ylw-pushpin.png</href>
                    </Icon>
                </IconStyle>
            </Style>
            <Style id="373">
                <IconStyle id="374">
                    <color>ff0000ff</color>
                    <colorMode>normal</colorMode>
                    <scale>1</scale>
                    <heading>0</heading>
                    <Icon id="375">
                        <href>http://maps.google.com/mapfiles/kml/pushpin/ylw-pushpin.png</href>
                    </Icon>
                </IconStyle>
            </Style>
            <Style id="378">
                <IconStyle id="379">
                    <color>ff0000ff</color>
                    <colorMode>normal</colorMode>
                    <scale>1</scale>
                    <heading>0</heading>
                    <Icon id="380">
                        <href>http://maps.google.com/mapfiles/kml/pushpin/ylw-pushpin.png</href>
                    </Icon>
                </IconStyle>
            </Style>
            <Style id="383">
                <IconStyle id="384">
                    <color>ff0000ff</color>
                    <colorMode>normal</colorMode>
                    <scale>1</scale>
                    <heading>0</heading>
                    <Icon id="385">
                        <href>http://maps.google.com/mapfiles/kml/pushpin/ylw-pushpin.png</href>
                    </Icon>
                </IconStyle>
            </Style>
            <Style id="388">
                <IconStyle id="389">
                    <color>ff0000ff</color>
                    <colorMode>normal</colorMode>
                    <scale>1</scale>
                    <heading>0</heading>
                    <Icon id="390">
                        <href>http://maps.google.com/mapfiles/kml/pushpin/ylw-pushpin.png</href>
                    </Icon>
                </IconStyle>
            </Style>
            <Style id="393">
                <IconStyle id="394">
                    <color>ff0000ff</color>
                    <colorMode>normal</colorMode>
                    <scale>1</scale>
                    <heading>0</heading>
                    <Icon id="395">
                        <href>http://maps.google.com/mapfiles/kml/pushpin/ylw-pushpin.png</href>
                    </Icon>
                </IconStyle>
            </Style>
            <name>MANUEL ENRIQUE ZAPATA QUEVEDO</name>
            <Placemark id="152">
                <name>JUANA DEL PILAR LITANO SANDOVAL</name>
                <description>AH KEIKO SOFIA C-10 CATACAOS
Catacaos

Piura
Perú</description>
                <styleUrl>#153</styleUrl>
                <Point id="151">
                    <coordinates>-80.681,-5.268774,0.0</coordinates>
                </Point>
            </Placemark>
            <Placemark id="157">
                <name>AMELIA KAROLINA IPANAQUE SOPLOPUCO</name>
                <description>AAHH 17 DE DICIEMBRE D-1 MONTE SULLON CATACAOS
Chulucanas

Piura
Perú</description>
                <styleUrl>#158</styleUrl>
                <Point id="156">
                    <coordinates>-80.678292,-5.276472,0.0</coordinates>
                </Point>
            </Placemark>
            <Placemark id="162">
                <name>LILIAN LORENA FERNANDEZ VERA</name>
                <description>LILIAN LORENA FERNANDEZ VERA
JR. TRUJILLO NÂº656 CERCADO DE CATA
Catacaos
Piura
Piura
Perú</description>
                <styleUrl>#163</styleUrl>
                <Point id="161">
                    <coordinates>-80.6767229,-5.2697344,0.0</coordinates>
                </Point>
            </Placemark>
            <Placemark id="167">
                <name>BUENAVENTURA RAMOS YARLEQUE</name>
                <description>PIURA 1161 CATACAOS
Catacaos

Piura
Perú</description>
                <styleUrl>#168</styleUrl>
                <Point id="166">
                    <coordinates>-80.676098,-5.268818,0.0</coordinates>
                </Point>
            </Placemark>
            <Placemark id="172">
                <name>MARTHA JUAREZ JUAREZ</name>
                <description>JR MAYNAS 254 MONTE SULLON CATACAOS
Catacaos

Piura
Perú</description>
                <styleUrl>#173</styleUrl>
                <Point id="171">
                    <coordinates>-80.679736,-5.2741989,0.0</coordinates>
                </Point>
            </Placemark>
            <Placemark id="177">
                <name>EDUARDO AVILA VILCHEZ</name>
                <description>JIRON MAYNAS 365 MONTE SULLON CATACAOS



Perú</description>
                <styleUrl>#178</styleUrl>
                <Point id="176">
                    <coordinates>-80.6801959,-5.2751733,0.0</coordinates>
                </Point>
            </Placemark>
            <Placemark id="182">
                <name>LALUPU SANDOVAL MARIA</name>
                <description>JIRON AREQUIPA 1304 MONTE SULLON
Catacaos
Catacaos
Piura
Perú</description>
                <styleUrl>#183</styleUrl>
                <Point id="181">
                    <coordinates>-80.6809901,-5.2737744,0.0</coordinates>
                </Point>
            </Placemark>
            <Placemark id="187">
                <name>EDI JANET CHERO SILVA</name>
                <description>CALLE SAN PEDRO CRDA 5 AL TURA POZO DE AGUA MONTE SULLON CATACAOS
Catacaos

Piura
Perú</description>
                <styleUrl>#188</styleUrl>
                <Point id="186">
                    <coordinates>-80.684127,-5.277681,0.0</coordinates>
                </Point>
            </Placemark>
            <Placemark id="192">
                <name>HAYDEE CATALINA ESTRADA TABOADA</name>
                <description>Av 11 de junio A 10 AAHH Alberto Fujimori Catacaos
Catacaos

Piura
Perú</description>
                <styleUrl>#193</styleUrl>
                <Point id="191">
                    <coordinates>-80.685732,-5.276193,0.0</coordinates>
                </Point>
            </Placemark>
            <Placemark id="197">
                <name>MARIA ESTELA VALVERDE DE SANDOVAL</name>
                <description>Jirón Arequipa c 3 monte sullon
Catacaos

Piura
Perú</description>
                <styleUrl>#198</styleUrl>
                <Point id="196">
                    <coordinates>-80.685,-5.276935,0.0</coordinates>
                </Point>
            </Placemark>
            <Placemark id="202">
                <name>DIANA ESTEFANY SULLON YOVERA</name>
                <description>JR Arequipa b - 9 monte sullon Catacaos
Catacaos

Piura
Perú</description>
                <styleUrl>#203</styleUrl>
                <Point id="201">
                    <coordinates>-80.685845,-5.276522,0.0</coordinates>
                </Point>
            </Placemark>
            <Placemark id="207">
                <name>AMELIA KAROLINA IPANAQUE SOPLOPUCO</name>
                <description>AAHH 17 DE DICIEMBRE D-1 MONTE SULLON CATACAOS
Chulucanas

Piura
Perú</description>
                <styleUrl>#208</styleUrl>
                <Point id="206">
                    <coordinates>-80.678292,-5.276472,0.0</coordinates>
                </Point>
            </Placemark>
            <Placemark id="212">
                <name>TEMPORA VILCHEZ SANDOVAL</name>
                <description>JR. Arequipa 1882
Catacaos
Piura
Piura
Perú</description>
                <styleUrl>#213</styleUrl>
                <Point id="211">
                    <coordinates>-80.687751,-5.280405,0.0</coordinates>
                </Point>
            </Placemark>
            <Placemark id="217">
                <name>ROSA ANGELICA ANCAJIMA HUIMAN</name>
                <description>MONTE SULLON  2147 CATACAOS
Catacaos

Piura
Perú</description>
                <styleUrl>#218</styleUrl>
                <Point id="216">
                    <coordinates>-80.68706,-5.280063,0.0</coordinates>
                </Point>
            </Placemark>
            <Placemark id="222">
                <name>ANTONIETA BENITES CASTILLO</name>
                <description>COMERCIO 2029 MONTESULLON CATACAOS
Catacaos
Catacaos
Piura
Perú</description>
                <styleUrl>#223</styleUrl>
                <Point id="221">
                    <coordinates>-80.6841768,-5.2790412,0.0</coordinates>
                </Point>
            </Placemark>
            <Placemark id="227">
                <name>JESUS MARIA YARLEQUE CHERO</name>
                <description>JR.COMERCIO NÂ°1809 - MONTESULLON
Catacaos
Catacaos
Piura
Perú</description>
                <styleUrl>#228</styleUrl>
                <Point id="226">
                    <coordinates>-80.68268,-5.278086,0.0</coordinates>
                </Point>
            </Placemark>
            <Placemark id="232">
                <name>CHERO SULLON KATTY MABEL</name>
                <description>JR NARIHUALA 136 MONTE SULLON CATACAOS
Catacaos

Piura
Perú</description>
                <styleUrl>#233</styleUrl>
                <Point id="231">
                    <coordinates>-80.6820268,-5.2784388,0.0</coordinates>
                </Point>
            </Placemark>
            <Placemark id="237">
                <name>LUZ MARIA ZAPATA IPANAQUE</name>
                <description>JR NARIHUALA  159/JOSE OLAYA
Catacaos

Piura
Perú</description>
                <styleUrl>#238</styleUrl>
                <Point id="236">
                    <coordinates>-80.681361,-5.277897,0.0</coordinates>
                </Point>
            </Placemark>
            <Placemark id="242">
                <name>MARIA JOVA BANCES CASTRO</name>
                <description>AV BOLOGNESI 168 MONTE SULLON
Catacaos

Piura
Perú</description>
                <styleUrl>#243</styleUrl>
                <Point id="241">
                    <coordinates>-80.67727,-5.277014,0.0</coordinates>
                </Point>
            </Placemark>
            <Placemark id="247">
                <name>DIANA CARINA SERNAQUE CHERO</name>
                <description>AH NUEVO HORIZONTE A -6 CATACAOS MONTE SULLON
Catacaos

Piura
Perú</description>
                <styleUrl>#248</styleUrl>
                <Point id="246">
                    <coordinates>-80.6788596,-5.2766177,0.0</coordinates>
                </Point>
            </Placemark>
            <Placemark id="252">
                <name>RAMOS DE LALUPU JUANA ROSA</name>
                <description>RAMOS DE LALUPU JUANA ROSA
COMERCIO NÂ°1272 MONTE SULLON CATAC
Catacaos

Piura
Perú</description>
                <styleUrl>#253</styleUrl>
                <Point id="251">
                    <coordinates>-80.6790077,-5.2746911,0.0</coordinates>
                </Point>
            </Placemark>
            <Placemark id="257">
                <name>JULIA EMILIA TRELLES DE LIZANO</name>
                <description>JR.COMERCIO NÂª1176 MONTE SULLON
Catacaos

Piura
Perú</description>
                <styleUrl>#258</styleUrl>
                <Point id="256">
                    <coordinates>-80.6785719,-5.2734575,0.0</coordinates>
                </Point>
            </Placemark>
            <Placemark id="262">
                <name>MANUEL ESTEBAN SANDOVAL YAMUNAQUE</name>
                <description>AAHH JUAN DE MORI CALLE PISCO MZ M LT 15
Catacaos

Piura
Perú</description>
                <styleUrl>#263</styleUrl>
                <Point id="261">
                    <coordinates>-80.6725987,-5.2655533,0.0</coordinates>
                </Point>
            </Placemark>
            <Placemark id="267">
                <name>MILAGROS DEL PILAR RUIZ ZAPATA</name>
                <description>JR MAYNAS 100 montesullo Catacaos
Catacaos

Piura
Perú</description>
                <styleUrl>#268</styleUrl>
                <Point id="266">
                    <coordinates>-80.678597,-5.272124,0.0</coordinates>
                </Point>
            </Placemark>
            <Placemark id="272">
                <name>MARIA MARGARITA LOPEZ CHIROQUE VDA DE VILLEGAS</name>
                <description>JR. PIURA NÂ°1379 - CATACAOS
Catacaos
Piura
Piura
Perú</description>
                <styleUrl>#273</styleUrl>
                <Point id="271">
                    <coordinates>-80.6765357,-5.2715628,0.0</coordinates>
                </Point>
            </Placemark>
            <Placemark id="277">
                <name>JUANA DEL ROSARIO DAVILA CHERRE</name>
                <description>JR. PIURA 1309 CATACAOS
Catacaos
Morropón
Piura
Perú</description>
                <styleUrl>#278</styleUrl>
                <Point id="276">
                    <coordinates>-80.6764015,-5.2711638,0.0</coordinates>
                </Point>
            </Placemark>
            <Placemark id="282">
                <name>LLACSAHUANGA HUACCHILLO ROSA AURORA</name>
                <description>JR GRAU 508
Catacaos
Catacaos
Piura
Perú</description>
                <styleUrl>#283</styleUrl>
                <Point id="281">
                    <coordinates>-80.6757562,-5.2712272,0.0</coordinates>
                </Point>
            </Placemark>
            <Placemark id="287">
                <name>NOELIA GUISELL SILVA ANCAJIMA</name>
                <description>Alejandro Taboada 901monte sullon
Catacaos

Piura
Perú</description>
                <styleUrl>#288</styleUrl>
                <Point id="286">
                    <coordinates>-80.676018,-5.272561,0.0</coordinates>
                </Point>
            </Placemark>
            <Placemark id="292">
                <name>LILLIAM AMPARO VASQUEZ DE CARRASCO</name>
                <description>JR. ALEJANDRO TABOADA 872 CATACAOS
Catacaos
Catacaos
Piura
Perú</description>
                <styleUrl>#293</styleUrl>
                <Point id="291">
                    <coordinates>-80.6756769,-5.2718842,0.0</coordinates>
                </Point>
            </Placemark>
            <Placemark id="297">
                <name>MARIA FELICITA IPANAQUE DE CHAVEZ</name>
                <description>AAHH TUPAC AMARUC MZ B- 4 CALLE BOLOGNESI CATACAOS 
Catacaos
Catacaos
Piura
Perú</description>
                <styleUrl>#298</styleUrl>
                <Point id="296">
                    <coordinates>-80.6751177,-5.2744692,0.0</coordinates>
                </Point>
            </Placemark>
            <Placemark id="302">
                <name>NATIVIDAD SANDOVAL CHERO</name>
                <description>Ah TUPAC AMARU A-15 CATACACOS
Catacaos


Perú</description>
                <styleUrl>#303</styleUrl>
                <Point id="301">
                    <coordinates>-80.675527,-5.273045,0.0</coordinates>
                </Point>
            </Placemark>
            <Placemark id="307">
                <name>DIANA FIORELA RAMOS QUEZADA</name>
                <description>Aahh Keiko Sofía mz b lt 20
Catacaos
Piura
Piura
Perú</description>
                <styleUrl>#308</styleUrl>
                <Point id="306">
                    <coordinates>-80.6806652,-5.2684695,0.0</coordinates>
                </Point>
            </Placemark>
            <Placemark id="312">
                <name>CHUYE COVEÑAS JESSICA</name>
                <description>Calle Grau #480 - CATACAOS
Catacaos
Catacaos
Piura
Perú</description>
                <styleUrl>#313</styleUrl>
                <Point id="311">
                    <coordinates>-80.6755083,-5.2703722,0.0</coordinates>
                </Point>
            </Placemark>
            <Placemark id="317">
                <name>JULIA VALDIVIEZO CHERO</name>
                <description>CA. COMERCIO NÂ°997 - CATACAOS
Catacaos
Piura
Piura
Perú</description>
                <styleUrl>#318</styleUrl>
                <Point id="316">
                    <coordinates>-80.6775987,-5.2703464,0.0</coordinates>
                </Point>
            </Placemark>
            <Placemark id="322">
                <name>MARIA VERONICA VILLEGAS AQUINO</name>
                <description>CA.SIETE MZ G LT 4 AH.J DE MORI 2 E
Catacaos
Piura
Piura
Perú</description>
                <styleUrl>#323</styleUrl>
                <Point id="321">
                    <coordinates>-80.6806168,-5.267193,0.0</coordinates>
                </Point>
            </Placemark>
            <Placemark id="327">
                <name>REYNA MARIBEL OJEDA VILCHEZ</name>
                <description>Ah Keiko Sofía A 20
Catacaos


Perú</description>
                <styleUrl>#328</styleUrl>
                <Point id="326">
                    <coordinates>-80.679967,-5.268806,0.0</coordinates>
                </Point>
            </Placemark>
            <Placemark id="332">
                <name>PERLA RENTERIA JUAREZ</name>
                <description>JR. REAL 900 CATACAOS
Catacaos
Piura
Piura
Perú</description>
                <styleUrl>#333</styleUrl>
                <Point id="331">
                    <coordinates>-80.677831,-5.268638,0.0</coordinates>
                </Point>
            </Placemark>
            <Placemark id="337">
                <name>SOCORRO MERCEDES ZAPATA GONZALES</name>
                <description>JR SAN SEBASTIÁN 654 CATACAOS



Perú</description>
                <styleUrl>#338</styleUrl>
                <Point id="336">
                    <coordinates>-80.6773541,-5.2709716,0.0</coordinates>
                </Point>
            </Placemark>
            <Placemark id="342">
                <name>LILIAN LORENA FERNANDEZ VERA</name>
                <description>LILIAN LORENA FERNANDEZ VERA
JR. TRUJILLO NÂº656 CERCADO DE CATA
Catacaos
Piura
Piura
Perú</description>
                <styleUrl>#343</styleUrl>
                <Point id="341">
                    <coordinates>-80.6767229,-5.2697344,0.0</coordinates>
                </Point>
            </Placemark>
            <Placemark id="347">
                <name>SANDOVAL AMELIA JIBAJA DE</name>
                <description>SANDOVAL AMELIA JIBAJA DE
TRUJILLO NÂª608 CATACAOS
Catacaos
Piura
Piura
Perú</description>
                <styleUrl>#348</styleUrl>
                <Point id="346">
                    <coordinates>-80.6748252,-5.2683689,0.0</coordinates>
                </Point>
            </Placemark>
            <Placemark id="352">
                <name>JOSE MERCEDES VILELA VILCHEZ</name>
                <description>Trujillo 604
Catacaos
Piura
Piura
Perú</description>
                <styleUrl>#353</styleUrl>
                <Point id="351">
                    <coordinates>-80.6751719,-5.2686967,0.0</coordinates>
                </Point>
            </Placemark>
            <Placemark id="357">
                <name>DARSIA DAYANA SANDOVAL FLORES</name>
                <description>Av Mariano Díaz 1542 Catacaos
Catacaos

Piura
Perú</description>
                <styleUrl>#358</styleUrl>
                <Point id="356">
                    <coordinates>-80.675122,-5.269115,0.0</coordinates>
                </Point>
            </Placemark>
            <Placemark id="362">
                <name>MARIA REGINA SANTAMARIA DIAZ</name>
                <description>JR mariano díaz 1567
Catacaos
Catacaos
Piura
Perú</description>
                <styleUrl>#363</styleUrl>
                <Point id="361">
                    <coordinates>-80.6751866,-5.2691541,0.0</coordinates>
                </Point>
            </Placemark>
            <Placemark id="367">
                <name>JOHANANY CASTILLO SANDOVAL</name>
                <description>JR. MARIANO DIAZ N 1629 - CATACAOSMONTESULLON
Catacaos
Piura
Piura
Perú</description>
                <styleUrl>#368</styleUrl>
                <Point id="366">
                    <coordinates>-80.6755438,-5.2699509,0.0</coordinates>
                </Point>
            </Placemark>
            <Placemark id="372">
                <name>ORTIZ VILLEGAS SOCORRO</name>
                <description>Calle tumbes #969 - CATACAOS
Catacaos
Catacaos
Piura
Perú</description>
                <styleUrl>#373</styleUrl>
                <Point id="371">
                    <coordinates>-80.6734385,-5.269316,0.0</coordinates>
                </Point>
            </Placemark>
            <Placemark id="377">
                <name>WILMER MOISES SEMINARIO LITANO</name>
                <description>JR. ALEJANDRO TABOADA723 - CATACAOSACAOS
Catacaos
Catacaos
Piura
Perú</description>
                <styleUrl>#378</styleUrl>
                <Point id="376">
                    <coordinates>-80.6749021,-5.2706716,0.0</coordinates>
                </Point>
            </Placemark>
            <Placemark id="382">
                <name>CASTRO VALLES JENNY RAQUEL</name>
                <description>JR ALEJANDRO TABOADA 666 CATACAOS
Catacaos

Piura
Perú</description>
                <styleUrl>#383</styleUrl>
                <Point id="381">
                    <coordinates>-80.6740658,-5.2696541,0.0</coordinates>
                </Point>
            </Placemark>
            <Placemark id="387">
                <name>GLADYS VILCHEZ ZAPATA</name>
                <description>JR JUNIN 201
Catacaos

Piura
Perú</description>
                <styleUrl>#388</styleUrl>
                <Point id="386">
                    <coordinates>-80.674025,-5.268797,0.0</coordinates>
                </Point>
            </Placemark>
            <Placemark id="392">
                <name>MARIA CEFERINA YOVERA FLORES</name>
                <description>JR Alejandro Taboada #600 Ref. A espaldas del ganso azul
Catacaos
Piura
Piura
Perú</description>
                <styleUrl>#393</styleUrl>
                <Point id="391">
                    <coordinates>-80.673832,-5.2689558,0.0</coordinates>
                </Point>
            </Placemark>
        </Folder>
    </Document>
</kml>
