<?xml version="1.0" encoding="UTF-8"?>
<kml xmlns="http://www.opengis.net/kml/2.2" xmlns:gx="http://www.google.com/kml/ext/2.2">
    <Document id="134">
        <Folder id="135">
            <Style id="138">
                <IconStyle id="139">
                    <color>ff0000ff</color>
                    <colorMode>normal</colorMode>
                    <scale>1</scale>
                    <heading>0</heading>
                    <Icon id="140">
                        <href>http://maps.google.com/mapfiles/kml/pushpin/ylw-pushpin.png</href>
                    </Icon>
                </IconStyle>
            </Style>
            <Style id="143">
                <IconStyle id="144">
                    <color>ff0000ff</color>
                    <colorMode>normal</colorMode>
                    <scale>1</scale>
                    <heading>0</heading>
                    <Icon id="145">
                        <href>http://maps.google.com/mapfiles/kml/pushpin/ylw-pushpin.png</href>
                    </Icon>
                </IconStyle>
            </Style>
            <Style id="148">
                <IconStyle id="149">
                    <color>ff0000ff</color>
                    <colorMode>normal</colorMode>
                    <scale>1</scale>
                    <heading>0</heading>
                    <Icon id="150">
                        <href>http://maps.google.com/mapfiles/kml/pushpin/ylw-pushpin.png</href>
                    </Icon>
                </IconStyle>
            </Style>
            <Style id="153">
                <IconStyle id="154">
                    <color>ff0000ff</color>
                    <colorMode>normal</colorMode>
                    <scale>1</scale>
                    <heading>0</heading>
                    <Icon id="155">
                        <href>http://maps.google.com/mapfiles/kml/pushpin/ylw-pushpin.png</href>
                    </Icon>
                </IconStyle>
            </Style>
            <Style id="158">
                <IconStyle id="159">
                    <color>ff0000ff</color>
                    <colorMode>normal</colorMode>
                    <scale>1</scale>
                    <heading>0</heading>
                    <Icon id="160">
                        <href>http://maps.google.com/mapfiles/kml/pushpin/ylw-pushpin.png</href>
                    </Icon>
                </IconStyle>
            </Style>
            <Style id="163">
                <IconStyle id="164">
                    <color>ff0000ff</color>
                    <colorMode>normal</colorMode>
                    <scale>1</scale>
                    <heading>0</heading>
                    <Icon id="165">
                        <href>http://maps.google.com/mapfiles/kml/pushpin/ylw-pushpin.png</href>
                    </Icon>
                </IconStyle>
            </Style>
            <Style id="168">
                <IconStyle id="169">
                    <color>ff0000ff</color>
                    <colorMode>normal</colorMode>
                    <scale>1</scale>
                    <heading>0</heading>
                    <Icon id="170">
                        <href>http://maps.google.com/mapfiles/kml/pushpin/ylw-pushpin.png</href>
                    </Icon>
                </IconStyle>
            </Style>
            <Style id="173">
                <IconStyle id="174">
                    <color>ff0000ff</color>
                    <colorMode>normal</colorMode>
                    <scale>1</scale>
                    <heading>0</heading>
                    <Icon id="175">
                        <href>http://maps.google.com/mapfiles/kml/pushpin/ylw-pushpin.png</href>
                    </Icon>
                </IconStyle>
            </Style>
            <Style id="178">
                <IconStyle id="179">
                    <color>ff0000ff</color>
                    <colorMode>normal</colorMode>
                    <scale>1</scale>
                    <heading>0</heading>
                    <Icon id="180">
                        <href>http://maps.google.com/mapfiles/kml/pushpin/ylw-pushpin.png</href>
                    </Icon>
                </IconStyle>
            </Style>
            <Style id="183">
                <IconStyle id="184">
                    <color>ff0000ff</color>
                    <colorMode>normal</colorMode>
                    <scale>1</scale>
                    <heading>0</heading>
                    <Icon id="185">
                        <href>http://maps.google.com/mapfiles/kml/pushpin/ylw-pushpin.png</href>
                    </Icon>
                </IconStyle>
            </Style>
            <Style id="188">
                <IconStyle id="189">
                    <color>ff0000ff</color>
                    <colorMode>normal</colorMode>
                    <scale>1</scale>
                    <heading>0</heading>
                    <Icon id="190">
                        <href>http://maps.google.com/mapfiles/kml/pushpin/ylw-pushpin.png</href>
                    </Icon>
                </IconStyle>
            </Style>
            <Style id="193">
                <IconStyle id="194">
                    <color>ff0000ff</color>
                    <colorMode>normal</colorMode>
                    <scale>1</scale>
                    <heading>0</heading>
                    <Icon id="195">
                        <href>http://maps.google.com/mapfiles/kml/pushpin/ylw-pushpin.png</href>
                    </Icon>
                </IconStyle>
            </Style>
            <Style id="198">
                <IconStyle id="199">
                    <color>ff0000ff</color>
                    <colorMode>normal</colorMode>
                    <scale>1</scale>
                    <heading>0</heading>
                    <Icon id="200">
                        <href>http://maps.google.com/mapfiles/kml/pushpin/ylw-pushpin.png</href>
                    </Icon>
                </IconStyle>
            </Style>
            <Style id="203">
                <IconStyle id="204">
                    <color>ff0000ff</color>
                    <colorMode>normal</colorMode>
                    <scale>1</scale>
                    <heading>0</heading>
                    <Icon id="205">
                        <href>http://maps.google.com/mapfiles/kml/pushpin/ylw-pushpin.png</href>
                    </Icon>
                </IconStyle>
            </Style>
            <Style id="208">
                <IconStyle id="209">
                    <color>ff0000ff</color>
                    <colorMode>normal</colorMode>
                    <scale>1</scale>
                    <heading>0</heading>
                    <Icon id="210">
                        <href>http://maps.google.com/mapfiles/kml/pushpin/ylw-pushpin.png</href>
                    </Icon>
                </IconStyle>
            </Style>
            <Style id="213">
                <IconStyle id="214">
                    <color>ff0000ff</color>
                    <colorMode>normal</colorMode>
                    <scale>1</scale>
                    <heading>0</heading>
                    <Icon id="215">
                        <href>http://maps.google.com/mapfiles/kml/pushpin/ylw-pushpin.png</href>
                    </Icon>
                </IconStyle>
            </Style>
            <Style id="218">
                <IconStyle id="219">
                    <color>ff0000ff</color>
                    <colorMode>normal</colorMode>
                    <scale>1</scale>
                    <heading>0</heading>
                    <Icon id="220">
                        <href>http://maps.google.com/mapfiles/kml/pushpin/ylw-pushpin.png</href>
                    </Icon>
                </IconStyle>
            </Style>
            <Style id="223">
                <IconStyle id="224">
                    <color>ff0000ff</color>
                    <colorMode>normal</colorMode>
                    <scale>1</scale>
                    <heading>0</heading>
                    <Icon id="225">
                        <href>http://maps.google.com/mapfiles/kml/pushpin/ylw-pushpin.png</href>
                    </Icon>
                </IconStyle>
            </Style>
            <Style id="228">
                <IconStyle id="229">
                    <color>ff0000ff</color>
                    <colorMode>normal</colorMode>
                    <scale>1</scale>
                    <heading>0</heading>
                    <Icon id="230">
                        <href>http://maps.google.com/mapfiles/kml/pushpin/ylw-pushpin.png</href>
                    </Icon>
                </IconStyle>
            </Style>
            <Style id="233">
                <IconStyle id="234">
                    <color>ff0000ff</color>
                    <colorMode>normal</colorMode>
                    <scale>1</scale>
                    <heading>0</heading>
                    <Icon id="235">
                        <href>http://maps.google.com/mapfiles/kml/pushpin/ylw-pushpin.png</href>
                    </Icon>
                </IconStyle>
            </Style>
            <Style id="238">
                <IconStyle id="239">
                    <color>ff0000ff</color>
                    <colorMode>normal</colorMode>
                    <scale>1</scale>
                    <heading>0</heading>
                    <Icon id="240">
                        <href>http://maps.google.com/mapfiles/kml/pushpin/ylw-pushpin.png</href>
                    </Icon>
                </IconStyle>
            </Style>
            <Style id="243">
                <IconStyle id="244">
                    <color>ff0000ff</color>
                    <colorMode>normal</colorMode>
                    <scale>1</scale>
                    <heading>0</heading>
                    <Icon id="245">
                        <href>http://maps.google.com/mapfiles/kml/pushpin/ylw-pushpin.png</href>
                    </Icon>
                </IconStyle>
            </Style>
            <Style id="248">
                <IconStyle id="249">
                    <color>ff0000ff</color>
                    <colorMode>normal</colorMode>
                    <scale>1</scale>
                    <heading>0</heading>
                    <Icon id="250">
                        <href>http://maps.google.com/mapfiles/kml/pushpin/ylw-pushpin.png</href>
                    </Icon>
                </IconStyle>
            </Style>
            <Style id="253">
                <IconStyle id="254">
                    <color>ff0000ff</color>
                    <colorMode>normal</colorMode>
                    <scale>1</scale>
                    <heading>0</heading>
                    <Icon id="255">
                        <href>http://maps.google.com/mapfiles/kml/pushpin/ylw-pushpin.png</href>
                    </Icon>
                </IconStyle>
            </Style>
            <Style id="258">
                <IconStyle id="259">
                    <color>ff0000ff</color>
                    <colorMode>normal</colorMode>
                    <scale>1</scale>
                    <heading>0</heading>
                    <Icon id="260">
                        <href>http://maps.google.com/mapfiles/kml/pushpin/ylw-pushpin.png</href>
                    </Icon>
                </IconStyle>
            </Style>
            <Style id="263">
                <IconStyle id="264">
                    <color>ff0000ff</color>
                    <colorMode>normal</colorMode>
                    <scale>1</scale>
                    <heading>0</heading>
                    <Icon id="265">
                        <href>http://maps.google.com/mapfiles/kml/pushpin/ylw-pushpin.png</href>
                    </Icon>
                </IconStyle>
            </Style>
            <Style id="268">
                <IconStyle id="269">
                    <color>ff0000ff</color>
                    <colorMode>normal</colorMode>
                    <scale>1</scale>
                    <heading>0</heading>
                    <Icon id="270">
                        <href>http://maps.google.com/mapfiles/kml/pushpin/ylw-pushpin.png</href>
                    </Icon>
                </IconStyle>
            </Style>
            <Style id="273">
                <IconStyle id="274">
                    <color>ff0000ff</color>
                    <colorMode>normal</colorMode>
                    <scale>1</scale>
                    <heading>0</heading>
                    <Icon id="275">
                        <href>http://maps.google.com/mapfiles/kml/pushpin/ylw-pushpin.png</href>
                    </Icon>
                </IconStyle>
            </Style>
            <Style id="278">
                <IconStyle id="279">
                    <color>ff0000ff</color>
                    <colorMode>normal</colorMode>
                    <scale>1</scale>
                    <heading>0</heading>
                    <Icon id="280">
                        <href>http://maps.google.com/mapfiles/kml/pushpin/ylw-pushpin.png</href>
                    </Icon>
                </IconStyle>
            </Style>
            <Style id="283">
                <IconStyle id="284">
                    <color>ff0000ff</color>
                    <colorMode>normal</colorMode>
                    <scale>1</scale>
                    <heading>0</heading>
                    <Icon id="285">
                        <href>http://maps.google.com/mapfiles/kml/pushpin/ylw-pushpin.png</href>
                    </Icon>
                </IconStyle>
            </Style>
            <Style id="288">
                <IconStyle id="289">
                    <color>ff0000ff</color>
                    <colorMode>normal</colorMode>
                    <scale>1</scale>
                    <heading>0</heading>
                    <Icon id="290">
                        <href>http://maps.google.com/mapfiles/kml/pushpin/ylw-pushpin.png</href>
                    </Icon>
                </IconStyle>
            </Style>
            <Style id="293">
                <IconStyle id="294">
                    <color>ff0000ff</color>
                    <colorMode>normal</colorMode>
                    <scale>1</scale>
                    <heading>0</heading>
                    <Icon id="295">
                        <href>http://maps.google.com/mapfiles/kml/pushpin/ylw-pushpin.png</href>
                    </Icon>
                </IconStyle>
            </Style>
            <Style id="298">
                <IconStyle id="299">
                    <color>ff0000ff</color>
                    <colorMode>normal</colorMode>
                    <scale>1</scale>
                    <heading>0</heading>
                    <Icon id="300">
                        <href>http://maps.google.com/mapfiles/kml/pushpin/ylw-pushpin.png</href>
                    </Icon>
                </IconStyle>
            </Style>
            <Style id="303">
                <IconStyle id="304">
                    <color>ff0000ff</color>
                    <colorMode>normal</colorMode>
                    <scale>1</scale>
                    <heading>0</heading>
                    <Icon id="305">
                        <href>http://maps.google.com/mapfiles/kml/pushpin/ylw-pushpin.png</href>
                    </Icon>
                </IconStyle>
            </Style>
            <Style id="308">
                <IconStyle id="309">
                    <color>ff0000ff</color>
                    <colorMode>normal</colorMode>
                    <scale>1</scale>
                    <heading>0</heading>
                    <Icon id="310">
                        <href>http://maps.google.com/mapfiles/kml/pushpin/ylw-pushpin.png</href>
                    </Icon>
                </IconStyle>
            </Style>
            <Style id="313">
                <IconStyle id="314">
                    <color>ff0000ff</color>
                    <colorMode>normal</colorMode>
                    <scale>1</scale>
                    <heading>0</heading>
                    <Icon id="315">
                        <href>http://maps.google.com/mapfiles/kml/pushpin/ylw-pushpin.png</href>
                    </Icon>
                </IconStyle>
            </Style>
            <Style id="318">
                <IconStyle id="319">
                    <color>ff0000ff</color>
                    <colorMode>normal</colorMode>
                    <scale>1</scale>
                    <heading>0</heading>
                    <Icon id="320">
                        <href>http://maps.google.com/mapfiles/kml/pushpin/ylw-pushpin.png</href>
                    </Icon>
                </IconStyle>
            </Style>
            <Style id="323">
                <IconStyle id="324">
                    <color>ff0000ff</color>
                    <colorMode>normal</colorMode>
                    <scale>1</scale>
                    <heading>0</heading>
                    <Icon id="325">
                        <href>http://maps.google.com/mapfiles/kml/pushpin/ylw-pushpin.png</href>
                    </Icon>
                </IconStyle>
            </Style>
            <Style id="328">
                <IconStyle id="329">
                    <color>ff0000ff</color>
                    <colorMode>normal</colorMode>
                    <scale>1</scale>
                    <heading>0</heading>
                    <Icon id="330">
                        <href>http://maps.google.com/mapfiles/kml/pushpin/ylw-pushpin.png</href>
                    </Icon>
                </IconStyle>
            </Style>
            <Style id="333">
                <IconStyle id="334">
                    <color>ff0000ff</color>
                    <colorMode>normal</colorMode>
                    <scale>1</scale>
                    <heading>0</heading>
                    <Icon id="335">
                        <href>http://maps.google.com/mapfiles/kml/pushpin/ylw-pushpin.png</href>
                    </Icon>
                </IconStyle>
            </Style>
            <Style id="338">
                <IconStyle id="339">
                    <color>ff0000ff</color>
                    <colorMode>normal</colorMode>
                    <scale>1</scale>
                    <heading>0</heading>
                    <Icon id="340">
                        <href>http://maps.google.com/mapfiles/kml/pushpin/ylw-pushpin.png</href>
                    </Icon>
                </IconStyle>
            </Style>
            <Style id="343">
                <IconStyle id="344">
                    <color>ff0000ff</color>
                    <colorMode>normal</colorMode>
                    <scale>1</scale>
                    <heading>0</heading>
                    <Icon id="345">
                        <href>http://maps.google.com/mapfiles/kml/pushpin/ylw-pushpin.png</href>
                    </Icon>
                </IconStyle>
            </Style>
            <Style id="348">
                <IconStyle id="349">
                    <color>ff0000ff</color>
                    <colorMode>normal</colorMode>
                    <scale>1</scale>
                    <heading>0</heading>
                    <Icon id="350">
                        <href>http://maps.google.com/mapfiles/kml/pushpin/ylw-pushpin.png</href>
                    </Icon>
                </IconStyle>
            </Style>
            <Style id="353">
                <IconStyle id="354">
                    <color>ff0000ff</color>
                    <colorMode>normal</colorMode>
                    <scale>1</scale>
                    <heading>0</heading>
                    <Icon id="355">
                        <href>http://maps.google.com/mapfiles/kml/pushpin/ylw-pushpin.png</href>
                    </Icon>
                </IconStyle>
            </Style>
            <Style id="358">
                <IconStyle id="359">
                    <color>ff0000ff</color>
                    <colorMode>normal</colorMode>
                    <scale>1</scale>
                    <heading>0</heading>
                    <Icon id="360">
                        <href>http://maps.google.com/mapfiles/kml/pushpin/ylw-pushpin.png</href>
                    </Icon>
                </IconStyle>
            </Style>
            <Style id="363">
                <IconStyle id="364">
                    <color>ff0000ff</color>
                    <colorMode>normal</colorMode>
                    <scale>1</scale>
                    <heading>0</heading>
                    <Icon id="365">
                        <href>http://maps.google.com/mapfiles/kml/pushpin/ylw-pushpin.png</href>
                    </Icon>
                </IconStyle>
            </Style>
            <Style id="368">
                <IconStyle id="369">
                    <color>ff0000ff</color>
                    <colorMode>normal</colorMode>
                    <scale>1</scale>
                    <heading>0</heading>
                    <Icon id="370">
                        <href>http://maps.google.com/mapfiles/kml/pushpin/ylw-pushpin.png</href>
                    </Icon>
                </IconStyle>
            </Style>
            <Style id="373">
                <IconStyle id="374">
                    <color>ff0000ff</color>
                    <colorMode>normal</colorMode>
                    <scale>1</scale>
                    <heading>0</heading>
                    <Icon id="375">
                        <href>http://maps.google.com/mapfiles/kml/pushpin/ylw-pushpin.png</href>
                    </Icon>
                </IconStyle>
            </Style>
            <Style id="378">
                <IconStyle id="379">
                    <color>ff0000ff</color>
                    <colorMode>normal</colorMode>
                    <scale>1</scale>
                    <heading>0</heading>
                    <Icon id="380">
                        <href>http://maps.google.com/mapfiles/kml/pushpin/ylw-pushpin.png</href>
                    </Icon>
                </IconStyle>
            </Style>
            <Style id="383">
                <IconStyle id="384">
                    <color>ff0000ff</color>
                    <colorMode>normal</colorMode>
                    <scale>1</scale>
                    <heading>0</heading>
                    <Icon id="385">
                        <href>http://maps.google.com/mapfiles/kml/pushpin/ylw-pushpin.png</href>
                    </Icon>
                </IconStyle>
            </Style>
            <Style id="388">
                <IconStyle id="389">
                    <color>ff0000ff</color>
                    <colorMode>normal</colorMode>
                    <scale>1</scale>
                    <heading>0</heading>
                    <Icon id="390">
                        <href>http://maps.google.com/mapfiles/kml/pushpin/ylw-pushpin.png</href>
                    </Icon>
                </IconStyle>
            </Style>
            <Style id="393">
                <IconStyle id="394">
                    <color>ff0000ff</color>
                    <colorMode>normal</colorMode>
                    <scale>1</scale>
                    <heading>0</heading>
                    <Icon id="395">
                        <href>http://maps.google.com/mapfiles/kml/pushpin/ylw-pushpin.png</href>
                    </Icon>
                </IconStyle>
            </Style>
            <Style id="398">
                <IconStyle id="399">
                    <color>ff0000ff</color>
                    <colorMode>normal</colorMode>
                    <scale>1</scale>
                    <heading>0</heading>
                    <Icon id="400">
                        <href>http://maps.google.com/mapfiles/kml/pushpin/ylw-pushpin.png</href>
                    </Icon>
                </IconStyle>
            </Style>
            <name>MANUEL ENRIQUE ZAPATA QUEVEDO</name>
            <Placemark id="137">
                <name>JUANA DEL PILAR LITANO SANDOVAL</name>
                <description>AH KEIKO SOFIA C-10 CATACAOS
Catacaos

Piura
Perú</description>
                <styleUrl>#138</styleUrl>
                <Point id="136">
                    <coordinates>-80.681,-5.268774,0.0</coordinates>
                </Point>
            </Placemark>
            <Placemark id="142">
                <name>KASANDRA LISSET CHORRES GARCIA</name>
                <description>JR AREQUIPA 1106 CATACAOS.MONTE SULLON
Catacaos

Piura
Perú</description>
                <styleUrl>#143</styleUrl>
                <Point id="141">
                    <coordinates>-80.6791101,-5.272254,0.0</coordinates>
                </Point>
            </Placemark>
            <Placemark id="147">
                <name>MORALES PICON DE VALVERDE MARIA DANITZA</name>
                <description>MORALES PICON DE VALVERDE MARIA DANITZA
JR.PIURA 1497 CATACAOS
Catacaos
Piura
Piura
Perú</description>
                <styleUrl>#148</styleUrl>
                <Point id="146">
                    <coordinates>-80.6766922,-5.2715971,0.0</coordinates>
                </Point>
            </Placemark>
            <Placemark id="152">
                <name>JUANA DEL ROSARIO DAVILA CHERRE</name>
                <description>JR. PIURA 1309 CATACAOS
Catacaos
Morropón
Piura
Perú</description>
                <styleUrl>#153</styleUrl>
                <Point id="151">
                    <coordinates>-80.6764015,-5.2711638,0.0</coordinates>
                </Point>
            </Placemark>
            <Placemark id="157">
                <name>JARITZA ISABEL MORE JUAREZ</name>
                <description>CALLE GRAU 553 CATACAOS
Catacaos

Piura
Perú</description>
                <styleUrl>#158</styleUrl>
                <Point id="156">
                    <coordinates>-80.6770178,-5.2721242,0.0</coordinates>
                </Point>
            </Placemark>
            <Placemark id="162">
                <name>DALINDA MAZA HERNANDEZ</name>
                <description>AH CRISTIAN REQUENA D-15.CATACAOS
Catacaos

Piura
Perú</description>
                <styleUrl>#163</styleUrl>
                <Point id="161">
                    <coordinates>-80.669229,-5.270344,0.0</coordinates>
                </Point>
            </Placemark>
            <Placemark id="167">
                <name>BETSABEE DEL CARMEN CRUZ DE SOSA</name>
                <description>JR.AREQUIPA S/NCURA MORI (FTE.COLEG
Cura Mori
Piura
Piura
Perú</description>
                <styleUrl>#168</styleUrl>
                <Point id="166">
                    <coordinates>-80.6645982,-5.3271238,0.0</coordinates>
                </Point>
            </Placemark>
            <Placemark id="172">
                <name>EDUARDO AVILA VILCHEZ</name>
                <description>JIRON MAYNAS 365 MONTE SULLON CATACAOS



Perú</description>
                <styleUrl>#173</styleUrl>
                <Point id="171">
                    <coordinates>-80.6801959,-5.2751733,0.0</coordinates>
                </Point>
            </Placemark>
            <Placemark id="177">
                <name>GLADYS SULLON CHIROQUE</name>
                <description>Jr AREQUIPA mz c lt 06
Catacaos
Piura
Piura
Perú</description>
                <styleUrl>#178</styleUrl>
                <Point id="176">
                    <coordinates>-80.684987,-5.276855,0.0</coordinates>
                </Point>
            </Placemark>
            <Placemark id="182">
                <name>MARIA ESTELA VALVERDE DE SANDOVAL</name>
                <description>Jirón Arequipa c 3 monte sullon
Catacaos

Piura
Perú</description>
                <styleUrl>#183</styleUrl>
                <Point id="181">
                    <coordinates>-80.685,-5.276935,0.0</coordinates>
                </Point>
            </Placemark>
            <Placemark id="187">
                <name>DIANA ESTEFANY SULLON YOVERA</name>
                <description>JR Arequipa b - 9 monte sullon Catacaos
Catacaos

Piura
Perú</description>
                <styleUrl>#188</styleUrl>
                <Point id="186">
                    <coordinates>-80.685845,-5.276522,0.0</coordinates>
                </Point>
            </Placemark>
            <Placemark id="192">
                <name>TEMPORA VILCHEZ SANDOVAL</name>
                <description>JR. Arequipa 1882
Catacaos
Piura
Piura
Perú</description>
                <styleUrl>#193</styleUrl>
                <Point id="191">
                    <coordinates>-80.687751,-5.280405,0.0</coordinates>
                </Point>
            </Placemark>
            <Placemark id="197">
                <name>CLARA PADILLA SANDOVAL</name>
                <description>JR COMERCIO 2130  MONTE SULLON CATACAOS
Catacaos

Piura
Perú</description>
                <styleUrl>#198</styleUrl>
                <Point id="196">
                    <coordinates>-80.686505,-5.2798303,0.0</coordinates>
                </Point>
            </Placemark>
            <Placemark id="202">
                <name>CHERO SULLON KATTY MABEL</name>
                <description>JR NARIHUALA 136 MONTE SULLON CATACAOS
Catacaos

Piura
Perú</description>
                <styleUrl>#203</styleUrl>
                <Point id="201">
                    <coordinates>-80.6820268,-5.2784388,0.0</coordinates>
                </Point>
            </Placemark>
            <Placemark id="207">
                <name>LUZ MARIA ZAPATA IPANAQUE</name>
                <description>JR NARIHUALA  159/JOSE OLAYA
Catacaos

Piura
Perú</description>
                <styleUrl>#208</styleUrl>
                <Point id="206">
                    <coordinates>-80.681361,-5.277897,0.0</coordinates>
                </Point>
            </Placemark>
            <Placemark id="212">
                <name>MODESTA AGUIRRE ZAVALA</name>
                <description>AH 17 SETIEMBRE  D-7
Catacaos

Piura
Perú</description>
                <styleUrl>#213</styleUrl>
                <Point id="211">
                    <coordinates>-80.677995,-5.276622,0.0</coordinates>
                </Point>
            </Placemark>
            <Placemark id="217">
                <name>DIANA CARINA SERNAQUE CHERO</name>
                <description>AH NUEVO HORIZONTE A -6 CATACAOS MONTE SULLON
Catacaos

Piura
Perú</description>
                <styleUrl>#218</styleUrl>
                <Point id="216">
                    <coordinates>-80.6788596,-5.2766177,0.0</coordinates>
                </Point>
            </Placemark>
            <Placemark id="222">
                <name>ROSA QUINTANA CHERO</name>
                <description>JR TRUJILLO 1920 MONTE SULLON MEDIDOR 1119
Catacaos

Piura
Perú</description>
                <styleUrl>#223</styleUrl>
                <Point id="221">
                    <coordinates>-80.6786529,-5.2756448,0.0</coordinates>
                </Point>
            </Placemark>
            <Placemark id="227">
                <name>JULIA EMILIA TRELLES DE LIZANO</name>
                <description>JR.COMERCIO NÂª1176 MONTE SULLON
Catacaos

Piura
Perú</description>
                <styleUrl>#228</styleUrl>
                <Point id="226">
                    <coordinates>-80.6785719,-5.2734575,0.0</coordinates>
                </Point>
            </Placemark>
            <Placemark id="232">
                <name>MANUEL ESTEBAN SANDOVAL YAMUNAQUE</name>
                <description>AAHH JUAN DE MORI CALLE PISCO MZ M LT 15
Catacaos

Piura
Perú</description>
                <styleUrl>#233</styleUrl>
                <Point id="231">
                    <coordinates>-80.6725987,-5.2655533,0.0</coordinates>
                </Point>
            </Placemark>
            <Placemark id="237">
                <name>KASANDRA LISSET CHORRES GARCIA</name>
                <description>JR AREQUIPA 1106 CATACAOS.MONTE SULLON
Catacaos

Piura
Perú</description>
                <styleUrl>#238</styleUrl>
                <Point id="236">
                    <coordinates>-80.6791101,-5.272254,0.0</coordinates>
                </Point>
            </Placemark>
            <Placemark id="242">
                <name>GLADYS YOVERA TIMANA</name>
                <description>JR. TRUJILLO NÂ°905 - MONTESULLON CATACAOS
Catacaos

Piura
Perú</description>
                <styleUrl>#243</styleUrl>
                <Point id="241">
                    <coordinates>-80.6776249,-5.2734249,0.0</coordinates>
                </Point>
            </Placemark>
            <Placemark id="247">
                <name>MARIA PASCUALA GIRON DE DURAN</name>
                <description>JR TRUJILLO 964 MONTE SULLON
Catacaos

Piura
Perú</description>
                <styleUrl>#248</styleUrl>
                <Point id="246">
                    <coordinates>-80.6780597,-5.2744434,0.0</coordinates>
                </Point>
            </Placemark>
            <Placemark id="252">
                <name>MORALES PICON DE VALVERDE MARIA DANITZA</name>
                <description>MORALES PICON DE VALVERDE MARIA DANITZA
JR.PIURA 1497 CATACAOS
Catacaos
Piura
Piura
Perú</description>
                <styleUrl>#253</styleUrl>
                <Point id="251">
                    <coordinates>-80.6766922,-5.2715971,0.0</coordinates>
                </Point>
            </Placemark>
            <Placemark id="257">
                <name>MARIA MARGARITA LOPEZ CHIROQUE VDA DE VILLEGAS</name>
                <description>JR. PIURA NÂ°1379 - CATACAOS
Catacaos
Piura
Piura
Perú</description>
                <styleUrl>#258</styleUrl>
                <Point id="256">
                    <coordinates>-80.6765357,-5.2715628,0.0</coordinates>
                </Point>
            </Placemark>
            <Placemark id="262">
                <name>JUANA DEL ROSARIO DAVILA CHERRE</name>
                <description>JR. PIURA 1309 CATACAOS
Catacaos
Morropón
Piura
Perú</description>
                <styleUrl>#263</styleUrl>
                <Point id="261">
                    <coordinates>-80.6764015,-5.2711638,0.0</coordinates>
                </Point>
            </Placemark>
            <Placemark id="267">
                <name>JARITZA ISABEL MORE JUAREZ</name>
                <description>CALLE GRAU 553 CATACAOS
Catacaos

Piura
Perú</description>
                <styleUrl>#268</styleUrl>
                <Point id="266">
                    <coordinates>-80.6770178,-5.2721242,0.0</coordinates>
                </Point>
            </Placemark>
            <Placemark id="272">
                <name>ROSA FANNY ZAPATA IPANAQUE</name>
                <description>CAL. GRAU 560 MONTE SULLON CATACAOS
Catacaos
Catacaos
Piura
Perú</description>
                <styleUrl>#273</styleUrl>
                <Point id="271">
                    <coordinates>-80.6760489,-5.2715543,0.0</coordinates>
                </Point>
            </Placemark>
            <Placemark id="277">
                <name>NOELIA GUISELL SILVA ANCAJIMA</name>
                <description>Alejandro Taboada 901monte sullon
Catacaos

Piura
Perú</description>
                <styleUrl>#278</styleUrl>
                <Point id="276">
                    <coordinates>-80.676018,-5.272561,0.0</coordinates>
                </Point>
            </Placemark>
            <Placemark id="282">
                <name>LILLIAM AMPARO VASQUEZ DE CARRASCO</name>
                <description>JR. ALEJANDRO TABOADA 872 CATACAOS
Catacaos
Catacaos
Piura
Perú</description>
                <styleUrl>#283</styleUrl>
                <Point id="281">
                    <coordinates>-80.6756769,-5.2718842,0.0</coordinates>
                </Point>
            </Placemark>
            <Placemark id="287">
                <name>NATIVIDAD SANDOVAL CHERO</name>
                <description>Ah TUPAC AMARU A-15 CATACACOS
Catacaos


Perú</description>
                <styleUrl>#288</styleUrl>
                <Point id="286">
                    <coordinates>-80.675527,-5.273045,0.0</coordinates>
                </Point>
            </Placemark>
            <Placemark id="292">
                <name>ELIZABETH CHIROQUE SULLON</name>
                <description>MZ B LT 14 AH TUPAC AMARU CATACAOS
Catacaos
Catacaos
Piura
Perú</description>
                <styleUrl>#293</styleUrl>
                <Point id="291">
                    <coordinates>-80.675504,-5.2737606,0.0</coordinates>
                </Point>
            </Placemark>
            <Placemark id="297">
                <name>DARWIN DAVID CHUNGA SILUPU</name>
                <description>AH TUPAC AMARU  D-7MONTE SULLON CATACAOS
Catacaos

Piura
Perú</description>
                <styleUrl>#298</styleUrl>
                <Point id="296">
                    <coordinates>-80.6755888,-5.2737543,0.0</coordinates>
                </Point>
            </Placemark>
            <Placemark id="302">
                <name>MARIA FELICITA IPANAQUE DE CHAVEZ</name>
                <description>AAHH TUPAC AMARUC MZ B- 4 CALLE BOLOGNESI CATACAOS 
Catacaos
Catacaos
Piura
Perú</description>
                <styleUrl>#303</styleUrl>
                <Point id="301">
                    <coordinates>-80.6751177,-5.2744692,0.0</coordinates>
                </Point>
            </Placemark>
            <Placemark id="307">
                <name>CARRASCO FARFAN PIERINA</name>
                <description>AAHH TALLANES 2DA ETAPA MZ C LT 2
Catacaos

Piura
Perú</description>
                <styleUrl>#308</styleUrl>
                <Point id="306">
                    <coordinates>-80.673902,-5.2744896,0.0</coordinates>
                </Point>
            </Placemark>
            <Placemark id="312">
                <name>JULIO CESAR YARLEQUE GOMEZ</name>
                <description>ALEJANDRO TABOADA 804 804
Catacaos
Catacaos
Piura
Perú</description>
                <styleUrl>#313</styleUrl>
                <Point id="311">
                    <coordinates>-80.6752451,-5.2713224,0.0</coordinates>
                </Point>
            </Placemark>
            <Placemark id="317">
                <name>CHUYE COVEÑAS JESSICA</name>
                <description>Calle Grau #480 - CATACAOS
Catacaos
Catacaos
Piura
Perú</description>
                <styleUrl>#318</styleUrl>
                <Point id="316">
                    <coordinates>-80.6755083,-5.2703722,0.0</coordinates>
                </Point>
            </Placemark>
            <Placemark id="322">
                <name>JESSICA IVONNE CORREA YARLEQUE</name>
                <description>JESSICA IVONNE CORREA YARLEQUE
JUAN DE MORE CALLE 5 LOTE 27 MZ C
Catacaos
Piura
Piura
Perú</description>
                <styleUrl>#323</styleUrl>
                <Point id="321">
                    <coordinates>-80.6797154,-5.266999,0.0</coordinates>
                </Point>
            </Placemark>
            <Placemark id="327">
                <name>JASSMIN MILAGROS ZORRILLA PEREZ</name>
                <description>16 de noviembre Mz L Lote 16 Juan de Mori
Catacaos
Catacaos
Piura
Perú</description>
                <styleUrl>#328</styleUrl>
                <Point id="326">
                    <coordinates>-80.6797392,-5.2676671,0.0</coordinates>
                </Point>
            </Placemark>
            <Placemark id="332">
                <name>ROSA ELENA SERNAQUE CRUZ</name>
                <description>AH KEIKO SOFIA b 7
Catacaos


Perú</description>
                <styleUrl>#333</styleUrl>
                <Point id="331">
                    <coordinates>-80.680753,-5.269099,0.0</coordinates>
                </Point>
            </Placemark>
            <Placemark id="337">
                <name>ADRIANA NICOLE AGUIRRE SULLON</name>
                <description>Calle Real 995
Catacaos
Piura
Piura
Perú</description>
                <styleUrl>#338</styleUrl>
                <Point id="336">
                    <coordinates>-80.678285,-5.270036,0.0</coordinates>
                </Point>
            </Placemark>
            <Placemark id="342">
                <name>ALICIA ALZAMORA DE SULLON</name>
                <description>AREQUIPA 995 CATACAOS
Catacaos

Piura
Perú</description>
                <styleUrl>#343</styleUrl>
                <Point id="341">
                    <coordinates>-80.677886,-5.270081,0.0</coordinates>
                </Point>
            </Placemark>
            <Placemark id="347">
                <name>LOURDES VALENCIA RIVAS</name>
                <description>LOURDES VALENCIA RIVAS
CALLE AREQUIPA 1010
Catacaos
Piura
Piura
Perú</description>
                <styleUrl>#348</styleUrl>
                <Point id="346">
                    <coordinates>-80.6782578,-5.2703207,0.0</coordinates>
                </Point>
            </Placemark>
            <Placemark id="352">
                <name>SOCORRO MERCEDES ZAPATA GONZALES</name>
                <description>JR SAN SEBASTIÁN 654 CATACAOS



Perú</description>
                <styleUrl>#353</styleUrl>
                <Point id="351">
                    <coordinates>-80.6773541,-5.2709716,0.0</coordinates>
                </Point>
            </Placemark>
            <Placemark id="357">
                <name>LILIAN LORENA FERNANDEZ VERA</name>
                <description>LILIAN LORENA FERNANDEZ VERA
JR. TRUJILLO NÂº656 CERCADO DE CATA
Catacaos
Piura
Piura
Perú</description>
                <styleUrl>#358</styleUrl>
                <Point id="356">
                    <coordinates>-80.6767229,-5.2697344,0.0</coordinates>
                </Point>
            </Placemark>
            <Placemark id="362">
                <name>SANDOVAL AMELIA JIBAJA DE</name>
                <description>SANDOVAL AMELIA JIBAJA DE
TRUJILLO NÂª608 CATACAOS
Catacaos
Piura
Piura
Perú</description>
                <styleUrl>#363</styleUrl>
                <Point id="361">
                    <coordinates>-80.6748252,-5.2683689,0.0</coordinates>
                </Point>
            </Placemark>
            <Placemark id="367">
                <name>JOSE MERCEDES VILELA VILCHEZ</name>
                <description>Trujillo 604
Catacaos
Piura
Piura
Perú</description>
                <styleUrl>#368</styleUrl>
                <Point id="366">
                    <coordinates>-80.6751719,-5.2686967,0.0</coordinates>
                </Point>
            </Placemark>
            <Placemark id="372">
                <name>JOHANANY CASTILLO SANDOVAL</name>
                <description>JR. MARIANO DIAZ N 1629 - CATACAOSMONTESULLON
Catacaos
Piura
Piura
Perú</description>
                <styleUrl>#373</styleUrl>
                <Point id="371">
                    <coordinates>-80.6755438,-5.2699509,0.0</coordinates>
                </Point>
            </Placemark>
            <Placemark id="377">
                <name>MARIA REGINA SANTAMARIA DIAZ</name>
                <description>JR mariano díaz 1567
Catacaos
Catacaos
Piura
Perú</description>
                <styleUrl>#378</styleUrl>
                <Point id="376">
                    <coordinates>-80.6751866,-5.2691541,0.0</coordinates>
                </Point>
            </Placemark>
            <Placemark id="382">
                <name>FABIOLA PATRICIA JUAREZ ALZAMORA</name>
                <description>CA MARIANO DIAZ CDRA 1585 ATRAS DE LA CORTADA
Catacaos
Catacaos
Piura
Perú</description>
                <styleUrl>#383</styleUrl>
                <Point id="381">
                    <coordinates>-80.677275,-5.2723943,0.0</coordinates>
                </Point>
            </Placemark>
            <Placemark id="387">
                <name>MAGALY NORA PASACHE VALVERDE</name>
                <description>MZ A LT 28 AAHH LOS JARDINES CATACAOS
Catacaos
Catacaos
Piura
Perú</description>
                <styleUrl>#388</styleUrl>
                <Point id="386">
                    <coordinates>-80.6685846,-5.270211,0.0</coordinates>
                </Point>
            </Placemark>
            <Placemark id="392">
                <name>ROSA DAYSI CORDOVA VIERA</name>
                <description>ANDRES AVELINO CACERES J LOT 18 LUCAS CUTIVALU 2DA ETAPA
Catacaos
Catacaos
Piura
Perú</description>
                <styleUrl>#393</styleUrl>
                <Point id="391">
                    <coordinates>-80.6716927,-5.2698848,0.0</coordinates>
                </Point>
            </Placemark>
            <Placemark id="397">
                <name>ELIANA ELIZABETH CASTILLO AMAYA</name>
                <description>AH LUCAS CUTIVALU CA ANDRES A CACERES MZ J LOT 1
Catacaos
Catacaos
Piura
Perú</description>
                <styleUrl>#398</styleUrl>
                <Point id="396">
                    <coordinates>-80.6713582,-5.2689261,0.0</coordinates>
                </Point>
            </Placemark>
        </Folder>
    </Document>
</kml>
