<?xml version="1.0" encoding="UTF-8"?>
<kml xmlns="http://www.opengis.net/kml/2.2" xmlns:gx="http://www.google.com/kml/ext/2.2">
    <Document id="1032">
        <Folder id="1033">
            <Style id="1036">
                <IconStyle id="1037">
                    <color>ff0000ff</color>
                    <colorMode>normal</colorMode>
                    <scale>1</scale>
                    <heading>0</heading>
                    <Icon id="1038">
                        <href>http://maps.google.com/mapfiles/kml/pushpin/ylw-pushpin.png</href>
                    </Icon>
                </IconStyle>
            </Style>
            <Style id="1041">
                <IconStyle id="1042">
                    <color>ff0000ff</color>
                    <colorMode>normal</colorMode>
                    <scale>1</scale>
                    <heading>0</heading>
                    <Icon id="1043">
                        <href>http://maps.google.com/mapfiles/kml/pushpin/ylw-pushpin.png</href>
                    </Icon>
                </IconStyle>
            </Style>
            <Style id="1046">
                <IconStyle id="1047">
                    <color>ff0000ff</color>
                    <colorMode>normal</colorMode>
                    <scale>1</scale>
                    <heading>0</heading>
                    <Icon id="1048">
                        <href>http://maps.google.com/mapfiles/kml/pushpin/ylw-pushpin.png</href>
                    </Icon>
                </IconStyle>
            </Style>
            <Style id="1051">
                <IconStyle id="1052">
                    <color>ff0000ff</color>
                    <colorMode>normal</colorMode>
                    <scale>1</scale>
                    <heading>0</heading>
                    <Icon id="1053">
                        <href>http://maps.google.com/mapfiles/kml/pushpin/ylw-pushpin.png</href>
                    </Icon>
                </IconStyle>
            </Style>
            <Style id="1056">
                <IconStyle id="1057">
                    <color>ff0000ff</color>
                    <colorMode>normal</colorMode>
                    <scale>1</scale>
                    <heading>0</heading>
                    <Icon id="1058">
                        <href>http://maps.google.com/mapfiles/kml/pushpin/ylw-pushpin.png</href>
                    </Icon>
                </IconStyle>
            </Style>
            <Style id="1061">
                <IconStyle id="1062">
                    <color>ff0000ff</color>
                    <colorMode>normal</colorMode>
                    <scale>1</scale>
                    <heading>0</heading>
                    <Icon id="1063">
                        <href>http://maps.google.com/mapfiles/kml/pushpin/ylw-pushpin.png</href>
                    </Icon>
                </IconStyle>
            </Style>
            <Style id="1066">
                <IconStyle id="1067">
                    <color>ff0000ff</color>
                    <colorMode>normal</colorMode>
                    <scale>1</scale>
                    <heading>0</heading>
                    <Icon id="1068">
                        <href>http://maps.google.com/mapfiles/kml/pushpin/ylw-pushpin.png</href>
                    </Icon>
                </IconStyle>
            </Style>
            <Style id="1071">
                <IconStyle id="1072">
                    <color>ff0000ff</color>
                    <colorMode>normal</colorMode>
                    <scale>1</scale>
                    <heading>0</heading>
                    <Icon id="1073">
                        <href>http://maps.google.com/mapfiles/kml/pushpin/ylw-pushpin.png</href>
                    </Icon>
                </IconStyle>
            </Style>
            <Style id="1076">
                <IconStyle id="1077">
                    <color>ff0000ff</color>
                    <colorMode>normal</colorMode>
                    <scale>1</scale>
                    <heading>0</heading>
                    <Icon id="1078">
                        <href>http://maps.google.com/mapfiles/kml/pushpin/ylw-pushpin.png</href>
                    </Icon>
                </IconStyle>
            </Style>
            <Style id="1081">
                <IconStyle id="1082">
                    <color>ff0000ff</color>
                    <colorMode>normal</colorMode>
                    <scale>1</scale>
                    <heading>0</heading>
                    <Icon id="1083">
                        <href>http://maps.google.com/mapfiles/kml/pushpin/ylw-pushpin.png</href>
                    </Icon>
                </IconStyle>
            </Style>
            <Style id="1086">
                <IconStyle id="1087">
                    <color>ff0000ff</color>
                    <colorMode>normal</colorMode>
                    <scale>1</scale>
                    <heading>0</heading>
                    <Icon id="1088">
                        <href>http://maps.google.com/mapfiles/kml/pushpin/ylw-pushpin.png</href>
                    </Icon>
                </IconStyle>
            </Style>
            <Style id="1091">
                <IconStyle id="1092">
                    <color>ff0000ff</color>
                    <colorMode>normal</colorMode>
                    <scale>1</scale>
                    <heading>0</heading>
                    <Icon id="1093">
                        <href>http://maps.google.com/mapfiles/kml/pushpin/ylw-pushpin.png</href>
                    </Icon>
                </IconStyle>
            </Style>
            <Style id="1096">
                <IconStyle id="1097">
                    <color>ff0000ff</color>
                    <colorMode>normal</colorMode>
                    <scale>1</scale>
                    <heading>0</heading>
                    <Icon id="1098">
                        <href>http://maps.google.com/mapfiles/kml/pushpin/ylw-pushpin.png</href>
                    </Icon>
                </IconStyle>
            </Style>
            <Style id="1101">
                <IconStyle id="1102">
                    <color>ff0000ff</color>
                    <colorMode>normal</colorMode>
                    <scale>1</scale>
                    <heading>0</heading>
                    <Icon id="1103">
                        <href>http://maps.google.com/mapfiles/kml/pushpin/ylw-pushpin.png</href>
                    </Icon>
                </IconStyle>
            </Style>
            <Style id="1106">
                <IconStyle id="1107">
                    <color>ff0000ff</color>
                    <colorMode>normal</colorMode>
                    <scale>1</scale>
                    <heading>0</heading>
                    <Icon id="1108">
                        <href>http://maps.google.com/mapfiles/kml/pushpin/ylw-pushpin.png</href>
                    </Icon>
                </IconStyle>
            </Style>
            <Style id="1111">
                <IconStyle id="1112">
                    <color>ff0000ff</color>
                    <colorMode>normal</colorMode>
                    <scale>1</scale>
                    <heading>0</heading>
                    <Icon id="1113">
                        <href>http://maps.google.com/mapfiles/kml/pushpin/ylw-pushpin.png</href>
                    </Icon>
                </IconStyle>
            </Style>
            <Style id="1116">
                <IconStyle id="1117">
                    <color>ff0000ff</color>
                    <colorMode>normal</colorMode>
                    <scale>1</scale>
                    <heading>0</heading>
                    <Icon id="1118">
                        <href>http://maps.google.com/mapfiles/kml/pushpin/ylw-pushpin.png</href>
                    </Icon>
                </IconStyle>
            </Style>
            <Style id="1121">
                <IconStyle id="1122">
                    <color>ff0000ff</color>
                    <colorMode>normal</colorMode>
                    <scale>1</scale>
                    <heading>0</heading>
                    <Icon id="1123">
                        <href>http://maps.google.com/mapfiles/kml/pushpin/ylw-pushpin.png</href>
                    </Icon>
                </IconStyle>
            </Style>
            <name>BRAYAN ALEXANDER IPANAQUE CASTRO</name>
            <Placemark id="1035">
                <name>HUMBERTO BENJAMIN MANRIQUE VELA</name>
                <description>AV PRINCIPAL LAS LOMAS
Las Lomas
Piura
Piura
Perú</description>
                <styleUrl>#1036</styleUrl>
                <Point id="1034">
                    <coordinates>-80.2442079,-4.665045,0.0</coordinates>
                </Point>
            </Placemark>
            <Placemark id="1040">
                <name>LADIS AURORA CORDOVA TORRES</name>
                <description>AV REFORMA AGRARIA CERCA AL PARQUE NRO 491URB.CRUCETA
Tambogrande
Piura
Piura
Perú</description>
                <styleUrl>#1041</styleUrl>
                <Point id="1039">
                    <coordinates>-80.2688022,-4.8385744,0.0</coordinates>
                </Point>
            </Placemark>
            <Placemark id="1045">
                <name>ANTONIO PABLO HUMBO DOMINGUEZ</name>
                <description>Cruceta, frente a la comisaría
Tambogrande
Piura
Piura
Perú</description>
                <styleUrl>#1046</styleUrl>
                <Point id="1044">
                    <coordinates>-80.2699321,-4.8373597,0.0</coordinates>
                </Point>
            </Placemark>
            <Placemark id="1050">
                <name>FELICIA SERNAQUE DE MARQUEZ</name>
                <description>AH.SANCHE CERRO/CIRCUNVALACION MZ-A CRUCETA
Tambogrande
Piura
Piura
Perú</description>
                <styleUrl>#1051</styleUrl>
                <Point id="1049">
                    <coordinates>-80.265726,-4.8349538,0.0</coordinates>
                </Point>
            </Placemark>
            <Placemark id="1055">
                <name>CYNTIA YULIANA SANTIN ESCOBAR</name>
                <description>CA. SAN ISIDRO MZ B1 LT 06 CRUCETA
Tambogrande
Piura
Piura
Perú</description>
                <styleUrl>#1056</styleUrl>
                <Point id="1054">
                    <coordinates>-80.26516,-4.8338369,0.0</coordinates>
                </Point>
            </Placemark>
            <Placemark id="1060">
                <name>SANTOS MERCEDES HUMBO DOMINGUEZ</name>
                <description>Cruceta
Tambogrande
Piura
Piura
Perú</description>
                <styleUrl>#1061</styleUrl>
                <Point id="1059">
                    <coordinates>-80.2676263,-4.8359713,0.0</coordinates>
                </Point>
            </Placemark>
            <Placemark id="1065">
                <name>FRANCISCA CASTILLO DE ALVARADO</name>
                <description>AV PRINCIPAL  JESUS MARIA S/N CRUCETA
Tambogrande
Piura
Piura
Perú</description>
                <styleUrl>#1066</styleUrl>
                <Point id="1064">
                    <coordinates>-80.26825,-4.83579,0.0</coordinates>
                </Point>
            </Placemark>
            <Placemark id="1070">
                <name>ROSA MONTERO ALAMA</name>
                <description>CA f BELAUNDE CRUCETA
Tambogrande

Piura
Perú</description>
                <styleUrl>#1071</styleUrl>
                <Point id="1069">
                    <coordinates>-80.2679476,-4.8367265,0.0</coordinates>
                </Point>
            </Placemark>
            <Placemark id="1075">
                <name>VANESA GONZALES QUISPE</name>
                <description>Cruceta - calle los jasminez Mz J lote 9
Tambogrande
Piura
Piura
Perú</description>
                <styleUrl>#1076</styleUrl>
                <Point id="1074">
                    <coordinates>-80.2670598,-4.8375919,0.0</coordinates>
                </Point>
            </Placemark>
            <Placemark id="1080">
                <name>DANIELA AQUILA CONDOR CAQUI</name>
                <description>AV REFORMA A CRUCETA CENTRO S//N FRENTE AL PARQUE
Tambogrande
Piura
Piura
Perú</description>
                <styleUrl>#1081</styleUrl>
                <Point id="1079">
                    <coordinates>-80.2683742,-4.8383005,0.0</coordinates>
                </Point>
            </Placemark>
            <Placemark id="1085">
                <name>BORIS AUGUSTO MONTERO PALACIOS</name>
                <description>AV PRINCIPAL CRUCETA SN LAS LOMAS
Tambogrande
Piura
Piura
Perú</description>
                <styleUrl>#1086</styleUrl>
                <Point id="1084">
                    <coordinates>-80.2695819,-4.838046,0.0</coordinates>
                </Point>
            </Placemark>
            <Placemark id="1090">
                <name>HUMBERTO BENJAMIN MANRIQUE VELA</name>
                <description>AV PRINCIPAL LAS LOMAS
Las Lomas
Piura
Piura
Perú</description>
                <styleUrl>#1091</styleUrl>
                <Point id="1089">
                    <coordinates>-80.2442079,-4.665045,0.0</coordinates>
                </Point>
            </Placemark>
            <Placemark id="1095">
                <name>KAREN ERMELINDA ARMIJOS REYES</name>
                <description>CP PARTIDOR S/N
Las Lomas

Piura
Perú</description>
                <styleUrl>#1096</styleUrl>
                <Point id="1094">
                    <coordinates>-80.2804115,-4.7364937,0.0</coordinates>
                </Point>
            </Placemark>
            <Placemark id="1100">
                <name>ANA BENITES CASTILLO</name>
                <description>Partidor - sn - costado del paradero
Las Lomas
Piura
Piura
Perú</description>
                <styleUrl>#1101</styleUrl>
                <Point id="1099">
                    <coordinates>-80.2804178,-4.7365221,0.0</coordinates>
                </Point>
            </Placemark>
            <Placemark id="1105">
                <name>INVERSIONES LIM &amp; ASH E.I.R.L.</name>
                <description>INVERSIONES LIM &amp; ASH E.I.R.L.
AV. CAR. PANAMERICANA NRO. S/N CAS. EL PARTIDOR
Las Lomas
200111
Piura
Perú</description>
                <styleUrl>#1106</styleUrl>
                <Point id="1104">
                    <coordinates>-80.2809233,-4.7366355,0.0</coordinates>
                </Point>
            </Placemark>
            <Placemark id="1110">
                <name>MILAGROS LOURDES FERNANDEZ CULQUI</name>
                <description>PANAMERICANA
Las Lomas
Piura
Piura
Perú</description>
                <styleUrl>#1111</styleUrl>
                <Point id="1109">
                    <coordinates>-80.2807685,-4.7367001,0.0</coordinates>
                </Point>
            </Placemark>
            <Placemark id="1115">
                <name>REYNERIA HUAMAN ABAD</name>
                <description>Partidor, carretera las lomas
Las Lomas
Piura
Piura
Perú</description>
                <styleUrl>#1116</styleUrl>
                <Point id="1114">
                    <coordinates>-80.2805176,-4.7365348,0.0</coordinates>
                </Point>
            </Placemark>
            <Placemark id="1120">
                <name>EDITA SUGEY RUGEL CAMPOS</name>
                <description>Av partidor - Partidor
Las Lomas
Piura
Piura
Perú</description>
                <styleUrl>#1121</styleUrl>
                <Point id="1119">
                    <coordinates>-80.2799936,-4.7369224,0.0</coordinates>
                </Point>
            </Placemark>
        </Folder>
        <Folder id="1124">
            <Style id="1127">
                <IconStyle id="1128">
                    <color>ffff0000</color>
                    <colorMode>normal</colorMode>
                    <scale>1</scale>
                    <heading>0</heading>
                    <Icon id="1129">
                        <href>http://maps.google.com/mapfiles/kml/pushpin/ylw-pushpin.png</href>
                    </Icon>
                </IconStyle>
            </Style>
            <Style id="1132">
                <IconStyle id="1133">
                    <color>ffff0000</color>
                    <colorMode>normal</colorMode>
                    <scale>1</scale>
                    <heading>0</heading>
                    <Icon id="1134">
                        <href>http://maps.google.com/mapfiles/kml/pushpin/ylw-pushpin.png</href>
                    </Icon>
                </IconStyle>
            </Style>
            <Style id="1137">
                <IconStyle id="1138">
                    <color>ffff0000</color>
                    <colorMode>normal</colorMode>
                    <scale>1</scale>
                    <heading>0</heading>
                    <Icon id="1139">
                        <href>http://maps.google.com/mapfiles/kml/pushpin/ylw-pushpin.png</href>
                    </Icon>
                </IconStyle>
            </Style>
            <Style id="1142">
                <IconStyle id="1143">
                    <color>ffff0000</color>
                    <colorMode>normal</colorMode>
                    <scale>1</scale>
                    <heading>0</heading>
                    <Icon id="1144">
                        <href>http://maps.google.com/mapfiles/kml/pushpin/ylw-pushpin.png</href>
                    </Icon>
                </IconStyle>
            </Style>
            <Style id="1147">
                <IconStyle id="1148">
                    <color>ffff0000</color>
                    <colorMode>normal</colorMode>
                    <scale>1</scale>
                    <heading>0</heading>
                    <Icon id="1149">
                        <href>http://maps.google.com/mapfiles/kml/pushpin/ylw-pushpin.png</href>
                    </Icon>
                </IconStyle>
            </Style>
            <Style id="1152">
                <IconStyle id="1153">
                    <color>ffff0000</color>
                    <colorMode>normal</colorMode>
                    <scale>1</scale>
                    <heading>0</heading>
                    <Icon id="1154">
                        <href>http://maps.google.com/mapfiles/kml/pushpin/ylw-pushpin.png</href>
                    </Icon>
                </IconStyle>
            </Style>
            <Style id="1157">
                <IconStyle id="1158">
                    <color>ffff0000</color>
                    <colorMode>normal</colorMode>
                    <scale>1</scale>
                    <heading>0</heading>
                    <Icon id="1159">
                        <href>http://maps.google.com/mapfiles/kml/pushpin/ylw-pushpin.png</href>
                    </Icon>
                </IconStyle>
            </Style>
            <Style id="1162">
                <IconStyle id="1163">
                    <color>ffff0000</color>
                    <colorMode>normal</colorMode>
                    <scale>1</scale>
                    <heading>0</heading>
                    <Icon id="1164">
                        <href>http://maps.google.com/mapfiles/kml/pushpin/ylw-pushpin.png</href>
                    </Icon>
                </IconStyle>
            </Style>
            <Style id="1167">
                <IconStyle id="1168">
                    <color>ffff0000</color>
                    <colorMode>normal</colorMode>
                    <scale>1</scale>
                    <heading>0</heading>
                    <Icon id="1169">
                        <href>http://maps.google.com/mapfiles/kml/pushpin/ylw-pushpin.png</href>
                    </Icon>
                </IconStyle>
            </Style>
            <Style id="1172">
                <IconStyle id="1173">
                    <color>ffff0000</color>
                    <colorMode>normal</colorMode>
                    <scale>1</scale>
                    <heading>0</heading>
                    <Icon id="1174">
                        <href>http://maps.google.com/mapfiles/kml/pushpin/ylw-pushpin.png</href>
                    </Icon>
                </IconStyle>
            </Style>
            <Style id="1177">
                <IconStyle id="1178">
                    <color>ffff0000</color>
                    <colorMode>normal</colorMode>
                    <scale>1</scale>
                    <heading>0</heading>
                    <Icon id="1179">
                        <href>http://maps.google.com/mapfiles/kml/pushpin/ylw-pushpin.png</href>
                    </Icon>
                </IconStyle>
            </Style>
            <Style id="1182">
                <IconStyle id="1183">
                    <color>ffff0000</color>
                    <colorMode>normal</colorMode>
                    <scale>1</scale>
                    <heading>0</heading>
                    <Icon id="1184">
                        <href>http://maps.google.com/mapfiles/kml/pushpin/ylw-pushpin.png</href>
                    </Icon>
                </IconStyle>
            </Style>
            <name>EDDINSON CECILIO DIOSES SAAVEDRA</name>
            <Placemark id="1126">
                <name>ALEJANDRINA NIMA NIMA</name>
                <description>PSTO.1 MCDO.MODELO.TAMBOGRANDE
Tambogrande
Piura
Piura
Perú</description>
                <styleUrl>#1127</styleUrl>
                <Point id="1125">
                    <coordinates>-80.3405172,-4.9253984,0.0</coordinates>
                </Point>
            </Placemark>
            <Placemark id="1131">
                <name>MARIO ELIAS SILUPU RETETE</name>
                <description>Mercado central Pto 24
Tambogrande
Piura
Piura
Perú</description>
                <styleUrl>#1132</styleUrl>
                <Point id="1130">
                    <coordinates>-80.3412698,-4.9253592,0.0</coordinates>
                </Point>
            </Placemark>
            <Placemark id="1136">
                <name>MARIO ELIAS SILUPU RETETE</name>
                <description>Mercado central Pto 24
Tambogrande
Piura
Piura
Perú</description>
                <styleUrl>#1137</styleUrl>
                <Point id="1135">
                    <coordinates>-80.3412698,-4.9253592,0.0</coordinates>
                </Point>
            </Placemark>
            <Placemark id="1141">
                <name>MARIA SUSANA VEGA JUAREZ</name>
                <description>Mercado mayorista tambogrande
Tambogrande
Piura
Piura
Perú</description>
                <styleUrl>#1142</styleUrl>
                <Point id="1140">
                    <coordinates>-80.3413192,-4.9254652,0.0</coordinates>
                </Point>
            </Placemark>
            <Placemark id="1146">
                <name>SILVA SILVA ANGELITA</name>
                <description>MERCADO TAMBOGRANDE 
Tambogrande
Piura
Piura
Perú</description>
                <styleUrl>#1147</styleUrl>
                <Point id="1145">
                    <coordinates>-80.3401599,-4.9259215,0.0</coordinates>
                </Point>
            </Placemark>
            <Placemark id="1151">
                <name>CALLE CASTILLO JESUS ELOY</name>
                <description>Mercado mayorista tambogrande
Tambogrande
Piura
Piura
Perú</description>
                <styleUrl>#1152</styleUrl>
                <Point id="1150">
                    <coordinates>-80.3410107,-4.9247925,0.0</coordinates>
                </Point>
            </Placemark>
            <Placemark id="1156">
                <name>ROY GERARDO FLORES GASTELU</name>
                <description>Mercado de Tambogrande
Tambogrande

Piura
Perú</description>
                <styleUrl>#1157</styleUrl>
                <Point id="1155">
                    <coordinates>-80.3410998,-4.9241141,0.0</coordinates>
                </Point>
            </Placemark>
            <Placemark id="1161">
                <name>ANGELITA DEL PILAR SILUPU VILLEGAS</name>
                <description>Mercado Central puesto 82
Tambogrande
Piura
Piura
Perú</description>
                <styleUrl>#1162</styleUrl>
                <Point id="1160">
                    <coordinates>-80.3409305,-4.924254,0.0</coordinates>
                </Point>
            </Placemark>
            <Placemark id="1166">
                <name>SANTIAGO SARANGO CORDOVA</name>
                <description>MRCDO 39 TAMBO GRANDE-PIURA
Tambogrande
Piura
Piura
Perú</description>
                <styleUrl>#1167</styleUrl>
                <Point id="1165">
                    <coordinates>-80.3409273,-4.9247182,0.0</coordinates>
                </Point>
            </Placemark>
            <Placemark id="1171">
                <name>SEGUNDO NATIVIDAD JUAREZ CRISANTO</name>
                <description>Mercado central PTO 34 TAMBOGRANDE
Tambogrande
Piura
Piura
Perú</description>
                <styleUrl>#1172</styleUrl>
                <Point id="1170">
                    <coordinates>-80.3403464,-4.9249625,0.0</coordinates>
                </Point>
            </Placemark>
            <Placemark id="1176">
                <name>JOSE CRISANTO JUAREZ</name>
                <description>Mercado central puesto 5
Tambogrande
Piura
Piura
Perú</description>
                <styleUrl>#1177</styleUrl>
                <Point id="1175">
                    <coordinates>-80.3401014,-4.9251004,0.0</coordinates>
                </Point>
            </Placemark>
            <Placemark id="1181">
                <name>SMART ELITE E.I.R.L.</name>
                <description>CAL.LOS FRESNOS NRO. SN PUEBLO TAMBOGRANDE
Tambogrande

Piura
Perú</description>
                <styleUrl>#1182</styleUrl>
                <Point id="1180">
                    <coordinates>-80.3456633,-4.935716,0.0</coordinates>
                </Point>
            </Placemark>
        </Folder>
    </Document>
</kml>
