<?xml version="1.0" encoding="UTF-8"?>
<kml xmlns="http://www.opengis.net/kml/2.2" xmlns:gx="http://www.google.com/kml/ext/2.2">
    <Document id="390">
        <Folder id="391">
            <Style id="394">
                <IconStyle id="395">
                    <color>ff0000ff</color>
                    <colorMode>normal</colorMode>
                    <scale>1</scale>
                    <heading>0</heading>
                    <Icon id="396">
                        <href>http://maps.google.com/mapfiles/kml/pushpin/ylw-pushpin.png</href>
                    </Icon>
                </IconStyle>
            </Style>
            <Style id="399">
                <IconStyle id="400">
                    <color>ff0000ff</color>
                    <colorMode>normal</colorMode>
                    <scale>1</scale>
                    <heading>0</heading>
                    <Icon id="401">
                        <href>http://maps.google.com/mapfiles/kml/pushpin/ylw-pushpin.png</href>
                    </Icon>
                </IconStyle>
            </Style>
            <Style id="404">
                <IconStyle id="405">
                    <color>ff0000ff</color>
                    <colorMode>normal</colorMode>
                    <scale>1</scale>
                    <heading>0</heading>
                    <Icon id="406">
                        <href>http://maps.google.com/mapfiles/kml/pushpin/ylw-pushpin.png</href>
                    </Icon>
                </IconStyle>
            </Style>
            <Style id="409">
                <IconStyle id="410">
                    <color>ff0000ff</color>
                    <colorMode>normal</colorMode>
                    <scale>1</scale>
                    <heading>0</heading>
                    <Icon id="411">
                        <href>http://maps.google.com/mapfiles/kml/pushpin/ylw-pushpin.png</href>
                    </Icon>
                </IconStyle>
            </Style>
            <Style id="414">
                <IconStyle id="415">
                    <color>ff0000ff</color>
                    <colorMode>normal</colorMode>
                    <scale>1</scale>
                    <heading>0</heading>
                    <Icon id="416">
                        <href>http://maps.google.com/mapfiles/kml/pushpin/ylw-pushpin.png</href>
                    </Icon>
                </IconStyle>
            </Style>
            <Style id="419">
                <IconStyle id="420">
                    <color>ff0000ff</color>
                    <colorMode>normal</colorMode>
                    <scale>1</scale>
                    <heading>0</heading>
                    <Icon id="421">
                        <href>http://maps.google.com/mapfiles/kml/pushpin/ylw-pushpin.png</href>
                    </Icon>
                </IconStyle>
            </Style>
            <Style id="424">
                <IconStyle id="425">
                    <color>ff0000ff</color>
                    <colorMode>normal</colorMode>
                    <scale>1</scale>
                    <heading>0</heading>
                    <Icon id="426">
                        <href>http://maps.google.com/mapfiles/kml/pushpin/ylw-pushpin.png</href>
                    </Icon>
                </IconStyle>
            </Style>
            <Style id="429">
                <IconStyle id="430">
                    <color>ff0000ff</color>
                    <colorMode>normal</colorMode>
                    <scale>1</scale>
                    <heading>0</heading>
                    <Icon id="431">
                        <href>http://maps.google.com/mapfiles/kml/pushpin/ylw-pushpin.png</href>
                    </Icon>
                </IconStyle>
            </Style>
            <Style id="434">
                <IconStyle id="435">
                    <color>ff0000ff</color>
                    <colorMode>normal</colorMode>
                    <scale>1</scale>
                    <heading>0</heading>
                    <Icon id="436">
                        <href>http://maps.google.com/mapfiles/kml/pushpin/ylw-pushpin.png</href>
                    </Icon>
                </IconStyle>
            </Style>
            <Style id="439">
                <IconStyle id="440">
                    <color>ff0000ff</color>
                    <colorMode>normal</colorMode>
                    <scale>1</scale>
                    <heading>0</heading>
                    <Icon id="441">
                        <href>http://maps.google.com/mapfiles/kml/pushpin/ylw-pushpin.png</href>
                    </Icon>
                </IconStyle>
            </Style>
            <Style id="444">
                <IconStyle id="445">
                    <color>ff0000ff</color>
                    <colorMode>normal</colorMode>
                    <scale>1</scale>
                    <heading>0</heading>
                    <Icon id="446">
                        <href>http://maps.google.com/mapfiles/kml/pushpin/ylw-pushpin.png</href>
                    </Icon>
                </IconStyle>
            </Style>
            <Style id="449">
                <IconStyle id="450">
                    <color>ff0000ff</color>
                    <colorMode>normal</colorMode>
                    <scale>1</scale>
                    <heading>0</heading>
                    <Icon id="451">
                        <href>http://maps.google.com/mapfiles/kml/pushpin/ylw-pushpin.png</href>
                    </Icon>
                </IconStyle>
            </Style>
            <Style id="454">
                <IconStyle id="455">
                    <color>ff0000ff</color>
                    <colorMode>normal</colorMode>
                    <scale>1</scale>
                    <heading>0</heading>
                    <Icon id="456">
                        <href>http://maps.google.com/mapfiles/kml/pushpin/ylw-pushpin.png</href>
                    </Icon>
                </IconStyle>
            </Style>
            <Style id="459">
                <IconStyle id="460">
                    <color>ff0000ff</color>
                    <colorMode>normal</colorMode>
                    <scale>1</scale>
                    <heading>0</heading>
                    <Icon id="461">
                        <href>http://maps.google.com/mapfiles/kml/pushpin/ylw-pushpin.png</href>
                    </Icon>
                </IconStyle>
            </Style>
            <Style id="464">
                <IconStyle id="465">
                    <color>ff0000ff</color>
                    <colorMode>normal</colorMode>
                    <scale>1</scale>
                    <heading>0</heading>
                    <Icon id="466">
                        <href>http://maps.google.com/mapfiles/kml/pushpin/ylw-pushpin.png</href>
                    </Icon>
                </IconStyle>
            </Style>
            <Style id="469">
                <IconStyle id="470">
                    <color>ff0000ff</color>
                    <colorMode>normal</colorMode>
                    <scale>1</scale>
                    <heading>0</heading>
                    <Icon id="471">
                        <href>http://maps.google.com/mapfiles/kml/pushpin/ylw-pushpin.png</href>
                    </Icon>
                </IconStyle>
            </Style>
            <Style id="474">
                <IconStyle id="475">
                    <color>ff0000ff</color>
                    <colorMode>normal</colorMode>
                    <scale>1</scale>
                    <heading>0</heading>
                    <Icon id="476">
                        <href>http://maps.google.com/mapfiles/kml/pushpin/ylw-pushpin.png</href>
                    </Icon>
                </IconStyle>
            </Style>
            <Style id="479">
                <IconStyle id="480">
                    <color>ff0000ff</color>
                    <colorMode>normal</colorMode>
                    <scale>1</scale>
                    <heading>0</heading>
                    <Icon id="481">
                        <href>http://maps.google.com/mapfiles/kml/pushpin/ylw-pushpin.png</href>
                    </Icon>
                </IconStyle>
            </Style>
            <Style id="484">
                <IconStyle id="485">
                    <color>ff0000ff</color>
                    <colorMode>normal</colorMode>
                    <scale>1</scale>
                    <heading>0</heading>
                    <Icon id="486">
                        <href>http://maps.google.com/mapfiles/kml/pushpin/ylw-pushpin.png</href>
                    </Icon>
                </IconStyle>
            </Style>
            <Style id="489">
                <IconStyle id="490">
                    <color>ff0000ff</color>
                    <colorMode>normal</colorMode>
                    <scale>1</scale>
                    <heading>0</heading>
                    <Icon id="491">
                        <href>http://maps.google.com/mapfiles/kml/pushpin/ylw-pushpin.png</href>
                    </Icon>
                </IconStyle>
            </Style>
            <Style id="494">
                <IconStyle id="495">
                    <color>ff0000ff</color>
                    <colorMode>normal</colorMode>
                    <scale>1</scale>
                    <heading>0</heading>
                    <Icon id="496">
                        <href>http://maps.google.com/mapfiles/kml/pushpin/ylw-pushpin.png</href>
                    </Icon>
                </IconStyle>
            </Style>
            <Style id="499">
                <IconStyle id="500">
                    <color>ff0000ff</color>
                    <colorMode>normal</colorMode>
                    <scale>1</scale>
                    <heading>0</heading>
                    <Icon id="501">
                        <href>http://maps.google.com/mapfiles/kml/pushpin/ylw-pushpin.png</href>
                    </Icon>
                </IconStyle>
            </Style>
            <Style id="504">
                <IconStyle id="505">
                    <color>ff0000ff</color>
                    <colorMode>normal</colorMode>
                    <scale>1</scale>
                    <heading>0</heading>
                    <Icon id="506">
                        <href>http://maps.google.com/mapfiles/kml/pushpin/ylw-pushpin.png</href>
                    </Icon>
                </IconStyle>
            </Style>
            <Style id="509">
                <IconStyle id="510">
                    <color>ff0000ff</color>
                    <colorMode>normal</colorMode>
                    <scale>1</scale>
                    <heading>0</heading>
                    <Icon id="511">
                        <href>http://maps.google.com/mapfiles/kml/pushpin/ylw-pushpin.png</href>
                    </Icon>
                </IconStyle>
            </Style>
            <Style id="514">
                <IconStyle id="515">
                    <color>ff0000ff</color>
                    <colorMode>normal</colorMode>
                    <scale>1</scale>
                    <heading>0</heading>
                    <Icon id="516">
                        <href>http://maps.google.com/mapfiles/kml/pushpin/ylw-pushpin.png</href>
                    </Icon>
                </IconStyle>
            </Style>
            <Style id="519">
                <IconStyle id="520">
                    <color>ff0000ff</color>
                    <colorMode>normal</colorMode>
                    <scale>1</scale>
                    <heading>0</heading>
                    <Icon id="521">
                        <href>http://maps.google.com/mapfiles/kml/pushpin/ylw-pushpin.png</href>
                    </Icon>
                </IconStyle>
            </Style>
            <Style id="524">
                <IconStyle id="525">
                    <color>ff0000ff</color>
                    <colorMode>normal</colorMode>
                    <scale>1</scale>
                    <heading>0</heading>
                    <Icon id="526">
                        <href>http://maps.google.com/mapfiles/kml/pushpin/ylw-pushpin.png</href>
                    </Icon>
                </IconStyle>
            </Style>
            <Style id="529">
                <IconStyle id="530">
                    <color>ff0000ff</color>
                    <colorMode>normal</colorMode>
                    <scale>1</scale>
                    <heading>0</heading>
                    <Icon id="531">
                        <href>http://maps.google.com/mapfiles/kml/pushpin/ylw-pushpin.png</href>
                    </Icon>
                </IconStyle>
            </Style>
            <Style id="534">
                <IconStyle id="535">
                    <color>ff0000ff</color>
                    <colorMode>normal</colorMode>
                    <scale>1</scale>
                    <heading>0</heading>
                    <Icon id="536">
                        <href>http://maps.google.com/mapfiles/kml/pushpin/ylw-pushpin.png</href>
                    </Icon>
                </IconStyle>
            </Style>
            <Style id="539">
                <IconStyle id="540">
                    <color>ff0000ff</color>
                    <colorMode>normal</colorMode>
                    <scale>1</scale>
                    <heading>0</heading>
                    <Icon id="541">
                        <href>http://maps.google.com/mapfiles/kml/pushpin/ylw-pushpin.png</href>
                    </Icon>
                </IconStyle>
            </Style>
            <Style id="544">
                <IconStyle id="545">
                    <color>ff0000ff</color>
                    <colorMode>normal</colorMode>
                    <scale>1</scale>
                    <heading>0</heading>
                    <Icon id="546">
                        <href>http://maps.google.com/mapfiles/kml/pushpin/ylw-pushpin.png</href>
                    </Icon>
                </IconStyle>
            </Style>
            <Style id="549">
                <IconStyle id="550">
                    <color>ff0000ff</color>
                    <colorMode>normal</colorMode>
                    <scale>1</scale>
                    <heading>0</heading>
                    <Icon id="551">
                        <href>http://maps.google.com/mapfiles/kml/pushpin/ylw-pushpin.png</href>
                    </Icon>
                </IconStyle>
            </Style>
            <Style id="554">
                <IconStyle id="555">
                    <color>ff0000ff</color>
                    <colorMode>normal</colorMode>
                    <scale>1</scale>
                    <heading>0</heading>
                    <Icon id="556">
                        <href>http://maps.google.com/mapfiles/kml/pushpin/ylw-pushpin.png</href>
                    </Icon>
                </IconStyle>
            </Style>
            <Style id="559">
                <IconStyle id="560">
                    <color>ff0000ff</color>
                    <colorMode>normal</colorMode>
                    <scale>1</scale>
                    <heading>0</heading>
                    <Icon id="561">
                        <href>http://maps.google.com/mapfiles/kml/pushpin/ylw-pushpin.png</href>
                    </Icon>
                </IconStyle>
            </Style>
            <name>EDDINSON CECILIO DIOSES SAAVEDRA</name>
            <Placemark id="393">
                <name>VICTOR ADAN CORDOVA LOPEZ</name>
                <description>Mercado
Catacaos
Piura
Piura
Perú</description>
                <styleUrl>#394</styleUrl>
                <Point id="392">
                    <coordinates>-80.6777052,-5.2660952,0.0</coordinates>
                </Point>
            </Placemark>
            <Placemark id="398">
                <name>INOÑAN DE LA CRUZ JHAMIRA BERSAVE</name>
                <description>Mercado sechura
Sechura

Piura
Perú</description>
                <styleUrl>#399</styleUrl>
                <Point id="397">
                    <coordinates>-80.8219715,-5.5533813,0.0</coordinates>
                </Point>
            </Placemark>
            <Placemark id="403">
                <name>MANUEL SERGIO COBEÑAS SILVA</name>
                <description>Mercado
Catacaos
Piura
Piura
Perú</description>
                <styleUrl>#404</styleUrl>
                <Point id="402">
                    <coordinates>-80.6779816,-5.2649081,0.0</coordinates>
                </Point>
            </Placemark>
            <Placemark id="408">
                <name>JULIO CESAR COBEÑAS YARLEQUE</name>
                <description>Mercado
Catacaos
Piura
Piura
Perú</description>
                <styleUrl>#409</styleUrl>
                <Point id="407">
                    <coordinates>-80.677321,-5.2657055,0.0</coordinates>
                </Point>
            </Placemark>
            <Placemark id="413">
                <name>MILAGROS DE JESUS LALUPU CHULLE</name>
                <description>PASAJE 21 DE JULIO PUESTO 29 MERCADO LA UNION
La Unión
Piura
Piura
Perú</description>
                <styleUrl>#414</styleUrl>
                <Point id="412">
                    <coordinates>-80.7419755,-5.4005396,0.0</coordinates>
                </Point>
            </Placemark>
            <Placemark id="418">
                <name>NARCIZA DE JESUS SERNAQUE SERNAQUE</name>
                <description>PSTO 29 MERCADO DE LA UNION-PIURA
La Unión
Piura
Piura
Perú</description>
                <styleUrl>#419</styleUrl>
                <Point id="417">
                    <coordinates>-80.7419391,-5.4005289,0.0</coordinates>
                </Point>
            </Placemark>
            <Placemark id="423">
                <name>MANUEL SERGIO COBEÑAS SILVA</name>
                <description>Mercado
Catacaos
Piura
Piura
Perú</description>
                <styleUrl>#424</styleUrl>
                <Point id="422">
                    <coordinates>-80.6779816,-5.2649081,0.0</coordinates>
                </Point>
            </Placemark>
            <Placemark id="428">
                <name>ELADIO BLAS SEMINARIO TRELLES</name>
                <description>
Catacaos
Piura
Piura
Perú</description>
                <styleUrl>#429</styleUrl>
                <Point id="427">
                    <coordinates>-80.6776298,-5.2657236,0.0</coordinates>
                </Point>
            </Placemark>
            <Placemark id="433">
                <name>JULIO CESAR COBEÑAS YARLEQUE</name>
                <description>Mercado
Catacaos
Piura
Piura
Perú</description>
                <styleUrl>#434</styleUrl>
                <Point id="432">
                    <coordinates>-80.677321,-5.2657055,0.0</coordinates>
                </Point>
            </Placemark>
            <Placemark id="438">
                <name>MOISES ISAIAS AREVALO ANCAJIMA</name>
                <description>Mercado sechura
Sechura
Sechura
Piura
Perú</description>
                <styleUrl>#439</styleUrl>
                <Point id="437">
                    <coordinates>-80.8218516,-5.5533228,0.0</coordinates>
                </Point>
            </Placemark>
            <Placemark id="443">
                <name>MILAGROS DE JESUS LALUPU CHULLE</name>
                <description>PASAJE 21 DE JULIO PUESTO 29 MERCADO LA UNION
La Unión
Piura
Piura
Perú</description>
                <styleUrl>#444</styleUrl>
                <Point id="442">
                    <coordinates>-80.7419755,-5.4005396,0.0</coordinates>
                </Point>
            </Placemark>
            <Placemark id="448">
                <name>RODAIL SAAVEDRA CORDOVA</name>
                <description>PUESTO 78 MERCADO LA UNION-PIURA
La Unión
Piura
Piura
Perú</description>
                <styleUrl>#449</styleUrl>
                <Point id="447">
                    <coordinates>-80.7414412,-5.4006935,0.0</coordinates>
                </Point>
            </Placemark>
            <Placemark id="453">
                <name>PEDRO CESAR VITE ANCAJIMA</name>
                <description>Mercado
La Unión
Piura
Piura
Perú</description>
                <styleUrl>#454</styleUrl>
                <Point id="452">
                    <coordinates>-80.7409806,-5.400291,0.0</coordinates>
                </Point>
            </Placemark>
            <Placemark id="458">
                <name>MARCO ANTONIO MORANTE GALAN</name>
                <description>
La Unión
Piura
Piura
Perú</description>
                <styleUrl>#459</styleUrl>
                <Point id="457">
                    <coordinates>-80.7410332,-5.4009087,0.0</coordinates>
                </Point>
            </Placemark>
            <Placemark id="463">
                <name>MILTON MARTINEZ SERNAQUE</name>
                <description>Lambayeque 724
La Unión
Piura
Piura
Perú</description>
                <styleUrl>#464</styleUrl>
                <Point id="462">
                    <coordinates>-80.7410202,-5.4009714,0.0</coordinates>
                </Point>
            </Placemark>
            <Placemark id="468">
                <name>SARITA SANTOS ROJAS</name>
                <description>MCDO SAN JOSE - PSTO 47 - LA UNION
La Unión
Piura
Piura
Perú</description>
                <styleUrl>#469</styleUrl>
                <Point id="467">
                    <coordinates>-80.7412303,-5.4009521,0.0</coordinates>
                </Point>
            </Placemark>
            <Placemark id="473">
                <name>NARCIZA DE JESUS SERNAQUE SERNAQUE</name>
                <description>PSTO 29 MERCADO DE LA UNION-PIURA
La Unión
Piura
Piura
Perú</description>
                <styleUrl>#474</styleUrl>
                <Point id="472">
                    <coordinates>-80.7419391,-5.4005289,0.0</coordinates>
                </Point>
            </Placemark>
            <Placemark id="478">
                <name>ANTONIA CLODOMIRA HERNANDEZ SILUPU</name>
                <description>PASAJE 21 DE JULIO PTO 24
La Unión
Piura
Piura
Perú</description>
                <styleUrl>#479</styleUrl>
                <Point id="477">
                    <coordinates>-80.7419561,-5.4005313,0.0</coordinates>
                </Point>
            </Placemark>
            <Placemark id="483">
                <name>SUPER LUNA S.R.L.</name>
                <description>SUPER LUNA S.R.L.
CAL.JUAN VELASCO ALVARADO NRO. 225 LA UNION-PIURA
La Unión
Piura
Piura
Perú</description>
                <styleUrl>#484</styleUrl>
                <Point id="482">
                    <coordinates>-80.7411092,-5.3966135,0.0</coordinates>
                </Point>
            </Placemark>
            <Placemark id="488">
                <name>MOISES ISAIAS AREVALO ANCAJIMA</name>
                <description>Mercado sechura
Sechura
Sechura
Piura
Perú</description>
                <styleUrl>#489</styleUrl>
                <Point id="487">
                    <coordinates>-80.8218516,-5.5533228,0.0</coordinates>
                </Point>
            </Placemark>
            <Placemark id="493">
                <name>SEGUNDO ANTERO SIESQUEN BALDERA</name>
                <description>INT. MCDO SECHURA-PIURA
Sechura
Sechura
Piura
Perú</description>
                <styleUrl>#494</styleUrl>
                <Point id="492">
                    <coordinates>-80.821973,-5.5533893,0.0</coordinates>
                </Point>
            </Placemark>
            <Placemark id="498">
                <name>MILTON LIMA CASTILLO</name>
                <description>Mercado Puesto 41
Sechura
Sechura
Piura
Perú</description>
                <styleUrl>#499</styleUrl>
                <Point id="497">
                    <coordinates>-80.822345,-5.5537944,0.0</coordinates>
                </Point>
            </Placemark>
            <Placemark id="503">
                <name>PEDRO MONTALVAN CORDOVA</name>
                <description>San Martín 1ra cuadra MERCADO
Sechura
Sechura
Piura
Perú</description>
                <styleUrl>#504</styleUrl>
                <Point id="502">
                    <coordinates>-80.8223733,-5.5537383,0.0</coordinates>
                </Point>
            </Placemark>
            <Placemark id="508">
                <name>SUPER LUNA S.R.L.</name>
                <description>SUPER LUNA S.R.L.
CAL.JUAN VELASCO ALVARADO NRO. 225 LA UNION-PIURA
La Unión
Piura
Piura
Perú</description>
                <styleUrl>#509</styleUrl>
                <Point id="507">
                    <coordinates>-80.7411092,-5.3966135,0.0</coordinates>
                </Point>
            </Placemark>
            <Placemark id="513">
                <name>AURELIA CORDOVA CORDOVA</name>
                <description>Mercado anexo Puesto 12
Sechura
Sechura
Piura
Perú</description>
                <styleUrl>#514</styleUrl>
                <Point id="512">
                    <coordinates>-80.8218255,-5.554183,0.0</coordinates>
                </Point>
            </Placemark>
            <Placemark id="518">
                <name>JOSE JEANKERLY YARLEQUE ROSAS</name>
                <description>CALLE CESAR PINGLO S/N REF MINIMARKET
Sechura
Sechura
Piura
Perú</description>
                <styleUrl>#519</styleUrl>
                <Point id="517">
                    <coordinates>-80.8217978,-5.5536787,0.0</coordinates>
                </Point>
            </Placemark>
            <Placemark id="523">
                <name>MOISES ISAIAS AREVALO ANCAJIMA</name>
                <description>Mercado sechura
Sechura
Sechura
Piura
Perú</description>
                <styleUrl>#524</styleUrl>
                <Point id="522">
                    <coordinates>-80.8218516,-5.5533228,0.0</coordinates>
                </Point>
            </Placemark>
            <Placemark id="528">
                <name>EDGARD JOHAN SUCLUPE SIESQUEN</name>
                <description>INT. MERCADO SECHURA-SECHURA
Sechura
Sechura
Piura
Perú</description>
                <styleUrl>#529</styleUrl>
                <Point id="527">
                    <coordinates>-80.8223337,-5.5536946,0.0</coordinates>
                </Point>
            </Placemark>
            <Placemark id="533">
                <name>INOÑAN DE LA CRUZ JHAMIRA BERSAVE</name>
                <description>Mercado sechura
Sechura

Piura
Perú</description>
                <styleUrl>#534</styleUrl>
                <Point id="532">
                    <coordinates>-80.8219715,-5.5533813,0.0</coordinates>
                </Point>
            </Placemark>
            <Placemark id="538">
                <name>SEGUNDO ANTERO SIESQUEN BALDERA</name>
                <description>INT. MCDO SECHURA-PIURA
Sechura
Sechura
Piura
Perú</description>
                <styleUrl>#539</styleUrl>
                <Point id="537">
                    <coordinates>-80.821973,-5.5533893,0.0</coordinates>
                </Point>
            </Placemark>
            <Placemark id="543">
                <name>MANUELA MORALES CRUZ</name>
                <description>PUESTO 33 MERCADO SECHURA PLATAFORMA 2
Sechura
Sechura
Piura
Perú</description>
                <styleUrl>#544</styleUrl>
                <Point id="542">
                    <coordinates>-80.8222847,-5.5537737,0.0</coordinates>
                </Point>
            </Placemark>
            <Placemark id="548">
                <name>MILTON LIMA CASTILLO</name>
                <description>Mercado Puesto 41
Sechura
Sechura
Piura
Perú</description>
                <styleUrl>#549</styleUrl>
                <Point id="547">
                    <coordinates>-80.822345,-5.5537944,0.0</coordinates>
                </Point>
            </Placemark>
            <Placemark id="553">
                <name>COSTANCIA PURIZACA DE OLIVAREZ</name>
                <description>CALLE SAN MARTÍN 112
Sechura
Sechura
Piura
Perú</description>
                <styleUrl>#554</styleUrl>
                <Point id="552">
                    <coordinates>-80.8224837,-5.553913,0.0</coordinates>
                </Point>
            </Placemark>
            <Placemark id="558">
                <name>PEDRO MONTALVAN CORDOVA</name>
                <description>San Martín 1ra cuadra MERCADO
Sechura
Sechura
Piura
Perú</description>
                <styleUrl>#559</styleUrl>
                <Point id="557">
                    <coordinates>-80.8223733,-5.5537383,0.0</coordinates>
                </Point>
            </Placemark>
        </Folder>
    </Document>
</kml>
