<?xml version="1.0" encoding="UTF-8"?>
<kml xmlns="http://www.opengis.net/kml/2.2" xmlns:gx="http://www.google.com/kml/ext/2.2">
    <Document id="938">
        <Folder id="939">
            <Style id="942">
                <IconStyle id="943">
                    <color>ff0000ff</color>
                    <colorMode>normal</colorMode>
                    <scale>1</scale>
                    <heading>0</heading>
                    <Icon id="944">
                        <href>http://maps.google.com/mapfiles/kml/pushpin/ylw-pushpin.png</href>
                    </Icon>
                </IconStyle>
            </Style>
            <Style id="947">
                <IconStyle id="948">
                    <color>ff0000ff</color>
                    <colorMode>normal</colorMode>
                    <scale>1</scale>
                    <heading>0</heading>
                    <Icon id="949">
                        <href>http://maps.google.com/mapfiles/kml/pushpin/ylw-pushpin.png</href>
                    </Icon>
                </IconStyle>
            </Style>
            <Style id="952">
                <IconStyle id="953">
                    <color>ff0000ff</color>
                    <colorMode>normal</colorMode>
                    <scale>1</scale>
                    <heading>0</heading>
                    <Icon id="954">
                        <href>http://maps.google.com/mapfiles/kml/pushpin/ylw-pushpin.png</href>
                    </Icon>
                </IconStyle>
            </Style>
            <Style id="957">
                <IconStyle id="958">
                    <color>ff0000ff</color>
                    <colorMode>normal</colorMode>
                    <scale>1</scale>
                    <heading>0</heading>
                    <Icon id="959">
                        <href>http://maps.google.com/mapfiles/kml/pushpin/ylw-pushpin.png</href>
                    </Icon>
                </IconStyle>
            </Style>
            <Style id="962">
                <IconStyle id="963">
                    <color>ff0000ff</color>
                    <colorMode>normal</colorMode>
                    <scale>1</scale>
                    <heading>0</heading>
                    <Icon id="964">
                        <href>http://maps.google.com/mapfiles/kml/pushpin/ylw-pushpin.png</href>
                    </Icon>
                </IconStyle>
            </Style>
            <Style id="967">
                <IconStyle id="968">
                    <color>ff0000ff</color>
                    <colorMode>normal</colorMode>
                    <scale>1</scale>
                    <heading>0</heading>
                    <Icon id="969">
                        <href>http://maps.google.com/mapfiles/kml/pushpin/ylw-pushpin.png</href>
                    </Icon>
                </IconStyle>
            </Style>
            <Style id="972">
                <IconStyle id="973">
                    <color>ff0000ff</color>
                    <colorMode>normal</colorMode>
                    <scale>1</scale>
                    <heading>0</heading>
                    <Icon id="974">
                        <href>http://maps.google.com/mapfiles/kml/pushpin/ylw-pushpin.png</href>
                    </Icon>
                </IconStyle>
            </Style>
            <Style id="977">
                <IconStyle id="978">
                    <color>ff0000ff</color>
                    <colorMode>normal</colorMode>
                    <scale>1</scale>
                    <heading>0</heading>
                    <Icon id="979">
                        <href>http://maps.google.com/mapfiles/kml/pushpin/ylw-pushpin.png</href>
                    </Icon>
                </IconStyle>
            </Style>
            <Style id="982">
                <IconStyle id="983">
                    <color>ff0000ff</color>
                    <colorMode>normal</colorMode>
                    <scale>1</scale>
                    <heading>0</heading>
                    <Icon id="984">
                        <href>http://maps.google.com/mapfiles/kml/pushpin/ylw-pushpin.png</href>
                    </Icon>
                </IconStyle>
            </Style>
            <Style id="987">
                <IconStyle id="988">
                    <color>ff0000ff</color>
                    <colorMode>normal</colorMode>
                    <scale>1</scale>
                    <heading>0</heading>
                    <Icon id="989">
                        <href>http://maps.google.com/mapfiles/kml/pushpin/ylw-pushpin.png</href>
                    </Icon>
                </IconStyle>
            </Style>
            <Style id="992">
                <IconStyle id="993">
                    <color>ff0000ff</color>
                    <colorMode>normal</colorMode>
                    <scale>1</scale>
                    <heading>0</heading>
                    <Icon id="994">
                        <href>http://maps.google.com/mapfiles/kml/pushpin/ylw-pushpin.png</href>
                    </Icon>
                </IconStyle>
            </Style>
            <Style id="997">
                <IconStyle id="998">
                    <color>ff0000ff</color>
                    <colorMode>normal</colorMode>
                    <scale>1</scale>
                    <heading>0</heading>
                    <Icon id="999">
                        <href>http://maps.google.com/mapfiles/kml/pushpin/ylw-pushpin.png</href>
                    </Icon>
                </IconStyle>
            </Style>
            <Style id="1002">
                <IconStyle id="1003">
                    <color>ff0000ff</color>
                    <colorMode>normal</colorMode>
                    <scale>1</scale>
                    <heading>0</heading>
                    <Icon id="1004">
                        <href>http://maps.google.com/mapfiles/kml/pushpin/ylw-pushpin.png</href>
                    </Icon>
                </IconStyle>
            </Style>
            <name>EDDINSON CECILIO DIOSES SAAVEDRA</name>
            <Placemark id="941">
                <name>MANUEL SERGIO COBEÑAS SILVA</name>
                <description>Mercado
Catacaos
Piura
Piura
Perú</description>
                <styleUrl>#942</styleUrl>
                <Point id="940">
                    <coordinates>-80.6779816,-5.2649081,0.0</coordinates>
                </Point>
            </Placemark>
            <Placemark id="946">
                <name>MANUEL SERGIO COBEÑAS SILVA</name>
                <description>Mercado
Catacaos
Piura
Piura
Perú</description>
                <styleUrl>#947</styleUrl>
                <Point id="945">
                    <coordinates>-80.6779816,-5.2649081,0.0</coordinates>
                </Point>
            </Placemark>
            <Placemark id="951">
                <name>VICTOR ADAN CORDOVA LOPEZ</name>
                <description>Mercado
Catacaos
Piura
Piura
Perú</description>
                <styleUrl>#952</styleUrl>
                <Point id="950">
                    <coordinates>-80.6777052,-5.2660952,0.0</coordinates>
                </Point>
            </Placemark>
            <Placemark id="956">
                <name>SUPER LUNA S.R.L.</name>
                <description>SUPER LUNA S.R.L.
CAL.JUAN VELASCO ALVARADO NRO. 225 LA UNION-PIURA
La Unión
Piura
Piura
Perú</description>
                <styleUrl>#957</styleUrl>
                <Point id="955">
                    <coordinates>-80.7411092,-5.3966135,0.0</coordinates>
                </Point>
            </Placemark>
            <Placemark id="961">
                <name>SUPER LUNA S.R.L.</name>
                <description>SUPER LUNA S.R.L.
CAL.JUAN VELASCO ALVARADO NRO. 225 LA UNION-PIURA
La Unión
Piura
Piura
Perú</description>
                <styleUrl>#962</styleUrl>
                <Point id="960">
                    <coordinates>-80.7411092,-5.3966135,0.0</coordinates>
                </Point>
            </Placemark>
            <Placemark id="966">
                <name>SUPER LUNA S.R.L.</name>
                <description>SUPER LUNA S.R.L.
CAL.JUAN VELASCO ALVARADO NRO. 225 LA UNION-PIURA
La Unión
Piura
Piura
Perú</description>
                <styleUrl>#967</styleUrl>
                <Point id="965">
                    <coordinates>-80.7411092,-5.3966135,0.0</coordinates>
                </Point>
            </Placemark>
            <Placemark id="971">
                <name>NARCIZA DE JESUS SERNAQUE SERNAQUE</name>
                <description>PSTO 29 MERCADO DE LA UNION-PIURA
La Unión
Piura
Piura
Perú</description>
                <styleUrl>#972</styleUrl>
                <Point id="970">
                    <coordinates>-80.7419391,-5.4005289,0.0</coordinates>
                </Point>
            </Placemark>
            <Placemark id="976">
                <name>ANTONIA CLODOMIRA HERNANDEZ SILUPU</name>
                <description>PASAJE 21 DE JULIO PTO 24
La Unión
Piura
Piura
Perú</description>
                <styleUrl>#977</styleUrl>
                <Point id="975">
                    <coordinates>-80.7419561,-5.4005313,0.0</coordinates>
                </Point>
            </Placemark>
            <Placemark id="981">
                <name>MARIA CONSUELO PAZO AMAYA</name>
                <description>Pasaje 21 de Julio puesto 6 Mercado
La Unión

Piura
Perú</description>
                <styleUrl>#982</styleUrl>
                <Point id="980">
                    <coordinates>-80.7415357,-5.4005784,0.0</coordinates>
                </Point>
            </Placemark>
            <Placemark id="986">
                <name>RODAIL SAAVEDRA CORDOVA</name>
                <description>PUESTO 78 MERCADO LA UNION-PIURA
La Unión
Piura
Piura
Perú</description>
                <styleUrl>#987</styleUrl>
                <Point id="985">
                    <coordinates>-80.7414412,-5.4006935,0.0</coordinates>
                </Point>
            </Placemark>
            <Placemark id="991">
                <name>PEDRO CESAR VITE ANCAJIMA</name>
                <description>Mercado
La Unión
Piura
Piura
Perú</description>
                <styleUrl>#992</styleUrl>
                <Point id="990">
                    <coordinates>-80.7409806,-5.400291,0.0</coordinates>
                </Point>
            </Placemark>
            <Placemark id="996">
                <name>MARCO ANTONIO MORANTE GALAN</name>
                <description>
La Unión
Piura
Piura
Perú</description>
                <styleUrl>#997</styleUrl>
                <Point id="995">
                    <coordinates>-80.7410332,-5.4009087,0.0</coordinates>
                </Point>
            </Placemark>
            <Placemark id="1001">
                <name>SARITA SANTOS ROJAS</name>
                <description>MCDO SAN JOSE - PSTO 47 - LA UNION
La Unión
Piura
Piura
Perú</description>
                <styleUrl>#1002</styleUrl>
                <Point id="1000">
                    <coordinates>-80.7412303,-5.4009521,0.0</coordinates>
                </Point>
            </Placemark>
        </Folder>
    </Document>
</kml>
