<?xml version="1.0" encoding="UTF-8"?>
<kml xmlns="http://www.opengis.net/kml/2.2" xmlns:gx="http://www.google.com/kml/ext/2.2">
    <Document id="1148">
        <Folder id="1149">
            <Style id="1152">
                <IconStyle id="1153">
                    <color>ff0000ff</color>
                    <colorMode>normal</colorMode>
                    <scale>1</scale>
                    <heading>0</heading>
                    <Icon id="1154">
                        <href>http://maps.google.com/mapfiles/kml/pushpin/ylw-pushpin.png</href>
                    </Icon>
                </IconStyle>
            </Style>
            <Style id="1157">
                <IconStyle id="1158">
                    <color>ff0000ff</color>
                    <colorMode>normal</colorMode>
                    <scale>1</scale>
                    <heading>0</heading>
                    <Icon id="1159">
                        <href>http://maps.google.com/mapfiles/kml/pushpin/ylw-pushpin.png</href>
                    </Icon>
                </IconStyle>
            </Style>
            <Style id="1162">
                <IconStyle id="1163">
                    <color>ff0000ff</color>
                    <colorMode>normal</colorMode>
                    <scale>1</scale>
                    <heading>0</heading>
                    <Icon id="1164">
                        <href>http://maps.google.com/mapfiles/kml/pushpin/ylw-pushpin.png</href>
                    </Icon>
                </IconStyle>
            </Style>
            <Style id="1167">
                <IconStyle id="1168">
                    <color>ff0000ff</color>
                    <colorMode>normal</colorMode>
                    <scale>1</scale>
                    <heading>0</heading>
                    <Icon id="1169">
                        <href>http://maps.google.com/mapfiles/kml/pushpin/ylw-pushpin.png</href>
                    </Icon>
                </IconStyle>
            </Style>
            <Style id="1172">
                <IconStyle id="1173">
                    <color>ff0000ff</color>
                    <colorMode>normal</colorMode>
                    <scale>1</scale>
                    <heading>0</heading>
                    <Icon id="1174">
                        <href>http://maps.google.com/mapfiles/kml/pushpin/ylw-pushpin.png</href>
                    </Icon>
                </IconStyle>
            </Style>
            <Style id="1177">
                <IconStyle id="1178">
                    <color>ff0000ff</color>
                    <colorMode>normal</colorMode>
                    <scale>1</scale>
                    <heading>0</heading>
                    <Icon id="1179">
                        <href>http://maps.google.com/mapfiles/kml/pushpin/ylw-pushpin.png</href>
                    </Icon>
                </IconStyle>
            </Style>
            <Style id="1182">
                <IconStyle id="1183">
                    <color>ff0000ff</color>
                    <colorMode>normal</colorMode>
                    <scale>1</scale>
                    <heading>0</heading>
                    <Icon id="1184">
                        <href>http://maps.google.com/mapfiles/kml/pushpin/ylw-pushpin.png</href>
                    </Icon>
                </IconStyle>
            </Style>
            <Style id="1187">
                <IconStyle id="1188">
                    <color>ff0000ff</color>
                    <colorMode>normal</colorMode>
                    <scale>1</scale>
                    <heading>0</heading>
                    <Icon id="1189">
                        <href>http://maps.google.com/mapfiles/kml/pushpin/ylw-pushpin.png</href>
                    </Icon>
                </IconStyle>
            </Style>
            <Style id="1192">
                <IconStyle id="1193">
                    <color>ff0000ff</color>
                    <colorMode>normal</colorMode>
                    <scale>1</scale>
                    <heading>0</heading>
                    <Icon id="1194">
                        <href>http://maps.google.com/mapfiles/kml/pushpin/ylw-pushpin.png</href>
                    </Icon>
                </IconStyle>
            </Style>
            <name>EDDINSON CECILIO DIOSES SAAVEDRA</name>
            <Placemark id="1151">
                <name>MILAGROS DE JESUS LALUPU CHULLE</name>
                <description>PASAJE 21 DE JULIO PUESTO 29 MERCADO LA UNION
La Unión
Piura
Piura
Perú</description>
                <styleUrl>#1152</styleUrl>
                <Point id="1150">
                    <coordinates>-80.7419755,-5.4005396,0.0</coordinates>
                </Point>
            </Placemark>
            <Placemark id="1156">
                <name>SUPER LUNA S.R.L.</name>
                <description>SUPER LUNA S.R.L.
CAL.JUAN VELASCO ALVARADO NRO. 225 LA UNION-PIURA
La Unión
Piura
Piura
Perú</description>
                <styleUrl>#1157</styleUrl>
                <Point id="1155">
                    <coordinates>-80.7411092,-5.3966135,0.0</coordinates>
                </Point>
            </Placemark>
            <Placemark id="1161">
                <name>MILAGROS DE JESUS LALUPU CHULLE</name>
                <description>PASAJE 21 DE JULIO PUESTO 29 MERCADO LA UNION
La Unión
Piura
Piura
Perú</description>
                <styleUrl>#1162</styleUrl>
                <Point id="1160">
                    <coordinates>-80.7419755,-5.4005396,0.0</coordinates>
                </Point>
            </Placemark>
            <Placemark id="1166">
                <name>SUPER LUNA S.R.L.</name>
                <description>SUPER LUNA S.R.L.
CAL.JUAN VELASCO ALVARADO NRO. 225 LA UNION-PIURA
La Unión
Piura
Piura
Perú</description>
                <styleUrl>#1167</styleUrl>
                <Point id="1165">
                    <coordinates>-80.7411092,-5.3966135,0.0</coordinates>
                </Point>
            </Placemark>
            <Placemark id="1171">
                <name>SARITA SANTOS ROJAS</name>
                <description>MCDO SAN JOSE - PSTO 47 - LA UNION
La Unión
Piura
Piura
Perú</description>
                <styleUrl>#1172</styleUrl>
                <Point id="1170">
                    <coordinates>-80.7412303,-5.4009521,0.0</coordinates>
                </Point>
            </Placemark>
            <Placemark id="1176">
                <name>RODAIL SAAVEDRA CORDOVA</name>
                <description>PUESTO 78 MERCADO LA UNION-PIURA
La Unión
Piura
Piura
Perú</description>
                <styleUrl>#1177</styleUrl>
                <Point id="1175">
                    <coordinates>-80.7414412,-5.4006935,0.0</coordinates>
                </Point>
            </Placemark>
            <Placemark id="1181">
                <name>MARCO ANTONIO MORANTE GALAN</name>
                <description>
La Unión
Piura
Piura
Perú</description>
                <styleUrl>#1182</styleUrl>
                <Point id="1180">
                    <coordinates>-80.7410332,-5.4009087,0.0</coordinates>
                </Point>
            </Placemark>
            <Placemark id="1186">
                <name>PEDRO CESAR VITE ANCAJIMA</name>
                <description>Mercado
La Unión
Piura
Piura
Perú</description>
                <styleUrl>#1187</styleUrl>
                <Point id="1185">
                    <coordinates>-80.7409806,-5.400291,0.0</coordinates>
                </Point>
            </Placemark>
            <Placemark id="1191">
                <name>SANDRA PAOLA PINILLOS RUIZ</name>
                <description>CA SUCRE 676 SECHURA CENTRO
Sechura
Sechura
Piura
Perú</description>
                <styleUrl>#1192</styleUrl>
                <Point id="1190">
                    <coordinates>-80.8242358,-5.5586069,0.0</coordinates>
                </Point>
            </Placemark>
        </Folder>
    </Document>
</kml>
