<?xml version="1.0" encoding="UTF-8"?>
<kml xmlns="http://www.opengis.net/kml/2.2" xmlns:gx="http://www.google.com/kml/ext/2.2">
    <Document id="1113">
        <Folder id="1114">
            <Style id="1117">
                <IconStyle id="1118">
                    <color>ff0000ff</color>
                    <colorMode>normal</colorMode>
                    <scale>1</scale>
                    <heading>0</heading>
                    <Icon id="1119">
                        <href>http://maps.google.com/mapfiles/kml/pushpin/ylw-pushpin.png</href>
                    </Icon>
                </IconStyle>
            </Style>
            <Style id="1122">
                <IconStyle id="1123">
                    <color>ff0000ff</color>
                    <colorMode>normal</colorMode>
                    <scale>1</scale>
                    <heading>0</heading>
                    <Icon id="1124">
                        <href>http://maps.google.com/mapfiles/kml/pushpin/ylw-pushpin.png</href>
                    </Icon>
                </IconStyle>
            </Style>
            <Style id="1127">
                <IconStyle id="1128">
                    <color>ff0000ff</color>
                    <colorMode>normal</colorMode>
                    <scale>1</scale>
                    <heading>0</heading>
                    <Icon id="1129">
                        <href>http://maps.google.com/mapfiles/kml/pushpin/ylw-pushpin.png</href>
                    </Icon>
                </IconStyle>
            </Style>
            <Style id="1132">
                <IconStyle id="1133">
                    <color>ff0000ff</color>
                    <colorMode>normal</colorMode>
                    <scale>1</scale>
                    <heading>0</heading>
                    <Icon id="1134">
                        <href>http://maps.google.com/mapfiles/kml/pushpin/ylw-pushpin.png</href>
                    </Icon>
                </IconStyle>
            </Style>
            <Style id="1137">
                <IconStyle id="1138">
                    <color>ff0000ff</color>
                    <colorMode>normal</colorMode>
                    <scale>1</scale>
                    <heading>0</heading>
                    <Icon id="1139">
                        <href>http://maps.google.com/mapfiles/kml/pushpin/ylw-pushpin.png</href>
                    </Icon>
                </IconStyle>
            </Style>
            <Style id="1142">
                <IconStyle id="1143">
                    <color>ff0000ff</color>
                    <colorMode>normal</colorMode>
                    <scale>1</scale>
                    <heading>0</heading>
                    <Icon id="1144">
                        <href>http://maps.google.com/mapfiles/kml/pushpin/ylw-pushpin.png</href>
                    </Icon>
                </IconStyle>
            </Style>
            <Style id="1147">
                <IconStyle id="1148">
                    <color>ff0000ff</color>
                    <colorMode>normal</colorMode>
                    <scale>1</scale>
                    <heading>0</heading>
                    <Icon id="1149">
                        <href>http://maps.google.com/mapfiles/kml/pushpin/ylw-pushpin.png</href>
                    </Icon>
                </IconStyle>
            </Style>
            <Style id="1152">
                <IconStyle id="1153">
                    <color>ff0000ff</color>
                    <colorMode>normal</colorMode>
                    <scale>1</scale>
                    <heading>0</heading>
                    <Icon id="1154">
                        <href>http://maps.google.com/mapfiles/kml/pushpin/ylw-pushpin.png</href>
                    </Icon>
                </IconStyle>
            </Style>
            <Style id="1157">
                <IconStyle id="1158">
                    <color>ff0000ff</color>
                    <colorMode>normal</colorMode>
                    <scale>1</scale>
                    <heading>0</heading>
                    <Icon id="1159">
                        <href>http://maps.google.com/mapfiles/kml/pushpin/ylw-pushpin.png</href>
                    </Icon>
                </IconStyle>
            </Style>
            <Style id="1162">
                <IconStyle id="1163">
                    <color>ff0000ff</color>
                    <colorMode>normal</colorMode>
                    <scale>1</scale>
                    <heading>0</heading>
                    <Icon id="1164">
                        <href>http://maps.google.com/mapfiles/kml/pushpin/ylw-pushpin.png</href>
                    </Icon>
                </IconStyle>
            </Style>
            <Style id="1167">
                <IconStyle id="1168">
                    <color>ff0000ff</color>
                    <colorMode>normal</colorMode>
                    <scale>1</scale>
                    <heading>0</heading>
                    <Icon id="1169">
                        <href>http://maps.google.com/mapfiles/kml/pushpin/ylw-pushpin.png</href>
                    </Icon>
                </IconStyle>
            </Style>
            <Style id="1172">
                <IconStyle id="1173">
                    <color>ff0000ff</color>
                    <colorMode>normal</colorMode>
                    <scale>1</scale>
                    <heading>0</heading>
                    <Icon id="1174">
                        <href>http://maps.google.com/mapfiles/kml/pushpin/ylw-pushpin.png</href>
                    </Icon>
                </IconStyle>
            </Style>
            <Style id="1177">
                <IconStyle id="1178">
                    <color>ff0000ff</color>
                    <colorMode>normal</colorMode>
                    <scale>1</scale>
                    <heading>0</heading>
                    <Icon id="1179">
                        <href>http://maps.google.com/mapfiles/kml/pushpin/ylw-pushpin.png</href>
                    </Icon>
                </IconStyle>
            </Style>
            <Style id="1182">
                <IconStyle id="1183">
                    <color>ff0000ff</color>
                    <colorMode>normal</colorMode>
                    <scale>1</scale>
                    <heading>0</heading>
                    <Icon id="1184">
                        <href>http://maps.google.com/mapfiles/kml/pushpin/ylw-pushpin.png</href>
                    </Icon>
                </IconStyle>
            </Style>
            <name>EDDINSON CECILIO DIOSES SAAVEDRA</name>
            <Placemark id="1116">
                <name>VICTOR ADAN CORDOVA LOPEZ</name>
                <description>Mercado
Catacaos
Piura
Piura
Perú</description>
                <styleUrl>#1117</styleUrl>
                <Point id="1115">
                    <coordinates>-80.6777052,-5.2660952,0.0</coordinates>
                </Point>
            </Placemark>
            <Placemark id="1121">
                <name>SUPER LUNA S.R.L.</name>
                <description>SUPER LUNA S.R.L.
CAL.JUAN VELASCO ALVARADO NRO. 225 LA UNION-PIURA
La Unión
Piura
Piura
Perú</description>
                <styleUrl>#1122</styleUrl>
                <Point id="1120">
                    <coordinates>-80.7411092,-5.3966135,0.0</coordinates>
                </Point>
            </Placemark>
            <Placemark id="1126">
                <name>SUPER LUNA S.R.L.</name>
                <description>SUPER LUNA S.R.L.
CAL.JUAN VELASCO ALVARADO NRO. 225 LA UNION-PIURA
La Unión
Piura
Piura
Perú</description>
                <styleUrl>#1127</styleUrl>
                <Point id="1125">
                    <coordinates>-80.7411092,-5.3966135,0.0</coordinates>
                </Point>
            </Placemark>
            <Placemark id="1131">
                <name>CORINA FRANCISCA ZETA ANTON</name>
                <description>Mercado
La Unión
Piura
Piura
Perú</description>
                <styleUrl>#1132</styleUrl>
                <Point id="1130">
                    <coordinates>-80.7419618,-5.400522,0.0</coordinates>
                </Point>
            </Placemark>
            <Placemark id="1136">
                <name>MILAGROS DE JESUS LALUPU CHULLE</name>
                <description>PASAJE 21 DE JULIO PUESTO 29 MERCADO LA UNION
La Unión
Piura
Piura
Perú</description>
                <styleUrl>#1137</styleUrl>
                <Point id="1135">
                    <coordinates>-80.7419755,-5.4005396,0.0</coordinates>
                </Point>
            </Placemark>
            <Placemark id="1141">
                <name>CORINA FRANCISCA ZETA ANTON</name>
                <description>Mercado
La Unión
Piura
Piura
Perú</description>
                <styleUrl>#1142</styleUrl>
                <Point id="1140">
                    <coordinates>-80.7419618,-5.400522,0.0</coordinates>
                </Point>
            </Placemark>
            <Placemark id="1146">
                <name>MILAGROS DE JESUS LALUPU CHULLE</name>
                <description>PASAJE 21 DE JULIO PUESTO 29 MERCADO LA UNION
La Unión
Piura
Piura
Perú</description>
                <styleUrl>#1147</styleUrl>
                <Point id="1145">
                    <coordinates>-80.7419755,-5.4005396,0.0</coordinates>
                </Point>
            </Placemark>
            <Placemark id="1151">
                <name>NARCIZA DE JESUS SERNAQUE SERNAQUE</name>
                <description>PSTO 29 MERCADO DE LA UNION-PIURA
La Unión
Piura
Piura
Perú</description>
                <styleUrl>#1152</styleUrl>
                <Point id="1150">
                    <coordinates>-80.7419391,-5.4005289,0.0</coordinates>
                </Point>
            </Placemark>
            <Placemark id="1156">
                <name>RODAIL SAAVEDRA CORDOVA</name>
                <description>PUESTO 78 MERCADO LA UNION-PIURA
La Unión
Piura
Piura
Perú</description>
                <styleUrl>#1157</styleUrl>
                <Point id="1155">
                    <coordinates>-80.7414412,-5.4006935,0.0</coordinates>
                </Point>
            </Placemark>
            <Placemark id="1161">
                <name>PEDRO CESAR VITE ANCAJIMA</name>
                <description>Mercado
La Unión
Piura
Piura
Perú</description>
                <styleUrl>#1162</styleUrl>
                <Point id="1160">
                    <coordinates>-80.7409806,-5.400291,0.0</coordinates>
                </Point>
            </Placemark>
            <Placemark id="1166">
                <name>MARCO ANTONIO MORANTE GALAN</name>
                <description>
La Unión
Piura
Piura
Perú</description>
                <styleUrl>#1167</styleUrl>
                <Point id="1165">
                    <coordinates>-80.7410332,-5.4009087,0.0</coordinates>
                </Point>
            </Placemark>
            <Placemark id="1171">
                <name>MILTON MARTINEZ SERNAQUE</name>
                <description>Lambayeque 724
La Unión
Piura
Piura
Perú</description>
                <styleUrl>#1172</styleUrl>
                <Point id="1170">
                    <coordinates>-80.7410202,-5.4009714,0.0</coordinates>
                </Point>
            </Placemark>
            <Placemark id="1176">
                <name>SARITA SANTOS ROJAS</name>
                <description>MCDO SAN JOSE - PSTO 47 - LA UNION
La Unión
Piura
Piura
Perú</description>
                <styleUrl>#1177</styleUrl>
                <Point id="1175">
                    <coordinates>-80.7412303,-5.4009521,0.0</coordinates>
                </Point>
            </Placemark>
            <Placemark id="1181">
                <name>ANTONIA CLODOMIRA HERNANDEZ SILUPU</name>
                <description>PASAJE 21 DE JULIO PTO 24
La Unión
Piura
Piura
Perú</description>
                <styleUrl>#1182</styleUrl>
                <Point id="1180">
                    <coordinates>-80.7419561,-5.4005313,0.0</coordinates>
                </Point>
            </Placemark>
        </Folder>
    </Document>
</kml>
