<?xml version="1.0" encoding="UTF-8"?>
<kml xmlns="http://www.opengis.net/kml/2.2" xmlns:gx="http://www.google.com/kml/ext/2.2">
    <Document id="1063">
        <Folder id="1064">
            <Style id="1067">
                <IconStyle id="1068">
                    <color>ff0000ff</color>
                    <colorMode>normal</colorMode>
                    <scale>1</scale>
                    <heading>0</heading>
                    <Icon id="1069">
                        <href>http://maps.google.com/mapfiles/kml/pushpin/ylw-pushpin.png</href>
                    </Icon>
                </IconStyle>
            </Style>
            <Style id="1072">
                <IconStyle id="1073">
                    <color>ff0000ff</color>
                    <colorMode>normal</colorMode>
                    <scale>1</scale>
                    <heading>0</heading>
                    <Icon id="1074">
                        <href>http://maps.google.com/mapfiles/kml/pushpin/ylw-pushpin.png</href>
                    </Icon>
                </IconStyle>
            </Style>
            <Style id="1077">
                <IconStyle id="1078">
                    <color>ff0000ff</color>
                    <colorMode>normal</colorMode>
                    <scale>1</scale>
                    <heading>0</heading>
                    <Icon id="1079">
                        <href>http://maps.google.com/mapfiles/kml/pushpin/ylw-pushpin.png</href>
                    </Icon>
                </IconStyle>
            </Style>
            <Style id="1082">
                <IconStyle id="1083">
                    <color>ff0000ff</color>
                    <colorMode>normal</colorMode>
                    <scale>1</scale>
                    <heading>0</heading>
                    <Icon id="1084">
                        <href>http://maps.google.com/mapfiles/kml/pushpin/ylw-pushpin.png</href>
                    </Icon>
                </IconStyle>
            </Style>
            <Style id="1087">
                <IconStyle id="1088">
                    <color>ff0000ff</color>
                    <colorMode>normal</colorMode>
                    <scale>1</scale>
                    <heading>0</heading>
                    <Icon id="1089">
                        <href>http://maps.google.com/mapfiles/kml/pushpin/ylw-pushpin.png</href>
                    </Icon>
                </IconStyle>
            </Style>
            <Style id="1092">
                <IconStyle id="1093">
                    <color>ff0000ff</color>
                    <colorMode>normal</colorMode>
                    <scale>1</scale>
                    <heading>0</heading>
                    <Icon id="1094">
                        <href>http://maps.google.com/mapfiles/kml/pushpin/ylw-pushpin.png</href>
                    </Icon>
                </IconStyle>
            </Style>
            <Style id="1097">
                <IconStyle id="1098">
                    <color>ff0000ff</color>
                    <colorMode>normal</colorMode>
                    <scale>1</scale>
                    <heading>0</heading>
                    <Icon id="1099">
                        <href>http://maps.google.com/mapfiles/kml/pushpin/ylw-pushpin.png</href>
                    </Icon>
                </IconStyle>
            </Style>
            <Style id="1102">
                <IconStyle id="1103">
                    <color>ff0000ff</color>
                    <colorMode>normal</colorMode>
                    <scale>1</scale>
                    <heading>0</heading>
                    <Icon id="1104">
                        <href>http://maps.google.com/mapfiles/kml/pushpin/ylw-pushpin.png</href>
                    </Icon>
                </IconStyle>
            </Style>
            <Style id="1107">
                <IconStyle id="1108">
                    <color>ff0000ff</color>
                    <colorMode>normal</colorMode>
                    <scale>1</scale>
                    <heading>0</heading>
                    <Icon id="1109">
                        <href>http://maps.google.com/mapfiles/kml/pushpin/ylw-pushpin.png</href>
                    </Icon>
                </IconStyle>
            </Style>
            <Style id="1112">
                <IconStyle id="1113">
                    <color>ff0000ff</color>
                    <colorMode>normal</colorMode>
                    <scale>1</scale>
                    <heading>0</heading>
                    <Icon id="1114">
                        <href>http://maps.google.com/mapfiles/kml/pushpin/ylw-pushpin.png</href>
                    </Icon>
                </IconStyle>
            </Style>
            <Style id="1117">
                <IconStyle id="1118">
                    <color>ff0000ff</color>
                    <colorMode>normal</colorMode>
                    <scale>1</scale>
                    <heading>0</heading>
                    <Icon id="1119">
                        <href>http://maps.google.com/mapfiles/kml/pushpin/ylw-pushpin.png</href>
                    </Icon>
                </IconStyle>
            </Style>
            <Style id="1122">
                <IconStyle id="1123">
                    <color>ff0000ff</color>
                    <colorMode>normal</colorMode>
                    <scale>1</scale>
                    <heading>0</heading>
                    <Icon id="1124">
                        <href>http://maps.google.com/mapfiles/kml/pushpin/ylw-pushpin.png</href>
                    </Icon>
                </IconStyle>
            </Style>
            <Style id="1127">
                <IconStyle id="1128">
                    <color>ff0000ff</color>
                    <colorMode>normal</colorMode>
                    <scale>1</scale>
                    <heading>0</heading>
                    <Icon id="1129">
                        <href>http://maps.google.com/mapfiles/kml/pushpin/ylw-pushpin.png</href>
                    </Icon>
                </IconStyle>
            </Style>
            <Style id="1132">
                <IconStyle id="1133">
                    <color>ff0000ff</color>
                    <colorMode>normal</colorMode>
                    <scale>1</scale>
                    <heading>0</heading>
                    <Icon id="1134">
                        <href>http://maps.google.com/mapfiles/kml/pushpin/ylw-pushpin.png</href>
                    </Icon>
                </IconStyle>
            </Style>
            <Style id="1137">
                <IconStyle id="1138">
                    <color>ff0000ff</color>
                    <colorMode>normal</colorMode>
                    <scale>1</scale>
                    <heading>0</heading>
                    <Icon id="1139">
                        <href>http://maps.google.com/mapfiles/kml/pushpin/ylw-pushpin.png</href>
                    </Icon>
                </IconStyle>
            </Style>
            <Style id="1142">
                <IconStyle id="1143">
                    <color>ff0000ff</color>
                    <colorMode>normal</colorMode>
                    <scale>1</scale>
                    <heading>0</heading>
                    <Icon id="1144">
                        <href>http://maps.google.com/mapfiles/kml/pushpin/ylw-pushpin.png</href>
                    </Icon>
                </IconStyle>
            </Style>
            <Style id="1147">
                <IconStyle id="1148">
                    <color>ff0000ff</color>
                    <colorMode>normal</colorMode>
                    <scale>1</scale>
                    <heading>0</heading>
                    <Icon id="1149">
                        <href>http://maps.google.com/mapfiles/kml/pushpin/ylw-pushpin.png</href>
                    </Icon>
                </IconStyle>
            </Style>
            <Style id="1152">
                <IconStyle id="1153">
                    <color>ff0000ff</color>
                    <colorMode>normal</colorMode>
                    <scale>1</scale>
                    <heading>0</heading>
                    <Icon id="1154">
                        <href>http://maps.google.com/mapfiles/kml/pushpin/ylw-pushpin.png</href>
                    </Icon>
                </IconStyle>
            </Style>
            <Style id="1157">
                <IconStyle id="1158">
                    <color>ff0000ff</color>
                    <colorMode>normal</colorMode>
                    <scale>1</scale>
                    <heading>0</heading>
                    <Icon id="1159">
                        <href>http://maps.google.com/mapfiles/kml/pushpin/ylw-pushpin.png</href>
                    </Icon>
                </IconStyle>
            </Style>
            <Style id="1162">
                <IconStyle id="1163">
                    <color>ff0000ff</color>
                    <colorMode>normal</colorMode>
                    <scale>1</scale>
                    <heading>0</heading>
                    <Icon id="1164">
                        <href>http://maps.google.com/mapfiles/kml/pushpin/ylw-pushpin.png</href>
                    </Icon>
                </IconStyle>
            </Style>
            <Style id="1167">
                <IconStyle id="1168">
                    <color>ff0000ff</color>
                    <colorMode>normal</colorMode>
                    <scale>1</scale>
                    <heading>0</heading>
                    <Icon id="1169">
                        <href>http://maps.google.com/mapfiles/kml/pushpin/ylw-pushpin.png</href>
                    </Icon>
                </IconStyle>
            </Style>
            <Style id="1172">
                <IconStyle id="1173">
                    <color>ff0000ff</color>
                    <colorMode>normal</colorMode>
                    <scale>1</scale>
                    <heading>0</heading>
                    <Icon id="1174">
                        <href>http://maps.google.com/mapfiles/kml/pushpin/ylw-pushpin.png</href>
                    </Icon>
                </IconStyle>
            </Style>
            <Style id="1177">
                <IconStyle id="1178">
                    <color>ff0000ff</color>
                    <colorMode>normal</colorMode>
                    <scale>1</scale>
                    <heading>0</heading>
                    <Icon id="1179">
                        <href>http://maps.google.com/mapfiles/kml/pushpin/ylw-pushpin.png</href>
                    </Icon>
                </IconStyle>
            </Style>
            <Style id="1182">
                <IconStyle id="1183">
                    <color>ff0000ff</color>
                    <colorMode>normal</colorMode>
                    <scale>1</scale>
                    <heading>0</heading>
                    <Icon id="1184">
                        <href>http://maps.google.com/mapfiles/kml/pushpin/ylw-pushpin.png</href>
                    </Icon>
                </IconStyle>
            </Style>
            <Style id="1187">
                <IconStyle id="1188">
                    <color>ff0000ff</color>
                    <colorMode>normal</colorMode>
                    <scale>1</scale>
                    <heading>0</heading>
                    <Icon id="1189">
                        <href>http://maps.google.com/mapfiles/kml/pushpin/ylw-pushpin.png</href>
                    </Icon>
                </IconStyle>
            </Style>
            <Style id="1192">
                <IconStyle id="1193">
                    <color>ff0000ff</color>
                    <colorMode>normal</colorMode>
                    <scale>1</scale>
                    <heading>0</heading>
                    <Icon id="1194">
                        <href>http://maps.google.com/mapfiles/kml/pushpin/ylw-pushpin.png</href>
                    </Icon>
                </IconStyle>
            </Style>
            <Style id="1197">
                <IconStyle id="1198">
                    <color>ff0000ff</color>
                    <colorMode>normal</colorMode>
                    <scale>1</scale>
                    <heading>0</heading>
                    <Icon id="1199">
                        <href>http://maps.google.com/mapfiles/kml/pushpin/ylw-pushpin.png</href>
                    </Icon>
                </IconStyle>
            </Style>
            <Style id="1202">
                <IconStyle id="1203">
                    <color>ff0000ff</color>
                    <colorMode>normal</colorMode>
                    <scale>1</scale>
                    <heading>0</heading>
                    <Icon id="1204">
                        <href>http://maps.google.com/mapfiles/kml/pushpin/ylw-pushpin.png</href>
                    </Icon>
                </IconStyle>
            </Style>
            <Style id="1207">
                <IconStyle id="1208">
                    <color>ff0000ff</color>
                    <colorMode>normal</colorMode>
                    <scale>1</scale>
                    <heading>0</heading>
                    <Icon id="1209">
                        <href>http://maps.google.com/mapfiles/kml/pushpin/ylw-pushpin.png</href>
                    </Icon>
                </IconStyle>
            </Style>
            <Style id="1212">
                <IconStyle id="1213">
                    <color>ff0000ff</color>
                    <colorMode>normal</colorMode>
                    <scale>1</scale>
                    <heading>0</heading>
                    <Icon id="1214">
                        <href>http://maps.google.com/mapfiles/kml/pushpin/ylw-pushpin.png</href>
                    </Icon>
                </IconStyle>
            </Style>
            <name>MANUEL ENRIQUE ZAPATA QUEVEDO</name>
            <Placemark id="1066">
                <name>KAREN JANET RUIZ FEBRE</name>
                <description>JR TRUJILO S/N BARRIO SUIPIRA LAS LOMAS
Las Lomas

Piura
Perú</description>
                <styleUrl>#1067</styleUrl>
                <Point id="1065">
                    <coordinates>-80.2395228,-4.6525279,0.0</coordinates>
                </Point>
            </Placemark>
            <Placemark id="1071">
                <name>JESUS VICENTE BOLOGNESI</name>
                <description>CASSERIO BOLOGNESI ALTO S/N



Perú</description>
                <styleUrl>#1072</styleUrl>
                <Point id="1070">
                    <coordinates>-80.2410175,-4.6598054,0.0</coordinates>
                </Point>
            </Placemark>
            <Placemark id="1076">
                <name>ELDA LUCILA ZETA PULACHE</name>
                <description>JR BOLOGNESSI 626 AH SANTA ISABEL - Partidor
Las Lomas
Piura
Piura
Perú</description>
                <styleUrl>#1077</styleUrl>
                <Point id="1075">
                    <coordinates>-80.2459339,-4.6536936,0.0</coordinates>
                </Point>
            </Placemark>
            <Placemark id="1081">
                <name>LUISA RODRIGUEZ DE PINTADO</name>
                <description>JR. AYACUCHO 878 BARRIO ESPERANZA L
Las Lomas
Piura
Piura
Perú</description>
                <styleUrl>#1082</styleUrl>
                <Point id="1080">
                    <coordinates>-80.2440876,-4.653567,0.0</coordinates>
                </Point>
            </Placemark>
            <Placemark id="1086">
                <name>ELVA GLADIS TRUJILLO CALDERON</name>
                <description>JR. AYACUCHO NÂ°900 AH.NUEVA ESPERA
Las Lomas
Piura
Piura
Perú</description>
                <styleUrl>#1087</styleUrl>
                <Point id="1085">
                    <coordinates>-80.2447987,-4.6562077,0.0</coordinates>
                </Point>
            </Placemark>
            <Placemark id="1091">
                <name>CESAR ELI JIMENEZ RIVERA</name>
                <description>LOS LAURELES S/N BARRIO NUENOS AIRES LAS LOMAS
Las Lomas
Piura
Piura
Perú</description>
                <styleUrl>#1092</styleUrl>
                <Point id="1090">
                    <coordinates>-80.2373673,-4.6539545,0.0</coordinates>
                </Point>
            </Placemark>
            <Placemark id="1096">
                <name>PAULA CORDOVA FLORES</name>
                <description>Calle Lima 998
Las Lomas
Piura
Piura
Perú</description>
                <styleUrl>#1097</styleUrl>
                <Point id="1095">
                    <coordinates>-80.2379362,-4.6536254,0.0</coordinates>
                </Point>
            </Placemark>
            <Placemark id="1101">
                <name>JESUS NOELIA SARANGO GUERRERO</name>
                <description>JESUS NOELIA SARANGO GUERRERO
CA LIMA 990 AHBUENOS AIRES LAS LOMAS - Partidor
Las Lomas
Piura
Piura
Perú</description>
                <styleUrl>#1102</styleUrl>
                <Point id="1100">
                    <coordinates>-80.2426316,-4.6514701,0.0</coordinates>
                </Point>
            </Placemark>
            <Placemark id="1106">
                <name>JESUS VIERA MIRANDA</name>
                <description>PIURA NUMERO 1000 - AH BBAIRES
Las Lomas
Piura
Piura
Perú</description>
                <styleUrl>#1107</styleUrl>
                <Point id="1105">
                    <coordinates>-80.2404962,-4.6550567,0.0</coordinates>
                </Point>
            </Placemark>
            <Placemark id="1111">
                <name>LUZ ETELVINA JUAREZ CAMPOS</name>
                <description>CALLE PIURA 1127 A.H.BUENOS AIRES - - Partidor
Las Lomas
Piura
Piura
Perú</description>
                <styleUrl>#1112</styleUrl>
                <Point id="1110">
                    <coordinates>-80.2404566,-4.6549135,0.0</coordinates>
                </Point>
            </Placemark>
            <Placemark id="1116">
                <name>FELIPA FEBRE MONDRAGON</name>
                <description>BARRIO SUIPIRA JR PIURA 1122 LAS LOMAS



Perú</description>
                <styleUrl>#1117</styleUrl>
                <Point id="1115">
                    <coordinates>-80.2396253,-4.6573267,0.0</coordinates>
                </Point>
            </Placemark>
            <Placemark id="1121">
                <name>MARIA VICENTE REYES</name>
                <description>CALLE LA LORETO S/N BARRIO BUENOS AIRES LAS LOMAS
Las Lomas
Piura
Piura
Perú</description>
                <styleUrl>#1122</styleUrl>
                <Point id="1120">
                    <coordinates>-80.2366643,-4.6562774,0.0</coordinates>
                </Point>
            </Placemark>
            <Placemark id="1126">
                <name>ROSA MARIEL MALDONADO ALTAMIRANO</name>
                <description>CALLE LAS CUCARDAS S/N BARRIO  MIRAFLORES
Las Lomas

Piura
Perú</description>
                <styleUrl>#1127</styleUrl>
                <Point id="1125">
                    <coordinates>-80.2348735,-4.658191,0.0</coordinates>
                </Point>
            </Placemark>
            <Placemark id="1131">
                <name>CORDOVA MAJUAN MARIA MARGARITA</name>
                <description>CORDOVA MAJUAN MARIA MARGARITA
CA.LAS MARGARITAS N 707 BARR.MIRAFL
Las Lomas
200101Piura
Piura
Perú</description>
                <styleUrl>#1132</styleUrl>
                <Point id="1130">
                    <coordinates>-80.2363067,-4.6585518,0.0</coordinates>
                </Point>
            </Placemark>
            <Placemark id="1136">
                <name>CONSUELO MARIA JUAREZ CAMPOS</name>
                <description>LAS ORQUIDEAS 51 LAS LOMAS
Las Lomas
Piura
Piura
Perú</description>
                <styleUrl>#1137</styleUrl>
                <Point id="1135">
                    <coordinates>-80.2361837,-4.6589278,0.0</coordinates>
                </Point>
            </Placemark>
            <Placemark id="1141">
                <name>LUZ MARIA PALACIOS ROJAS</name>
                <description>C.A LOS GIRASOLES S/N CON LAS ORQUÃ - Partidor
Las Lomas
Piura
Piura
Perú</description>
                <styleUrl>#1142</styleUrl>
                <Point id="1140">
                    <coordinates>-80.2371546,-4.6583157,0.0</coordinates>
                </Point>
            </Placemark>
            <Placemark id="1146">
                <name>RAFAELA RETETE REYES</name>
                <description>JR.TACNA NÂ°331 CP.MIRAFLORES - LAS - Partidor
Las Lomas
Piura
Piura
Perú</description>
                <styleUrl>#1147</styleUrl>
                <Point id="1145">
                    <coordinates>-80.2388748,-4.6600705,0.0</coordinates>
                </Point>
            </Placemark>
            <Placemark id="1151">
                <name>PEKANSA E.I.R.L.</name>
                <description>JR. CUSCO NRO. 262 OTR. CERCADO DE LAS LOMAS (CERCA AL MERCADO DE ABASTOS) PIURA - PIURA - LAS LOMAS
Las Lomas
Piura
Piura
Perú</description>
                <styleUrl>#1152</styleUrl>
                <Point id="1150">
                    <coordinates>-80.2407698,-4.6600271,0.0</coordinates>
                </Point>
            </Placemark>
            <Placemark id="1156">
                <name>MARIA ESTHER CASTILLO HUMBO</name>
                <description>AV PANAMERICANA AH SATA ROSA S/N LAS LOMAS
Las Lomas
Piura
Piura
Perú</description>
                <styleUrl>#1157</styleUrl>
                <Point id="1155">
                    <coordinates>-80.2387801,-4.6577024,0.0</coordinates>
                </Point>
            </Placemark>
            <Placemark id="1161">
                <name>ZAIDA RISSBELI AQUINO RODRIGUEZ</name>
                <description>CALLE PUNO 500 LAS LOMAS BARRIO SANTA ROSA
Las Lomas

Piura
Perú</description>
                <styleUrl>#1162</styleUrl>
                <Point id="1160">
                    <coordinates>-80.2406544,-4.6559513,0.0</coordinates>
                </Point>
            </Placemark>
            <Placemark id="1166">
                <name>LUZ MARIA VIERA MIRANDA</name>
                <description>CA TACNA 187 AH SANTA ROSA - Partidor
Las Lomas
Piura
Piura
Perú</description>
                <styleUrl>#1167</styleUrl>
                <Point id="1165">
                    <coordinates>-80.2411916,-4.6577205,0.0</coordinates>
                </Point>
            </Placemark>
            <Placemark id="1171">
                <name>DORA LETICIA GAONA MERINO</name>
                <description>Calle José Olaya s/n a.h santa rosa las lomas
Las Lomas
Piura
Piura
Perú</description>
                <styleUrl>#1172</styleUrl>
                <Point id="1170">
                    <coordinates>-80.2412055,-4.6585574,0.0</coordinates>
                </Point>
            </Placemark>
            <Placemark id="1176">
                <name>PEKANSA E.I.R.L.</name>
                <description>JR. CUSCO NRO. 262 OTR. CERCADO DE LAS LOMAS (CERCA AL MERCADO DE ABASTOS) PIURA - PIURA - LAS LOMAS
Las Lomas
Piura
Piura
Perú</description>
                <styleUrl>#1177</styleUrl>
                <Point id="1175">
                    <coordinates>-80.2407698,-4.6600271,0.0</coordinates>
                </Point>
            </Placemark>
            <Placemark id="1181">
                <name>ZEGARRA CAMPOVERDE VDA DE WONG NELLY YOJANI</name>
                <description>JR GRAU S/N - LA LOMAS - Partidor
Las Lomas
Piura
Piura
Perú</description>
                <styleUrl>#1182</styleUrl>
                <Point id="1180">
                    <coordinates>-80.2410121,-4.6598091,0.0</coordinates>
                </Point>
            </Placemark>
            <Placemark id="1186">
                <name>MARICIELO LLOCLLA MARCHENA</name>
                <description>MERCADO LA LOMAS PUESTO 74
Las Lomas
Piura
Piura
Perú</description>
                <styleUrl>#1187</styleUrl>
                <Point id="1185">
                    <coordinates>-80.242143,-4.6590538,0.0</coordinates>
                </Point>
            </Placemark>
            <Placemark id="1191">
                <name>CLAUDIA LILIANA GONZAGA RUIZ</name>
                <description>MERCADO LOMAS INT 71 LAS LOMAS
Las Lomas

Piura
Perú</description>
                <styleUrl>#1192</styleUrl>
                <Point id="1190">
                    <coordinates>-80.2422792,-4.6588991,0.0</coordinates>
                </Point>
            </Placemark>
            <Placemark id="1196">
                <name>YULY VALDEZ CASTILLO</name>
                <description>CA EMANCIPACION 210 - LAS LOMAS
Las Lomas
Piura
Piura
Perú</description>
                <styleUrl>#1197</styleUrl>
                <Point id="1195">
                    <coordinates>-80.242813,-4.6599076,0.0</coordinates>
                </Point>
            </Placemark>
            <Placemark id="1201">
                <name>GRANDA GUZMAN FLOR MARIA</name>
                <description>CALLE LEONCIO PRADO 192 LAS LOMAS
Las Lomas
Piura
Piura
Perú</description>
                <styleUrl>#1202</styleUrl>
                <Point id="1200">
                    <coordinates>-80.2428257,-4.6599622,0.0</coordinates>
                </Point>
            </Placemark>
            <Placemark id="1206">
                <name>WENDY MILUSKA VEGA VILCHEZ DE SANCHEZ</name>
                <description>AH JUAN VELASCO LOS CLAVELES S/N LAS LOMAS
Las Lomas

Piura
Perú</description>
                <styleUrl>#1207</styleUrl>
                <Point id="1205">
                    <coordinates>-80.243513,-4.66593,0.0</coordinates>
                </Point>
            </Placemark>
            <Placemark id="1211">
                <name>EVELYN RUIZ VARGAS</name>
                <description>AH BELLAVISTA CALLE IQUITOS S/N LAS LOMAS
Las Lomas
Piura
Piura
Perú</description>
                <styleUrl>#1212</styleUrl>
                <Point id="1210">
                    <coordinates>-80.2416719,-4.659145,0.0</coordinates>
                </Point>
            </Placemark>
        </Folder>
    </Document>
</kml>
