<?xml version="1.0" encoding="UTF-8"?>
<kml xmlns="http://www.opengis.net/kml/2.2" xmlns:gx="http://www.google.com/kml/ext/2.2">
    <Document id="1186">
        <Folder id="1187">
            <Style id="1190">
                <IconStyle id="1191">
                    <color>ff0000ff</color>
                    <colorMode>normal</colorMode>
                    <scale>1</scale>
                    <heading>0</heading>
                    <Icon id="1192">
                        <href>http://maps.google.com/mapfiles/kml/pushpin/ylw-pushpin.png</href>
                    </Icon>
                </IconStyle>
            </Style>
            <Style id="1195">
                <IconStyle id="1196">
                    <color>ff0000ff</color>
                    <colorMode>normal</colorMode>
                    <scale>1</scale>
                    <heading>0</heading>
                    <Icon id="1197">
                        <href>http://maps.google.com/mapfiles/kml/pushpin/ylw-pushpin.png</href>
                    </Icon>
                </IconStyle>
            </Style>
            <Style id="1200">
                <IconStyle id="1201">
                    <color>ff0000ff</color>
                    <colorMode>normal</colorMode>
                    <scale>1</scale>
                    <heading>0</heading>
                    <Icon id="1202">
                        <href>http://maps.google.com/mapfiles/kml/pushpin/ylw-pushpin.png</href>
                    </Icon>
                </IconStyle>
            </Style>
            <Style id="1205">
                <IconStyle id="1206">
                    <color>ff0000ff</color>
                    <colorMode>normal</colorMode>
                    <scale>1</scale>
                    <heading>0</heading>
                    <Icon id="1207">
                        <href>http://maps.google.com/mapfiles/kml/pushpin/ylw-pushpin.png</href>
                    </Icon>
                </IconStyle>
            </Style>
            <Style id="1210">
                <IconStyle id="1211">
                    <color>ff0000ff</color>
                    <colorMode>normal</colorMode>
                    <scale>1</scale>
                    <heading>0</heading>
                    <Icon id="1212">
                        <href>http://maps.google.com/mapfiles/kml/pushpin/ylw-pushpin.png</href>
                    </Icon>
                </IconStyle>
            </Style>
            <Style id="1215">
                <IconStyle id="1216">
                    <color>ff0000ff</color>
                    <colorMode>normal</colorMode>
                    <scale>1</scale>
                    <heading>0</heading>
                    <Icon id="1217">
                        <href>http://maps.google.com/mapfiles/kml/pushpin/ylw-pushpin.png</href>
                    </Icon>
                </IconStyle>
            </Style>
            <Style id="1220">
                <IconStyle id="1221">
                    <color>ff0000ff</color>
                    <colorMode>normal</colorMode>
                    <scale>1</scale>
                    <heading>0</heading>
                    <Icon id="1222">
                        <href>http://maps.google.com/mapfiles/kml/pushpin/ylw-pushpin.png</href>
                    </Icon>
                </IconStyle>
            </Style>
            <Style id="1225">
                <IconStyle id="1226">
                    <color>ff0000ff</color>
                    <colorMode>normal</colorMode>
                    <scale>1</scale>
                    <heading>0</heading>
                    <Icon id="1227">
                        <href>http://maps.google.com/mapfiles/kml/pushpin/ylw-pushpin.png</href>
                    </Icon>
                </IconStyle>
            </Style>
            <Style id="1230">
                <IconStyle id="1231">
                    <color>ff0000ff</color>
                    <colorMode>normal</colorMode>
                    <scale>1</scale>
                    <heading>0</heading>
                    <Icon id="1232">
                        <href>http://maps.google.com/mapfiles/kml/pushpin/ylw-pushpin.png</href>
                    </Icon>
                </IconStyle>
            </Style>
            <Style id="1235">
                <IconStyle id="1236">
                    <color>ff0000ff</color>
                    <colorMode>normal</colorMode>
                    <scale>1</scale>
                    <heading>0</heading>
                    <Icon id="1237">
                        <href>http://maps.google.com/mapfiles/kml/pushpin/ylw-pushpin.png</href>
                    </Icon>
                </IconStyle>
            </Style>
            <Style id="1240">
                <IconStyle id="1241">
                    <color>ff0000ff</color>
                    <colorMode>normal</colorMode>
                    <scale>1</scale>
                    <heading>0</heading>
                    <Icon id="1242">
                        <href>http://maps.google.com/mapfiles/kml/pushpin/ylw-pushpin.png</href>
                    </Icon>
                </IconStyle>
            </Style>
            <Style id="1245">
                <IconStyle id="1246">
                    <color>ff0000ff</color>
                    <colorMode>normal</colorMode>
                    <scale>1</scale>
                    <heading>0</heading>
                    <Icon id="1247">
                        <href>http://maps.google.com/mapfiles/kml/pushpin/ylw-pushpin.png</href>
                    </Icon>
                </IconStyle>
            </Style>
            <Style id="1250">
                <IconStyle id="1251">
                    <color>ff0000ff</color>
                    <colorMode>normal</colorMode>
                    <scale>1</scale>
                    <heading>0</heading>
                    <Icon id="1252">
                        <href>http://maps.google.com/mapfiles/kml/pushpin/ylw-pushpin.png</href>
                    </Icon>
                </IconStyle>
            </Style>
            <Style id="1255">
                <IconStyle id="1256">
                    <color>ff0000ff</color>
                    <colorMode>normal</colorMode>
                    <scale>1</scale>
                    <heading>0</heading>
                    <Icon id="1257">
                        <href>http://maps.google.com/mapfiles/kml/pushpin/ylw-pushpin.png</href>
                    </Icon>
                </IconStyle>
            </Style>
            <Style id="1260">
                <IconStyle id="1261">
                    <color>ff0000ff</color>
                    <colorMode>normal</colorMode>
                    <scale>1</scale>
                    <heading>0</heading>
                    <Icon id="1262">
                        <href>http://maps.google.com/mapfiles/kml/pushpin/ylw-pushpin.png</href>
                    </Icon>
                </IconStyle>
            </Style>
            <Style id="1265">
                <IconStyle id="1266">
                    <color>ff0000ff</color>
                    <colorMode>normal</colorMode>
                    <scale>1</scale>
                    <heading>0</heading>
                    <Icon id="1267">
                        <href>http://maps.google.com/mapfiles/kml/pushpin/ylw-pushpin.png</href>
                    </Icon>
                </IconStyle>
            </Style>
            <Style id="1270">
                <IconStyle id="1271">
                    <color>ff0000ff</color>
                    <colorMode>normal</colorMode>
                    <scale>1</scale>
                    <heading>0</heading>
                    <Icon id="1272">
                        <href>http://maps.google.com/mapfiles/kml/pushpin/ylw-pushpin.png</href>
                    </Icon>
                </IconStyle>
            </Style>
            <Style id="1275">
                <IconStyle id="1276">
                    <color>ff0000ff</color>
                    <colorMode>normal</colorMode>
                    <scale>1</scale>
                    <heading>0</heading>
                    <Icon id="1277">
                        <href>http://maps.google.com/mapfiles/kml/pushpin/ylw-pushpin.png</href>
                    </Icon>
                </IconStyle>
            </Style>
            <Style id="1280">
                <IconStyle id="1281">
                    <color>ff0000ff</color>
                    <colorMode>normal</colorMode>
                    <scale>1</scale>
                    <heading>0</heading>
                    <Icon id="1282">
                        <href>http://maps.google.com/mapfiles/kml/pushpin/ylw-pushpin.png</href>
                    </Icon>
                </IconStyle>
            </Style>
            <Style id="1285">
                <IconStyle id="1286">
                    <color>ff0000ff</color>
                    <colorMode>normal</colorMode>
                    <scale>1</scale>
                    <heading>0</heading>
                    <Icon id="1287">
                        <href>http://maps.google.com/mapfiles/kml/pushpin/ylw-pushpin.png</href>
                    </Icon>
                </IconStyle>
            </Style>
            <Style id="1290">
                <IconStyle id="1291">
                    <color>ff0000ff</color>
                    <colorMode>normal</colorMode>
                    <scale>1</scale>
                    <heading>0</heading>
                    <Icon id="1292">
                        <href>http://maps.google.com/mapfiles/kml/pushpin/ylw-pushpin.png</href>
                    </Icon>
                </IconStyle>
            </Style>
            <Style id="1295">
                <IconStyle id="1296">
                    <color>ff0000ff</color>
                    <colorMode>normal</colorMode>
                    <scale>1</scale>
                    <heading>0</heading>
                    <Icon id="1297">
                        <href>http://maps.google.com/mapfiles/kml/pushpin/ylw-pushpin.png</href>
                    </Icon>
                </IconStyle>
            </Style>
            <Style id="1300">
                <IconStyle id="1301">
                    <color>ff0000ff</color>
                    <colorMode>normal</colorMode>
                    <scale>1</scale>
                    <heading>0</heading>
                    <Icon id="1302">
                        <href>http://maps.google.com/mapfiles/kml/pushpin/ylw-pushpin.png</href>
                    </Icon>
                </IconStyle>
            </Style>
            <Style id="1305">
                <IconStyle id="1306">
                    <color>ff0000ff</color>
                    <colorMode>normal</colorMode>
                    <scale>1</scale>
                    <heading>0</heading>
                    <Icon id="1307">
                        <href>http://maps.google.com/mapfiles/kml/pushpin/ylw-pushpin.png</href>
                    </Icon>
                </IconStyle>
            </Style>
            <Style id="1310">
                <IconStyle id="1311">
                    <color>ff0000ff</color>
                    <colorMode>normal</colorMode>
                    <scale>1</scale>
                    <heading>0</heading>
                    <Icon id="1312">
                        <href>http://maps.google.com/mapfiles/kml/pushpin/ylw-pushpin.png</href>
                    </Icon>
                </IconStyle>
            </Style>
            <Style id="1315">
                <IconStyle id="1316">
                    <color>ff0000ff</color>
                    <colorMode>normal</colorMode>
                    <scale>1</scale>
                    <heading>0</heading>
                    <Icon id="1317">
                        <href>http://maps.google.com/mapfiles/kml/pushpin/ylw-pushpin.png</href>
                    </Icon>
                </IconStyle>
            </Style>
            <name>MANUEL ENRIQUE ZAPATA QUEVEDO</name>
            <Placemark id="1189">
                <name>NELIDA CUEVA MORALES</name>
                <description>CUZCO/ALFONSO UGARTE 196 LAS LOMAS
Las Lomas
Piura
Piura
Perú</description>
                <styleUrl>#1190</styleUrl>
                <Point id="1188">
                    <coordinates>-80.2428556,-4.6588669,0.0</coordinates>
                </Point>
            </Placemark>
            <Placemark id="1194">
                <name>EVELYN RUIZ VARGAS</name>
                <description>AH BELLAVISTA CALLE IQUITOS S/N LAS LOMAS
Las Lomas
Piura
Piura
Perú</description>
                <styleUrl>#1195</styleUrl>
                <Point id="1193">
                    <coordinates>-80.2416719,-4.659145,0.0</coordinates>
                </Point>
            </Placemark>
            <Placemark id="1199">
                <name>NELIDA CUEVA MORALES</name>
                <description>CUZCO/ALFONSO UGARTE 196 LAS LOMAS
Las Lomas
Piura
Piura
Perú</description>
                <styleUrl>#1200</styleUrl>
                <Point id="1198">
                    <coordinates>-80.2428556,-4.6588669,0.0</coordinates>
                </Point>
            </Placemark>
            <Placemark id="1204">
                <name>PEÑA NAIRA ARDELI</name>
                <description>MERCADO LOMAS INT PUESTO  COMERCIAL LOPEZ
Las Lomas

Piura
Perú</description>
                <styleUrl>#1205</styleUrl>
                <Point id="1203">
                    <coordinates>-80.242448,-4.658949,0.0</coordinates>
                </Point>
            </Placemark>
            <Placemark id="1209">
                <name>OTERO VALDIVIEZO RONALD NOEL</name>
                <description>JR grau 501las lomas costado caja Huancayo
Las Lomas

Piura
Perú</description>
                <styleUrl>#1210</styleUrl>
                <Point id="1208">
                    <coordinates>-80.24379,-4.65675,0.0</coordinates>
                </Point>
            </Placemark>
            <Placemark id="1214">
                <name>ATO PALACIOS LIZ EDITA</name>
                <description>CA BOLOGNESI 276 - LAS LOMAS
Las Lomas
Piura
Piura
Perú</description>
                <styleUrl>#1215</styleUrl>
                <Point id="1213">
                    <coordinates>-80.2448123,-4.65472,0.0</coordinates>
                </Point>
            </Placemark>
            <Placemark id="1219">
                <name>ELVA GLADIS TRUJILLO CALDERON</name>
                <description>JR. AYACUCHO NÂ°900 AH.NUEVA ESPERA
Las Lomas
Piura
Piura
Perú</description>
                <styleUrl>#1220</styleUrl>
                <Point id="1218">
                    <coordinates>-80.2447987,-4.6562077,0.0</coordinates>
                </Point>
            </Placemark>
            <Placemark id="1224">
                <name>MARIA ELDA ANCAJIMA VALLE</name>
                <description>JR TUMBES 398 AH SUIPIRA LOMAS
Las Lomas

Piura
Perú</description>
                <styleUrl>#1225</styleUrl>
                <Point id="1223">
                    <coordinates>-80.240196,-4.653209,0.0</coordinates>
                </Point>
            </Placemark>
            <Placemark id="1229">
                <name>BLANCA YANET RIVERA NAUCAR</name>
                <description>Calle Iquitos s/n los geranios
Las Lomas

Piura
Perú</description>
                <styleUrl>#1230</styleUrl>
                <Point id="1228">
                    <coordinates>-80.239847,-4.651638,0.0</coordinates>
                </Point>
            </Placemark>
            <Placemark id="1234">
                <name>KAREN JANET RUIZ FEBRE</name>
                <description>JR TRUJILO S/N BARRIO SUIPIRA LAS LOMAS
Las Lomas

Piura
Perú</description>
                <styleUrl>#1235</styleUrl>
                <Point id="1233">
                    <coordinates>-80.2395228,-4.6525279,0.0</coordinates>
                </Point>
            </Placemark>
            <Placemark id="1239">
                <name>JESUS NOELIA SARANGO GUERRERO</name>
                <description>JESUS NOELIA SARANGO GUERRERO
CA LIMA 990 AHBUENOS AIRES LAS LOMAS - Partidor
Las Lomas
Piura
Piura
Perú</description>
                <styleUrl>#1240</styleUrl>
                <Point id="1238">
                    <coordinates>-80.2426316,-4.6514701,0.0</coordinates>
                </Point>
            </Placemark>
            <Placemark id="1244">
                <name>Doria Carmen correa morocho</name>
                <description>CALLE LIMA 985 LAS.LOMAS
Las Lomas
Piura
Piura
Perú</description>
                <styleUrl>#1245</styleUrl>
                <Point id="1243">
                    <coordinates>-80.2399765,-4.6556685,0.0</coordinates>
                </Point>
            </Placemark>
            <Placemark id="1249">
                <name>JESUS VIERA MIRANDA</name>
                <description>PIURA NUMERO 1000 - AH BBAIRES
Las Lomas
Piura
Piura
Perú</description>
                <styleUrl>#1250</styleUrl>
                <Point id="1248">
                    <coordinates>-80.2404962,-4.6550567,0.0</coordinates>
                </Point>
            </Placemark>
            <Placemark id="1254">
                <name>LUZ ETELVINA JUAREZ CAMPOS</name>
                <description>CALLE PIURA 1127 A.H.BUENOS AIRES - - Partidor
Las Lomas
Piura
Piura
Perú</description>
                <styleUrl>#1255</styleUrl>
                <Point id="1253">
                    <coordinates>-80.2404566,-4.6549135,0.0</coordinates>
                </Point>
            </Placemark>
            <Placemark id="1259">
                <name>LUZ RAQUEL CARREÑO GARCIA</name>
                <description>LOS JAZMINES 100 MIRAFLORES PIEDRAS
Las Lomas
Piura
Piura
Perú</description>
                <styleUrl>#1260</styleUrl>
                <Point id="1258">
                    <coordinates>-80.2345421,-4.6578308,0.0</coordinates>
                </Point>
            </Placemark>
            <Placemark id="1264">
                <name>CONSUELO MARIA JUAREZ CAMPOS</name>
                <description>LAS ORQUIDEAS 51 LAS LOMAS
Las Lomas
Piura
Piura
Perú</description>
                <styleUrl>#1265</styleUrl>
                <Point id="1263">
                    <coordinates>-80.2361837,-4.6589278,0.0</coordinates>
                </Point>
            </Placemark>
            <Placemark id="1269">
                <name>ROSMERY ALARCON DIAZ</name>
                <description>CA.LOS GIRASOLES NÂ°497 AH.MIRAFLOR
Las Lomas
Piura
Piura
Perú</description>
                <styleUrl>#1270</styleUrl>
                <Point id="1268">
                    <coordinates>-80.237198,-4.658112,0.0</coordinates>
                </Point>
            </Placemark>
            <Placemark id="1274">
                <name>LUZ MARIA PALACIOS ROJAS</name>
                <description>C.A LOS GIRASOLES S/N CON LAS ORQUÃ - Partidor
Las Lomas
Piura
Piura
Perú</description>
                <styleUrl>#1275</styleUrl>
                <Point id="1273">
                    <coordinates>-80.2371546,-4.6583157,0.0</coordinates>
                </Point>
            </Placemark>
            <Placemark id="1279">
                <name>MARIA VILMA GARCIA LIVIA</name>
                <description>JIRON AYACUCHO 316 AH STA ROSA FTE A TALLER
Las Lomas

Piura
Perú</description>
                <styleUrl>#1280</styleUrl>
                <Point id="1278">
                    <coordinates>-80.239177,-4.658878,0.0</coordinates>
                </Point>
            </Placemark>
            <Placemark id="1284">
                <name>PEKANSA E.I.R.L.</name>
                <description>JR. CUSCO NRO. 262 OTR. CERCADO DE LAS LOMAS (CERCA AL MERCADO DE ABASTOS) PIURA - PIURA - LAS LOMAS
Las Lomas
Piura
Piura
Perú</description>
                <styleUrl>#1285</styleUrl>
                <Point id="1283">
                    <coordinates>-80.2407698,-4.6600271,0.0</coordinates>
                </Point>
            </Placemark>
            <Placemark id="1289">
                <name>MARIA LIDIA AGURTO GONZAGA</name>
                <description>JR CUZCO 578 - LAS LOMAS
Las Lomas
Piura
Piura
Perú</description>
                <styleUrl>#1290</styleUrl>
                <Point id="1288">
                    <coordinates>-80.241238,-4.657573,0.0</coordinates>
                </Point>
            </Placemark>
            <Placemark id="1294">
                <name>DORA LETICIA GAONA MERINO</name>
                <description>Calle José Olaya s/n a.h santa rosa las lomas
Las Lomas
Piura
Piura
Perú</description>
                <styleUrl>#1295</styleUrl>
                <Point id="1293">
                    <coordinates>-80.2412055,-4.6585574,0.0</coordinates>
                </Point>
            </Placemark>
            <Placemark id="1299">
                <name>PEKANSA E.I.R.L.</name>
                <description>JR. CUSCO NRO. 262 OTR. CERCADO DE LAS LOMAS (CERCA AL MERCADO DE ABASTOS) PIURA - PIURA - LAS LOMAS
Las Lomas
Piura
Piura
Perú</description>
                <styleUrl>#1300</styleUrl>
                <Point id="1298">
                    <coordinates>-80.2407698,-4.6600271,0.0</coordinates>
                </Point>
            </Placemark>
            <Placemark id="1304">
                <name>YULY VALDEZ CASTILLO</name>
                <description>CA EMANCIPACION 210 - LAS LOMAS
Las Lomas
Piura
Piura
Perú</description>
                <styleUrl>#1305</styleUrl>
                <Point id="1303">
                    <coordinates>-80.242813,-4.6599076,0.0</coordinates>
                </Point>
            </Placemark>
            <Placemark id="1309">
                <name>CARMEN ESTHER GUERRERO MARCHAN</name>
                <description>CARMEN ESTHER GUERRERO MARCHAN
LEONCIO PRADO 186 - LAS LOMAS
Las Lomas
Piura
Piura
Perú</description>
                <styleUrl>#1310</styleUrl>
                <Point id="1308">
                    <coordinates>-80.242756,-4.6599174,0.0</coordinates>
                </Point>
            </Placemark>
            <Placemark id="1314">
                <name>ELVIA AIDEE HOLGUIN GARCIA</name>
                <description>CALLE PRINCIPAL #06 CARRETERA LAS LOMAS
Las Lomas

Piura
Perú</description>
                <styleUrl>#1315</styleUrl>
                <Point id="1313">
                    <coordinates>-80.2440242,-4.6659964,0.0</coordinates>
                </Point>
            </Placemark>
        </Folder>
    </Document>
</kml>
