<?xml version="1.0" encoding="UTF-8"?>
<kml xmlns="http://www.opengis.net/kml/2.2" xmlns:gx="http://www.google.com/kml/ext/2.2">
    <Document id="809">
        <Folder id="810">
            <Style id="813">
                <IconStyle id="814">
                    <color>ff0000ff</color>
                    <colorMode>normal</colorMode>
                    <scale>1</scale>
                    <heading>0</heading>
                    <Icon id="815">
                        <href>http://maps.google.com/mapfiles/kml/pushpin/ylw-pushpin.png</href>
                    </Icon>
                </IconStyle>
            </Style>
            <Style id="818">
                <IconStyle id="819">
                    <color>ff0000ff</color>
                    <colorMode>normal</colorMode>
                    <scale>1</scale>
                    <heading>0</heading>
                    <Icon id="820">
                        <href>http://maps.google.com/mapfiles/kml/pushpin/ylw-pushpin.png</href>
                    </Icon>
                </IconStyle>
            </Style>
            <Style id="823">
                <IconStyle id="824">
                    <color>ff0000ff</color>
                    <colorMode>normal</colorMode>
                    <scale>1</scale>
                    <heading>0</heading>
                    <Icon id="825">
                        <href>http://maps.google.com/mapfiles/kml/pushpin/ylw-pushpin.png</href>
                    </Icon>
                </IconStyle>
            </Style>
            <Style id="828">
                <IconStyle id="829">
                    <color>ff0000ff</color>
                    <colorMode>normal</colorMode>
                    <scale>1</scale>
                    <heading>0</heading>
                    <Icon id="830">
                        <href>http://maps.google.com/mapfiles/kml/pushpin/ylw-pushpin.png</href>
                    </Icon>
                </IconStyle>
            </Style>
            <Style id="833">
                <IconStyle id="834">
                    <color>ff0000ff</color>
                    <colorMode>normal</colorMode>
                    <scale>1</scale>
                    <heading>0</heading>
                    <Icon id="835">
                        <href>http://maps.google.com/mapfiles/kml/pushpin/ylw-pushpin.png</href>
                    </Icon>
                </IconStyle>
            </Style>
            <Style id="838">
                <IconStyle id="839">
                    <color>ff0000ff</color>
                    <colorMode>normal</colorMode>
                    <scale>1</scale>
                    <heading>0</heading>
                    <Icon id="840">
                        <href>http://maps.google.com/mapfiles/kml/pushpin/ylw-pushpin.png</href>
                    </Icon>
                </IconStyle>
            </Style>
            <Style id="843">
                <IconStyle id="844">
                    <color>ff0000ff</color>
                    <colorMode>normal</colorMode>
                    <scale>1</scale>
                    <heading>0</heading>
                    <Icon id="845">
                        <href>http://maps.google.com/mapfiles/kml/pushpin/ylw-pushpin.png</href>
                    </Icon>
                </IconStyle>
            </Style>
            <Style id="848">
                <IconStyle id="849">
                    <color>ff0000ff</color>
                    <colorMode>normal</colorMode>
                    <scale>1</scale>
                    <heading>0</heading>
                    <Icon id="850">
                        <href>http://maps.google.com/mapfiles/kml/pushpin/ylw-pushpin.png</href>
                    </Icon>
                </IconStyle>
            </Style>
            <Style id="853">
                <IconStyle id="854">
                    <color>ff0000ff</color>
                    <colorMode>normal</colorMode>
                    <scale>1</scale>
                    <heading>0</heading>
                    <Icon id="855">
                        <href>http://maps.google.com/mapfiles/kml/pushpin/ylw-pushpin.png</href>
                    </Icon>
                </IconStyle>
            </Style>
            <Style id="858">
                <IconStyle id="859">
                    <color>ff0000ff</color>
                    <colorMode>normal</colorMode>
                    <scale>1</scale>
                    <heading>0</heading>
                    <Icon id="860">
                        <href>http://maps.google.com/mapfiles/kml/pushpin/ylw-pushpin.png</href>
                    </Icon>
                </IconStyle>
            </Style>
            <Style id="863">
                <IconStyle id="864">
                    <color>ff0000ff</color>
                    <colorMode>normal</colorMode>
                    <scale>1</scale>
                    <heading>0</heading>
                    <Icon id="865">
                        <href>http://maps.google.com/mapfiles/kml/pushpin/ylw-pushpin.png</href>
                    </Icon>
                </IconStyle>
            </Style>
            <Style id="868">
                <IconStyle id="869">
                    <color>ff0000ff</color>
                    <colorMode>normal</colorMode>
                    <scale>1</scale>
                    <heading>0</heading>
                    <Icon id="870">
                        <href>http://maps.google.com/mapfiles/kml/pushpin/ylw-pushpin.png</href>
                    </Icon>
                </IconStyle>
            </Style>
            <name>EDDINSON CECILIO DIOSES SAAVEDRA</name>
            <Placemark id="812">
                <name>TRINIDAD SEMINARIO ROJAS</name>
                <description>CAL. LOPEZ ALBUJAR MZ. D LT. 4 AH.
Morropón

Piura
Perú</description>
                <styleUrl>#813</styleUrl>
                <Point id="811">
                    <coordinates>-79.9670283,-5.1871431,0.0</coordinates>
                </Point>
            </Placemark>
            <Placemark id="817">
                <name>SIGRID MARITA CORDOVA GARCIA</name>
                <description>CAJAMARCA #201 MORROPON-PIURA
Morropón

Piura
Perú</description>
                <styleUrl>#818</styleUrl>
                <Point id="816">
                    <coordinates>-79.9690149,-5.1852495,0.0</coordinates>
                </Point>
            </Placemark>
            <Placemark id="822">
                <name>SIGRID MARITA CORDOVA GARCIA</name>
                <description>CAJAMARCA #201 MORROPON-PIURA
Morropón

Piura
Perú</description>
                <styleUrl>#823</styleUrl>
                <Point id="821">
                    <coordinates>-79.9690149,-5.1852495,0.0</coordinates>
                </Point>
            </Placemark>
            <Placemark id="827">
                <name>LELIS PEÑA CORDOVA</name>
                <description>Ah.Sta.Rosa CLL.San.Miguel MZ.U lt.1 Morropon
Morropón

Piura
Perú</description>
                <styleUrl>#828</styleUrl>
                <Point id="826">
                    <coordinates>-79.968962,-5.179943,0.0</coordinates>
                </Point>
            </Placemark>
            <Placemark id="832">
                <name>SEGUNDO ERASMO AVALOS GUTIERREZ</name>
                <description>CALLE 2 MAYO 518
Morropón
Morropón
Piura
Perú</description>
                <styleUrl>#833</styleUrl>
                <Point id="831">
                    <coordinates>-79.9713538,-5.1840459,0.0</coordinates>
                </Point>
            </Placemark>
            <Placemark id="837">
                <name>SEGUNDO ERASMO AVALOS GUTIERREZ</name>
                <description>CALLE 2 MAYO 518
Morropón
Morropón
Piura
Perú</description>
                <styleUrl>#838</styleUrl>
                <Point id="836">
                    <coordinates>-79.9713538,-5.1840459,0.0</coordinates>
                </Point>
            </Placemark>
            <Placemark id="842">
                <name>ADELA GARCIA LOPEZ</name>
                <description>Av lima 620 morropón
Morropón
Morropón
Piura
Perú</description>
                <styleUrl>#843</styleUrl>
                <Point id="841">
                    <coordinates>-79.9671128,-5.1864914,0.0</coordinates>
                </Point>
            </Placemark>
            <Placemark id="847">
                <name>SIXTO OROZCO MONTALBAN</name>
                <description>CALLE LIMA II MORROPON-PIURA
Morropón
Morropón
Piura
Perú</description>
                <styleUrl>#848</styleUrl>
                <Point id="846">
                    <coordinates>-79.9656045,-5.1867027,0.0</coordinates>
                </Point>
            </Placemark>
            <Placemark id="852">
                <name>YERALDI CASTILLO CORDOVA</name>
                <description>Lima 465 / frente a Sixto Orozco
Morropón
Morropón
Piura
Perú</description>
                <styleUrl>#853</styleUrl>
                <Point id="851">
                    <coordinates>-79.9655605,-5.186827,0.0</coordinates>
                </Point>
            </Placemark>
            <Placemark id="857">
                <name>GLADYZ ELIZABETH MONTALVAN CORDOVA</name>
                <description>AV. JUAN VELAZCO MZ I LT 9 - MORROP
Morropón
Morropón
Piura
Perú</description>
                <styleUrl>#858</styleUrl>
                <Point id="856">
                    <coordinates>-79.9618082,-5.1880931,0.0</coordinates>
                </Point>
            </Placemark>
            <Placemark id="862">
                <name>ROSA ISABEL MOLERO MORALES</name>
                <description>AV LOPEZ ALBUJAR
Morropón
Morropón
Piura
Perú</description>
                <styleUrl>#863</styleUrl>
                <Point id="861">
                    <coordinates>-79.9664407,-5.1875505,0.0</coordinates>
                </Point>
            </Placemark>
            <Placemark id="867">
                <name>OCREYLER E.I.R.L.</name>
                <description>AV. LIMA NRO. 997 OTR. CERCADO
Morropón
Morropón
Piura
Perú</description>
                <styleUrl>#868</styleUrl>
                <Point id="866">
                    <coordinates>-79.9707676,-5.1859851,0.0</coordinates>
                </Point>
            </Placemark>
        </Folder>
    </Document>
</kml>
