<?xml version="1.0" encoding="UTF-8"?>
<kml xmlns="http://www.opengis.net/kml/2.2" xmlns:gx="http://www.google.com/kml/ext/2.2">
    <Document id="1597">
        <Folder id="1598">
            <Style id="1601">
                <IconStyle id="1602">
                    <color>ff0000ff</color>
                    <colorMode>normal</colorMode>
                    <scale>1</scale>
                    <heading>0</heading>
                    <Icon id="1603">
                        <href>http://maps.google.com/mapfiles/kml/pushpin/ylw-pushpin.png</href>
                    </Icon>
                </IconStyle>
            </Style>
            <Style id="1606">
                <IconStyle id="1607">
                    <color>ff0000ff</color>
                    <colorMode>normal</colorMode>
                    <scale>1</scale>
                    <heading>0</heading>
                    <Icon id="1608">
                        <href>http://maps.google.com/mapfiles/kml/pushpin/ylw-pushpin.png</href>
                    </Icon>
                </IconStyle>
            </Style>
            <Style id="1611">
                <IconStyle id="1612">
                    <color>ff0000ff</color>
                    <colorMode>normal</colorMode>
                    <scale>1</scale>
                    <heading>0</heading>
                    <Icon id="1613">
                        <href>http://maps.google.com/mapfiles/kml/pushpin/ylw-pushpin.png</href>
                    </Icon>
                </IconStyle>
            </Style>
            <Style id="1616">
                <IconStyle id="1617">
                    <color>ff0000ff</color>
                    <colorMode>normal</colorMode>
                    <scale>1</scale>
                    <heading>0</heading>
                    <Icon id="1618">
                        <href>http://maps.google.com/mapfiles/kml/pushpin/ylw-pushpin.png</href>
                    </Icon>
                </IconStyle>
            </Style>
            <Style id="1621">
                <IconStyle id="1622">
                    <color>ff0000ff</color>
                    <colorMode>normal</colorMode>
                    <scale>1</scale>
                    <heading>0</heading>
                    <Icon id="1623">
                        <href>http://maps.google.com/mapfiles/kml/pushpin/ylw-pushpin.png</href>
                    </Icon>
                </IconStyle>
            </Style>
            <Style id="1626">
                <IconStyle id="1627">
                    <color>ff0000ff</color>
                    <colorMode>normal</colorMode>
                    <scale>1</scale>
                    <heading>0</heading>
                    <Icon id="1628">
                        <href>http://maps.google.com/mapfiles/kml/pushpin/ylw-pushpin.png</href>
                    </Icon>
                </IconStyle>
            </Style>
            <Style id="1631">
                <IconStyle id="1632">
                    <color>ff0000ff</color>
                    <colorMode>normal</colorMode>
                    <scale>1</scale>
                    <heading>0</heading>
                    <Icon id="1633">
                        <href>http://maps.google.com/mapfiles/kml/pushpin/ylw-pushpin.png</href>
                    </Icon>
                </IconStyle>
            </Style>
            <Style id="1636">
                <IconStyle id="1637">
                    <color>ff0000ff</color>
                    <colorMode>normal</colorMode>
                    <scale>1</scale>
                    <heading>0</heading>
                    <Icon id="1638">
                        <href>http://maps.google.com/mapfiles/kml/pushpin/ylw-pushpin.png</href>
                    </Icon>
                </IconStyle>
            </Style>
            <Style id="1641">
                <IconStyle id="1642">
                    <color>ff0000ff</color>
                    <colorMode>normal</colorMode>
                    <scale>1</scale>
                    <heading>0</heading>
                    <Icon id="1643">
                        <href>http://maps.google.com/mapfiles/kml/pushpin/ylw-pushpin.png</href>
                    </Icon>
                </IconStyle>
            </Style>
            <Style id="1646">
                <IconStyle id="1647">
                    <color>ff0000ff</color>
                    <colorMode>normal</colorMode>
                    <scale>1</scale>
                    <heading>0</heading>
                    <Icon id="1648">
                        <href>http://maps.google.com/mapfiles/kml/pushpin/ylw-pushpin.png</href>
                    </Icon>
                </IconStyle>
            </Style>
            <Style id="1651">
                <IconStyle id="1652">
                    <color>ff0000ff</color>
                    <colorMode>normal</colorMode>
                    <scale>1</scale>
                    <heading>0</heading>
                    <Icon id="1653">
                        <href>http://maps.google.com/mapfiles/kml/pushpin/ylw-pushpin.png</href>
                    </Icon>
                </IconStyle>
            </Style>
            <Style id="1656">
                <IconStyle id="1657">
                    <color>ff0000ff</color>
                    <colorMode>normal</colorMode>
                    <scale>1</scale>
                    <heading>0</heading>
                    <Icon id="1658">
                        <href>http://maps.google.com/mapfiles/kml/pushpin/ylw-pushpin.png</href>
                    </Icon>
                </IconStyle>
            </Style>
            <Style id="1661">
                <IconStyle id="1662">
                    <color>ff0000ff</color>
                    <colorMode>normal</colorMode>
                    <scale>1</scale>
                    <heading>0</heading>
                    <Icon id="1663">
                        <href>http://maps.google.com/mapfiles/kml/pushpin/ylw-pushpin.png</href>
                    </Icon>
                </IconStyle>
            </Style>
            <Style id="1666">
                <IconStyle id="1667">
                    <color>ff0000ff</color>
                    <colorMode>normal</colorMode>
                    <scale>1</scale>
                    <heading>0</heading>
                    <Icon id="1668">
                        <href>http://maps.google.com/mapfiles/kml/pushpin/ylw-pushpin.png</href>
                    </Icon>
                </IconStyle>
            </Style>
            <Style id="1671">
                <IconStyle id="1672">
                    <color>ff0000ff</color>
                    <colorMode>normal</colorMode>
                    <scale>1</scale>
                    <heading>0</heading>
                    <Icon id="1673">
                        <href>http://maps.google.com/mapfiles/kml/pushpin/ylw-pushpin.png</href>
                    </Icon>
                </IconStyle>
            </Style>
            <name>EDDINSON CECILIO DIOSES SAAVEDRA</name>
            <Placemark id="1600">
                <name>MELISSA EUFEMIA CAMPOVERDE RIOS</name>
                <description>JR. DOS DE MAYO 800 - MORROPON
Morropón
Morropón
Piura
Perú</description>
                <styleUrl>#1601</styleUrl>
                <Point id="1599">
                    <coordinates>-79.968519,-5.189887,0.0</coordinates>
                </Point>
            </Placemark>
            <Placemark id="1605">
                <name>ASUNCION CASTILLO CORDOVA</name>
                <description>CA. 2 DE MAYO NÂ°578 - MORROPON
Morropón
Morropón
Piura
Perú</description>
                <styleUrl>#1606</styleUrl>
                <Point id="1604">
                    <coordinates>-79.9722881,-5.1837431,0.0</coordinates>
                </Point>
            </Placemark>
            <Placemark id="1610">
                <name>SEGUNDO ERASMO AVALOS GUTIERREZ</name>
                <description>CALLE 2 MAYO 518
Morropón
Morropón
Piura
Perú</description>
                <styleUrl>#1611</styleUrl>
                <Point id="1609">
                    <coordinates>-79.9713538,-5.1840459,0.0</coordinates>
                </Point>
            </Placemark>
            <Placemark id="1615">
                <name>OCREYLER E.I.R.L.</name>
                <description>AV. LIMA NRO. 997 OTR. CERCADO
Morropón
Morropón
Piura
Perú</description>
                <styleUrl>#1616</styleUrl>
                <Point id="1614">
                    <coordinates>-79.9707676,-5.1859851,0.0</coordinates>
                </Point>
            </Placemark>
            <Placemark id="1620">
                <name>CLEYDER GUEVARA GUEVARA</name>
                <description>JR CORDOVA 604
Morropón
Morropón
Piura
Perú</description>
                <styleUrl>#1621</styleUrl>
                <Point id="1619">
                    <coordinates>-79.9719633,-5.1835918,0.0</coordinates>
                </Point>
            </Placemark>
            <Placemark id="1625">
                <name>ASUNCION CASTILLO CORDOVA</name>
                <description>CA. 2 DE MAYO NÂ°578 - MORROPON
Morropón
Morropón
Piura
Perú</description>
                <styleUrl>#1626</styleUrl>
                <Point id="1624">
                    <coordinates>-79.9722881,-5.1837431,0.0</coordinates>
                </Point>
            </Placemark>
            <Placemark id="1630">
                <name>WALTER AGURTO CORREA</name>
                <description>WALTER AGURTO CORREA
CALLE 2 DE MAYO Nª560 - MORROPON
Morropón
Piura
Piura
Perú</description>
                <styleUrl>#1631</styleUrl>
                <Point id="1629">
                    <coordinates>-79.9716421,-5.1839607,0.0</coordinates>
                </Point>
            </Placemark>
            <Placemark id="1635">
                <name>SEGUNDO ERASMO AVALOS GUTIERREZ</name>
                <description>CALLE 2 MAYO 518
Morropón
Morropón
Piura
Perú</description>
                <styleUrl>#1636</styleUrl>
                <Point id="1634">
                    <coordinates>-79.9713538,-5.1840459,0.0</coordinates>
                </Point>
            </Placemark>
            <Placemark id="1640">
                <name>MARIANELA CHIRA CORDOVA</name>
                <description>Calle Lima 824
Morropón

Piura
Perú</description>
                <styleUrl>#1641</styleUrl>
                <Point id="1639">
                    <coordinates>-79.9693483,-5.1862194,0.0</coordinates>
                </Point>
            </Placemark>
            <Placemark id="1645">
                <name>SIXTO OROZCO MONTALBAN</name>
                <description>CALLE LIMA II MORROPON-PIURA
Morropón
Morropón
Piura
Perú</description>
                <styleUrl>#1646</styleUrl>
                <Point id="1644">
                    <coordinates>-79.9656045,-5.1867027,0.0</coordinates>
                </Point>
            </Placemark>
            <Placemark id="1650">
                <name>GLADYZ ELIZABETH MONTALVAN CORDOVA</name>
                <description>AV. JUAN VELAZCO MZ I LT 9 - MORROP
Morropón
Morropón
Piura
Perú</description>
                <styleUrl>#1651</styleUrl>
                <Point id="1649">
                    <coordinates>-79.9618082,-5.1880931,0.0</coordinates>
                </Point>
            </Placemark>
            <Placemark id="1655">
                <name>FRANCISCO JUAREZ NEYRA</name>
                <description>Calle Lima - Morropon
Morropón
Morropón
Piura
Perú</description>
                <styleUrl>#1656</styleUrl>
                <Point id="1654">
                    <coordinates>-79.961487,-5.187773,0.0</coordinates>
                </Point>
            </Placemark>
            <Placemark id="1660">
                <name>ROSA ISABEL MOLERO MORALES</name>
                <description>AV LOPEZ ALBUJAR
Morropón
Morropón
Piura
Perú</description>
                <styleUrl>#1661</styleUrl>
                <Point id="1659">
                    <coordinates>-79.9664407,-5.1875505,0.0</coordinates>
                </Point>
            </Placemark>
            <Placemark id="1665">
                <name>TRINIDAD SEMINARIO ROJAS</name>
                <description>CAL. LOPEZ ALBUJAR MZ. D LT. 4 AH.
Morropón

Piura
Perú</description>
                <styleUrl>#1666</styleUrl>
                <Point id="1664">
                    <coordinates>-79.9670283,-5.1871431,0.0</coordinates>
                </Point>
            </Placemark>
            <Placemark id="1670">
                <name>MELISSA EUFEMIA CAMPOVERDE RIOS</name>
                <description>JR. DOS DE MAYO 800 - MORROPON
Morropón
Morropón
Piura
Perú</description>
                <styleUrl>#1671</styleUrl>
                <Point id="1669">
                    <coordinates>-79.968519,-5.189887,0.0</coordinates>
                </Point>
            </Placemark>
        </Folder>
    </Document>
</kml>
