<?xml version="1.0" encoding="UTF-8"?>
<kml xmlns="http://www.opengis.net/kml/2.2" xmlns:gx="http://www.google.com/kml/ext/2.2">
    <Document id="1696">
        <Folder id="1697">
            <Style id="1700">
                <IconStyle id="1701">
                    <color>ff0000ff</color>
                    <colorMode>normal</colorMode>
                    <scale>1</scale>
                    <heading>0</heading>
                    <Icon id="1702">
                        <href>http://maps.google.com/mapfiles/kml/pushpin/ylw-pushpin.png</href>
                    </Icon>
                </IconStyle>
            </Style>
            <Style id="1705">
                <IconStyle id="1706">
                    <color>ff0000ff</color>
                    <colorMode>normal</colorMode>
                    <scale>1</scale>
                    <heading>0</heading>
                    <Icon id="1707">
                        <href>http://maps.google.com/mapfiles/kml/pushpin/ylw-pushpin.png</href>
                    </Icon>
                </IconStyle>
            </Style>
            <Style id="1710">
                <IconStyle id="1711">
                    <color>ff0000ff</color>
                    <colorMode>normal</colorMode>
                    <scale>1</scale>
                    <heading>0</heading>
                    <Icon id="1712">
                        <href>http://maps.google.com/mapfiles/kml/pushpin/ylw-pushpin.png</href>
                    </Icon>
                </IconStyle>
            </Style>
            <Style id="1715">
                <IconStyle id="1716">
                    <color>ff0000ff</color>
                    <colorMode>normal</colorMode>
                    <scale>1</scale>
                    <heading>0</heading>
                    <Icon id="1717">
                        <href>http://maps.google.com/mapfiles/kml/pushpin/ylw-pushpin.png</href>
                    </Icon>
                </IconStyle>
            </Style>
            <Style id="1720">
                <IconStyle id="1721">
                    <color>ff0000ff</color>
                    <colorMode>normal</colorMode>
                    <scale>1</scale>
                    <heading>0</heading>
                    <Icon id="1722">
                        <href>http://maps.google.com/mapfiles/kml/pushpin/ylw-pushpin.png</href>
                    </Icon>
                </IconStyle>
            </Style>
            <Style id="1725">
                <IconStyle id="1726">
                    <color>ff0000ff</color>
                    <colorMode>normal</colorMode>
                    <scale>1</scale>
                    <heading>0</heading>
                    <Icon id="1727">
                        <href>http://maps.google.com/mapfiles/kml/pushpin/ylw-pushpin.png</href>
                    </Icon>
                </IconStyle>
            </Style>
            <Style id="1730">
                <IconStyle id="1731">
                    <color>ff0000ff</color>
                    <colorMode>normal</colorMode>
                    <scale>1</scale>
                    <heading>0</heading>
                    <Icon id="1732">
                        <href>http://maps.google.com/mapfiles/kml/pushpin/ylw-pushpin.png</href>
                    </Icon>
                </IconStyle>
            </Style>
            <Style id="1735">
                <IconStyle id="1736">
                    <color>ff0000ff</color>
                    <colorMode>normal</colorMode>
                    <scale>1</scale>
                    <heading>0</heading>
                    <Icon id="1737">
                        <href>http://maps.google.com/mapfiles/kml/pushpin/ylw-pushpin.png</href>
                    </Icon>
                </IconStyle>
            </Style>
            <Style id="1740">
                <IconStyle id="1741">
                    <color>ff0000ff</color>
                    <colorMode>normal</colorMode>
                    <scale>1</scale>
                    <heading>0</heading>
                    <Icon id="1742">
                        <href>http://maps.google.com/mapfiles/kml/pushpin/ylw-pushpin.png</href>
                    </Icon>
                </IconStyle>
            </Style>
            <Style id="1745">
                <IconStyle id="1746">
                    <color>ff0000ff</color>
                    <colorMode>normal</colorMode>
                    <scale>1</scale>
                    <heading>0</heading>
                    <Icon id="1747">
                        <href>http://maps.google.com/mapfiles/kml/pushpin/ylw-pushpin.png</href>
                    </Icon>
                </IconStyle>
            </Style>
            <Style id="1750">
                <IconStyle id="1751">
                    <color>ff0000ff</color>
                    <colorMode>normal</colorMode>
                    <scale>1</scale>
                    <heading>0</heading>
                    <Icon id="1752">
                        <href>http://maps.google.com/mapfiles/kml/pushpin/ylw-pushpin.png</href>
                    </Icon>
                </IconStyle>
            </Style>
            <Style id="1755">
                <IconStyle id="1756">
                    <color>ff0000ff</color>
                    <colorMode>normal</colorMode>
                    <scale>1</scale>
                    <heading>0</heading>
                    <Icon id="1757">
                        <href>http://maps.google.com/mapfiles/kml/pushpin/ylw-pushpin.png</href>
                    </Icon>
                </IconStyle>
            </Style>
            <Style id="1760">
                <IconStyle id="1761">
                    <color>ff0000ff</color>
                    <colorMode>normal</colorMode>
                    <scale>1</scale>
                    <heading>0</heading>
                    <Icon id="1762">
                        <href>http://maps.google.com/mapfiles/kml/pushpin/ylw-pushpin.png</href>
                    </Icon>
                </IconStyle>
            </Style>
            <Style id="1765">
                <IconStyle id="1766">
                    <color>ff0000ff</color>
                    <colorMode>normal</colorMode>
                    <scale>1</scale>
                    <heading>0</heading>
                    <Icon id="1767">
                        <href>http://maps.google.com/mapfiles/kml/pushpin/ylw-pushpin.png</href>
                    </Icon>
                </IconStyle>
            </Style>
            <Style id="1770">
                <IconStyle id="1771">
                    <color>ff0000ff</color>
                    <colorMode>normal</colorMode>
                    <scale>1</scale>
                    <heading>0</heading>
                    <Icon id="1772">
                        <href>http://maps.google.com/mapfiles/kml/pushpin/ylw-pushpin.png</href>
                    </Icon>
                </IconStyle>
            </Style>
            <Style id="1775">
                <IconStyle id="1776">
                    <color>ff0000ff</color>
                    <colorMode>normal</colorMode>
                    <scale>1</scale>
                    <heading>0</heading>
                    <Icon id="1777">
                        <href>http://maps.google.com/mapfiles/kml/pushpin/ylw-pushpin.png</href>
                    </Icon>
                </IconStyle>
            </Style>
            <Style id="1780">
                <IconStyle id="1781">
                    <color>ff0000ff</color>
                    <colorMode>normal</colorMode>
                    <scale>1</scale>
                    <heading>0</heading>
                    <Icon id="1782">
                        <href>http://maps.google.com/mapfiles/kml/pushpin/ylw-pushpin.png</href>
                    </Icon>
                </IconStyle>
            </Style>
            <Style id="1785">
                <IconStyle id="1786">
                    <color>ff0000ff</color>
                    <colorMode>normal</colorMode>
                    <scale>1</scale>
                    <heading>0</heading>
                    <Icon id="1787">
                        <href>http://maps.google.com/mapfiles/kml/pushpin/ylw-pushpin.png</href>
                    </Icon>
                </IconStyle>
            </Style>
            <Style id="1790">
                <IconStyle id="1791">
                    <color>ff0000ff</color>
                    <colorMode>normal</colorMode>
                    <scale>1</scale>
                    <heading>0</heading>
                    <Icon id="1792">
                        <href>http://maps.google.com/mapfiles/kml/pushpin/ylw-pushpin.png</href>
                    </Icon>
                </IconStyle>
            </Style>
            <Style id="1795">
                <IconStyle id="1796">
                    <color>ff0000ff</color>
                    <colorMode>normal</colorMode>
                    <scale>1</scale>
                    <heading>0</heading>
                    <Icon id="1797">
                        <href>http://maps.google.com/mapfiles/kml/pushpin/ylw-pushpin.png</href>
                    </Icon>
                </IconStyle>
            </Style>
            <Style id="1800">
                <IconStyle id="1801">
                    <color>ff0000ff</color>
                    <colorMode>normal</colorMode>
                    <scale>1</scale>
                    <heading>0</heading>
                    <Icon id="1802">
                        <href>http://maps.google.com/mapfiles/kml/pushpin/ylw-pushpin.png</href>
                    </Icon>
                </IconStyle>
            </Style>
            <Style id="1805">
                <IconStyle id="1806">
                    <color>ff0000ff</color>
                    <colorMode>normal</colorMode>
                    <scale>1</scale>
                    <heading>0</heading>
                    <Icon id="1807">
                        <href>http://maps.google.com/mapfiles/kml/pushpin/ylw-pushpin.png</href>
                    </Icon>
                </IconStyle>
            </Style>
            <Style id="1810">
                <IconStyle id="1811">
                    <color>ff0000ff</color>
                    <colorMode>normal</colorMode>
                    <scale>1</scale>
                    <heading>0</heading>
                    <Icon id="1812">
                        <href>http://maps.google.com/mapfiles/kml/pushpin/ylw-pushpin.png</href>
                    </Icon>
                </IconStyle>
            </Style>
            <Style id="1815">
                <IconStyle id="1816">
                    <color>ff0000ff</color>
                    <colorMode>normal</colorMode>
                    <scale>1</scale>
                    <heading>0</heading>
                    <Icon id="1817">
                        <href>http://maps.google.com/mapfiles/kml/pushpin/ylw-pushpin.png</href>
                    </Icon>
                </IconStyle>
            </Style>
            <Style id="1820">
                <IconStyle id="1821">
                    <color>ff0000ff</color>
                    <colorMode>normal</colorMode>
                    <scale>1</scale>
                    <heading>0</heading>
                    <Icon id="1822">
                        <href>http://maps.google.com/mapfiles/kml/pushpin/ylw-pushpin.png</href>
                    </Icon>
                </IconStyle>
            </Style>
            <Style id="1825">
                <IconStyle id="1826">
                    <color>ff0000ff</color>
                    <colorMode>normal</colorMode>
                    <scale>1</scale>
                    <heading>0</heading>
                    <Icon id="1827">
                        <href>http://maps.google.com/mapfiles/kml/pushpin/ylw-pushpin.png</href>
                    </Icon>
                </IconStyle>
            </Style>
            <Style id="1830">
                <IconStyle id="1831">
                    <color>ff0000ff</color>
                    <colorMode>normal</colorMode>
                    <scale>1</scale>
                    <heading>0</heading>
                    <Icon id="1832">
                        <href>http://maps.google.com/mapfiles/kml/pushpin/ylw-pushpin.png</href>
                    </Icon>
                </IconStyle>
            </Style>
            <Style id="1835">
                <IconStyle id="1836">
                    <color>ff0000ff</color>
                    <colorMode>normal</colorMode>
                    <scale>1</scale>
                    <heading>0</heading>
                    <Icon id="1837">
                        <href>http://maps.google.com/mapfiles/kml/pushpin/ylw-pushpin.png</href>
                    </Icon>
                </IconStyle>
            </Style>
            <Style id="1840">
                <IconStyle id="1841">
                    <color>ff0000ff</color>
                    <colorMode>normal</colorMode>
                    <scale>1</scale>
                    <heading>0</heading>
                    <Icon id="1842">
                        <href>http://maps.google.com/mapfiles/kml/pushpin/ylw-pushpin.png</href>
                    </Icon>
                </IconStyle>
            </Style>
            <Style id="1845">
                <IconStyle id="1846">
                    <color>ff0000ff</color>
                    <colorMode>normal</colorMode>
                    <scale>1</scale>
                    <heading>0</heading>
                    <Icon id="1847">
                        <href>http://maps.google.com/mapfiles/kml/pushpin/ylw-pushpin.png</href>
                    </Icon>
                </IconStyle>
            </Style>
            <Style id="1850">
                <IconStyle id="1851">
                    <color>ff0000ff</color>
                    <colorMode>normal</colorMode>
                    <scale>1</scale>
                    <heading>0</heading>
                    <Icon id="1852">
                        <href>http://maps.google.com/mapfiles/kml/pushpin/ylw-pushpin.png</href>
                    </Icon>
                </IconStyle>
            </Style>
            <Style id="1855">
                <IconStyle id="1856">
                    <color>ff0000ff</color>
                    <colorMode>normal</colorMode>
                    <scale>1</scale>
                    <heading>0</heading>
                    <Icon id="1857">
                        <href>http://maps.google.com/mapfiles/kml/pushpin/ylw-pushpin.png</href>
                    </Icon>
                </IconStyle>
            </Style>
            <Style id="1860">
                <IconStyle id="1861">
                    <color>ff0000ff</color>
                    <colorMode>normal</colorMode>
                    <scale>1</scale>
                    <heading>0</heading>
                    <Icon id="1862">
                        <href>http://maps.google.com/mapfiles/kml/pushpin/ylw-pushpin.png</href>
                    </Icon>
                </IconStyle>
            </Style>
            <Style id="1865">
                <IconStyle id="1866">
                    <color>ff0000ff</color>
                    <colorMode>normal</colorMode>
                    <scale>1</scale>
                    <heading>0</heading>
                    <Icon id="1867">
                        <href>http://maps.google.com/mapfiles/kml/pushpin/ylw-pushpin.png</href>
                    </Icon>
                </IconStyle>
            </Style>
            <Style id="1870">
                <IconStyle id="1871">
                    <color>ff0000ff</color>
                    <colorMode>normal</colorMode>
                    <scale>1</scale>
                    <heading>0</heading>
                    <Icon id="1872">
                        <href>http://maps.google.com/mapfiles/kml/pushpin/ylw-pushpin.png</href>
                    </Icon>
                </IconStyle>
            </Style>
            <Style id="1875">
                <IconStyle id="1876">
                    <color>ff0000ff</color>
                    <colorMode>normal</colorMode>
                    <scale>1</scale>
                    <heading>0</heading>
                    <Icon id="1877">
                        <href>http://maps.google.com/mapfiles/kml/pushpin/ylw-pushpin.png</href>
                    </Icon>
                </IconStyle>
            </Style>
            <Style id="1880">
                <IconStyle id="1881">
                    <color>ff0000ff</color>
                    <colorMode>normal</colorMode>
                    <scale>1</scale>
                    <heading>0</heading>
                    <Icon id="1882">
                        <href>http://maps.google.com/mapfiles/kml/pushpin/ylw-pushpin.png</href>
                    </Icon>
                </IconStyle>
            </Style>
            <Style id="1885">
                <IconStyle id="1886">
                    <color>ff0000ff</color>
                    <colorMode>normal</colorMode>
                    <scale>1</scale>
                    <heading>0</heading>
                    <Icon id="1887">
                        <href>http://maps.google.com/mapfiles/kml/pushpin/ylw-pushpin.png</href>
                    </Icon>
                </IconStyle>
            </Style>
            <Style id="1890">
                <IconStyle id="1891">
                    <color>ff0000ff</color>
                    <colorMode>normal</colorMode>
                    <scale>1</scale>
                    <heading>0</heading>
                    <Icon id="1892">
                        <href>http://maps.google.com/mapfiles/kml/pushpin/ylw-pushpin.png</href>
                    </Icon>
                </IconStyle>
            </Style>
            <Style id="1895">
                <IconStyle id="1896">
                    <color>ff0000ff</color>
                    <colorMode>normal</colorMode>
                    <scale>1</scale>
                    <heading>0</heading>
                    <Icon id="1897">
                        <href>http://maps.google.com/mapfiles/kml/pushpin/ylw-pushpin.png</href>
                    </Icon>
                </IconStyle>
            </Style>
            <Style id="1900">
                <IconStyle id="1901">
                    <color>ff0000ff</color>
                    <colorMode>normal</colorMode>
                    <scale>1</scale>
                    <heading>0</heading>
                    <Icon id="1902">
                        <href>http://maps.google.com/mapfiles/kml/pushpin/ylw-pushpin.png</href>
                    </Icon>
                </IconStyle>
            </Style>
            <Style id="1905">
                <IconStyle id="1906">
                    <color>ff0000ff</color>
                    <colorMode>normal</colorMode>
                    <scale>1</scale>
                    <heading>0</heading>
                    <Icon id="1907">
                        <href>http://maps.google.com/mapfiles/kml/pushpin/ylw-pushpin.png</href>
                    </Icon>
                </IconStyle>
            </Style>
            <Style id="1910">
                <IconStyle id="1911">
                    <color>ff0000ff</color>
                    <colorMode>normal</colorMode>
                    <scale>1</scale>
                    <heading>0</heading>
                    <Icon id="1912">
                        <href>http://maps.google.com/mapfiles/kml/pushpin/ylw-pushpin.png</href>
                    </Icon>
                </IconStyle>
            </Style>
            <Style id="1915">
                <IconStyle id="1916">
                    <color>ff0000ff</color>
                    <colorMode>normal</colorMode>
                    <scale>1</scale>
                    <heading>0</heading>
                    <Icon id="1917">
                        <href>http://maps.google.com/mapfiles/kml/pushpin/ylw-pushpin.png</href>
                    </Icon>
                </IconStyle>
            </Style>
            <Style id="1920">
                <IconStyle id="1921">
                    <color>ff0000ff</color>
                    <colorMode>normal</colorMode>
                    <scale>1</scale>
                    <heading>0</heading>
                    <Icon id="1922">
                        <href>http://maps.google.com/mapfiles/kml/pushpin/ylw-pushpin.png</href>
                    </Icon>
                </IconStyle>
            </Style>
            <Style id="1925">
                <IconStyle id="1926">
                    <color>ff0000ff</color>
                    <colorMode>normal</colorMode>
                    <scale>1</scale>
                    <heading>0</heading>
                    <Icon id="1927">
                        <href>http://maps.google.com/mapfiles/kml/pushpin/ylw-pushpin.png</href>
                    </Icon>
                </IconStyle>
            </Style>
            <Style id="1930">
                <IconStyle id="1931">
                    <color>ff0000ff</color>
                    <colorMode>normal</colorMode>
                    <scale>1</scale>
                    <heading>0</heading>
                    <Icon id="1932">
                        <href>http://maps.google.com/mapfiles/kml/pushpin/ylw-pushpin.png</href>
                    </Icon>
                </IconStyle>
            </Style>
            <Style id="1935">
                <IconStyle id="1936">
                    <color>ff0000ff</color>
                    <colorMode>normal</colorMode>
                    <scale>1</scale>
                    <heading>0</heading>
                    <Icon id="1937">
                        <href>http://maps.google.com/mapfiles/kml/pushpin/ylw-pushpin.png</href>
                    </Icon>
                </IconStyle>
            </Style>
            <Style id="1940">
                <IconStyle id="1941">
                    <color>ff0000ff</color>
                    <colorMode>normal</colorMode>
                    <scale>1</scale>
                    <heading>0</heading>
                    <Icon id="1942">
                        <href>http://maps.google.com/mapfiles/kml/pushpin/ylw-pushpin.png</href>
                    </Icon>
                </IconStyle>
            </Style>
            <Style id="1945">
                <IconStyle id="1946">
                    <color>ff0000ff</color>
                    <colorMode>normal</colorMode>
                    <scale>1</scale>
                    <heading>0</heading>
                    <Icon id="1947">
                        <href>http://maps.google.com/mapfiles/kml/pushpin/ylw-pushpin.png</href>
                    </Icon>
                </IconStyle>
            </Style>
            <Style id="1950">
                <IconStyle id="1951">
                    <color>ff0000ff</color>
                    <colorMode>normal</colorMode>
                    <scale>1</scale>
                    <heading>0</heading>
                    <Icon id="1952">
                        <href>http://maps.google.com/mapfiles/kml/pushpin/ylw-pushpin.png</href>
                    </Icon>
                </IconStyle>
            </Style>
            <Style id="1955">
                <IconStyle id="1956">
                    <color>ff0000ff</color>
                    <colorMode>normal</colorMode>
                    <scale>1</scale>
                    <heading>0</heading>
                    <Icon id="1957">
                        <href>http://maps.google.com/mapfiles/kml/pushpin/ylw-pushpin.png</href>
                    </Icon>
                </IconStyle>
            </Style>
            <Style id="1960">
                <IconStyle id="1961">
                    <color>ff0000ff</color>
                    <colorMode>normal</colorMode>
                    <scale>1</scale>
                    <heading>0</heading>
                    <Icon id="1962">
                        <href>http://maps.google.com/mapfiles/kml/pushpin/ylw-pushpin.png</href>
                    </Icon>
                </IconStyle>
            </Style>
            <Style id="1965">
                <IconStyle id="1966">
                    <color>ff0000ff</color>
                    <colorMode>normal</colorMode>
                    <scale>1</scale>
                    <heading>0</heading>
                    <Icon id="1967">
                        <href>http://maps.google.com/mapfiles/kml/pushpin/ylw-pushpin.png</href>
                    </Icon>
                </IconStyle>
            </Style>
            <name>DOMITILA QUISPE MIRANDA</name>
            <Placemark id="1699">
                <name>SILVA PAICO GIOVANNI</name>
                <description>I.BARRETO MZ S-2 II ET PAITA
Paita
Paita
Piura
Perú</description>
                <styleUrl>#1700</styleUrl>
                <Point id="1698">
                    <coordinates>-81.0944508,-5.0896741,0.0</coordinates>
                </Point>
            </Placemark>
            <Placemark id="1704">
                <name>VICTOR MANUEL CHAPILLIQUEN QUINTANA</name>
                <description>Ah dos de agosto Mz O lote 28
Paita
Paita
Piura
Perú</description>
                <styleUrl>#1705</styleUrl>
                <Point id="1703">
                    <coordinates>-81.1112418,-5.1056685,0.0</coordinates>
                </Point>
            </Placemark>
            <Placemark id="1709">
                <name>JESSICA LILIANA REYES RAMIREZ</name>
                <description>LOS LAURELES SEGUNDA ETAPA MZ M LT 15
Paita
Paita
Piura
Perú</description>
                <styleUrl>#1710</styleUrl>
                <Point id="1708">
                    <coordinates>-81.1117741,-5.1074817,0.0</coordinates>
                </Point>
            </Placemark>
            <Placemark id="1714">
                <name>KENNY ALEXANDER NEIRA CUMPEN</name>
                <description>AAHH Los Laureles 2 etapa MZE lote 12
Paita
Paita
Piura
Perú</description>
                <styleUrl>#1715</styleUrl>
                <Point id="1713">
                    <coordinates>-81.1122984,-5.1068102,0.0</coordinates>
                </Point>
            </Placemark>
            <Placemark id="1719">
                <name>JUDITH JANINA BARRIENTOS SICHA</name>
                <description>MZ G LT 10 SEGUNDA ETAPA LOS LAURELES - PAITA
Paita
Paita
Piura
Perú</description>
                <styleUrl>#1720</styleUrl>
                <Point id="1718">
                    <coordinates>-81.1121444,-5.1075207,0.0</coordinates>
                </Point>
            </Placemark>
            <Placemark id="1724">
                <name>CLEMENTE CHUNGA CHUNGA</name>
                <description>AV MANUELITA SAENZ MZ Ñ LT22 SAN FRANCISCO PAITA-PIURA
Paita
Paita
Piura
Perú</description>
                <styleUrl>#1725</styleUrl>
                <Point id="1723">
                    <coordinates>-81.1083277,-5.1003383,0.0</coordinates>
                </Point>
            </Placemark>
            <Placemark id="1729">
                <name>DOMINGUEZ MORENO CRUZ E.</name>
                <description>AH LOS LAURELES ET II MZ W-01
Paita

Piura
Perú</description>
                <styleUrl>#1730</styleUrl>
                <Point id="1728">
                    <coordinates>-81.112354,-5.108815,0.0</coordinates>
                </Point>
            </Placemark>
            <Placemark id="1734">
                <name>HENRRY SMITH CORDOVA GARCIA</name>
                <description>AAHH LOS LAURELES MZ F LOTE 07
Paita
Paita
Piura
Perú</description>
                <styleUrl>#1735</styleUrl>
                <Point id="1733">
                    <coordinates>-81.1149475,-5.1051299,0.0</coordinates>
                </Point>
            </Placemark>
            <Placemark id="1739">
                <name>ELBIA VALDEZ ZAPATA</name>
                <description>Los laureles 2 etapa k lote 8
Paita
Paita
Piura
Perú</description>
                <styleUrl>#1740</styleUrl>
                <Point id="1738">
                    <coordinates>-81.1145972,-5.107739,0.0</coordinates>
                </Point>
            </Placemark>
            <Placemark id="1744">
                <name>MARIOLINDA GARCIA SANTOS</name>
                <description>AH LOS LAURELES MZ D PRIMA LT 10 -PAITA
Paita
Paita
Piura
Perú</description>
                <styleUrl>#1745</styleUrl>
                <Point id="1743">
                    <coordinates>-81.1171563,-5.1056711,0.0</coordinates>
                </Point>
            </Placemark>
            <Placemark id="1749">
                <name>MARIA ROSA CHERO VILLANUEVA</name>
                <description>AS LAURELES 1ET MZ Q LT 9
Paita
Paita
Piura
Perú</description>
                <styleUrl>#1750</styleUrl>
                <Point id="1748">
                    <coordinates>-81.1146153,-5.1089479,0.0</coordinates>
                </Point>
            </Placemark>
            <Placemark id="1754">
                <name>JORGE PALACIOS SOCOLA</name>
                <description>AHH LOS LAURELES PRIMERA ETAPA MZ R LOTE 11
Paita
Paita
Piura
Perú</description>
                <styleUrl>#1755</styleUrl>
                <Point id="1753">
                    <coordinates>-81.1144921,-5.1092482,0.0</coordinates>
                </Point>
            </Placemark>
            <Placemark id="1759">
                <name>NAISHA CAROLINA FERNANDEZ PRADO</name>
                <description>Ah Miraflores mz N lote 6 referencia atrás del  colegio fe y alegría
Paita
Paita
Piura
Perú</description>
                <styleUrl>#1760</styleUrl>
                <Point id="1758">
                    <coordinates>-81.1187629,-5.1031701,0.0</coordinates>
                </Point>
            </Placemark>
            <Placemark id="1764">
                <name>SARA SILUPU GALECIO</name>
                <description>Ah nuevo horizonte mz A lt 14
Paita
Paita
Piura
Perú</description>
                <styleUrl>#1765</styleUrl>
                <Point id="1763">
                    <coordinates>-81.1196629,-5.1054954,0.0</coordinates>
                </Point>
            </Placemark>
            <Placemark id="1769">
                <name>YESENIA MARLENE LOPEZ SABA</name>
                <description>Villa cristo mz B lote 4
Paita

Piura
Perú</description>
                <styleUrl>#1770</styleUrl>
                <Point id="1768">
                    <coordinates>-81.1204426,-5.1049145,0.0</coordinates>
                </Point>
            </Placemark>
            <Placemark id="1774">
                <name>MILAGRITOS LARREA CHAHUA</name>
                <description>AA.HH MIGUEL GRAU MZ U LT 8 - POR EL CAMPO DEPORTIVO LOS PARCEROS (CHAKARITA)
Paita
Paita
Piura
Perú</description>
                <styleUrl>#1775</styleUrl>
                <Point id="1773">
                    <coordinates>-81.1206507,-5.0977557,0.0</coordinates>
                </Point>
            </Placemark>
            <Placemark id="1779">
                <name>GABY MARLENE RUFINO LOPEZ</name>
                <description>AAHH VILLA ROSAS MZ B LOTE 1 PAITA-PIURA
Paita
Paita
Piura
Perú</description>
                <styleUrl>#1780</styleUrl>
                <Point id="1778">
                    <coordinates>-81.1215379,-5.1053325,0.0</coordinates>
                </Point>
            </Placemark>
            <Placemark id="1784">
                <name>LILIANA SAAVEDRA PEREZ</name>
                <description>Aahh bahia pait mz a lote 03
Paita

Piura
Perú</description>
                <styleUrl>#1785</styleUrl>
                <Point id="1783">
                    <coordinates>-81.1227135,-5.1051865,0.0</coordinates>
                </Point>
            </Placemark>
            <Placemark id="1789">
                <name>MARS ANTHONNY FIESTAS LOPEZ</name>
                <description>AMP. MIRAFLORES MZ D LT 15 PAITA-PIURA
Paita
Paita
Piura
Perú</description>
                <styleUrl>#1790</styleUrl>
                <Point id="1788">
                    <coordinates>-81.1202049,-5.0998932,0.0</coordinates>
                </Point>
            </Placemark>
            <Placemark id="1794">
                <name>ESTHER HUAMAN DELGADO</name>
                <description>AMPLIACION MIGUEL GRAU MZ I-1 PAITA-PIURA
Paita
Paita
Piura
Perú</description>
                <styleUrl>#1795</styleUrl>
                <Point id="1793">
                    <coordinates>-81.120126,-5.0997504,0.0</coordinates>
                </Point>
            </Placemark>
            <Placemark id="1799">
                <name>MERCEDES DEL PILAR RUGEL SALAZAR</name>
                <description>AAHH AMPLIACIÓN MIGUEL GRAU ( AL FRENTE DE LA ANTENA )
Paita
Paita
Piura
Perú</description>
                <styleUrl>#1800</styleUrl>
                <Point id="1798">
                    <coordinates>-81.1200896,-5.098654,0.0</coordinates>
                </Point>
            </Placemark>
            <Placemark id="1804">
                <name>KAREN MARICEL NALLI PAZ HUATANGARI</name>
                <description>Aahh ampliacion miguel grau heruoes del milenio mz i lote 07
Paita

Piura
Perú</description>
                <styleUrl>#1805</styleUrl>
                <Point id="1803">
                    <coordinates>-81.1217911,-5.0964512,0.0</coordinates>
                </Point>
            </Placemark>
            <Placemark id="1809">
                <name>JOSELYN MARIA CHUQUILLANQUI VILCHEZ</name>
                <description>AMPLIACIÓN MIGUEL GRAU MZ G LOTE 21
Paita
Paita
Piura
Perú</description>
                <styleUrl>#1810</styleUrl>
                <Point id="1808">
                    <coordinates>-81.1213014,-5.0966872,0.0</coordinates>
                </Point>
            </Placemark>
            <Placemark id="1814">
                <name>SARITA GUERRERO ROMAN</name>
                <description>AHH AMPLIACIÓN MIGUEL GRAU MZ L LT 35
Paita
Paita
Piura
Perú</description>
                <styleUrl>#1815</styleUrl>
                <Point id="1813">
                    <coordinates>-81.1210757,-5.096745,0.0</coordinates>
                </Point>
            </Placemark>
            <Placemark id="1819">
                <name>CRISTHIAN ALBERTO TUME PAZOS</name>
                <description>Ah Miguel Grau Mz j lt 28
Paita
Paita
Piura
Perú</description>
                <styleUrl>#1820</styleUrl>
                <Point id="1818">
                    <coordinates>-81.1196386,-5.0971854,0.0</coordinates>
                </Point>
            </Placemark>
            <Placemark id="1824">
                <name>ERMITAÑA JIMENEZ LOPEZ</name>
                <description>AAHH MIGUEL GRAU MZ L LT 13
Paita
Paita
Piura
Perú</description>
                <styleUrl>#1825</styleUrl>
                <Point id="1823">
                    <coordinates>-81.1185558,-5.0986075,0.0</coordinates>
                </Point>
            </Placemark>
            <Placemark id="1829">
                <name>MARCOLINA CASTILLO CORDOVA</name>
                <description>Ah Juan Noel mz G lote 8
Paita
Paita
Piura
Perú</description>
                <styleUrl>#1830</styleUrl>
                <Point id="1828">
                    <coordinates>-81.1127991,-5.0997127,0.0</coordinates>
                </Point>
            </Placemark>
            <Placemark id="1834">
                <name>MARIA FELICITA NIZAMA VDA DE RUIZ</name>
                <description>Av huascar mz n lote 09
Paita

Piura
Perú</description>
                <styleUrl>#1835</styleUrl>
                <Point id="1833">
                    <coordinates>-81.1080571,-5.1005552,0.0</coordinates>
                </Point>
            </Placemark>
            <Placemark id="1839">
                <name>PETRONILA MERINO JABO</name>
                <description>PETRONILA MERINO JABO
HUASCAR Ñ-5 P J EL TABLAZO PAITA
Paita
Paita
Piura
Perú</description>
                <styleUrl>#1840</styleUrl>
                <Point id="1838">
                    <coordinates>-81.1085291,-5.0999808,0.0</coordinates>
                </Point>
            </Placemark>
            <Placemark id="1844">
                <name>ARACELY DEL TUME NEIRA DE JACINTO</name>
                <description>SAN FRANCISCO Y6-15
Paita
Paita
Piura
Perú</description>
                <styleUrl>#1845</styleUrl>
                <Point id="1843">
                    <coordinates>-81.1052005,-5.0989225,0.0</coordinates>
                </Point>
            </Placemark>
            <Placemark id="1849">
                <name>LUIS ENRIQUE BENITES CARRION</name>
                <description>San Francisco mz G lote 9 tablazo
Paita
Paita
Piura
Perú</description>
                <styleUrl>#1850</styleUrl>
                <Point id="1848">
                    <coordinates>-81.1041637,-5.0977019,0.0</coordinates>
                </Point>
            </Placemark>
            <Placemark id="1854">
                <name>ENRRIQUETA HERRERA VALDIVIEZO</name>
                <description>MZ E LT 04 TABLAZO PAITA ALTA
Paita
Paita
Piura
Perú</description>
                <styleUrl>#1855</styleUrl>
                <Point id="1853">
                    <coordinates>-81.1035259,-5.0967546,0.0</coordinates>
                </Point>
            </Placemark>
            <Placemark id="1859">
                <name>SHIRLEY KAROLY AREVALO GARCIA</name>
                <description>MZ F2 LT 6 AH SAN FRANCISCO
Paita
Paita
Piura
Perú</description>
                <styleUrl>#1860</styleUrl>
                <Point id="1858">
                    <coordinates>-81.1032644,-5.0969077,0.0</coordinates>
                </Point>
            </Placemark>
            <Placemark id="1864">
                <name>FLORESMINDA MOGOLLON CARREÑO</name>
                <description>Mz B lote 8 Los jasmines
Paita
Paita
Piura
Perú</description>
                <styleUrl>#1865</styleUrl>
                <Point id="1863">
                    <coordinates>-81.1010613,-5.0980987,0.0</coordinates>
                </Point>
            </Placemark>
            <Placemark id="1869">
                <name>CHAMBA GARCIA DE SANCHEZ A.</name>
                <description>JAZMINEZ  B 2 POR CIRCUNV.
Paita
Paita
Piura
Perú</description>
                <styleUrl>#1870</styleUrl>
                <Point id="1868">
                    <coordinates>-81.1012927,-5.0982178,0.0</coordinates>
                </Point>
            </Placemark>
            <Placemark id="1874">
                <name>MARIA FLORES AVILA DE MOGOLLON</name>
                <description>BR.CIUDAD ROJA DEL PESCADOR MZ R2 L
Paita
Paita
Piura
Perú</description>
                <styleUrl>#1875</styleUrl>
                <Point id="1873">
                    <coordinates>-81.0999815,-5.0969027,0.0</coordinates>
                </Point>
            </Placemark>
            <Placemark id="1879">
                <name>GALAN PAZO SANTOS MARLENE</name>
                <description>A.H.CIUDAD ROJA MZ.F1 LT.12
Paita
Paita
Piura
Perú</description>
                <styleUrl>#1880</styleUrl>
                <Point id="1878">
                    <coordinates>-81.0991945,-5.0949564,0.0</coordinates>
                </Point>
            </Placemark>
            <Placemark id="1884">
                <name>JOSÉ PURIZACA FIESTAS</name>
                <description>Mz s lote 6 ciudad roja
Paita
Paita
Piura
Perú</description>
                <styleUrl>#1885</styleUrl>
                <Point id="1883">
                    <coordinates>-81.1039035,-5.1016337,0.0</coordinates>
                </Point>
            </Placemark>
            <Placemark id="1889">
                <name>ELVIRA FRANCI ECHE RAMIREZ DE GALAN</name>
                <description>MZ R1 LT 23 CIUDAD ROJA - PAITA
Paita
Paita
Piura
Perú</description>
                <styleUrl>#1890</styleUrl>
                <Point id="1888">
                    <coordinates>-81.098745,-5.0948205,0.0</coordinates>
                </Point>
            </Placemark>
            <Placemark id="1894">
                <name>IRMA ROSARIO AREVALO ECHE</name>
                <description>8 DE JULIO A-05-PAITA-PAITA
Paita
Paita
Piura
Perú</description>
                <styleUrl>#1895</styleUrl>
                <Point id="1893">
                    <coordinates>-81.0972823,-5.0937024,0.0</coordinates>
                </Point>
            </Placemark>
            <Placemark id="1899">
                <name>ROSA NIDIA SOJO DE LORO</name>
                <description>AAHH CIUDAD ROJA MZ I 1 LT 26 - PAITA
Paita
Paita
Piura
Perú</description>
                <styleUrl>#1900</styleUrl>
                <Point id="1898">
                    <coordinates>-81.096899,-5.0933674,0.0</coordinates>
                </Point>
            </Placemark>
            <Placemark id="1904">
                <name>ETERIA PALACIOS DE LOPEZ</name>
                <description>Las Mercedes mz A lote 7 paita alta
Paita
Paita
Piura
Perú</description>
                <styleUrl>#1905</styleUrl>
                <Point id="1903">
                    <coordinates>-81.0976646,-5.0890351,0.0</coordinates>
                </Point>
            </Placemark>
            <Placemark id="1909">
                <name>WILMER MALKIYADIR REYES TALLEDO</name>
                <description>Fonavi primera etapa mz I ote 13
Paita
Paita
Piura
Perú</description>
                <styleUrl>#1910</styleUrl>
                <Point id="1908">
                    <coordinates>-81.0934443,-5.0928084,0.0</coordinates>
                </Point>
            </Placemark>
            <Placemark id="1914">
                <name>JHAIRO BERNABE BAYONA BENITES</name>
                <description>Calle las begonias con tulipanes FONAVI
Paita
Paita
Piura
Perú</description>
                <styleUrl>#1915</styleUrl>
                <Point id="1913">
                    <coordinates>-81.0936437,-5.0935718,0.0</coordinates>
                </Point>
            </Placemark>
            <Placemark id="1919">
                <name>MARS GREGORY FIESTAS LOPEZ</name>
                <description>ISABEL BARRETO MZ K LOTE 5 2DA ETAPA
Paita
Paita
Piura
Perú</description>
                <styleUrl>#1920</styleUrl>
                <Point id="1918">
                    <coordinates>-81.0932922,-5.0957155,0.0</coordinates>
                </Point>
            </Placemark>
            <Placemark id="1924">
                <name>ANA CASTRO DE TANDAZO</name>
                <description>Fonavi 2 etapa mz I lote 28
Paita
Paita
Piura
Perú</description>
                <styleUrl>#1925</styleUrl>
                <Point id="1923">
                    <coordinates>-81.0933716,-5.0954102,0.0</coordinates>
                </Point>
            </Placemark>
            <Placemark id="1929">
                <name>LUZ NAVARRO SILVA</name>
                <description>FONAVI II ETAPA MZ M1 LT1 PAITA-PIURA
Paita
Paita
Piura
Perú</description>
                <styleUrl>#1930</styleUrl>
                <Point id="1928">
                    <coordinates>-81.0944309,-5.0946933,0.0</coordinates>
                </Point>
            </Placemark>
            <Placemark id="1934">
                <name>MAGGIE MAGDALENA IPANAQUE GARCIA</name>
                <description>CA CARLOS CANAVERO MZ I LT 29 AAHHMIGUEL GRAU
Paita

Piura
Perú</description>
                <styleUrl>#1935</styleUrl>
                <Point id="1933">
                    <coordinates>-81.1187398,-5.0977535,0.0</coordinates>
                </Point>
            </Placemark>
            <Placemark id="1939">
                <name>GONZALES HUILCA MERCEDES SOLEDAD</name>
                <description>BARRETO B33 2ETAPA
Paita
Paita
Piura
Perú</description>
                <styleUrl>#1940</styleUrl>
                <Point id="1938">
                    <coordinates>-81.094544,-5.0935627,0.0</coordinates>
                </Point>
            </Placemark>
            <Placemark id="1944">
                <name>ROSA BENIGNA RIVERA VERA</name>
                <description>ROSA BENIGNA RIVERA VERA
MZ A LT 13 I ETAPA URB ISABEL BARRETO - PAITA
Paita
Paita
Piura
Perú</description>
                <styleUrl>#1945</styleUrl>
                <Point id="1943">
                    <coordinates>-81.0949825,-5.0923402,0.0</coordinates>
                </Point>
            </Placemark>
            <Placemark id="1949">
                <name>ZANDRO OLAVO ANICETO NEIRA</name>
                <description>ZANDRO OLAVO ANICETO NEIRA
AV.FONAVI MZ B LT 01 AH.ISABEL BARR
Paita
Paita
Piura
Perú</description>
                <styleUrl>#1950</styleUrl>
                <Point id="1948">
                    <coordinates>-81.0952398,-5.0921589,0.0</coordinates>
                </Point>
            </Placemark>
            <Placemark id="1954">
                <name>ZANDRO OLAVO ANICETO NEIRA</name>
                <description>ZANDRO OLAVO ANICETO NEIRA
AV.FONAVI MZ B LT 01 AH.ISABEL BARR
Paita
Paita
Piura
Perú</description>
                <styleUrl>#1955</styleUrl>
                <Point id="1953">
                    <coordinates>-81.0952398,-5.0921589,0.0</coordinates>
                </Point>
            </Placemark>
            <Placemark id="1959">
                <name>LLACSAHUANGA HUAMAN EUFRASIA</name>
                <description>A.H.NUEVO HORIZONTE MZ.A LT.3
Paita
Paita
Piura
Perú</description>
                <styleUrl>#1960</styleUrl>
                <Point id="1958">
                    <coordinates>-81.118053,-5.106482,0.0</coordinates>
                </Point>
            </Placemark>
            <Placemark id="1964">
                <name>PILAR NORMA CHAVELON PALOMINO</name>
                <description>F16 8 DE JULIO PAITA-PAITA
Paita
Paita
Piura
Perú</description>
                <styleUrl>#1965</styleUrl>
                <Point id="1963">
                    <coordinates>-81.0942731,-5.0969987,0.0</coordinates>
                </Point>
            </Placemark>
        </Folder>
        <Folder id="1968">
            <Style id="1971">
                <IconStyle id="1972">
                    <color>ffff0000</color>
                    <colorMode>normal</colorMode>
                    <scale>1</scale>
                    <heading>0</heading>
                    <Icon id="1973">
                        <href>http://maps.google.com/mapfiles/kml/pushpin/ylw-pushpin.png</href>
                    </Icon>
                </IconStyle>
            </Style>
            <Style id="1976">
                <IconStyle id="1977">
                    <color>ffff0000</color>
                    <colorMode>normal</colorMode>
                    <scale>1</scale>
                    <heading>0</heading>
                    <Icon id="1978">
                        <href>http://maps.google.com/mapfiles/kml/pushpin/ylw-pushpin.png</href>
                    </Icon>
                </IconStyle>
            </Style>
            <Style id="1981">
                <IconStyle id="1982">
                    <color>ffff0000</color>
                    <colorMode>normal</colorMode>
                    <scale>1</scale>
                    <heading>0</heading>
                    <Icon id="1983">
                        <href>http://maps.google.com/mapfiles/kml/pushpin/ylw-pushpin.png</href>
                    </Icon>
                </IconStyle>
            </Style>
            <Style id="1986">
                <IconStyle id="1987">
                    <color>ffff0000</color>
                    <colorMode>normal</colorMode>
                    <scale>1</scale>
                    <heading>0</heading>
                    <Icon id="1988">
                        <href>http://maps.google.com/mapfiles/kml/pushpin/ylw-pushpin.png</href>
                    </Icon>
                </IconStyle>
            </Style>
            <Style id="1991">
                <IconStyle id="1992">
                    <color>ffff0000</color>
                    <colorMode>normal</colorMode>
                    <scale>1</scale>
                    <heading>0</heading>
                    <Icon id="1993">
                        <href>http://maps.google.com/mapfiles/kml/pushpin/ylw-pushpin.png</href>
                    </Icon>
                </IconStyle>
            </Style>
            <Style id="1996">
                <IconStyle id="1997">
                    <color>ffff0000</color>
                    <colorMode>normal</colorMode>
                    <scale>1</scale>
                    <heading>0</heading>
                    <Icon id="1998">
                        <href>http://maps.google.com/mapfiles/kml/pushpin/ylw-pushpin.png</href>
                    </Icon>
                </IconStyle>
            </Style>
            <Style id="2001">
                <IconStyle id="2002">
                    <color>ffff0000</color>
                    <colorMode>normal</colorMode>
                    <scale>1</scale>
                    <heading>0</heading>
                    <Icon id="2003">
                        <href>http://maps.google.com/mapfiles/kml/pushpin/ylw-pushpin.png</href>
                    </Icon>
                </IconStyle>
            </Style>
            <Style id="2006">
                <IconStyle id="2007">
                    <color>ffff0000</color>
                    <colorMode>normal</colorMode>
                    <scale>1</scale>
                    <heading>0</heading>
                    <Icon id="2008">
                        <href>http://maps.google.com/mapfiles/kml/pushpin/ylw-pushpin.png</href>
                    </Icon>
                </IconStyle>
            </Style>
            <Style id="2011">
                <IconStyle id="2012">
                    <color>ffff0000</color>
                    <colorMode>normal</colorMode>
                    <scale>1</scale>
                    <heading>0</heading>
                    <Icon id="2013">
                        <href>http://maps.google.com/mapfiles/kml/pushpin/ylw-pushpin.png</href>
                    </Icon>
                </IconStyle>
            </Style>
            <Style id="2016">
                <IconStyle id="2017">
                    <color>ffff0000</color>
                    <colorMode>normal</colorMode>
                    <scale>1</scale>
                    <heading>0</heading>
                    <Icon id="2018">
                        <href>http://maps.google.com/mapfiles/kml/pushpin/ylw-pushpin.png</href>
                    </Icon>
                </IconStyle>
            </Style>
            <Style id="2021">
                <IconStyle id="2022">
                    <color>ffff0000</color>
                    <colorMode>normal</colorMode>
                    <scale>1</scale>
                    <heading>0</heading>
                    <Icon id="2023">
                        <href>http://maps.google.com/mapfiles/kml/pushpin/ylw-pushpin.png</href>
                    </Icon>
                </IconStyle>
            </Style>
            <Style id="2026">
                <IconStyle id="2027">
                    <color>ffff0000</color>
                    <colorMode>normal</colorMode>
                    <scale>1</scale>
                    <heading>0</heading>
                    <Icon id="2028">
                        <href>http://maps.google.com/mapfiles/kml/pushpin/ylw-pushpin.png</href>
                    </Icon>
                </IconStyle>
            </Style>
            <Style id="2031">
                <IconStyle id="2032">
                    <color>ffff0000</color>
                    <colorMode>normal</colorMode>
                    <scale>1</scale>
                    <heading>0</heading>
                    <Icon id="2033">
                        <href>http://maps.google.com/mapfiles/kml/pushpin/ylw-pushpin.png</href>
                    </Icon>
                </IconStyle>
            </Style>
            <Style id="2036">
                <IconStyle id="2037">
                    <color>ffff0000</color>
                    <colorMode>normal</colorMode>
                    <scale>1</scale>
                    <heading>0</heading>
                    <Icon id="2038">
                        <href>http://maps.google.com/mapfiles/kml/pushpin/ylw-pushpin.png</href>
                    </Icon>
                </IconStyle>
            </Style>
            <Style id="2041">
                <IconStyle id="2042">
                    <color>ffff0000</color>
                    <colorMode>normal</colorMode>
                    <scale>1</scale>
                    <heading>0</heading>
                    <Icon id="2043">
                        <href>http://maps.google.com/mapfiles/kml/pushpin/ylw-pushpin.png</href>
                    </Icon>
                </IconStyle>
            </Style>
            <name>LEONARDO VIERA CHAVEZ</name>
            <Placemark id="1970">
                <name>SUPER NORTE E.I.R.L.</name>
                <description>AV. MIGUEL GRAU MZA. 003 LOTE. 02 PAITA
Paita
200502Paita
Piura
Perú</description>
                <styleUrl>#1971</styleUrl>
                <Point id="1969">
                    <coordinates>-81.098897,-5.0868911,0.0</coordinates>
                </Point>
            </Placemark>
            <Placemark id="1975">
                <name>CARMENCITA VELA VELA</name>
                <description>MCDO MODELO PAITA BAJA #78 PAITA-PIURA
Paita
Paita
Piura
Perú</description>
                <styleUrl>#1976</styleUrl>
                <Point id="1974">
                    <coordinates>-81.1130277,-5.0909058,0.0</coordinates>
                </Point>
            </Placemark>
            <Placemark id="1980">
                <name>PETRONILA ARGUELLO DIOSES</name>
                <description>Calla David Pabli Colan
Colan
Paita
Piura
Perú</description>
                <styleUrl>#1981</styleUrl>
                <Point id="1979">
                    <coordinates>-81.0464629,-5.0067388,0.0</coordinates>
                </Point>
            </Placemark>
            <Placemark id="1985">
                <name>SUPER NORTE E.I.R.L.</name>
                <description>AV. MIGUEL GRAU MZA. 003 LOTE. 02 PAITA
Paita
200502Paita
Piura
Perú</description>
                <styleUrl>#1986</styleUrl>
                <Point id="1984">
                    <coordinates>-81.098897,-5.0868911,0.0</coordinates>
                </Point>
            </Placemark>
            <Placemark id="1990">
                <name>INFANTE TAVARA MARIA INES</name>
                <description>INFANTE TAVARA MARIA INES
JR FRANCISCO BOLOGNESI E108
Colan

Piura
Perú</description>
                <styleUrl>#1991</styleUrl>
                <Point id="1989">
                    <coordinates>-81.070509,-4.995287,0.0</coordinates>
                </Point>
            </Placemark>
            <Placemark id="1995">
                <name>LAUREANO SANDOVAL CARCAMO</name>
                <description>AV LA ESMERALDA ( PANIFICADORA LA ESMERALDA )
Colan
Paita
Piura
Perú</description>
                <styleUrl>#1996</styleUrl>
                <Point id="1994">
                    <coordinates>-81.0642045,-5.0082579,0.0</coordinates>
                </Point>
            </Placemark>
            <Placemark id="2000">
                <name>CARMELA MARIA SANDOVAL CARCAMO</name>
                <description>Calle Libertad Colan( Bodega Zabdy)
Colan
Paita
Piura
Perú</description>
                <styleUrl>#2001</styleUrl>
                <Point id="1999">
                    <coordinates>-81.0642328,-5.0081681,0.0</coordinates>
                </Point>
            </Placemark>
            <Placemark id="2005">
                <name>OLAYA NIZAMA SOCORRO</name>
                <description>AV.ESMERALDA S/N COLAN
Colan
Paita
Piura
Perú</description>
                <styleUrl>#2006</styleUrl>
                <Point id="2004">
                    <coordinates>-81.0636461,-5.0081863,0.0</coordinates>
                </Point>
            </Placemark>
            <Placemark id="2010">
                <name>ROSA AURELIA CHINGA CHUNGA</name>
                <description>
Colan
Colan
Piura
Perú</description>
                <styleUrl>#2011</styleUrl>
                <Point id="2009">
                    <coordinates>-81.0598658,-5.0063966,0.0</coordinates>
                </Point>
            </Placemark>
            <Placemark id="2015">
                <name>ANA LIZ ARGUELLO CHUNGA</name>
                <description>Calle libertad 106 San Lucas de colan
Colan
Paita
Piura
Perú</description>
                <styleUrl>#2016</styleUrl>
                <Point id="2014">
                    <coordinates>-81.0585035,-5.0064555,0.0</coordinates>
                </Point>
            </Placemark>
            <Placemark id="2020">
                <name>EMITERIA AYALA CORONADO</name>
                <description>CA. AVELINO CACERES NÂ°100 C.P SAN
Colan
Paita
Piura
Perú</description>
                <styleUrl>#2021</styleUrl>
                <Point id="2019">
                    <coordinates>-81.05812,-5.0036286,0.0</coordinates>
                </Point>
            </Placemark>
            <Placemark id="2025">
                <name>FELICIA DE LA CRUZ DE RUIZ</name>
                <description>Sanchez cerro  071 Colan
Colan
Paita
Piura
Perú</description>
                <styleUrl>#2026</styleUrl>
                <Point id="2024">
                    <coordinates>-81.0573259,-5.0050618,0.0</coordinates>
                </Point>
            </Placemark>
            <Placemark id="2030">
                <name>JUAN JESUS CULQUE FIESTAS</name>
                <description>CA DOMINGO GARCIA CP NUEVO PARAI
Colan
Paita
Piura
Perú</description>
                <styleUrl>#2031</styleUrl>
                <Point id="2029">
                    <coordinates>-81.0473829,-5.0055749,0.0</coordinates>
                </Point>
            </Placemark>
            <Placemark id="2035">
                <name>JUANA HERNA CARCAMO</name>
                <description>Calle Domingo García Hospital  Colan
Colan
Paita
Piura
Perú</description>
                <styleUrl>#2036</styleUrl>
                <Point id="2034">
                    <coordinates>-81.047065,-5.0052206,0.0</coordinates>
                </Point>
            </Placemark>
            <Placemark id="2040">
                <name>ORALIA CASTILLO PANGALIMA</name>
                <description>ORALIA CASTILLO PANGALIMA
CA PEDREGAL MZ 2 LT 06
Colan
Paita
Piura
Perú</description>
                <styleUrl>#2041</styleUrl>
                <Point id="2039">
                    <coordinates>-81.0466055,-5.0077084,0.0</coordinates>
                </Point>
            </Placemark>
        </Folder>
    </Document>
</kml>
