<?xml version="1.0" encoding="UTF-8"?>
<kml xmlns="http://www.opengis.net/kml/2.2" xmlns:gx="http://www.google.com/kml/ext/2.2">
    <Document id="393">
        <Folder id="394">
            <Style id="397">
                <IconStyle id="398">
                    <color>ff0000ff</color>
                    <colorMode>normal</colorMode>
                    <scale>1</scale>
                    <heading>0</heading>
                    <Icon id="399">
                        <href>http://maps.google.com/mapfiles/kml/pushpin/ylw-pushpin.png</href>
                    </Icon>
                </IconStyle>
            </Style>
            <Style id="402">
                <IconStyle id="403">
                    <color>ff0000ff</color>
                    <colorMode>normal</colorMode>
                    <scale>1</scale>
                    <heading>0</heading>
                    <Icon id="404">
                        <href>http://maps.google.com/mapfiles/kml/pushpin/ylw-pushpin.png</href>
                    </Icon>
                </IconStyle>
            </Style>
            <Style id="407">
                <IconStyle id="408">
                    <color>ff0000ff</color>
                    <colorMode>normal</colorMode>
                    <scale>1</scale>
                    <heading>0</heading>
                    <Icon id="409">
                        <href>http://maps.google.com/mapfiles/kml/pushpin/ylw-pushpin.png</href>
                    </Icon>
                </IconStyle>
            </Style>
            <Style id="412">
                <IconStyle id="413">
                    <color>ff0000ff</color>
                    <colorMode>normal</colorMode>
                    <scale>1</scale>
                    <heading>0</heading>
                    <Icon id="414">
                        <href>http://maps.google.com/mapfiles/kml/pushpin/ylw-pushpin.png</href>
                    </Icon>
                </IconStyle>
            </Style>
            <Style id="417">
                <IconStyle id="418">
                    <color>ff0000ff</color>
                    <colorMode>normal</colorMode>
                    <scale>1</scale>
                    <heading>0</heading>
                    <Icon id="419">
                        <href>http://maps.google.com/mapfiles/kml/pushpin/ylw-pushpin.png</href>
                    </Icon>
                </IconStyle>
            </Style>
            <Style id="422">
                <IconStyle id="423">
                    <color>ff0000ff</color>
                    <colorMode>normal</colorMode>
                    <scale>1</scale>
                    <heading>0</heading>
                    <Icon id="424">
                        <href>http://maps.google.com/mapfiles/kml/pushpin/ylw-pushpin.png</href>
                    </Icon>
                </IconStyle>
            </Style>
            <Style id="427">
                <IconStyle id="428">
                    <color>ff0000ff</color>
                    <colorMode>normal</colorMode>
                    <scale>1</scale>
                    <heading>0</heading>
                    <Icon id="429">
                        <href>http://maps.google.com/mapfiles/kml/pushpin/ylw-pushpin.png</href>
                    </Icon>
                </IconStyle>
            </Style>
            <Style id="432">
                <IconStyle id="433">
                    <color>ff0000ff</color>
                    <colorMode>normal</colorMode>
                    <scale>1</scale>
                    <heading>0</heading>
                    <Icon id="434">
                        <href>http://maps.google.com/mapfiles/kml/pushpin/ylw-pushpin.png</href>
                    </Icon>
                </IconStyle>
            </Style>
            <Style id="437">
                <IconStyle id="438">
                    <color>ff0000ff</color>
                    <colorMode>normal</colorMode>
                    <scale>1</scale>
                    <heading>0</heading>
                    <Icon id="439">
                        <href>http://maps.google.com/mapfiles/kml/pushpin/ylw-pushpin.png</href>
                    </Icon>
                </IconStyle>
            </Style>
            <Style id="442">
                <IconStyle id="443">
                    <color>ff0000ff</color>
                    <colorMode>normal</colorMode>
                    <scale>1</scale>
                    <heading>0</heading>
                    <Icon id="444">
                        <href>http://maps.google.com/mapfiles/kml/pushpin/ylw-pushpin.png</href>
                    </Icon>
                </IconStyle>
            </Style>
            <Style id="447">
                <IconStyle id="448">
                    <color>ff0000ff</color>
                    <colorMode>normal</colorMode>
                    <scale>1</scale>
                    <heading>0</heading>
                    <Icon id="449">
                        <href>http://maps.google.com/mapfiles/kml/pushpin/ylw-pushpin.png</href>
                    </Icon>
                </IconStyle>
            </Style>
            <Style id="452">
                <IconStyle id="453">
                    <color>ff0000ff</color>
                    <colorMode>normal</colorMode>
                    <scale>1</scale>
                    <heading>0</heading>
                    <Icon id="454">
                        <href>http://maps.google.com/mapfiles/kml/pushpin/ylw-pushpin.png</href>
                    </Icon>
                </IconStyle>
            </Style>
            <Style id="457">
                <IconStyle id="458">
                    <color>ff0000ff</color>
                    <colorMode>normal</colorMode>
                    <scale>1</scale>
                    <heading>0</heading>
                    <Icon id="459">
                        <href>http://maps.google.com/mapfiles/kml/pushpin/ylw-pushpin.png</href>
                    </Icon>
                </IconStyle>
            </Style>
            <Style id="462">
                <IconStyle id="463">
                    <color>ff0000ff</color>
                    <colorMode>normal</colorMode>
                    <scale>1</scale>
                    <heading>0</heading>
                    <Icon id="464">
                        <href>http://maps.google.com/mapfiles/kml/pushpin/ylw-pushpin.png</href>
                    </Icon>
                </IconStyle>
            </Style>
            <Style id="467">
                <IconStyle id="468">
                    <color>ff0000ff</color>
                    <colorMode>normal</colorMode>
                    <scale>1</scale>
                    <heading>0</heading>
                    <Icon id="469">
                        <href>http://maps.google.com/mapfiles/kml/pushpin/ylw-pushpin.png</href>
                    </Icon>
                </IconStyle>
            </Style>
            <Style id="472">
                <IconStyle id="473">
                    <color>ff0000ff</color>
                    <colorMode>normal</colorMode>
                    <scale>1</scale>
                    <heading>0</heading>
                    <Icon id="474">
                        <href>http://maps.google.com/mapfiles/kml/pushpin/ylw-pushpin.png</href>
                    </Icon>
                </IconStyle>
            </Style>
            <Style id="477">
                <IconStyle id="478">
                    <color>ff0000ff</color>
                    <colorMode>normal</colorMode>
                    <scale>1</scale>
                    <heading>0</heading>
                    <Icon id="479">
                        <href>http://maps.google.com/mapfiles/kml/pushpin/ylw-pushpin.png</href>
                    </Icon>
                </IconStyle>
            </Style>
            <Style id="482">
                <IconStyle id="483">
                    <color>ff0000ff</color>
                    <colorMode>normal</colorMode>
                    <scale>1</scale>
                    <heading>0</heading>
                    <Icon id="484">
                        <href>http://maps.google.com/mapfiles/kml/pushpin/ylw-pushpin.png</href>
                    </Icon>
                </IconStyle>
            </Style>
            <Style id="487">
                <IconStyle id="488">
                    <color>ff0000ff</color>
                    <colorMode>normal</colorMode>
                    <scale>1</scale>
                    <heading>0</heading>
                    <Icon id="489">
                        <href>http://maps.google.com/mapfiles/kml/pushpin/ylw-pushpin.png</href>
                    </Icon>
                </IconStyle>
            </Style>
            <Style id="492">
                <IconStyle id="493">
                    <color>ff0000ff</color>
                    <colorMode>normal</colorMode>
                    <scale>1</scale>
                    <heading>0</heading>
                    <Icon id="494">
                        <href>http://maps.google.com/mapfiles/kml/pushpin/ylw-pushpin.png</href>
                    </Icon>
                </IconStyle>
            </Style>
            <Style id="497">
                <IconStyle id="498">
                    <color>ff0000ff</color>
                    <colorMode>normal</colorMode>
                    <scale>1</scale>
                    <heading>0</heading>
                    <Icon id="499">
                        <href>http://maps.google.com/mapfiles/kml/pushpin/ylw-pushpin.png</href>
                    </Icon>
                </IconStyle>
            </Style>
            <Style id="502">
                <IconStyle id="503">
                    <color>ff0000ff</color>
                    <colorMode>normal</colorMode>
                    <scale>1</scale>
                    <heading>0</heading>
                    <Icon id="504">
                        <href>http://maps.google.com/mapfiles/kml/pushpin/ylw-pushpin.png</href>
                    </Icon>
                </IconStyle>
            </Style>
            <Style id="507">
                <IconStyle id="508">
                    <color>ff0000ff</color>
                    <colorMode>normal</colorMode>
                    <scale>1</scale>
                    <heading>0</heading>
                    <Icon id="509">
                        <href>http://maps.google.com/mapfiles/kml/pushpin/ylw-pushpin.png</href>
                    </Icon>
                </IconStyle>
            </Style>
            <Style id="512">
                <IconStyle id="513">
                    <color>ff0000ff</color>
                    <colorMode>normal</colorMode>
                    <scale>1</scale>
                    <heading>0</heading>
                    <Icon id="514">
                        <href>http://maps.google.com/mapfiles/kml/pushpin/ylw-pushpin.png</href>
                    </Icon>
                </IconStyle>
            </Style>
            <Style id="517">
                <IconStyle id="518">
                    <color>ff0000ff</color>
                    <colorMode>normal</colorMode>
                    <scale>1</scale>
                    <heading>0</heading>
                    <Icon id="519">
                        <href>http://maps.google.com/mapfiles/kml/pushpin/ylw-pushpin.png</href>
                    </Icon>
                </IconStyle>
            </Style>
            <Style id="522">
                <IconStyle id="523">
                    <color>ff0000ff</color>
                    <colorMode>normal</colorMode>
                    <scale>1</scale>
                    <heading>0</heading>
                    <Icon id="524">
                        <href>http://maps.google.com/mapfiles/kml/pushpin/ylw-pushpin.png</href>
                    </Icon>
                </IconStyle>
            </Style>
            <Style id="527">
                <IconStyle id="528">
                    <color>ff0000ff</color>
                    <colorMode>normal</colorMode>
                    <scale>1</scale>
                    <heading>0</heading>
                    <Icon id="529">
                        <href>http://maps.google.com/mapfiles/kml/pushpin/ylw-pushpin.png</href>
                    </Icon>
                </IconStyle>
            </Style>
            <Style id="532">
                <IconStyle id="533">
                    <color>ff0000ff</color>
                    <colorMode>normal</colorMode>
                    <scale>1</scale>
                    <heading>0</heading>
                    <Icon id="534">
                        <href>http://maps.google.com/mapfiles/kml/pushpin/ylw-pushpin.png</href>
                    </Icon>
                </IconStyle>
            </Style>
            <Style id="537">
                <IconStyle id="538">
                    <color>ff0000ff</color>
                    <colorMode>normal</colorMode>
                    <scale>1</scale>
                    <heading>0</heading>
                    <Icon id="539">
                        <href>http://maps.google.com/mapfiles/kml/pushpin/ylw-pushpin.png</href>
                    </Icon>
                </IconStyle>
            </Style>
            <Style id="542">
                <IconStyle id="543">
                    <color>ff0000ff</color>
                    <colorMode>normal</colorMode>
                    <scale>1</scale>
                    <heading>0</heading>
                    <Icon id="544">
                        <href>http://maps.google.com/mapfiles/kml/pushpin/ylw-pushpin.png</href>
                    </Icon>
                </IconStyle>
            </Style>
            <Style id="547">
                <IconStyle id="548">
                    <color>ff0000ff</color>
                    <colorMode>normal</colorMode>
                    <scale>1</scale>
                    <heading>0</heading>
                    <Icon id="549">
                        <href>http://maps.google.com/mapfiles/kml/pushpin/ylw-pushpin.png</href>
                    </Icon>
                </IconStyle>
            </Style>
            <name>DOMITILA QUISPE MIRANDA</name>
            <Placemark id="396">
                <name>SANDOVAL BALDERA JOSE OSCAR</name>
                <description>AH 29 DE DICIEMBRE MZ L-21
Paita
Paita
Piura
Perú</description>
                <styleUrl>#397</styleUrl>
                <Point id="395">
                    <coordinates>-81.117261,-5.109143,0.0</coordinates>
                </Point>
            </Placemark>
            <Placemark id="401">
                <name>DE PURIZACA LIDIA YPANAQUE SILVA</name>
                <description>FRANCISCO BOLOGNESI LOTE C 23 YACILA
Paita
Paita
Piura
Perú</description>
                <styleUrl>#402</styleUrl>
                <Point id="400">
                    <coordinates>-81.1706079,-5.1344569,0.0</coordinates>
                </Point>
            </Placemark>
            <Placemark id="406">
                <name>MARIANELLA MEDINA FARFAN DE ARCELLES</name>
                <description>Asociacion nuevo amanecer mz b lote 5
Paita
Paita
Piura
Perú</description>
                <styleUrl>#407</styleUrl>
                <Point id="405">
                    <coordinates>-81.1312384,-5.1154509,0.0</coordinates>
                </Point>
            </Placemark>
            <Placemark id="411">
                <name>OLGA BIGIL SALAZAR</name>
                <description>Yacila referencia por el agente bcp
Paita

Piura
Perú</description>
                <styleUrl>#412</styleUrl>
                <Point id="410">
                    <coordinates>-81.1100889,-5.1083735,0.0</coordinates>
                </Point>
            </Placemark>
            <Placemark id="416">
                <name>GUISSELA DEL CARMEN QUEREVALU VILLEGAS</name>
                <description>Calle Miramar tortuga
Paita
Paita
Piura
Perú</description>
                <styleUrl>#417</styleUrl>
                <Point id="415">
                    <coordinates>-81.1228667,-5.2798434,0.0</coordinates>
                </Point>
            </Placemark>
            <Placemark id="421">
                <name>FELICITA MARIA QUEREVALU PURIZACA</name>
                <description>Calle Bernal H 10 Caleta la Tortuga
Paita
Paita
Piura
Perú</description>
                <styleUrl>#422</styleUrl>
                <Point id="420">
                    <coordinates>-81.1163606,-5.277292,0.0</coordinates>
                </Point>
            </Placemark>
            <Placemark id="426">
                <name>KATY YESSENIA JUAREZ PAZ</name>
                <description>Av Piura s/n Caleta la Tortuga
Paita
Paita
Piura
Perú</description>
                <styleUrl>#427</styleUrl>
                <Point id="425">
                    <coordinates>-81.1202387,-5.2795282,0.0</coordinates>
                </Point>
            </Placemark>
            <Placemark id="431">
                <name>RUTH ZARELY LLENQUE ECHE</name>
                <description>Av Piura s/n tortuga
Paita

Piura
Perú</description>
                <styleUrl>#432</styleUrl>
                <Point id="430">
                    <coordinates>-81.119761,-5.279513,0.0</coordinates>
                </Point>
            </Placemark>
            <Placemark id="436">
                <name>MELISA EVELIN PUESCAS MONCADA</name>
                <description>Calle  nuevo porvenir s/n referencia 2 calles atrás del colegio Jesús es mi pastor
Paita
Paita
Piura
Perú</description>
                <styleUrl>#437</styleUrl>
                <Point id="435">
                    <coordinates>-81.1226833,-5.2799637,0.0</coordinates>
                </Point>
            </Placemark>
            <Placemark id="441">
                <name>ROSMERY YESENIA PAZO MARTINEZ</name>
                <description>Calle itamarati tortuga
Paita

Piura
Perú</description>
                <styleUrl>#442</styleUrl>
                <Point id="440">
                    <coordinates>-81.1216465,-5.2817028,0.0</coordinates>
                </Point>
            </Placemark>
            <Placemark id="446">
                <name>ALBERTINA MARTINEZ DE PANTA</name>
                <description>Calle libertad la tortuga
Paita
Paita
Piura
Perú</description>
                <styleUrl>#447</styleUrl>
                <Point id="445">
                    <coordinates>-81.1213639,-5.2806737,0.0</coordinates>
                </Point>
            </Placemark>
            <Placemark id="451">
                <name>MELANEA QUEREVALU QUEREVALU</name>
                <description>CA MIRAMAR MZ B LT 26 YACILA PAITA
Paita
Paita
Piura
Perú</description>
                <styleUrl>#452</styleUrl>
                <Point id="450">
                    <coordinates>-81.1713688,-5.1319018,0.0</coordinates>
                </Point>
            </Placemark>
            <Placemark id="456">
                <name>MILAGROS QUEREVALU ALVAREZ</name>
                <description>Calle Ayabaca sin número tortuga
Paita
Paita
Piura
Perú</description>
                <styleUrl>#457</styleUrl>
                <Point id="455">
                    <coordinates>-81.1225578,-5.2785106,0.0</coordinates>
                </Point>
            </Placemark>
            <Placemark id="461">
                <name>MARIA DEL SOCORRO QUEREVALU QUEREVALU</name>
                <description>Calle Ayabaca la tortuga
Paita
Paita
Piura
Perú</description>
                <styleUrl>#462</styleUrl>
                <Point id="460">
                    <coordinates>-81.1222111,-5.2784384,0.0</coordinates>
                </Point>
            </Placemark>
            <Placemark id="466">
                <name>JESUS MARIA PINGO PURIZACA</name>
                <description>Calle san Pedro S/n tortuga
Paita

Piura
Perú</description>
                <styleUrl>#467</styleUrl>
                <Point id="465">
                    <coordinates>-81.118258,-5.277576,0.0</coordinates>
                </Point>
            </Placemark>
            <Placemark id="471">
                <name>NORMA CHAPILLIQUEN QUEREVALU</name>
                <description>Calle vice sin número la tortuga
Paita
Paita
Piura
Perú</description>
                <styleUrl>#472</styleUrl>
                <Point id="470">
                    <coordinates>-81.1181717,-5.2785205,0.0</coordinates>
                </Point>
            </Placemark>
            <Placemark id="476">
                <name>MILAGROS DEL PILAR ECHE PUESCAS</name>
                <description>Calle chalaco referencia al frente d antena Movistar la tortuga
Paita
Paita
Piura
Perú</description>
                <styleUrl>#477</styleUrl>
                <Point id="475">
                    <coordinates>-81.1101877,-5.1084957,0.0</coordinates>
                </Point>
            </Placemark>
            <Placemark id="481">
                <name>FELICITA MARIA QUEREVALU PURIZACA</name>
                <description>Calle Bernal H 10 Caleta la Tortuga
Paita
Paita
Piura
Perú</description>
                <styleUrl>#482</styleUrl>
                <Point id="480">
                    <coordinates>-81.1163606,-5.277292,0.0</coordinates>
                </Point>
            </Placemark>
            <Placemark id="486">
                <name>LEYDA JIMÉNEZ MARTINEZ</name>
                <description>Calle talara mz I7 lote 2  tortuga 🐢
Paita
Paita
Piura
Perú</description>
                <styleUrl>#487</styleUrl>
                <Point id="485">
                    <coordinates>-81.1170351,-5.2759615,0.0</coordinates>
                </Point>
            </Placemark>
            <Placemark id="491">
                <name>MIRTHA MILAGROS QUEREVALU SANTOS</name>
                <description>Calle Piura   referencia al costado de decormuebles tortuga 🐢
Paita
Paita
Piura
Perú</description>
                <styleUrl>#492</styleUrl>
                <Point id="490">
                    <coordinates>-81.1160652,-5.2764767,0.0</coordinates>
                </Point>
            </Placemark>
            <Placemark id="496">
                <name>MARIA YANET VALDERA VALDERA</name>
                <description>JR YACILAz P lote 11 yacila
Paita
Paita
Piura
Perú</description>
                <styleUrl>#497</styleUrl>
                <Point id="495">
                    <coordinates>-81.1692223,-5.1319744,0.0</coordinates>
                </Point>
            </Placemark>
            <Placemark id="501">
                <name>VILLEGAS PUESCAS ELENA MARLEN</name>
                <description>CA.CALETA YACILA MZ.B LT-10
Paita
Paita
Piura
Perú</description>
                <styleUrl>#502</styleUrl>
                <Point id="500">
                    <coordinates>-81.1709554,-5.1319578,0.0</coordinates>
                </Point>
            </Placemark>
            <Placemark id="506">
                <name>ESTEFANY ANABEL SARMIENTO QUEREVALU</name>
                <description>CALLE QUIÑONES MZ B LOTE 09 YACILA
Paita
Paita
Piura
Perú</description>
                <styleUrl>#507</styleUrl>
                <Point id="505">
                    <coordinates>-81.169989,-5.131849,0.0</coordinates>
                </Point>
            </Placemark>
            <Placemark id="511">
                <name>JUANA MARLENE LLENQUE VILELA</name>
                <description>Calle santa Isabel mz c Lt 2 YACILA
Paita
Paita
Piura
Perú</description>
                <styleUrl>#512</styleUrl>
                <Point id="510">
                    <coordinates>-81.1709369,-5.1338495,0.0</coordinates>
                </Point>
            </Placemark>
            <Placemark id="516">
                <name>MARIA SANTOS QUEREVALU QUEREVALU</name>
                <description>Calle santa Isabel yacila
Paita
Paita
Piura
Perú</description>
                <styleUrl>#517</styleUrl>
                <Point id="515">
                    <coordinates>-81.1706593,-5.1359352,0.0</coordinates>
                </Point>
            </Placemark>
            <Placemark id="521">
                <name>SARITA MERCEDES PUESCAS QUEREVALU</name>
                <description>Calle Melitón Carbajal mz D lote 01 yacila
Paita
Paita
Piura
Perú</description>
                <styleUrl>#522</styleUrl>
                <Point id="520">
                    <coordinates>-81.1693487,-5.1321259,0.0</coordinates>
                </Point>
            </Placemark>
            <Placemark id="526">
                <name>ANA MARIA QUEREVALU QUEREVALU</name>
                <description>CA MIRAMAR MZA B 25 YACILA - PAITA
Paita
Paita
Piura
Perú</description>
                <styleUrl>#527</styleUrl>
                <Point id="525">
                    <coordinates>-81.1719819,-5.1322744,0.0</coordinates>
                </Point>
            </Placemark>
            <Placemark id="531">
                <name>KAREN MIRELLA QUEREVALU ZETA</name>
                <description>San Benito s/n por la iglesia
Paita
Paita
Piura
Perú</description>
                <styleUrl>#532</styleUrl>
                <Point id="530">
                    <coordinates>-81.1710683,-5.1322208,0.0</coordinates>
                </Point>
            </Placemark>
            <Placemark id="536">
                <name>QUEREVALU PUESCAS CLARA</name>
                <description>MZ E LOTE 20 YACILA
Paita
Paita
Piura
Perú</description>
                <styleUrl>#537</styleUrl>
                <Point id="535">
                    <coordinates>-81.1703353,-5.1325935,0.0</coordinates>
                </Point>
            </Placemark>
            <Placemark id="541">
                <name>QUEREVALU QUEREVALU JOSEFA</name>
                <description>CALETA YACILA MZ Z LT 9 PAITA
Paita
Paita
Piura
Perú</description>
                <styleUrl>#542</styleUrl>
                <Point id="540">
                    <coordinates>-81.1700443,-5.1326802,0.0</coordinates>
                </Point>
            </Placemark>
            <Placemark id="546">
                <name>MARIA ADELA PASAPERA ANCAJIMA</name>
                <description>AH.FRANCISCO BOLOGNESI MZ F LT 3 YA
Paita
Paita
Piura
Perú</description>
                <styleUrl>#547</styleUrl>
                <Point id="545">
                    <coordinates>-81.1706698,-5.1340833,0.0</coordinates>
                </Point>
            </Placemark>
        </Folder>
        <Folder id="550">
            <Style id="553">
                <IconStyle id="554">
                    <color>ffff0000</color>
                    <colorMode>normal</colorMode>
                    <scale>1</scale>
                    <heading>0</heading>
                    <Icon id="555">
                        <href>http://maps.google.com/mapfiles/kml/pushpin/ylw-pushpin.png</href>
                    </Icon>
                </IconStyle>
            </Style>
            <Style id="558">
                <IconStyle id="559">
                    <color>ffff0000</color>
                    <colorMode>normal</colorMode>
                    <scale>1</scale>
                    <heading>0</heading>
                    <Icon id="560">
                        <href>http://maps.google.com/mapfiles/kml/pushpin/ylw-pushpin.png</href>
                    </Icon>
                </IconStyle>
            </Style>
            <Style id="563">
                <IconStyle id="564">
                    <color>ffff0000</color>
                    <colorMode>normal</colorMode>
                    <scale>1</scale>
                    <heading>0</heading>
                    <Icon id="565">
                        <href>http://maps.google.com/mapfiles/kml/pushpin/ylw-pushpin.png</href>
                    </Icon>
                </IconStyle>
            </Style>
            <Style id="568">
                <IconStyle id="569">
                    <color>ffff0000</color>
                    <colorMode>normal</colorMode>
                    <scale>1</scale>
                    <heading>0</heading>
                    <Icon id="570">
                        <href>http://maps.google.com/mapfiles/kml/pushpin/ylw-pushpin.png</href>
                    </Icon>
                </IconStyle>
            </Style>
            <Style id="573">
                <IconStyle id="574">
                    <color>ffff0000</color>
                    <colorMode>normal</colorMode>
                    <scale>1</scale>
                    <heading>0</heading>
                    <Icon id="575">
                        <href>http://maps.google.com/mapfiles/kml/pushpin/ylw-pushpin.png</href>
                    </Icon>
                </IconStyle>
            </Style>
            <Style id="578">
                <IconStyle id="579">
                    <color>ffff0000</color>
                    <colorMode>normal</colorMode>
                    <scale>1</scale>
                    <heading>0</heading>
                    <Icon id="580">
                        <href>http://maps.google.com/mapfiles/kml/pushpin/ylw-pushpin.png</href>
                    </Icon>
                </IconStyle>
            </Style>
            <Style id="583">
                <IconStyle id="584">
                    <color>ffff0000</color>
                    <colorMode>normal</colorMode>
                    <scale>1</scale>
                    <heading>0</heading>
                    <Icon id="585">
                        <href>http://maps.google.com/mapfiles/kml/pushpin/ylw-pushpin.png</href>
                    </Icon>
                </IconStyle>
            </Style>
            <Style id="588">
                <IconStyle id="589">
                    <color>ffff0000</color>
                    <colorMode>normal</colorMode>
                    <scale>1</scale>
                    <heading>0</heading>
                    <Icon id="590">
                        <href>http://maps.google.com/mapfiles/kml/pushpin/ylw-pushpin.png</href>
                    </Icon>
                </IconStyle>
            </Style>
            <Style id="593">
                <IconStyle id="594">
                    <color>ffff0000</color>
                    <colorMode>normal</colorMode>
                    <scale>1</scale>
                    <heading>0</heading>
                    <Icon id="595">
                        <href>http://maps.google.com/mapfiles/kml/pushpin/ylw-pushpin.png</href>
                    </Icon>
                </IconStyle>
            </Style>
            <Style id="598">
                <IconStyle id="599">
                    <color>ffff0000</color>
                    <colorMode>normal</colorMode>
                    <scale>1</scale>
                    <heading>0</heading>
                    <Icon id="600">
                        <href>http://maps.google.com/mapfiles/kml/pushpin/ylw-pushpin.png</href>
                    </Icon>
                </IconStyle>
            </Style>
            <Style id="603">
                <IconStyle id="604">
                    <color>ffff0000</color>
                    <colorMode>normal</colorMode>
                    <scale>1</scale>
                    <heading>0</heading>
                    <Icon id="605">
                        <href>http://maps.google.com/mapfiles/kml/pushpin/ylw-pushpin.png</href>
                    </Icon>
                </IconStyle>
            </Style>
            <Style id="608">
                <IconStyle id="609">
                    <color>ffff0000</color>
                    <colorMode>normal</colorMode>
                    <scale>1</scale>
                    <heading>0</heading>
                    <Icon id="610">
                        <href>http://maps.google.com/mapfiles/kml/pushpin/ylw-pushpin.png</href>
                    </Icon>
                </IconStyle>
            </Style>
            <name>LEONARDO VIERA CHAVEZ</name>
            <Placemark id="552">
                <name>PASACHE RUIZ KATHERINE ADALI</name>
                <description>Mercadillo santa rosa s/n paita
Paita
Paita
Piura
Perú</description>
                <styleUrl>#553</styleUrl>
                <Point id="551">
                    <coordinates>-81.0988401,-5.0919978,0.0</coordinates>
                </Point>
            </Placemark>
            <Placemark id="557">
                <name>PASACHE RUIZ KATHERINE ADALI</name>
                <description>Mercadillo santa rosa s/n paita
Paita
Paita
Piura
Perú</description>
                <styleUrl>#558</styleUrl>
                <Point id="556">
                    <coordinates>-81.0988401,-5.0919978,0.0</coordinates>
                </Point>
            </Placemark>
            <Placemark id="562">
                <name>YULI LILIANA CRUZ HIJUELA</name>
                <description>Mercado modelo paita baja .
Paita
Paita
Piura
Perú</description>
                <styleUrl>#563</styleUrl>
                <Point id="561">
                    <coordinates>-81.1130847,-5.0899168,0.0</coordinates>
                </Point>
            </Placemark>
            <Placemark id="567">
                <name>FERNANDEZ MIRANDA JOSEFA</name>
                <description>MZ.E1 LT.08 AH CIUDAD ROJA
Paita
Paita
Piura
Perú</description>
                <styleUrl>#568</styleUrl>
                <Point id="566">
                    <coordinates>-81.0989557,-5.0928504,0.0</coordinates>
                </Point>
            </Placemark>
            <Placemark id="572">
                <name>DALINDA JARAMILLO VALLE</name>
                <description>Interior mercado santa rosa paita alta
Paita
Paita
Piura
Perú</description>
                <styleUrl>#573</styleUrl>
                <Point id="571">
                    <coordinates>-81.0991439,-5.0921427,0.0</coordinates>
                </Point>
            </Placemark>
            <Placemark id="577">
                <name>NEGOCIOS JONATHAN E.I.R.L</name>
                <description>NEGOCIOS JONATHAN E.I.R.L
P.J CIUDAD ROJA MZ.O-1 LT.12
Paita
200501Paita
Piura
Perú</description>
                <styleUrl>#578</styleUrl>
                <Point id="576">
                    <coordinates>-81.098305,-5.092407,0.0</coordinates>
                </Point>
            </Placemark>
            <Placemark id="582">
                <name>YULI LILIANA CRUZ HIJUELA</name>
                <description>Mercado modelo paita baja .
Paita
Paita
Piura
Perú</description>
                <styleUrl>#583</styleUrl>
                <Point id="581">
                    <coordinates>-81.1130847,-5.0899168,0.0</coordinates>
                </Point>
            </Placemark>
            <Placemark id="587">
                <name>ROSA ELVIRA PALACIOS HUAMAN</name>
                <description>ROSA ELVIRA PALACIOS HUAMAN
JR MALAGA PTO 62 MCDO MODE
Paita
-Paita
Piura
Perú</description>
                <styleUrl>#588</styleUrl>
                <Point id="586">
                    <coordinates>-81.1128813,-5.0909221,0.0</coordinates>
                </Point>
            </Placemark>
            <Placemark id="592">
                <name>DALINDA JARAMILLO VALLE</name>
                <description>Interior mercado santa rosa paita alta
Paita
Paita
Piura
Perú</description>
                <styleUrl>#593</styleUrl>
                <Point id="591">
                    <coordinates>-81.0991439,-5.0921427,0.0</coordinates>
                </Point>
            </Placemark>
            <Placemark id="597">
                <name>FERNANDEZ MIRANDA JOSEFA</name>
                <description>MZ.E1 LT.08 AH CIUDAD ROJA
Paita
Paita
Piura
Perú</description>
                <styleUrl>#598</styleUrl>
                <Point id="596">
                    <coordinates>-81.0989557,-5.0928504,0.0</coordinates>
                </Point>
            </Placemark>
            <Placemark id="602">
                <name>NEGOCIOS JONATHAN E.I.R.L</name>
                <description>NEGOCIOS JONATHAN E.I.R.L
P.J CIUDAD ROJA MZ.O-1 LT.12
Paita
200501Paita
Piura
Perú</description>
                <styleUrl>#603</styleUrl>
                <Point id="601">
                    <coordinates>-81.098305,-5.092407,0.0</coordinates>
                </Point>
            </Placemark>
            <Placemark id="607">
                <name>MARIA MELANIA ALBERCA QUINDE</name>
                <description>MERCADILLO SANTA ROSA-PAITA-PAITA
Paita
Paita
Piura
Perú</description>
                <styleUrl>#608</styleUrl>
                <Point id="606">
                    <coordinates>-81.1131569,-5.0899093,0.0</coordinates>
                </Point>
            </Placemark>
        </Folder>
    </Document>
</kml>
