<?xml version="1.0" encoding="UTF-8"?>
<kml xmlns="http://www.opengis.net/kml/2.2" xmlns:gx="http://www.google.com/kml/ext/2.2">
    <Document id="1071">
        <Folder id="1072">
            <Style id="1075">
                <IconStyle id="1076">
                    <color>ff0000ff</color>
                    <colorMode>normal</colorMode>
                    <scale>1</scale>
                    <heading>0</heading>
                    <Icon id="1077">
                        <href>http://maps.google.com/mapfiles/kml/pushpin/ylw-pushpin.png</href>
                    </Icon>
                </IconStyle>
            </Style>
            <Style id="1080">
                <IconStyle id="1081">
                    <color>ff0000ff</color>
                    <colorMode>normal</colorMode>
                    <scale>1</scale>
                    <heading>0</heading>
                    <Icon id="1082">
                        <href>http://maps.google.com/mapfiles/kml/pushpin/ylw-pushpin.png</href>
                    </Icon>
                </IconStyle>
            </Style>
            <Style id="1085">
                <IconStyle id="1086">
                    <color>ff0000ff</color>
                    <colorMode>normal</colorMode>
                    <scale>1</scale>
                    <heading>0</heading>
                    <Icon id="1087">
                        <href>http://maps.google.com/mapfiles/kml/pushpin/ylw-pushpin.png</href>
                    </Icon>
                </IconStyle>
            </Style>
            <Style id="1090">
                <IconStyle id="1091">
                    <color>ff0000ff</color>
                    <colorMode>normal</colorMode>
                    <scale>1</scale>
                    <heading>0</heading>
                    <Icon id="1092">
                        <href>http://maps.google.com/mapfiles/kml/pushpin/ylw-pushpin.png</href>
                    </Icon>
                </IconStyle>
            </Style>
            <Style id="1095">
                <IconStyle id="1096">
                    <color>ff0000ff</color>
                    <colorMode>normal</colorMode>
                    <scale>1</scale>
                    <heading>0</heading>
                    <Icon id="1097">
                        <href>http://maps.google.com/mapfiles/kml/pushpin/ylw-pushpin.png</href>
                    </Icon>
                </IconStyle>
            </Style>
            <Style id="1100">
                <IconStyle id="1101">
                    <color>ff0000ff</color>
                    <colorMode>normal</colorMode>
                    <scale>1</scale>
                    <heading>0</heading>
                    <Icon id="1102">
                        <href>http://maps.google.com/mapfiles/kml/pushpin/ylw-pushpin.png</href>
                    </Icon>
                </IconStyle>
            </Style>
            <Style id="1105">
                <IconStyle id="1106">
                    <color>ff0000ff</color>
                    <colorMode>normal</colorMode>
                    <scale>1</scale>
                    <heading>0</heading>
                    <Icon id="1107">
                        <href>http://maps.google.com/mapfiles/kml/pushpin/ylw-pushpin.png</href>
                    </Icon>
                </IconStyle>
            </Style>
            <Style id="1110">
                <IconStyle id="1111">
                    <color>ff0000ff</color>
                    <colorMode>normal</colorMode>
                    <scale>1</scale>
                    <heading>0</heading>
                    <Icon id="1112">
                        <href>http://maps.google.com/mapfiles/kml/pushpin/ylw-pushpin.png</href>
                    </Icon>
                </IconStyle>
            </Style>
            <Style id="1115">
                <IconStyle id="1116">
                    <color>ff0000ff</color>
                    <colorMode>normal</colorMode>
                    <scale>1</scale>
                    <heading>0</heading>
                    <Icon id="1117">
                        <href>http://maps.google.com/mapfiles/kml/pushpin/ylw-pushpin.png</href>
                    </Icon>
                </IconStyle>
            </Style>
            <Style id="1120">
                <IconStyle id="1121">
                    <color>ff0000ff</color>
                    <colorMode>normal</colorMode>
                    <scale>1</scale>
                    <heading>0</heading>
                    <Icon id="1122">
                        <href>http://maps.google.com/mapfiles/kml/pushpin/ylw-pushpin.png</href>
                    </Icon>
                </IconStyle>
            </Style>
            <Style id="1125">
                <IconStyle id="1126">
                    <color>ff0000ff</color>
                    <colorMode>normal</colorMode>
                    <scale>1</scale>
                    <heading>0</heading>
                    <Icon id="1127">
                        <href>http://maps.google.com/mapfiles/kml/pushpin/ylw-pushpin.png</href>
                    </Icon>
                </IconStyle>
            </Style>
            <Style id="1130">
                <IconStyle id="1131">
                    <color>ff0000ff</color>
                    <colorMode>normal</colorMode>
                    <scale>1</scale>
                    <heading>0</heading>
                    <Icon id="1132">
                        <href>http://maps.google.com/mapfiles/kml/pushpin/ylw-pushpin.png</href>
                    </Icon>
                </IconStyle>
            </Style>
            <Style id="1135">
                <IconStyle id="1136">
                    <color>ff0000ff</color>
                    <colorMode>normal</colorMode>
                    <scale>1</scale>
                    <heading>0</heading>
                    <Icon id="1137">
                        <href>http://maps.google.com/mapfiles/kml/pushpin/ylw-pushpin.png</href>
                    </Icon>
                </IconStyle>
            </Style>
            <Style id="1140">
                <IconStyle id="1141">
                    <color>ff0000ff</color>
                    <colorMode>normal</colorMode>
                    <scale>1</scale>
                    <heading>0</heading>
                    <Icon id="1142">
                        <href>http://maps.google.com/mapfiles/kml/pushpin/ylw-pushpin.png</href>
                    </Icon>
                </IconStyle>
            </Style>
            <Style id="1145">
                <IconStyle id="1146">
                    <color>ff0000ff</color>
                    <colorMode>normal</colorMode>
                    <scale>1</scale>
                    <heading>0</heading>
                    <Icon id="1147">
                        <href>http://maps.google.com/mapfiles/kml/pushpin/ylw-pushpin.png</href>
                    </Icon>
                </IconStyle>
            </Style>
            <Style id="1150">
                <IconStyle id="1151">
                    <color>ff0000ff</color>
                    <colorMode>normal</colorMode>
                    <scale>1</scale>
                    <heading>0</heading>
                    <Icon id="1152">
                        <href>http://maps.google.com/mapfiles/kml/pushpin/ylw-pushpin.png</href>
                    </Icon>
                </IconStyle>
            </Style>
            <Style id="1155">
                <IconStyle id="1156">
                    <color>ff0000ff</color>
                    <colorMode>normal</colorMode>
                    <scale>1</scale>
                    <heading>0</heading>
                    <Icon id="1157">
                        <href>http://maps.google.com/mapfiles/kml/pushpin/ylw-pushpin.png</href>
                    </Icon>
                </IconStyle>
            </Style>
            <Style id="1160">
                <IconStyle id="1161">
                    <color>ff0000ff</color>
                    <colorMode>normal</colorMode>
                    <scale>1</scale>
                    <heading>0</heading>
                    <Icon id="1162">
                        <href>http://maps.google.com/mapfiles/kml/pushpin/ylw-pushpin.png</href>
                    </Icon>
                </IconStyle>
            </Style>
            <Style id="1165">
                <IconStyle id="1166">
                    <color>ff0000ff</color>
                    <colorMode>normal</colorMode>
                    <scale>1</scale>
                    <heading>0</heading>
                    <Icon id="1167">
                        <href>http://maps.google.com/mapfiles/kml/pushpin/ylw-pushpin.png</href>
                    </Icon>
                </IconStyle>
            </Style>
            <Style id="1170">
                <IconStyle id="1171">
                    <color>ff0000ff</color>
                    <colorMode>normal</colorMode>
                    <scale>1</scale>
                    <heading>0</heading>
                    <Icon id="1172">
                        <href>http://maps.google.com/mapfiles/kml/pushpin/ylw-pushpin.png</href>
                    </Icon>
                </IconStyle>
            </Style>
            <Style id="1175">
                <IconStyle id="1176">
                    <color>ff0000ff</color>
                    <colorMode>normal</colorMode>
                    <scale>1</scale>
                    <heading>0</heading>
                    <Icon id="1177">
                        <href>http://maps.google.com/mapfiles/kml/pushpin/ylw-pushpin.png</href>
                    </Icon>
                </IconStyle>
            </Style>
            <Style id="1180">
                <IconStyle id="1181">
                    <color>ff0000ff</color>
                    <colorMode>normal</colorMode>
                    <scale>1</scale>
                    <heading>0</heading>
                    <Icon id="1182">
                        <href>http://maps.google.com/mapfiles/kml/pushpin/ylw-pushpin.png</href>
                    </Icon>
                </IconStyle>
            </Style>
            <Style id="1185">
                <IconStyle id="1186">
                    <color>ff0000ff</color>
                    <colorMode>normal</colorMode>
                    <scale>1</scale>
                    <heading>0</heading>
                    <Icon id="1187">
                        <href>http://maps.google.com/mapfiles/kml/pushpin/ylw-pushpin.png</href>
                    </Icon>
                </IconStyle>
            </Style>
            <Style id="1190">
                <IconStyle id="1191">
                    <color>ff0000ff</color>
                    <colorMode>normal</colorMode>
                    <scale>1</scale>
                    <heading>0</heading>
                    <Icon id="1192">
                        <href>http://maps.google.com/mapfiles/kml/pushpin/ylw-pushpin.png</href>
                    </Icon>
                </IconStyle>
            </Style>
            <Style id="1195">
                <IconStyle id="1196">
                    <color>ff0000ff</color>
                    <colorMode>normal</colorMode>
                    <scale>1</scale>
                    <heading>0</heading>
                    <Icon id="1197">
                        <href>http://maps.google.com/mapfiles/kml/pushpin/ylw-pushpin.png</href>
                    </Icon>
                </IconStyle>
            </Style>
            <Style id="1200">
                <IconStyle id="1201">
                    <color>ff0000ff</color>
                    <colorMode>normal</colorMode>
                    <scale>1</scale>
                    <heading>0</heading>
                    <Icon id="1202">
                        <href>http://maps.google.com/mapfiles/kml/pushpin/ylw-pushpin.png</href>
                    </Icon>
                </IconStyle>
            </Style>
            <Style id="1205">
                <IconStyle id="1206">
                    <color>ff0000ff</color>
                    <colorMode>normal</colorMode>
                    <scale>1</scale>
                    <heading>0</heading>
                    <Icon id="1207">
                        <href>http://maps.google.com/mapfiles/kml/pushpin/ylw-pushpin.png</href>
                    </Icon>
                </IconStyle>
            </Style>
            <Style id="1210">
                <IconStyle id="1211">
                    <color>ff0000ff</color>
                    <colorMode>normal</colorMode>
                    <scale>1</scale>
                    <heading>0</heading>
                    <Icon id="1212">
                        <href>http://maps.google.com/mapfiles/kml/pushpin/ylw-pushpin.png</href>
                    </Icon>
                </IconStyle>
            </Style>
            <Style id="1215">
                <IconStyle id="1216">
                    <color>ff0000ff</color>
                    <colorMode>normal</colorMode>
                    <scale>1</scale>
                    <heading>0</heading>
                    <Icon id="1217">
                        <href>http://maps.google.com/mapfiles/kml/pushpin/ylw-pushpin.png</href>
                    </Icon>
                </IconStyle>
            </Style>
            <Style id="1220">
                <IconStyle id="1221">
                    <color>ff0000ff</color>
                    <colorMode>normal</colorMode>
                    <scale>1</scale>
                    <heading>0</heading>
                    <Icon id="1222">
                        <href>http://maps.google.com/mapfiles/kml/pushpin/ylw-pushpin.png</href>
                    </Icon>
                </IconStyle>
            </Style>
            <Style id="1225">
                <IconStyle id="1226">
                    <color>ff0000ff</color>
                    <colorMode>normal</colorMode>
                    <scale>1</scale>
                    <heading>0</heading>
                    <Icon id="1227">
                        <href>http://maps.google.com/mapfiles/kml/pushpin/ylw-pushpin.png</href>
                    </Icon>
                </IconStyle>
            </Style>
            <Style id="1230">
                <IconStyle id="1231">
                    <color>ff0000ff</color>
                    <colorMode>normal</colorMode>
                    <scale>1</scale>
                    <heading>0</heading>
                    <Icon id="1232">
                        <href>http://maps.google.com/mapfiles/kml/pushpin/ylw-pushpin.png</href>
                    </Icon>
                </IconStyle>
            </Style>
            <Style id="1235">
                <IconStyle id="1236">
                    <color>ff0000ff</color>
                    <colorMode>normal</colorMode>
                    <scale>1</scale>
                    <heading>0</heading>
                    <Icon id="1237">
                        <href>http://maps.google.com/mapfiles/kml/pushpin/ylw-pushpin.png</href>
                    </Icon>
                </IconStyle>
            </Style>
            <Style id="1240">
                <IconStyle id="1241">
                    <color>ff0000ff</color>
                    <colorMode>normal</colorMode>
                    <scale>1</scale>
                    <heading>0</heading>
                    <Icon id="1242">
                        <href>http://maps.google.com/mapfiles/kml/pushpin/ylw-pushpin.png</href>
                    </Icon>
                </IconStyle>
            </Style>
            <Style id="1245">
                <IconStyle id="1246">
                    <color>ff0000ff</color>
                    <colorMode>normal</colorMode>
                    <scale>1</scale>
                    <heading>0</heading>
                    <Icon id="1247">
                        <href>http://maps.google.com/mapfiles/kml/pushpin/ylw-pushpin.png</href>
                    </Icon>
                </IconStyle>
            </Style>
            <Style id="1250">
                <IconStyle id="1251">
                    <color>ff0000ff</color>
                    <colorMode>normal</colorMode>
                    <scale>1</scale>
                    <heading>0</heading>
                    <Icon id="1252">
                        <href>http://maps.google.com/mapfiles/kml/pushpin/ylw-pushpin.png</href>
                    </Icon>
                </IconStyle>
            </Style>
            <Style id="1255">
                <IconStyle id="1256">
                    <color>ff0000ff</color>
                    <colorMode>normal</colorMode>
                    <scale>1</scale>
                    <heading>0</heading>
                    <Icon id="1257">
                        <href>http://maps.google.com/mapfiles/kml/pushpin/ylw-pushpin.png</href>
                    </Icon>
                </IconStyle>
            </Style>
            <Style id="1260">
                <IconStyle id="1261">
                    <color>ff0000ff</color>
                    <colorMode>normal</colorMode>
                    <scale>1</scale>
                    <heading>0</heading>
                    <Icon id="1262">
                        <href>http://maps.google.com/mapfiles/kml/pushpin/ylw-pushpin.png</href>
                    </Icon>
                </IconStyle>
            </Style>
            <Style id="1265">
                <IconStyle id="1266">
                    <color>ff0000ff</color>
                    <colorMode>normal</colorMode>
                    <scale>1</scale>
                    <heading>0</heading>
                    <Icon id="1267">
                        <href>http://maps.google.com/mapfiles/kml/pushpin/ylw-pushpin.png</href>
                    </Icon>
                </IconStyle>
            </Style>
            <Style id="1270">
                <IconStyle id="1271">
                    <color>ff0000ff</color>
                    <colorMode>normal</colorMode>
                    <scale>1</scale>
                    <heading>0</heading>
                    <Icon id="1272">
                        <href>http://maps.google.com/mapfiles/kml/pushpin/ylw-pushpin.png</href>
                    </Icon>
                </IconStyle>
            </Style>
            <Style id="1275">
                <IconStyle id="1276">
                    <color>ff0000ff</color>
                    <colorMode>normal</colorMode>
                    <scale>1</scale>
                    <heading>0</heading>
                    <Icon id="1277">
                        <href>http://maps.google.com/mapfiles/kml/pushpin/ylw-pushpin.png</href>
                    </Icon>
                </IconStyle>
            </Style>
            <Style id="1280">
                <IconStyle id="1281">
                    <color>ff0000ff</color>
                    <colorMode>normal</colorMode>
                    <scale>1</scale>
                    <heading>0</heading>
                    <Icon id="1282">
                        <href>http://maps.google.com/mapfiles/kml/pushpin/ylw-pushpin.png</href>
                    </Icon>
                </IconStyle>
            </Style>
            <Style id="1285">
                <IconStyle id="1286">
                    <color>ff0000ff</color>
                    <colorMode>normal</colorMode>
                    <scale>1</scale>
                    <heading>0</heading>
                    <Icon id="1287">
                        <href>http://maps.google.com/mapfiles/kml/pushpin/ylw-pushpin.png</href>
                    </Icon>
                </IconStyle>
            </Style>
            <Style id="1290">
                <IconStyle id="1291">
                    <color>ff0000ff</color>
                    <colorMode>normal</colorMode>
                    <scale>1</scale>
                    <heading>0</heading>
                    <Icon id="1292">
                        <href>http://maps.google.com/mapfiles/kml/pushpin/ylw-pushpin.png</href>
                    </Icon>
                </IconStyle>
            </Style>
            <Style id="1295">
                <IconStyle id="1296">
                    <color>ff0000ff</color>
                    <colorMode>normal</colorMode>
                    <scale>1</scale>
                    <heading>0</heading>
                    <Icon id="1297">
                        <href>http://maps.google.com/mapfiles/kml/pushpin/ylw-pushpin.png</href>
                    </Icon>
                </IconStyle>
            </Style>
            <Style id="1300">
                <IconStyle id="1301">
                    <color>ff0000ff</color>
                    <colorMode>normal</colorMode>
                    <scale>1</scale>
                    <heading>0</heading>
                    <Icon id="1302">
                        <href>http://maps.google.com/mapfiles/kml/pushpin/ylw-pushpin.png</href>
                    </Icon>
                </IconStyle>
            </Style>
            <Style id="1305">
                <IconStyle id="1306">
                    <color>ff0000ff</color>
                    <colorMode>normal</colorMode>
                    <scale>1</scale>
                    <heading>0</heading>
                    <Icon id="1307">
                        <href>http://maps.google.com/mapfiles/kml/pushpin/ylw-pushpin.png</href>
                    </Icon>
                </IconStyle>
            </Style>
            <Style id="1310">
                <IconStyle id="1311">
                    <color>ff0000ff</color>
                    <colorMode>normal</colorMode>
                    <scale>1</scale>
                    <heading>0</heading>
                    <Icon id="1312">
                        <href>http://maps.google.com/mapfiles/kml/pushpin/ylw-pushpin.png</href>
                    </Icon>
                </IconStyle>
            </Style>
            <Style id="1315">
                <IconStyle id="1316">
                    <color>ff0000ff</color>
                    <colorMode>normal</colorMode>
                    <scale>1</scale>
                    <heading>0</heading>
                    <Icon id="1317">
                        <href>http://maps.google.com/mapfiles/kml/pushpin/ylw-pushpin.png</href>
                    </Icon>
                </IconStyle>
            </Style>
            <Style id="1320">
                <IconStyle id="1321">
                    <color>ff0000ff</color>
                    <colorMode>normal</colorMode>
                    <scale>1</scale>
                    <heading>0</heading>
                    <Icon id="1322">
                        <href>http://maps.google.com/mapfiles/kml/pushpin/ylw-pushpin.png</href>
                    </Icon>
                </IconStyle>
            </Style>
            <Style id="1325">
                <IconStyle id="1326">
                    <color>ff0000ff</color>
                    <colorMode>normal</colorMode>
                    <scale>1</scale>
                    <heading>0</heading>
                    <Icon id="1327">
                        <href>http://maps.google.com/mapfiles/kml/pushpin/ylw-pushpin.png</href>
                    </Icon>
                </IconStyle>
            </Style>
            <Style id="1330">
                <IconStyle id="1331">
                    <color>ff0000ff</color>
                    <colorMode>normal</colorMode>
                    <scale>1</scale>
                    <heading>0</heading>
                    <Icon id="1332">
                        <href>http://maps.google.com/mapfiles/kml/pushpin/ylw-pushpin.png</href>
                    </Icon>
                </IconStyle>
            </Style>
            <Style id="1335">
                <IconStyle id="1336">
                    <color>ff0000ff</color>
                    <colorMode>normal</colorMode>
                    <scale>1</scale>
                    <heading>0</heading>
                    <Icon id="1337">
                        <href>http://maps.google.com/mapfiles/kml/pushpin/ylw-pushpin.png</href>
                    </Icon>
                </IconStyle>
            </Style>
            <Style id="1340">
                <IconStyle id="1341">
                    <color>ff0000ff</color>
                    <colorMode>normal</colorMode>
                    <scale>1</scale>
                    <heading>0</heading>
                    <Icon id="1342">
                        <href>http://maps.google.com/mapfiles/kml/pushpin/ylw-pushpin.png</href>
                    </Icon>
                </IconStyle>
            </Style>
            <Style id="1345">
                <IconStyle id="1346">
                    <color>ff0000ff</color>
                    <colorMode>normal</colorMode>
                    <scale>1</scale>
                    <heading>0</heading>
                    <Icon id="1347">
                        <href>http://maps.google.com/mapfiles/kml/pushpin/ylw-pushpin.png</href>
                    </Icon>
                </IconStyle>
            </Style>
            <Style id="1350">
                <IconStyle id="1351">
                    <color>ff0000ff</color>
                    <colorMode>normal</colorMode>
                    <scale>1</scale>
                    <heading>0</heading>
                    <Icon id="1352">
                        <href>http://maps.google.com/mapfiles/kml/pushpin/ylw-pushpin.png</href>
                    </Icon>
                </IconStyle>
            </Style>
            <name>DOMITILA QUISPE MIRANDA</name>
            <Placemark id="1074">
                <name>ESPINOZA REYES ZERENELA M.</name>
                <description>ESPINOZA REYES ZERENELA M.
JR. BOLIVAR 126 PAITA
Paita
Paita
Piura
Perú</description>
                <styleUrl>#1075</styleUrl>
                <Point id="1073">
                    <coordinates>-81.114327,-5.084947,0.0</coordinates>
                </Point>
            </Placemark>
            <Placemark id="1079">
                <name>LLACSAHUANGA HUAMAN EUFRASIA</name>
                <description>A.H.NUEVO HORIZONTE MZ.A LT.3
Paita
Paita
Piura
Perú</description>
                <styleUrl>#1080</styleUrl>
                <Point id="1078">
                    <coordinates>-81.118053,-5.106482,0.0</coordinates>
                </Point>
            </Placemark>
            <Placemark id="1084">
                <name>MARGARITA ALBURQUEQUE INFANTE</name>
                <description>JUAN VALER MZ D LT33 PAITA ALTA
Paita
Paita
Piura
Perú</description>
                <styleUrl>#1085</styleUrl>
                <Point id="1083">
                    <coordinates>-81.1105188,-5.1013687,0.0</coordinates>
                </Point>
            </Placemark>
            <Placemark id="1089">
                <name>REYDELINDA TORRES SANSEN</name>
                <description>AAHH 2 DE AGOSTO I-21
Paita
Paita
Piura
Perú</description>
                <styleUrl>#1090</styleUrl>
                <Point id="1088">
                    <coordinates>-81.1097972,-5.107471,0.0</coordinates>
                </Point>
            </Placemark>
            <Placemark id="1094">
                <name>KARINA GIULLIANA SAAVEDRA ALZAMORA</name>
                <description>MZ W LT 28 AH 02 DE AGOSTO - PAITA
Paita
Paita
Piura
Perú</description>
                <styleUrl>#1095</styleUrl>
                <Point id="1093">
                    <coordinates>-81.1102741,-5.1058449,0.0</coordinates>
                </Point>
            </Placemark>
            <Placemark id="1099">
                <name>BALBINA CORDOVA DE CORDOVA</name>
                <description>Ah villa cristo  calle p1
Paita
Paita
Piura
Perú</description>
                <styleUrl>#1100</styleUrl>
                <Point id="1098">
                    <coordinates>-81.1184486,-5.1063172,0.0</coordinates>
                </Point>
            </Placemark>
            <Placemark id="1104">
                <name>JONATHAN DAVID CASTRO NEYRA</name>
                <description>MZ I LT 4 NUEVO HORIZONTE
Paita
Paita
Piura
Perú</description>
                <styleUrl>#1105</styleUrl>
                <Point id="1103">
                    <coordinates>-81.1203991,-5.1069816,0.0</coordinates>
                </Point>
            </Placemark>
            <Placemark id="1109">
                <name>PEDRO PABLO OBLEA YNGA</name>
                <description>Bahía paita mz x lote 57
Paita

Piura
Perú</description>
                <styleUrl>#1110</styleUrl>
                <Point id="1108">
                    <coordinates>-81.1249092,-5.1061922,0.0</coordinates>
                </Point>
            </Placemark>
            <Placemark id="1114">
                <name>ROÑA CORDOVA LUZ ARMANDA</name>
                <description>AH Túpac Amaru MZ A lote 2 Paita alta camino a yacila
Paita

Piura
Perú</description>
                <styleUrl>#1115</styleUrl>
                <Point id="1113">
                    <coordinates>-81.1221294,-5.1090197,0.0</coordinates>
                </Point>
            </Placemark>
            <Placemark id="1119">
                <name>JUANA CHINCHAY PARRILLA</name>
                <description>AAHH Túpac Amaru Mz A lote 6
Paita
Paita
Piura
Perú</description>
                <styleUrl>#1120</styleUrl>
                <Point id="1118">
                    <coordinates>-81.1222984,-5.1089934,0.0</coordinates>
                </Point>
            </Placemark>
            <Placemark id="1124">
                <name>MENDOZA NAVARRO YIOVANA</name>
                <description>Upis mi Perú mz E lote 6
Paita

Piura
Perú</description>
                <styleUrl>#1125</styleUrl>
                <Point id="1123">
                    <coordinates>-81.1241532,-5.112731,0.0</coordinates>
                </Point>
            </Placemark>
            <Placemark id="1129">
                <name>EDWIN YOVERA VALLADOLID</name>
                <description>Mz E lote 12 AAHH Mi Perú
Paita
Paita
Piura
Perú</description>
                <styleUrl>#1130</styleUrl>
                <Point id="1128">
                    <coordinates>-81.1251148,-5.1124082,0.0</coordinates>
                </Point>
            </Placemark>
            <Placemark id="1134">
                <name>MARIA VERONICA CRUZ ADRIANZEN</name>
                <description>San Juan de Miraflores Mz G lote 2 Paita alta
Paita
Paita
Piura
Perú</description>
                <styleUrl>#1135</styleUrl>
                <Point id="1133">
                    <coordinates>-81.126933,-5.1135555,0.0</coordinates>
                </Point>
            </Placemark>
            <Placemark id="1139">
                <name>DEYSI MARLENY PEREZ MEJIA</name>
                <description>AAHH SAN JUAN  DE MIRAFLORES MZ D LOTE 9
Paita
Paita
Piura
Perú</description>
                <styleUrl>#1140</styleUrl>
                <Point id="1138">
                    <coordinates>-81.1259551,-5.1137364,0.0</coordinates>
                </Point>
            </Placemark>
            <Placemark id="1144">
                <name>ANALIA LIZBETH TINEO MORE</name>
                <description>Aahh san juan de miraflores mz jblote 24 1 etapa (cerca a la xapilla)
Paita

Piura
Perú</description>
                <styleUrl>#1145</styleUrl>
                <Point id="1143">
                    <coordinates>-81.125252,-5.1138016,0.0</coordinates>
                </Point>
            </Placemark>
            <Placemark id="1149">
                <name>FLOR DETQUIZAN SEGURA</name>
                <description>Asentamiento Humano San Juan de Miraflores MZ O LT 25
Paita

Piura
Perú</description>
                <styleUrl>#1150</styleUrl>
                <Point id="1148">
                    <coordinates>-81.1245537,-5.1150295,0.0</coordinates>
                </Point>
            </Placemark>
            <Placemark id="1154">
                <name>MARIA MERCEDES AYUQUE JUAREZ</name>
                <description>Aahh san juan de miraflores 2 etapa mz s lote 15
Paita

Piura
Perú</description>
                <styleUrl>#1155</styleUrl>
                <Point id="1153">
                    <coordinates>-81.1251342,-5.1182947,0.0</coordinates>
                </Point>
            </Placemark>
            <Placemark id="1159">
                <name>ESTENIA NOEMI RAMIREZ LOPEZ</name>
                <description>ESTENIA NOEMI RAMIREZ LOPEZ
AHH SN JUAN DE MIRAFLORES MZ C LOTE 13
Paita
Paita
Piura
Perú</description>
                <styleUrl>#1160</styleUrl>
                <Point id="1158">
                    <coordinates>-81.1246743,-5.1178731,0.0</coordinates>
                </Point>
            </Placemark>
            <Placemark id="1164">
                <name>KATHERINE REXIONA REATEGUI PINEDO</name>
                <description>SAN JUAN DE MIRAFLORES MZ G LT 8 TERCERA ETAPA
Paita
Paita
Piura
Perú</description>
                <styleUrl>#1165</styleUrl>
                <Point id="1163">
                    <coordinates>-81.1240624,-5.1156637,0.0</coordinates>
                </Point>
            </Placemark>
            <Placemark id="1169">
                <name>ROXANA DEL ROCIO NIQUEN DIAZ</name>
                <description>Mz A lote 17 AAHH Mi Perú
Paita
Paita
Piura
Perú</description>
                <styleUrl>#1170</styleUrl>
                <Point id="1168">
                    <coordinates>-81.124286,-5.1114172,0.0</coordinates>
                </Point>
            </Placemark>
            <Placemark id="1174">
                <name>PAMELA YULISSA VILCHEZ SANDOVAL</name>
                <description>AAHH mi Perú Mz a lote 19
Paita
Paita
Piura
Perú</description>
                <styleUrl>#1175</styleUrl>
                <Point id="1173">
                    <coordinates>-81.1244155,-5.111386,0.0</coordinates>
                </Point>
            </Placemark>
            <Placemark id="1179">
                <name>BEXY FEBRE ROBLEDO</name>
                <description>29 de diciembre Mz M lote 14
Paita
Paita
Piura
Perú</description>
                <styleUrl>#1180</styleUrl>
                <Point id="1178">
                    <coordinates>-81.117934,-5.1092614,0.0</coordinates>
                </Point>
            </Placemark>
            <Placemark id="1184">
                <name>CINDY LIZLEY ABAD VALLADARES</name>
                <description>AAHH 29 DE DICIEMBRE MZ Q LOTE 20
Paita
Paita
Piura
Perú</description>
                <styleUrl>#1185</styleUrl>
                <Point id="1183">
                    <coordinates>-81.1166812,-5.1099471,0.0</coordinates>
                </Point>
            </Placemark>
            <Placemark id="1189">
                <name>SANDOVAL BALDERA JOSE OSCAR</name>
                <description>AH 29 DE DICIEMBRE MZ L-21
Paita
Paita
Piura
Perú</description>
                <styleUrl>#1190</styleUrl>
                <Point id="1188">
                    <coordinates>-81.117261,-5.109143,0.0</coordinates>
                </Point>
            </Placemark>
            <Placemark id="1194">
                <name>VANESA LISBETH MAZA MIJA</name>
                <description>29 DE DICIEMBRE MZ B LT 17 - POR LA CAPILLA 29 DE DICIEMBRE
Paita
Paita
Piura
Perú</description>
                <styleUrl>#1195</styleUrl>
                <Point id="1193">
                    <coordinates>-81.1175571,-5.1081254,0.0</coordinates>
                </Point>
            </Placemark>
            <Placemark id="1199">
                <name>SANDRA YURI CARBAJAL TINCO</name>
                <description>29 DE DICIEMBRE MZ H LOTE 20
Paita
Paita
Piura
Perú</description>
                <styleUrl>#1200</styleUrl>
                <Point id="1198">
                    <coordinates>-81.1163642,-5.109068,0.0</coordinates>
                </Point>
            </Placemark>
            <Placemark id="1204">
                <name>MARIA MARGARITA INGA VALVERDE</name>
                <description>REYMUNDO DIOSES MZ T IT 19 MZ A LT
Paita
Paita
Piura
Perú</description>
                <styleUrl>#1205</styleUrl>
                <Point id="1203">
                    <coordinates>-81.116626,-5.1071325,0.0</coordinates>
                </Point>
            </Placemark>
            <Placemark id="1209">
                <name>ELIZABETH MILAGROS BENITES TABOADA</name>
                <description>LOS LAURELES MZ L1 LT48 PAITA-PIURA
Paita
Paita
Piura
Perú</description>
                <styleUrl>#1210</styleUrl>
                <Point id="1208">
                    <coordinates>-81.1175329,-5.1060242,0.0</coordinates>
                </Point>
            </Placemark>
            <Placemark id="1214">
                <name>MARIOLINDA GARCIA SANTOS</name>
                <description>AH LOS LAURELES MZ D PRIMA LT 10 -PAITA
Paita
Paita
Piura
Perú</description>
                <styleUrl>#1215</styleUrl>
                <Point id="1213">
                    <coordinates>-81.1171563,-5.1056711,0.0</coordinates>
                </Point>
            </Placemark>
            <Placemark id="1219">
                <name>JORGE PALACIOS SOCOLA</name>
                <description>AHH LOS LAURELES PRIMERA ETAPA MZ R LOTE 11
Paita
Paita
Piura
Perú</description>
                <styleUrl>#1220</styleUrl>
                <Point id="1218">
                    <coordinates>-81.1144921,-5.1092482,0.0</coordinates>
                </Point>
            </Placemark>
            <Placemark id="1224">
                <name>MARIA ROSA CHERO VILLANUEVA</name>
                <description>AS LAURELES 1ET MZ Q LT 9
Paita
Paita
Piura
Perú</description>
                <styleUrl>#1225</styleUrl>
                <Point id="1223">
                    <coordinates>-81.1146153,-5.1089479,0.0</coordinates>
                </Point>
            </Placemark>
            <Placemark id="1229">
                <name>ELBIA VALDEZ ZAPATA</name>
                <description>Los laureles 2 etapa k lote 8
Paita
Paita
Piura
Perú</description>
                <styleUrl>#1230</styleUrl>
                <Point id="1228">
                    <coordinates>-81.1145972,-5.107739,0.0</coordinates>
                </Point>
            </Placemark>
            <Placemark id="1234">
                <name>VERONICA DEL PILAR MADRID SANCHEZ</name>
                <description>MZ-J PRIMA LT-1 AH.LOS LAURLES ETP-
Paita
Paita
Piura
Perú</description>
                <styleUrl>#1235</styleUrl>
                <Point id="1233">
                    <coordinates>-81.1149251,-5.1074506,0.0</coordinates>
                </Point>
            </Placemark>
            <Placemark id="1239">
                <name>DOMINGUEZ MORENO CRUZ E.</name>
                <description>AH LOS LAURELES ET II MZ W-01
Paita

Piura
Perú</description>
                <styleUrl>#1240</styleUrl>
                <Point id="1238">
                    <coordinates>-81.112354,-5.108815,0.0</coordinates>
                </Point>
            </Placemark>
            <Placemark id="1244">
                <name>MARITZA ISABEL CORTEZ FLORES</name>
                <description>Ah los laureles 2 etapa mz c lote 11
Paita
Paita
Piura
Perú</description>
                <styleUrl>#1245</styleUrl>
                <Point id="1243">
                    <coordinates>-81.1128962,-5.1078745,0.0</coordinates>
                </Point>
            </Placemark>
            <Placemark id="1249">
                <name>ELAR AUGUSTO GARCIA ESPINOZA</name>
                <description>AH LOS LAURELES MZ-R LT-16
Paita
Paita
Piura
Perú</description>
                <styleUrl>#1250</styleUrl>
                <Point id="1248">
                    <coordinates>-81.1149855,-5.1053508,0.0</coordinates>
                </Point>
            </Placemark>
            <Placemark id="1254">
                <name>HENRRY SMITH CORDOVA GARCIA</name>
                <description>AAHH LOS LAURELES MZ F LOTE 07
Paita
Paita
Piura
Perú</description>
                <styleUrl>#1255</styleUrl>
                <Point id="1253">
                    <coordinates>-81.1149475,-5.1051299,0.0</coordinates>
                </Point>
            </Placemark>
            <Placemark id="1259">
                <name>VITALINA SARANGO CAMPOVERDE</name>
                <description>MZ C PRIMA LT 6 AH LOS LAURELES -PAITA
Paita
Paita
Piura
Perú</description>
                <styleUrl>#1260</styleUrl>
                <Point id="1258">
                    <coordinates>-81.1130204,-5.1060502,0.0</coordinates>
                </Point>
            </Placemark>
            <Placemark id="1264">
                <name>KENNY ALEXANDER NEIRA CUMPEN</name>
                <description>AAHH Los Laureles 2 etapa MZE lote 12
Paita
Paita
Piura
Perú</description>
                <styleUrl>#1265</styleUrl>
                <Point id="1263">
                    <coordinates>-81.1122984,-5.1068102,0.0</coordinates>
                </Point>
            </Placemark>
            <Placemark id="1269">
                <name>WINIMER LEONEL ANTICONA MENDOZA</name>
                <description>Los laureles 2da etapa MZ M lote 14
Paita
Paita
Piura
Perú</description>
                <styleUrl>#1270</styleUrl>
                <Point id="1268">
                    <coordinates>-81.1119417,-5.1072848,0.0</coordinates>
                </Point>
            </Placemark>
            <Placemark id="1274">
                <name>VICTOR MANUEL CHAPILLIQUEN QUINTANA</name>
                <description>Ah dos de agosto Mz O lote 28
Paita
Paita
Piura
Perú</description>
                <styleUrl>#1275</styleUrl>
                <Point id="1273">
                    <coordinates>-81.1112418,-5.1056685,0.0</coordinates>
                </Point>
            </Placemark>
            <Placemark id="1279">
                <name>MARIA LUCILA BRENIS SUCLUPE</name>
                <description>AhH dos de agosto Mz J lote 25
Paita
Paita
Piura
Perú</description>
                <styleUrl>#1280</styleUrl>
                <Point id="1278">
                    <coordinates>-81.1119409,-5.1053076,0.0</coordinates>
                </Point>
            </Placemark>
            <Placemark id="1284">
                <name>DEYSI JULISSA RUIZ MARTINEZ</name>
                <description>MZ-C LT-33 AH 2 DE AGOSTO
Paita
Paita
Piura
Perú</description>
                <styleUrl>#1285</styleUrl>
                <Point id="1283">
                    <coordinates>-81.117861,-5.1091843,0.0</coordinates>
                </Point>
            </Placemark>
            <Placemark id="1289">
                <name>LASTENIA SALAZAR JIMENEZ</name>
                <description>MZ X LT 12 JUAN VALER - PAITA
Paita
Paita
Piura
Perú</description>
                <styleUrl>#1290</styleUrl>
                <Point id="1288">
                    <coordinates>-81.1102227,-5.1036313,0.0</coordinates>
                </Point>
            </Placemark>
            <Placemark id="1294">
                <name>DORA ALICIA CERNA NAVARRO</name>
                <description>AH JUAN VALER MZ I LT 08 - PAITA
Paita
Paita
Piura
Perú</description>
                <styleUrl>#1295</styleUrl>
                <Point id="1293">
                    <coordinates>-81.111005,-5.1026154,0.0</coordinates>
                </Point>
            </Placemark>
            <Placemark id="1299">
                <name>ROLANDO PELAYES CHINCHAY</name>
                <description>MZ A LT 9 AH JUAN VALER SANDOVAL- PAITA
Paita
Paita
Piura
Perú</description>
                <styleUrl>#1300</styleUrl>
                <Point id="1298">
                    <coordinates>-81.1123843,-5.1027636,0.0</coordinates>
                </Point>
            </Placemark>
            <Placemark id="1304">
                <name>MARISELA VALENCIA VILLEGAS</name>
                <description>JUAN VALER B LOT 10 PAITA
Paita
Paita
Piura
Perú</description>
                <styleUrl>#1305</styleUrl>
                <Point id="1303">
                    <coordinates>-81.1114351,-5.1015055,0.0</coordinates>
                </Point>
            </Placemark>
            <Placemark id="1309">
                <name>JULIO RETO MONTERO</name>
                <description>Juan valer Sandoval mz k lote 27
Paita
Paita
Piura
Perú</description>
                <styleUrl>#1310</styleUrl>
                <Point id="1308">
                    <coordinates>-81.1087618,-5.1025562,0.0</coordinates>
                </Point>
            </Placemark>
            <Placemark id="1314">
                <name>MARIA DEL PILAR RAMIREZ MARQUEZ</name>
                <description>Juan valer Sandoval mz R Lot 11
Paita
Paita
Piura
Perú</description>
                <styleUrl>#1315</styleUrl>
                <Point id="1313">
                    <coordinates>-81.1086704,-5.1042465,0.0</coordinates>
                </Point>
            </Placemark>
            <Placemark id="1319">
                <name>IRMA ROSA JIMENEZ PEREZ</name>
                <description>Ah Juan valer Sandoval mz T lote 17
Paita
Paita
Piura
Perú</description>
                <styleUrl>#1320</styleUrl>
                <Point id="1318">
                    <coordinates>-81.1087782,-5.1048852,0.0</coordinates>
                </Point>
            </Placemark>
            <Placemark id="1324">
                <name>ROSALIA JULCAHUANCA MANCHAY</name>
                <description>AAHH JUAN VALER MZ T LT 24 - PAITA
Paita
Paita
Piura
Perú</description>
                <styleUrl>#1325</styleUrl>
                <Point id="1323">
                    <coordinates>-81.1086932,-5.1052522,0.0</coordinates>
                </Point>
            </Placemark>
            <Placemark id="1329">
                <name>MILAGROS DEL PILAR GOMEZ DE LA ROSA</name>
                <description>ah Ramón Castilla sector 28 de octubre mz B lote 25
Paita
Paita
Piura
Perú</description>
                <styleUrl>#1330</styleUrl>
                <Point id="1328">
                    <coordinates>-81.10785,-5.1059633,0.0</coordinates>
                </Point>
            </Placemark>
            <Placemark id="1334">
                <name>MARILIA LAZARO JUAREZ</name>
                <description>AAHH 2 DE AGOSTO MZ G' LOTE 19 FRENTE AL PARADERO
Paita

Piura
Perú</description>
                <styleUrl>#1335</styleUrl>
                <Point id="1333">
                    <coordinates>-81.1080856,-5.1077159,0.0</coordinates>
                </Point>
            </Placemark>
            <Placemark id="1339">
                <name>YASENIA DEL PILAR PASACHE CASTILLO</name>
                <description>Aahh Rosa de Guadalupe mzC lote 20 Paita alta
Paita
Paita
Piura
Perú</description>
                <styleUrl>#1340</styleUrl>
                <Point id="1338">
                    <coordinates>-81.1090857,-5.1088447,0.0</coordinates>
                </Point>
            </Placemark>
            <Placemark id="1344">
                <name>MILY CHARITO CALDERON CENTURION</name>
                <description>MILY CHARITO CALDERON CENTURION
AAHH ROSA DE GUADALUPE MZ K LT 3-PAITA
Paita
Paita
Piura
Perú</description>
                <styleUrl>#1345</styleUrl>
                <Point id="1343">
                    <coordinates>-81.1094446,-5.1090893,0.0</coordinates>
                </Point>
            </Placemark>
            <Placemark id="1349">
                <name>SILVIA FIDELIA GARCIA ALVARADO</name>
                <description>MZ - E LT - 19 A H ROSA DE GUADALUPE PAITA
Paita
Paita
Piura
Perú</description>
                <styleUrl>#1350</styleUrl>
                <Point id="1348">
                    <coordinates>-81.1098551,-5.109241,0.0</coordinates>
                </Point>
            </Placemark>
        </Folder>
        <Folder id="1353">
            <Style id="1356">
                <IconStyle id="1357">
                    <color>ffff0000</color>
                    <colorMode>normal</colorMode>
                    <scale>1</scale>
                    <heading>0</heading>
                    <Icon id="1358">
                        <href>http://maps.google.com/mapfiles/kml/pushpin/ylw-pushpin.png</href>
                    </Icon>
                </IconStyle>
            </Style>
            <Style id="1361">
                <IconStyle id="1362">
                    <color>ffff0000</color>
                    <colorMode>normal</colorMode>
                    <scale>1</scale>
                    <heading>0</heading>
                    <Icon id="1363">
                        <href>http://maps.google.com/mapfiles/kml/pushpin/ylw-pushpin.png</href>
                    </Icon>
                </IconStyle>
            </Style>
            <Style id="1366">
                <IconStyle id="1367">
                    <color>ffff0000</color>
                    <colorMode>normal</colorMode>
                    <scale>1</scale>
                    <heading>0</heading>
                    <Icon id="1368">
                        <href>http://maps.google.com/mapfiles/kml/pushpin/ylw-pushpin.png</href>
                    </Icon>
                </IconStyle>
            </Style>
            <Style id="1371">
                <IconStyle id="1372">
                    <color>ffff0000</color>
                    <colorMode>normal</colorMode>
                    <scale>1</scale>
                    <heading>0</heading>
                    <Icon id="1373">
                        <href>http://maps.google.com/mapfiles/kml/pushpin/ylw-pushpin.png</href>
                    </Icon>
                </IconStyle>
            </Style>
            <Style id="1376">
                <IconStyle id="1377">
                    <color>ffff0000</color>
                    <colorMode>normal</colorMode>
                    <scale>1</scale>
                    <heading>0</heading>
                    <Icon id="1378">
                        <href>http://maps.google.com/mapfiles/kml/pushpin/ylw-pushpin.png</href>
                    </Icon>
                </IconStyle>
            </Style>
            <Style id="1381">
                <IconStyle id="1382">
                    <color>ffff0000</color>
                    <colorMode>normal</colorMode>
                    <scale>1</scale>
                    <heading>0</heading>
                    <Icon id="1383">
                        <href>http://maps.google.com/mapfiles/kml/pushpin/ylw-pushpin.png</href>
                    </Icon>
                </IconStyle>
            </Style>
            <Style id="1386">
                <IconStyle id="1387">
                    <color>ffff0000</color>
                    <colorMode>normal</colorMode>
                    <scale>1</scale>
                    <heading>0</heading>
                    <Icon id="1388">
                        <href>http://maps.google.com/mapfiles/kml/pushpin/ylw-pushpin.png</href>
                    </Icon>
                </IconStyle>
            </Style>
            <Style id="1391">
                <IconStyle id="1392">
                    <color>ffff0000</color>
                    <colorMode>normal</colorMode>
                    <scale>1</scale>
                    <heading>0</heading>
                    <Icon id="1393">
                        <href>http://maps.google.com/mapfiles/kml/pushpin/ylw-pushpin.png</href>
                    </Icon>
                </IconStyle>
            </Style>
            <Style id="1396">
                <IconStyle id="1397">
                    <color>ffff0000</color>
                    <colorMode>normal</colorMode>
                    <scale>1</scale>
                    <heading>0</heading>
                    <Icon id="1398">
                        <href>http://maps.google.com/mapfiles/kml/pushpin/ylw-pushpin.png</href>
                    </Icon>
                </IconStyle>
            </Style>
            <Style id="1401">
                <IconStyle id="1402">
                    <color>ffff0000</color>
                    <colorMode>normal</colorMode>
                    <scale>1</scale>
                    <heading>0</heading>
                    <Icon id="1403">
                        <href>http://maps.google.com/mapfiles/kml/pushpin/ylw-pushpin.png</href>
                    </Icon>
                </IconStyle>
            </Style>
            <Style id="1406">
                <IconStyle id="1407">
                    <color>ffff0000</color>
                    <colorMode>normal</colorMode>
                    <scale>1</scale>
                    <heading>0</heading>
                    <Icon id="1408">
                        <href>http://maps.google.com/mapfiles/kml/pushpin/ylw-pushpin.png</href>
                    </Icon>
                </IconStyle>
            </Style>
            <Style id="1411">
                <IconStyle id="1412">
                    <color>ffff0000</color>
                    <colorMode>normal</colorMode>
                    <scale>1</scale>
                    <heading>0</heading>
                    <Icon id="1413">
                        <href>http://maps.google.com/mapfiles/kml/pushpin/ylw-pushpin.png</href>
                    </Icon>
                </IconStyle>
            </Style>
            <name>LEONARDO VIERA CHAVEZ</name>
            <Placemark id="1355">
                <name>PASACHE RUIZ KATHERINE ADALI</name>
                <description>Mercadillo santa rosa s/n paita
Paita
Paita
Piura
Perú</description>
                <styleUrl>#1356</styleUrl>
                <Point id="1354">
                    <coordinates>-81.0988401,-5.0919978,0.0</coordinates>
                </Point>
            </Placemark>
            <Placemark id="1360">
                <name>ROSA ELVIRA PALACIOS HUAMAN</name>
                <description>ROSA ELVIRA PALACIOS HUAMAN
JR MALAGA PTO 62 MCDO MODE
Paita
-Paita
Piura
Perú</description>
                <styleUrl>#1361</styleUrl>
                <Point id="1359">
                    <coordinates>-81.1128813,-5.0909221,0.0</coordinates>
                </Point>
            </Placemark>
            <Placemark id="1365">
                <name>CARMENCITA VELA VELA</name>
                <description>MCDO MODELO PAITA BAJA #78 PAITA-PIURA
Paita
Paita
Piura
Perú</description>
                <styleUrl>#1366</styleUrl>
                <Point id="1364">
                    <coordinates>-81.1130277,-5.0909058,0.0</coordinates>
                </Point>
            </Placemark>
            <Placemark id="1370">
                <name>DALINDA JARAMILLO VALLE</name>
                <description>Interior mercado santa rosa paita alta
Paita
Paita
Piura
Perú</description>
                <styleUrl>#1371</styleUrl>
                <Point id="1369">
                    <coordinates>-81.0991439,-5.0921427,0.0</coordinates>
                </Point>
            </Placemark>
            <Placemark id="1375">
                <name>YULI LILIANA CRUZ HIJUELA</name>
                <description>Mercado modelo paita baja .
Paita
Paita
Piura
Perú</description>
                <styleUrl>#1376</styleUrl>
                <Point id="1374">
                    <coordinates>-81.1130847,-5.0899168,0.0</coordinates>
                </Point>
            </Placemark>
            <Placemark id="1380">
                <name>FERNANDEZ MIRANDA JOSEFA</name>
                <description>MZ.E1 LT.08 AH CIUDAD ROJA
Paita
Paita
Piura
Perú</description>
                <styleUrl>#1381</styleUrl>
                <Point id="1379">
                    <coordinates>-81.0989557,-5.0928504,0.0</coordinates>
                </Point>
            </Placemark>
            <Placemark id="1385">
                <name>DALINDA JARAMILLO VALLE</name>
                <description>Interior mercado santa rosa paita alta
Paita
Paita
Piura
Perú</description>
                <styleUrl>#1386</styleUrl>
                <Point id="1384">
                    <coordinates>-81.0991439,-5.0921427,0.0</coordinates>
                </Point>
            </Placemark>
            <Placemark id="1390">
                <name>CARMENCITA VELA VELA</name>
                <description>MCDO MODELO PAITA BAJA #78 PAITA-PIURA
Paita
Paita
Piura
Perú</description>
                <styleUrl>#1391</styleUrl>
                <Point id="1389">
                    <coordinates>-81.1130277,-5.0909058,0.0</coordinates>
                </Point>
            </Placemark>
            <Placemark id="1395">
                <name>YULI LILIANA CRUZ HIJUELA</name>
                <description>Mercado modelo paita baja .
Paita
Paita
Piura
Perú</description>
                <styleUrl>#1396</styleUrl>
                <Point id="1394">
                    <coordinates>-81.1130847,-5.0899168,0.0</coordinates>
                </Point>
            </Placemark>
            <Placemark id="1400">
                <name>ORDINOLA CHUNGA WILMER ALFREDO</name>
                <description>PAITA MCDO MODELO PSTO 117
Paita
Paita
Piura
Perú</description>
                <styleUrl>#1401</styleUrl>
                <Point id="1399">
                    <coordinates>-81.1125438,-5.0903795,0.0</coordinates>
                </Point>
            </Placemark>
            <Placemark id="1405">
                <name>ROSA ELVIRA PALACIOS HUAMAN</name>
                <description>ROSA ELVIRA PALACIOS HUAMAN
JR MALAGA PTO 62 MCDO MODE
Paita
-Paita
Piura
Perú</description>
                <styleUrl>#1406</styleUrl>
                <Point id="1404">
                    <coordinates>-81.1128813,-5.0909221,0.0</coordinates>
                </Point>
            </Placemark>
            <Placemark id="1410">
                <name>PASACHE RUIZ KATHERINE ADALI</name>
                <description>Mercadillo santa rosa s/n paita
Paita
Paita
Piura
Perú</description>
                <styleUrl>#1411</styleUrl>
                <Point id="1409">
                    <coordinates>-81.0988401,-5.0919978,0.0</coordinates>
                </Point>
            </Placemark>
        </Folder>
    </Document>
</kml>
