<?xml version="1.0" encoding="UTF-8"?>
<kml xmlns="http://www.opengis.net/kml/2.2" xmlns:gx="http://www.google.com/kml/ext/2.2">
    <Document id="1181">
        <Folder id="1182">
            <Style id="1185">
                <IconStyle id="1186">
                    <color>ff0000ff</color>
                    <colorMode>normal</colorMode>
                    <scale>1</scale>
                    <heading>0</heading>
                    <Icon id="1187">
                        <href>http://maps.google.com/mapfiles/kml/pushpin/ylw-pushpin.png</href>
                    </Icon>
                </IconStyle>
            </Style>
            <Style id="1190">
                <IconStyle id="1191">
                    <color>ff0000ff</color>
                    <colorMode>normal</colorMode>
                    <scale>1</scale>
                    <heading>0</heading>
                    <Icon id="1192">
                        <href>http://maps.google.com/mapfiles/kml/pushpin/ylw-pushpin.png</href>
                    </Icon>
                </IconStyle>
            </Style>
            <Style id="1195">
                <IconStyle id="1196">
                    <color>ff0000ff</color>
                    <colorMode>normal</colorMode>
                    <scale>1</scale>
                    <heading>0</heading>
                    <Icon id="1197">
                        <href>http://maps.google.com/mapfiles/kml/pushpin/ylw-pushpin.png</href>
                    </Icon>
                </IconStyle>
            </Style>
            <Style id="1200">
                <IconStyle id="1201">
                    <color>ff0000ff</color>
                    <colorMode>normal</colorMode>
                    <scale>1</scale>
                    <heading>0</heading>
                    <Icon id="1202">
                        <href>http://maps.google.com/mapfiles/kml/pushpin/ylw-pushpin.png</href>
                    </Icon>
                </IconStyle>
            </Style>
            <Style id="1205">
                <IconStyle id="1206">
                    <color>ff0000ff</color>
                    <colorMode>normal</colorMode>
                    <scale>1</scale>
                    <heading>0</heading>
                    <Icon id="1207">
                        <href>http://maps.google.com/mapfiles/kml/pushpin/ylw-pushpin.png</href>
                    </Icon>
                </IconStyle>
            </Style>
            <Style id="1210">
                <IconStyle id="1211">
                    <color>ff0000ff</color>
                    <colorMode>normal</colorMode>
                    <scale>1</scale>
                    <heading>0</heading>
                    <Icon id="1212">
                        <href>http://maps.google.com/mapfiles/kml/pushpin/ylw-pushpin.png</href>
                    </Icon>
                </IconStyle>
            </Style>
            <Style id="1215">
                <IconStyle id="1216">
                    <color>ff0000ff</color>
                    <colorMode>normal</colorMode>
                    <scale>1</scale>
                    <heading>0</heading>
                    <Icon id="1217">
                        <href>http://maps.google.com/mapfiles/kml/pushpin/ylw-pushpin.png</href>
                    </Icon>
                </IconStyle>
            </Style>
            <Style id="1220">
                <IconStyle id="1221">
                    <color>ff0000ff</color>
                    <colorMode>normal</colorMode>
                    <scale>1</scale>
                    <heading>0</heading>
                    <Icon id="1222">
                        <href>http://maps.google.com/mapfiles/kml/pushpin/ylw-pushpin.png</href>
                    </Icon>
                </IconStyle>
            </Style>
            <Style id="1225">
                <IconStyle id="1226">
                    <color>ff0000ff</color>
                    <colorMode>normal</colorMode>
                    <scale>1</scale>
                    <heading>0</heading>
                    <Icon id="1227">
                        <href>http://maps.google.com/mapfiles/kml/pushpin/ylw-pushpin.png</href>
                    </Icon>
                </IconStyle>
            </Style>
            <Style id="1230">
                <IconStyle id="1231">
                    <color>ff0000ff</color>
                    <colorMode>normal</colorMode>
                    <scale>1</scale>
                    <heading>0</heading>
                    <Icon id="1232">
                        <href>http://maps.google.com/mapfiles/kml/pushpin/ylw-pushpin.png</href>
                    </Icon>
                </IconStyle>
            </Style>
            <Style id="1235">
                <IconStyle id="1236">
                    <color>ff0000ff</color>
                    <colorMode>normal</colorMode>
                    <scale>1</scale>
                    <heading>0</heading>
                    <Icon id="1237">
                        <href>http://maps.google.com/mapfiles/kml/pushpin/ylw-pushpin.png</href>
                    </Icon>
                </IconStyle>
            </Style>
            <Style id="1240">
                <IconStyle id="1241">
                    <color>ff0000ff</color>
                    <colorMode>normal</colorMode>
                    <scale>1</scale>
                    <heading>0</heading>
                    <Icon id="1242">
                        <href>http://maps.google.com/mapfiles/kml/pushpin/ylw-pushpin.png</href>
                    </Icon>
                </IconStyle>
            </Style>
            <Style id="1245">
                <IconStyle id="1246">
                    <color>ff0000ff</color>
                    <colorMode>normal</colorMode>
                    <scale>1</scale>
                    <heading>0</heading>
                    <Icon id="1247">
                        <href>http://maps.google.com/mapfiles/kml/pushpin/ylw-pushpin.png</href>
                    </Icon>
                </IconStyle>
            </Style>
            <Style id="1250">
                <IconStyle id="1251">
                    <color>ff0000ff</color>
                    <colorMode>normal</colorMode>
                    <scale>1</scale>
                    <heading>0</heading>
                    <Icon id="1252">
                        <href>http://maps.google.com/mapfiles/kml/pushpin/ylw-pushpin.png</href>
                    </Icon>
                </IconStyle>
            </Style>
            <Style id="1255">
                <IconStyle id="1256">
                    <color>ff0000ff</color>
                    <colorMode>normal</colorMode>
                    <scale>1</scale>
                    <heading>0</heading>
                    <Icon id="1257">
                        <href>http://maps.google.com/mapfiles/kml/pushpin/ylw-pushpin.png</href>
                    </Icon>
                </IconStyle>
            </Style>
            <Style id="1260">
                <IconStyle id="1261">
                    <color>ff0000ff</color>
                    <colorMode>normal</colorMode>
                    <scale>1</scale>
                    <heading>0</heading>
                    <Icon id="1262">
                        <href>http://maps.google.com/mapfiles/kml/pushpin/ylw-pushpin.png</href>
                    </Icon>
                </IconStyle>
            </Style>
            <Style id="1265">
                <IconStyle id="1266">
                    <color>ff0000ff</color>
                    <colorMode>normal</colorMode>
                    <scale>1</scale>
                    <heading>0</heading>
                    <Icon id="1267">
                        <href>http://maps.google.com/mapfiles/kml/pushpin/ylw-pushpin.png</href>
                    </Icon>
                </IconStyle>
            </Style>
            <Style id="1270">
                <IconStyle id="1271">
                    <color>ff0000ff</color>
                    <colorMode>normal</colorMode>
                    <scale>1</scale>
                    <heading>0</heading>
                    <Icon id="1272">
                        <href>http://maps.google.com/mapfiles/kml/pushpin/ylw-pushpin.png</href>
                    </Icon>
                </IconStyle>
            </Style>
            <Style id="1275">
                <IconStyle id="1276">
                    <color>ff0000ff</color>
                    <colorMode>normal</colorMode>
                    <scale>1</scale>
                    <heading>0</heading>
                    <Icon id="1277">
                        <href>http://maps.google.com/mapfiles/kml/pushpin/ylw-pushpin.png</href>
                    </Icon>
                </IconStyle>
            </Style>
            <Style id="1280">
                <IconStyle id="1281">
                    <color>ff0000ff</color>
                    <colorMode>normal</colorMode>
                    <scale>1</scale>
                    <heading>0</heading>
                    <Icon id="1282">
                        <href>http://maps.google.com/mapfiles/kml/pushpin/ylw-pushpin.png</href>
                    </Icon>
                </IconStyle>
            </Style>
            <Style id="1285">
                <IconStyle id="1286">
                    <color>ff0000ff</color>
                    <colorMode>normal</colorMode>
                    <scale>1</scale>
                    <heading>0</heading>
                    <Icon id="1287">
                        <href>http://maps.google.com/mapfiles/kml/pushpin/ylw-pushpin.png</href>
                    </Icon>
                </IconStyle>
            </Style>
            <Style id="1290">
                <IconStyle id="1291">
                    <color>ff0000ff</color>
                    <colorMode>normal</colorMode>
                    <scale>1</scale>
                    <heading>0</heading>
                    <Icon id="1292">
                        <href>http://maps.google.com/mapfiles/kml/pushpin/ylw-pushpin.png</href>
                    </Icon>
                </IconStyle>
            </Style>
            <Style id="1295">
                <IconStyle id="1296">
                    <color>ff0000ff</color>
                    <colorMode>normal</colorMode>
                    <scale>1</scale>
                    <heading>0</heading>
                    <Icon id="1297">
                        <href>http://maps.google.com/mapfiles/kml/pushpin/ylw-pushpin.png</href>
                    </Icon>
                </IconStyle>
            </Style>
            <Style id="1300">
                <IconStyle id="1301">
                    <color>ff0000ff</color>
                    <colorMode>normal</colorMode>
                    <scale>1</scale>
                    <heading>0</heading>
                    <Icon id="1302">
                        <href>http://maps.google.com/mapfiles/kml/pushpin/ylw-pushpin.png</href>
                    </Icon>
                </IconStyle>
            </Style>
            <Style id="1305">
                <IconStyle id="1306">
                    <color>ff0000ff</color>
                    <colorMode>normal</colorMode>
                    <scale>1</scale>
                    <heading>0</heading>
                    <Icon id="1307">
                        <href>http://maps.google.com/mapfiles/kml/pushpin/ylw-pushpin.png</href>
                    </Icon>
                </IconStyle>
            </Style>
            <Style id="1310">
                <IconStyle id="1311">
                    <color>ff0000ff</color>
                    <colorMode>normal</colorMode>
                    <scale>1</scale>
                    <heading>0</heading>
                    <Icon id="1312">
                        <href>http://maps.google.com/mapfiles/kml/pushpin/ylw-pushpin.png</href>
                    </Icon>
                </IconStyle>
            </Style>
            <Style id="1315">
                <IconStyle id="1316">
                    <color>ff0000ff</color>
                    <colorMode>normal</colorMode>
                    <scale>1</scale>
                    <heading>0</heading>
                    <Icon id="1317">
                        <href>http://maps.google.com/mapfiles/kml/pushpin/ylw-pushpin.png</href>
                    </Icon>
                </IconStyle>
            </Style>
            <Style id="1320">
                <IconStyle id="1321">
                    <color>ff0000ff</color>
                    <colorMode>normal</colorMode>
                    <scale>1</scale>
                    <heading>0</heading>
                    <Icon id="1322">
                        <href>http://maps.google.com/mapfiles/kml/pushpin/ylw-pushpin.png</href>
                    </Icon>
                </IconStyle>
            </Style>
            <Style id="1325">
                <IconStyle id="1326">
                    <color>ff0000ff</color>
                    <colorMode>normal</colorMode>
                    <scale>1</scale>
                    <heading>0</heading>
                    <Icon id="1327">
                        <href>http://maps.google.com/mapfiles/kml/pushpin/ylw-pushpin.png</href>
                    </Icon>
                </IconStyle>
            </Style>
            <Style id="1330">
                <IconStyle id="1331">
                    <color>ff0000ff</color>
                    <colorMode>normal</colorMode>
                    <scale>1</scale>
                    <heading>0</heading>
                    <Icon id="1332">
                        <href>http://maps.google.com/mapfiles/kml/pushpin/ylw-pushpin.png</href>
                    </Icon>
                </IconStyle>
            </Style>
            <Style id="1335">
                <IconStyle id="1336">
                    <color>ff0000ff</color>
                    <colorMode>normal</colorMode>
                    <scale>1</scale>
                    <heading>0</heading>
                    <Icon id="1337">
                        <href>http://maps.google.com/mapfiles/kml/pushpin/ylw-pushpin.png</href>
                    </Icon>
                </IconStyle>
            </Style>
            <Style id="1340">
                <IconStyle id="1341">
                    <color>ff0000ff</color>
                    <colorMode>normal</colorMode>
                    <scale>1</scale>
                    <heading>0</heading>
                    <Icon id="1342">
                        <href>http://maps.google.com/mapfiles/kml/pushpin/ylw-pushpin.png</href>
                    </Icon>
                </IconStyle>
            </Style>
            <Style id="1345">
                <IconStyle id="1346">
                    <color>ff0000ff</color>
                    <colorMode>normal</colorMode>
                    <scale>1</scale>
                    <heading>0</heading>
                    <Icon id="1347">
                        <href>http://maps.google.com/mapfiles/kml/pushpin/ylw-pushpin.png</href>
                    </Icon>
                </IconStyle>
            </Style>
            <Style id="1350">
                <IconStyle id="1351">
                    <color>ff0000ff</color>
                    <colorMode>normal</colorMode>
                    <scale>1</scale>
                    <heading>0</heading>
                    <Icon id="1352">
                        <href>http://maps.google.com/mapfiles/kml/pushpin/ylw-pushpin.png</href>
                    </Icon>
                </IconStyle>
            </Style>
            <Style id="1355">
                <IconStyle id="1356">
                    <color>ff0000ff</color>
                    <colorMode>normal</colorMode>
                    <scale>1</scale>
                    <heading>0</heading>
                    <Icon id="1357">
                        <href>http://maps.google.com/mapfiles/kml/pushpin/ylw-pushpin.png</href>
                    </Icon>
                </IconStyle>
            </Style>
            <Style id="1360">
                <IconStyle id="1361">
                    <color>ff0000ff</color>
                    <colorMode>normal</colorMode>
                    <scale>1</scale>
                    <heading>0</heading>
                    <Icon id="1362">
                        <href>http://maps.google.com/mapfiles/kml/pushpin/ylw-pushpin.png</href>
                    </Icon>
                </IconStyle>
            </Style>
            <Style id="1365">
                <IconStyle id="1366">
                    <color>ff0000ff</color>
                    <colorMode>normal</colorMode>
                    <scale>1</scale>
                    <heading>0</heading>
                    <Icon id="1367">
                        <href>http://maps.google.com/mapfiles/kml/pushpin/ylw-pushpin.png</href>
                    </Icon>
                </IconStyle>
            </Style>
            <Style id="1370">
                <IconStyle id="1371">
                    <color>ff0000ff</color>
                    <colorMode>normal</colorMode>
                    <scale>1</scale>
                    <heading>0</heading>
                    <Icon id="1372">
                        <href>http://maps.google.com/mapfiles/kml/pushpin/ylw-pushpin.png</href>
                    </Icon>
                </IconStyle>
            </Style>
            <Style id="1375">
                <IconStyle id="1376">
                    <color>ff0000ff</color>
                    <colorMode>normal</colorMode>
                    <scale>1</scale>
                    <heading>0</heading>
                    <Icon id="1377">
                        <href>http://maps.google.com/mapfiles/kml/pushpin/ylw-pushpin.png</href>
                    </Icon>
                </IconStyle>
            </Style>
            <Style id="1380">
                <IconStyle id="1381">
                    <color>ff0000ff</color>
                    <colorMode>normal</colorMode>
                    <scale>1</scale>
                    <heading>0</heading>
                    <Icon id="1382">
                        <href>http://maps.google.com/mapfiles/kml/pushpin/ylw-pushpin.png</href>
                    </Icon>
                </IconStyle>
            </Style>
            <Style id="1385">
                <IconStyle id="1386">
                    <color>ff0000ff</color>
                    <colorMode>normal</colorMode>
                    <scale>1</scale>
                    <heading>0</heading>
                    <Icon id="1387">
                        <href>http://maps.google.com/mapfiles/kml/pushpin/ylw-pushpin.png</href>
                    </Icon>
                </IconStyle>
            </Style>
            <name>DOMITILA QUISPE MIRANDA</name>
            <Placemark id="1184">
                <name>ALVARADO GONZALES DE LUDEÑA ANTONIA</name>
                <description>A.H.MARCO JARA MZ.CH LTE.17 I ETAP
Paita
Paita
Piura
Perú</description>
                <styleUrl>#1185</styleUrl>
                <Point id="1183">
                    <coordinates>-81.0945548,-5.0977965,0.0</coordinates>
                </Point>
            </Placemark>
            <Placemark id="1189">
                <name>ALVARADO GONZALES DE LUDEÑA ANTONIA</name>
                <description>A.H.MARCO JARA MZ.CH LTE.17 I ETAP
Paita
Paita
Piura
Perú</description>
                <styleUrl>#1190</styleUrl>
                <Point id="1188">
                    <coordinates>-81.0945548,-5.0977965,0.0</coordinates>
                </Point>
            </Placemark>
            <Placemark id="1194">
                <name>CHAPILLIQUEN RUIZ ANA ISABEL</name>
                <description>AV.F B TERRY MZ B PR LT 18 AH.1RO D
Paita
Paita
Piura
Perú</description>
                <styleUrl>#1195</styleUrl>
                <Point id="1193">
                    <coordinates>-81.0943004,-5.0977332,0.0</coordinates>
                </Point>
            </Placemark>
            <Placemark id="1199">
                <name>PALACIOS NEYRA LUZ MARIA</name>
                <description>F-19URB.POP.VIÑA DEL SR PAITA
Paita
Paita
Piura
Perú</description>
                <styleUrl>#1200</styleUrl>
                <Point id="1198">
                    <coordinates>-81.088744,-5.091214,0.0</coordinates>
                </Point>
            </Placemark>
            <Placemark id="1204">
                <name>OBDULIA QUINDE ROMERO</name>
                <description>A H 1 DE JUNIO MZ C1 LT17 P ALTA
Paita
Paita
Piura
Perú</description>
                <styleUrl>#1205</styleUrl>
                <Point id="1203">
                    <coordinates>-81.0930408,-5.097288,0.0</coordinates>
                </Point>
            </Placemark>
            <Placemark id="1209">
                <name>MARIBEL INGA CASTRO</name>
                <description>URB. POPULAR VIÑA DEL SEÑOR MZ. I L
Paita
Paita
Piura
Perú</description>
                <styleUrl>#1210</styleUrl>
                <Point id="1208">
                    <coordinates>-81.0885967,-5.0908437,0.0</coordinates>
                </Point>
            </Placemark>
            <Placemark id="1214">
                <name>TANIA SOLEDAD ARIAS NUÑEZ</name>
                <description>MZ V LT 10 3 ERA ETAPA VIÑA DEL SEÑ
Paita
Paita
Piura
Perú</description>
                <styleUrl>#1215</styleUrl>
                <Point id="1213">
                    <coordinates>-81.0861196,-5.0880279,0.0</coordinates>
                </Point>
            </Placemark>
            <Placemark id="1219">
                <name>KARINA VANESSA SANCHEZ NUÑEZ</name>
                <description>URB.VIÑAS DEL SEÑOR MZ U LT 28 - PA
Paita
Paita
Piura
Perú</description>
                <styleUrl>#1220</styleUrl>
                <Point id="1218">
                    <coordinates>-81.0865573,-5.0885165,0.0</coordinates>
                </Point>
            </Placemark>
            <Placemark id="1224">
                <name>MARLENY ISABEL ADANAQUE VILCHEZ</name>
                <description>AAHH VIÑAS DEL SEÑOR MZ U LT 23 PAITA
Paita
Paita
Piura
Perú</description>
                <styleUrl>#1225</styleUrl>
                <Point id="1223">
                    <coordinates>-81.0862471,-5.0886495,0.0</coordinates>
                </Point>
            </Placemark>
            <Placemark id="1229">
                <name>OLGA ROSARIO GIRON VILELA</name>
                <description>AAHH VIÑA DEL SEÑOR MZ R LT - 31 -
Paita

Piura
Perú</description>
                <styleUrl>#1230</styleUrl>
                <Point id="1228">
                    <coordinates>-81.0869656,-5.0891551,0.0</coordinates>
                </Point>
            </Placemark>
            <Placemark id="1234">
                <name>MARIELA CRUZ ZUARES</name>
                <description>MZ. C3 LT. 31 COMUNIDAD CAMPESINA -
Paita
Paita
Piura
Perú</description>
                <styleUrl>#1235</styleUrl>
                <Point id="1233">
                    <coordinates>-81.0819273,-5.0935635,0.0</coordinates>
                </Point>
            </Placemark>
            <Placemark id="1239">
                <name>ROSA ANITA PAIVA PALOMINO</name>
                <description>La comunidad Mz C3 lote 19
Paita
Paita
Piura
Perú</description>
                <styleUrl>#1240</styleUrl>
                <Point id="1238">
                    <coordinates>-81.0809634,-5.0937457,0.0</coordinates>
                </Point>
            </Placemark>
            <Placemark id="1244">
                <name>LIZ MARLENY SAAVEDRA CUNGIARACHI</name>
                <description>Comunidad mz c lote B4
Paita

Piura
Perú</description>
                <styleUrl>#1245</styleUrl>
                <Point id="1243">
                    <coordinates>-81.0805382,-5.0943424,0.0</coordinates>
                </Point>
            </Placemark>
            <Placemark id="1249">
                <name>CRISANTO TOCTO LLACSAHUACHE</name>
                <description>MZ H LT 30 1ERO DE JUNIO PAITA
Paita
Paita
Piura
Perú</description>
                <styleUrl>#1250</styleUrl>
                <Point id="1248">
                    <coordinates>-81.0909466,-5.0949536,0.0</coordinates>
                </Point>
            </Placemark>
            <Placemark id="1254">
                <name>MARITHA PATIÑO RIMAYCUNA</name>
                <description>AA.HH 1 DE JUNIO MZ H LT 29
Paita
Paita
Piura
Perú</description>
                <styleUrl>#1255</styleUrl>
                <Point id="1253">
                    <coordinates>-81.0911497,-5.0949184,0.0</coordinates>
                </Point>
            </Placemark>
            <Placemark id="1259">
                <name>FABIOLA ADELAIDA ALBINES ESTRADA</name>
                <description>Ampliación primero de junio calle Manuel Ulloa Mz E lt 10
Paita
Paita
Piura
Perú</description>
                <styleUrl>#1260</styleUrl>
                <Point id="1258">
                    <coordinates>-81.0887997,-5.0951719,0.0</coordinates>
                </Point>
            </Placemark>
            <Placemark id="1264">
                <name>ODILIA EDELINA PINGO ZETA</name>
                <description>JESUS DE NAZARETH MZ A LT 27
Paita
Paita
Piura
Perú</description>
                <styleUrl>#1265</styleUrl>
                <Point id="1263">
                    <coordinates>-81.0877404,-5.0983749,0.0</coordinates>
                </Point>
            </Placemark>
            <Placemark id="1269">
                <name>MARLENE ZETA SIANCAS</name>
                <description>Jesus de Nazareth mz B lote 22 referencia frente al colegio
Paita
Paita
Piura
Perú</description>
                <styleUrl>#1270</styleUrl>
                <Point id="1268">
                    <coordinates>-81.0871708,-5.098485,0.0</coordinates>
                </Point>
            </Placemark>
            <Placemark id="1274">
                <name>ELVA CAROLINA SERNAQUE INGA</name>
                <description>Anexo comunal Jesús de Nazareth Mz B lt 18
Paita
Paita
Piura
Perú</description>
                <styleUrl>#1275</styleUrl>
                <Point id="1273">
                    <coordinates>-81.0871143,-5.0982567,0.0</coordinates>
                </Point>
            </Placemark>
            <Placemark id="1279">
                <name>MERY JULIA NAVARRO CHIROQUE</name>
                <description>Anexo comunal nuevo paraíso MZ G LOTE 13 referencia por la torres gemelas
Paita
Paita
Piura
Perú</description>
                <styleUrl>#1280</styleUrl>
                <Point id="1278">
                    <coordinates>-81.0916203,-5.1004404,0.0</coordinates>
                </Point>
            </Placemark>
            <Placemark id="1284">
                <name>MONICA DEL PILAR RAMIREZ BRUNO</name>
                <description>Anexo Nuevo Paraíso Mz B Lote 15
Paita
Talara
Piura
Perú</description>
                <styleUrl>#1285</styleUrl>
                <Point id="1283">
                    <coordinates>-81.0883932,-5.0971575,0.0</coordinates>
                </Point>
            </Placemark>
            <Placemark id="1289">
                <name>ERICKA MILAGROS UCHOFEN CALVAY</name>
                <description>SAN IGNACIO DE LOYOLA MZ C LT 18 PAITA ALTA
Paita
Paita
Piura
Perú</description>
                <styleUrl>#1290</styleUrl>
                <Point id="1288">
                    <coordinates>-81.0892912,-5.0968347,0.0</coordinates>
                </Point>
            </Placemark>
            <Placemark id="1294">
                <name>PANTALEON SILUPU MARIA DEL CARMEN</name>
                <description>PANTALEON SILUPU MARIA DEL CARMEN
MZA Z LT 8 A H 1ERO DE JUNIO
Paita
Paita
Piura
Perú</description>
                <styleUrl>#1295</styleUrl>
                <Point id="1293">
                    <coordinates>-81.0896786,-5.0966616,0.0</coordinates>
                </Point>
            </Placemark>
            <Placemark id="1299">
                <name>MARIA NELLY RAMIREZ JACINTO DE PAZOS</name>
                <description>MZ M Lot 6 primero de junio PAITA alta
Paita
Paita
Piura
Perú</description>
                <styleUrl>#1300</styleUrl>
                <Point id="1298">
                    <coordinates>-81.0906155,-5.0971414,0.0</coordinates>
                </Point>
            </Placemark>
            <Placemark id="1304">
                <name>ROSA NERY MAZA CARHUACHINCHAY</name>
                <description>MZ W LT 6 AAHH.1ERO DE JUNIO - PAIT
Paita

Piura
Perú</description>
                <styleUrl>#1305</styleUrl>
                <Point id="1303">
                    <coordinates>-81.0934821,-5.0979419,0.0</coordinates>
                </Point>
            </Placemark>
            <Placemark id="1309">
                <name>JESLIN DAYANA ACARO CAMPOS</name>
                <description>Primero de junio Mz V lt 16
Paita
Paita
Piura
Perú</description>
                <styleUrl>#1310</styleUrl>
                <Point id="1308">
                    <coordinates>-81.093015,-5.09809,0.0</coordinates>
                </Point>
            </Placemark>
            <Placemark id="1314">
                <name>IPANAQUE ESPINOZA TEMPORA</name>
                <description>MZ.X LT.07 AH 01 DE JUNIO
Paita
Paita
Piura
Perú</description>
                <styleUrl>#1315</styleUrl>
                <Point id="1313">
                    <coordinates>-81.0928864,-5.0988199,0.0</coordinates>
                </Point>
            </Placemark>
            <Placemark id="1319">
                <name>PABLO ARGENIS DIOSES REYES</name>
                <description>Anexo comunal villa hermosa mz B lote 5
Paita
Paita
Piura
Perú</description>
                <styleUrl>#1320</styleUrl>
                <Point id="1318">
                    <coordinates>-81.0918426,-5.0989039,0.0</coordinates>
                </Point>
            </Placemark>
            <Placemark id="1324">
                <name>RUBI DOMADOR GUAYANAY</name>
                <description>AV M ULLOA ELIAS MZ B LT 3 AH V HERMOSA - PAITA
Paita
Paita
Piura
Perú</description>
                <styleUrl>#1325</styleUrl>
                <Point id="1323">
                    <coordinates>-81.0917015,-5.09914,0.0</coordinates>
                </Point>
            </Placemark>
            <Placemark id="1329">
                <name>NORLEY JANINA QUINTANA RAMOS</name>
                <description>MZ X LT 26 AH 1 DE JUNIO
Paita
Paita
Piura
Perú</description>
                <styleUrl>#1330</styleUrl>
                <Point id="1328">
                    <coordinates>-81.0926743,-5.0992995,0.0</coordinates>
                </Point>
            </Placemark>
            <Placemark id="1334">
                <name>JUANA CALLE ZETA</name>
                <description>RAMON CASTILLA MZ D LT16 PAITA-PIURA
Paita
Paita
Piura
Perú</description>
                <styleUrl>#1335</styleUrl>
                <Point id="1333">
                    <coordinates>-81.0928887,-5.100265,0.0</coordinates>
                </Point>
            </Placemark>
            <Placemark id="1339">
                <name>ERNESTINA GUERRERO RONDOY</name>
                <description>ah violeta Ayón
Paita
Paita
Piura
Perú</description>
                <styleUrl>#1340</styleUrl>
                <Point id="1338">
                    <coordinates>-81.0930447,-5.1004702,0.0</coordinates>
                </Point>
            </Placemark>
            <Placemark id="1344">
                <name>OTILIA HUAMAN CALVA</name>
                <description>VILLA LOS ALGARROBOS MZ. B LT. 14 -
Paita
Paita
Piura
Perú</description>
                <styleUrl>#1345</styleUrl>
                <Point id="1343">
                    <coordinates>-81.092829,-5.101103,0.0</coordinates>
                </Point>
            </Placemark>
            <Placemark id="1349">
                <name>ESTHER HUERTAS MECHATO</name>
                <description>VILLA LOS ALGARROBOS MZ. C LT. 9 PA
Paita
Paita
Piura
Perú</description>
                <styleUrl>#1350</styleUrl>
                <Point id="1348">
                    <coordinates>-81.0921316,-5.1014829,0.0</coordinates>
                </Point>
            </Placemark>
            <Placemark id="1354">
                <name>FELICITA REGALADO FRIAS</name>
                <description>Nueva Jerusalén mz C lote 4 paita alta
Paita
Paita
Piura
Perú</description>
                <styleUrl>#1355</styleUrl>
                <Point id="1353">
                    <coordinates>-81.0929286,-5.1021209,0.0</coordinates>
                </Point>
            </Placemark>
            <Placemark id="1359">
                <name>MARILU REYNOSO CHANTA</name>
                <description>Ramón Castilla sector nuevo porvenir mz a prima lote 5
Paita
Paita
Piura
Perú</description>
                <styleUrl>#1360</styleUrl>
                <Point id="1358">
                    <coordinates>-81.0946092,-5.101721,0.0</coordinates>
                </Point>
            </Placemark>
            <Placemark id="1364">
                <name>LUZ ANGELICA GARCIA VASQUEZ</name>
                <description>MZ.H LTE.31 I ETAPA MARCO JARA - PA
Paita
Paita
Piura
Perú</description>
                <styleUrl>#1365</styleUrl>
                <Point id="1363">
                    <coordinates>-81.0948328,-5.1010299,0.0</coordinates>
                </Point>
            </Placemark>
            <Placemark id="1369">
                <name>ANGEL CRUZ AGURTO</name>
                <description>MZ.E LTE.14 I ETAPA MARCO JARA - PA
Paita
Paita
Piura
Perú</description>
                <styleUrl>#1370</styleUrl>
                <Point id="1368">
                    <coordinates>-81.0940035,-5.1003884,0.0</coordinates>
                </Point>
            </Placemark>
            <Placemark id="1374">
                <name>ELIDA VITALINA CHAVEZ GALVEZ</name>
                <description>Marco jara 1 etapa mz D lote 18
Paita
Paita
Piura
Perú</description>
                <styleUrl>#1375</styleUrl>
                <Point id="1373">
                    <coordinates>-81.0944468,-5.0990584,0.0</coordinates>
                </Point>
            </Placemark>
            <Placemark id="1379">
                <name>MARIA PANFILA JULCA CULQUICONDOR</name>
                <description>MZ CH LT 21 AH.MARCO JARA 1 ETP - P
Paita
Paita
Piura
Perú</description>
                <styleUrl>#1380</styleUrl>
                <Point id="1378">
                    <coordinates>-81.0949248,-5.0988696,0.0</coordinates>
                </Point>
            </Placemark>
            <Placemark id="1384">
                <name>TEOFILA ECHE MORALES</name>
                <description>Marco.jara 1 etapa mz A lote 21
Paita
Paita
Piura
Perú</description>
                <styleUrl>#1385</styleUrl>
                <Point id="1383">
                    <coordinates>-81.0952809,-5.0979484,0.0</coordinates>
                </Point>
            </Placemark>
        </Folder>
        <Folder id="1388">
            <Style id="1391">
                <IconStyle id="1392">
                    <color>ffff0000</color>
                    <colorMode>normal</colorMode>
                    <scale>1</scale>
                    <heading>0</heading>
                    <Icon id="1393">
                        <href>http://maps.google.com/mapfiles/kml/pushpin/ylw-pushpin.png</href>
                    </Icon>
                </IconStyle>
            </Style>
            <Style id="1396">
                <IconStyle id="1397">
                    <color>ffff0000</color>
                    <colorMode>normal</colorMode>
                    <scale>1</scale>
                    <heading>0</heading>
                    <Icon id="1398">
                        <href>http://maps.google.com/mapfiles/kml/pushpin/ylw-pushpin.png</href>
                    </Icon>
                </IconStyle>
            </Style>
            <Style id="1401">
                <IconStyle id="1402">
                    <color>ffff0000</color>
                    <colorMode>normal</colorMode>
                    <scale>1</scale>
                    <heading>0</heading>
                    <Icon id="1403">
                        <href>http://maps.google.com/mapfiles/kml/pushpin/ylw-pushpin.png</href>
                    </Icon>
                </IconStyle>
            </Style>
            <Style id="1406">
                <IconStyle id="1407">
                    <color>ffff0000</color>
                    <colorMode>normal</colorMode>
                    <scale>1</scale>
                    <heading>0</heading>
                    <Icon id="1408">
                        <href>http://maps.google.com/mapfiles/kml/pushpin/ylw-pushpin.png</href>
                    </Icon>
                </IconStyle>
            </Style>
            <Style id="1411">
                <IconStyle id="1412">
                    <color>ffff0000</color>
                    <colorMode>normal</colorMode>
                    <scale>1</scale>
                    <heading>0</heading>
                    <Icon id="1413">
                        <href>http://maps.google.com/mapfiles/kml/pushpin/ylw-pushpin.png</href>
                    </Icon>
                </IconStyle>
            </Style>
            <Style id="1416">
                <IconStyle id="1417">
                    <color>ffff0000</color>
                    <colorMode>normal</colorMode>
                    <scale>1</scale>
                    <heading>0</heading>
                    <Icon id="1418">
                        <href>http://maps.google.com/mapfiles/kml/pushpin/ylw-pushpin.png</href>
                    </Icon>
                </IconStyle>
            </Style>
            <Style id="1421">
                <IconStyle id="1422">
                    <color>ffff0000</color>
                    <colorMode>normal</colorMode>
                    <scale>1</scale>
                    <heading>0</heading>
                    <Icon id="1423">
                        <href>http://maps.google.com/mapfiles/kml/pushpin/ylw-pushpin.png</href>
                    </Icon>
                </IconStyle>
            </Style>
            <Style id="1426">
                <IconStyle id="1427">
                    <color>ffff0000</color>
                    <colorMode>normal</colorMode>
                    <scale>1</scale>
                    <heading>0</heading>
                    <Icon id="1428">
                        <href>http://maps.google.com/mapfiles/kml/pushpin/ylw-pushpin.png</href>
                    </Icon>
                </IconStyle>
            </Style>
            <Style id="1431">
                <IconStyle id="1432">
                    <color>ffff0000</color>
                    <colorMode>normal</colorMode>
                    <scale>1</scale>
                    <heading>0</heading>
                    <Icon id="1433">
                        <href>http://maps.google.com/mapfiles/kml/pushpin/ylw-pushpin.png</href>
                    </Icon>
                </IconStyle>
            </Style>
            <Style id="1436">
                <IconStyle id="1437">
                    <color>ffff0000</color>
                    <colorMode>normal</colorMode>
                    <scale>1</scale>
                    <heading>0</heading>
                    <Icon id="1438">
                        <href>http://maps.google.com/mapfiles/kml/pushpin/ylw-pushpin.png</href>
                    </Icon>
                </IconStyle>
            </Style>
            <Style id="1441">
                <IconStyle id="1442">
                    <color>ffff0000</color>
                    <colorMode>normal</colorMode>
                    <scale>1</scale>
                    <heading>0</heading>
                    <Icon id="1443">
                        <href>http://maps.google.com/mapfiles/kml/pushpin/ylw-pushpin.png</href>
                    </Icon>
                </IconStyle>
            </Style>
            <Style id="1446">
                <IconStyle id="1447">
                    <color>ffff0000</color>
                    <colorMode>normal</colorMode>
                    <scale>1</scale>
                    <heading>0</heading>
                    <Icon id="1448">
                        <href>http://maps.google.com/mapfiles/kml/pushpin/ylw-pushpin.png</href>
                    </Icon>
                </IconStyle>
            </Style>
            <Style id="1451">
                <IconStyle id="1452">
                    <color>ffff0000</color>
                    <colorMode>normal</colorMode>
                    <scale>1</scale>
                    <heading>0</heading>
                    <Icon id="1453">
                        <href>http://maps.google.com/mapfiles/kml/pushpin/ylw-pushpin.png</href>
                    </Icon>
                </IconStyle>
            </Style>
            <Style id="1456">
                <IconStyle id="1457">
                    <color>ffff0000</color>
                    <colorMode>normal</colorMode>
                    <scale>1</scale>
                    <heading>0</heading>
                    <Icon id="1458">
                        <href>http://maps.google.com/mapfiles/kml/pushpin/ylw-pushpin.png</href>
                    </Icon>
                </IconStyle>
            </Style>
            <Style id="1461">
                <IconStyle id="1462">
                    <color>ffff0000</color>
                    <colorMode>normal</colorMode>
                    <scale>1</scale>
                    <heading>0</heading>
                    <Icon id="1463">
                        <href>http://maps.google.com/mapfiles/kml/pushpin/ylw-pushpin.png</href>
                    </Icon>
                </IconStyle>
            </Style>
            <Style id="1466">
                <IconStyle id="1467">
                    <color>ffff0000</color>
                    <colorMode>normal</colorMode>
                    <scale>1</scale>
                    <heading>0</heading>
                    <Icon id="1468">
                        <href>http://maps.google.com/mapfiles/kml/pushpin/ylw-pushpin.png</href>
                    </Icon>
                </IconStyle>
            </Style>
            <Style id="1471">
                <IconStyle id="1472">
                    <color>ffff0000</color>
                    <colorMode>normal</colorMode>
                    <scale>1</scale>
                    <heading>0</heading>
                    <Icon id="1473">
                        <href>http://maps.google.com/mapfiles/kml/pushpin/ylw-pushpin.png</href>
                    </Icon>
                </IconStyle>
            </Style>
            <Style id="1476">
                <IconStyle id="1477">
                    <color>ffff0000</color>
                    <colorMode>normal</colorMode>
                    <scale>1</scale>
                    <heading>0</heading>
                    <Icon id="1478">
                        <href>http://maps.google.com/mapfiles/kml/pushpin/ylw-pushpin.png</href>
                    </Icon>
                </IconStyle>
            </Style>
            <Style id="1481">
                <IconStyle id="1482">
                    <color>ffff0000</color>
                    <colorMode>normal</colorMode>
                    <scale>1</scale>
                    <heading>0</heading>
                    <Icon id="1483">
                        <href>http://maps.google.com/mapfiles/kml/pushpin/ylw-pushpin.png</href>
                    </Icon>
                </IconStyle>
            </Style>
            <Style id="1486">
                <IconStyle id="1487">
                    <color>ffff0000</color>
                    <colorMode>normal</colorMode>
                    <scale>1</scale>
                    <heading>0</heading>
                    <Icon id="1488">
                        <href>http://maps.google.com/mapfiles/kml/pushpin/ylw-pushpin.png</href>
                    </Icon>
                </IconStyle>
            </Style>
            <Style id="1491">
                <IconStyle id="1492">
                    <color>ffff0000</color>
                    <colorMode>normal</colorMode>
                    <scale>1</scale>
                    <heading>0</heading>
                    <Icon id="1493">
                        <href>http://maps.google.com/mapfiles/kml/pushpin/ylw-pushpin.png</href>
                    </Icon>
                </IconStyle>
            </Style>
            <Style id="1496">
                <IconStyle id="1497">
                    <color>ffff0000</color>
                    <colorMode>normal</colorMode>
                    <scale>1</scale>
                    <heading>0</heading>
                    <Icon id="1498">
                        <href>http://maps.google.com/mapfiles/kml/pushpin/ylw-pushpin.png</href>
                    </Icon>
                </IconStyle>
            </Style>
            <Style id="1501">
                <IconStyle id="1502">
                    <color>ffff0000</color>
                    <colorMode>normal</colorMode>
                    <scale>1</scale>
                    <heading>0</heading>
                    <Icon id="1503">
                        <href>http://maps.google.com/mapfiles/kml/pushpin/ylw-pushpin.png</href>
                    </Icon>
                </IconStyle>
            </Style>
            <Style id="1506">
                <IconStyle id="1507">
                    <color>ffff0000</color>
                    <colorMode>normal</colorMode>
                    <scale>1</scale>
                    <heading>0</heading>
                    <Icon id="1508">
                        <href>http://maps.google.com/mapfiles/kml/pushpin/ylw-pushpin.png</href>
                    </Icon>
                </IconStyle>
            </Style>
            <Style id="1511">
                <IconStyle id="1512">
                    <color>ffff0000</color>
                    <colorMode>normal</colorMode>
                    <scale>1</scale>
                    <heading>0</heading>
                    <Icon id="1513">
                        <href>http://maps.google.com/mapfiles/kml/pushpin/ylw-pushpin.png</href>
                    </Icon>
                </IconStyle>
            </Style>
            <Style id="1516">
                <IconStyle id="1517">
                    <color>ffff0000</color>
                    <colorMode>normal</colorMode>
                    <scale>1</scale>
                    <heading>0</heading>
                    <Icon id="1518">
                        <href>http://maps.google.com/mapfiles/kml/pushpin/ylw-pushpin.png</href>
                    </Icon>
                </IconStyle>
            </Style>
            <Style id="1521">
                <IconStyle id="1522">
                    <color>ffff0000</color>
                    <colorMode>normal</colorMode>
                    <scale>1</scale>
                    <heading>0</heading>
                    <Icon id="1523">
                        <href>http://maps.google.com/mapfiles/kml/pushpin/ylw-pushpin.png</href>
                    </Icon>
                </IconStyle>
            </Style>
            <Style id="1526">
                <IconStyle id="1527">
                    <color>ffff0000</color>
                    <colorMode>normal</colorMode>
                    <scale>1</scale>
                    <heading>0</heading>
                    <Icon id="1528">
                        <href>http://maps.google.com/mapfiles/kml/pushpin/ylw-pushpin.png</href>
                    </Icon>
                </IconStyle>
            </Style>
            <Style id="1531">
                <IconStyle id="1532">
                    <color>ffff0000</color>
                    <colorMode>normal</colorMode>
                    <scale>1</scale>
                    <heading>0</heading>
                    <Icon id="1533">
                        <href>http://maps.google.com/mapfiles/kml/pushpin/ylw-pushpin.png</href>
                    </Icon>
                </IconStyle>
            </Style>
            <name>LEONARDO VIERA CHAVEZ</name>
            <Placemark id="1390">
                <name>CECILIA DEL CARMEN GARBOZA BANCES</name>
                <description>AH 5 DE FEBRERO MZ CH LT 3 PAITA
Paita
Paita
Piura
Perú</description>
                <styleUrl>#1391</styleUrl>
                <Point id="1389">
                    <coordinates>-81.0990473,-5.0904306,0.0</coordinates>
                </Point>
            </Placemark>
            <Placemark id="1395">
                <name>SUMI NOELIA CALDERON MENDOZA</name>
                <description>AA.HH tablazo MZ Z lote 13 Paita
Paita
Paita
Piura
Perú</description>
                <styleUrl>#1396</styleUrl>
                <Point id="1394">
                    <coordinates>-81.1061291,-5.0958525,0.0</coordinates>
                </Point>
            </Placemark>
            <Placemark id="1400">
                <name>MARIA ROSA NAQUICHE ANCAJIMA</name>
                <description>AAHH hermanos Carcamo MZ H LOTE 04
Paita
Paita
Piura
Perú</description>
                <styleUrl>#1401</styleUrl>
                <Point id="1399">
                    <coordinates>-81.1027015,-5.0909099,0.0</coordinates>
                </Point>
            </Placemark>
            <Placemark id="1405">
                <name>SUPER NORTE E.I.R.L.</name>
                <description>AV. MIGUEL GRAU MZA. 003 LOTE. 02 PAITA
Paita
200502Paita
Piura
Perú</description>
                <styleUrl>#1406</styleUrl>
                <Point id="1404">
                    <coordinates>-81.098897,-5.0868911,0.0</coordinates>
                </Point>
            </Placemark>
            <Placemark id="1410">
                <name>MAXIMINA DOMINGA ESTRADA MORALES</name>
                <description>AH HNOS CARCAMO MZ H LT 5 PAITA
Paita
Paita
Piura
Perú</description>
                <styleUrl>#1411</styleUrl>
                <Point id="1409">
                    <coordinates>-81.1026597,-5.0909089,0.0</coordinates>
                </Point>
            </Placemark>
            <Placemark id="1415">
                <name>MARIA JESUS RODRIGUEZ SILVA</name>
                <description>MZ. CH LT. 2 AH. 5 FEBRERO - PAITA interior mercadillo santa rosa frente al sagrado
Paita
Paita
Piura
Perú</description>
                <styleUrl>#1416</styleUrl>
                <Point id="1414">
                    <coordinates>-81.0989605,-5.0905724,0.0</coordinates>
                </Point>
            </Placemark>
            <Placemark id="1420">
                <name>DE LA CRUZ SANTOS MARTINA</name>
                <description>DE LA CRUZ SANTOS MARTINA
MZA H LT 11 A H 05 DE FEBRERO
Paita
Paita
Piura
Perú</description>
                <styleUrl>#1421</styleUrl>
                <Point id="1419">
                    <coordinates>-81.09974,-5.0887942,0.0</coordinates>
                </Point>
            </Placemark>
            <Placemark id="1425">
                <name>LORENA IVON ATOCHE IMAN</name>
                <description>MZ-L LT-3 CIUDAD BLANCA PAITA
Paita
Paita
Piura
Perú</description>
                <styleUrl>#1426</styleUrl>
                <Point id="1424">
                    <coordinates>-81.1009947,-5.0895106,0.0</coordinates>
                </Point>
            </Placemark>
            <Placemark id="1430">
                <name>IRENE LOPEZ ALBERCA</name>
                <description>HERMANOS CARCAMO MZ D LOTE 10-PAITA-PIURA
Paita
Paita
Piura
Perú</description>
                <styleUrl>#1431</styleUrl>
                <Point id="1429">
                    <coordinates>-81.10183,-5.0914271,0.0</coordinates>
                </Point>
            </Placemark>
            <Placemark id="1435">
                <name>SANTOS VICTORIA PINTADO VELLASMIN</name>
                <description>Ciudad blanca mz Q lote 30
Paita
Paita
Piura
Perú</description>
                <styleUrl>#1436</styleUrl>
                <Point id="1434">
                    <coordinates>-81.1015374,-5.0932526,0.0</coordinates>
                </Point>
            </Placemark>
            <Placemark id="1440">
                <name>NILDA ISABEL OLAYA DE CORREA</name>
                <description>A.H.RAMIRO PRIALE MZA. CH LTE. 01 P


Piura
Perú</description>
                <styleUrl>#1441</styleUrl>
                <Point id="1439">
                    <coordinates>-81.1049236,-5.0932443,0.0</coordinates>
                </Point>
            </Placemark>
            <Placemark id="1445">
                <name>MARIA ESTRADA MORALES</name>
                <description>HERMANOS CARCAMO MZ.H LTE.5 I ETAPA
Paita
Paita
Piura
Perú</description>
                <styleUrl>#1446</styleUrl>
                <Point id="1444">
                    <coordinates>-81.1026746,-5.0909105,0.0</coordinates>
                </Point>
            </Placemark>
            <Placemark id="1450">
                <name>SABINA PALACIOS PALACIOS</name>
                <description>Ah José Olaya mz A lote 17
Paita
Paita
Piura
Perú</description>
                <styleUrl>#1451</styleUrl>
                <Point id="1449">
                    <coordinates>-81.1046384,-5.0947284,0.0</coordinates>
                </Point>
            </Placemark>
            <Placemark id="1455">
                <name>YOBANY CORDOVA VELASQUEZ</name>
                <description>A.H SAN FRANCISCO MZ Z3 LT 33 PAITA
Paita
Paita
Piura
Perú</description>
                <styleUrl>#1456</styleUrl>
                <Point id="1454">
                    <coordinates>-81.1080774,-5.0965624,0.0</coordinates>
                </Point>
            </Placemark>
            <Placemark id="1460">
                <name>CATHERINE YMELDA DE LA CRUZ PANTA</name>
                <description>AH EL TABLAZO MZ Z 2 LT 7 -PAITA
Paita
Paita
Piura
Perú</description>
                <styleUrl>#1461</styleUrl>
                <Point id="1459">
                    <coordinates>-81.1058437,-5.0955776,0.0</coordinates>
                </Point>
            </Placemark>
            <Placemark id="1465">
                <name>SUMI NOELIA CALDERON MENDOZA</name>
                <description>AA.HH tablazo MZ Z lote 13 Paita
Paita
Paita
Piura
Perú</description>
                <styleUrl>#1466</styleUrl>
                <Point id="1464">
                    <coordinates>-81.1061291,-5.0958525,0.0</coordinates>
                </Point>
            </Placemark>
            <Placemark id="1470">
                <name>HILDEBRANDO SANCHEZ MORAN</name>
                <description>MZ B LT 5 AH TABLAZO - PAITA
Paita
Paita
Piura
Perú</description>
                <styleUrl>#1471</styleUrl>
                <Point id="1469">
                    <coordinates>-81.1070227,-5.0973206,0.0</coordinates>
                </Point>
            </Placemark>
            <Placemark id="1475">
                <name>VALDIVIEZO CORREA JORGE LUIS</name>
                <description>
Paita
Paita
Piura
Perú</description>
                <styleUrl>#1476</styleUrl>
                <Point id="1474">
                    <coordinates>-81.1077981,-5.0962849,0.0</coordinates>
                </Point>
            </Placemark>
            <Placemark id="1480">
                <name>MALPARTIDA DE ZAPATA ADORINA FIDELA</name>
                <description>MALPARTIDA DE ZAPATA ADORINA FIDELA
MZA R LT 17 A H TABLAZO I ETAPA- PAITA
Paita
Paita
Piura
Perú</description>
                <styleUrl>#1481</styleUrl>
                <Point id="1479">
                    <coordinates>-81.1088819,-5.0976936,0.0</coordinates>
                </Point>
            </Placemark>
            <Placemark id="1485">
                <name>CRISTINA SULLON CRUZ</name>
                <description>JR BELLO HORIZONTE MZ T LT 30 AH TABLAZO-PAITA
Paita
Paita
Piura
Perú</description>
                <styleUrl>#1486</styleUrl>
                <Point id="1484">
                    <coordinates>-81.1077123,-5.0976522,0.0</coordinates>
                </Point>
            </Placemark>
            <Placemark id="1490">
                <name>YOJANI SABA MARTINEZ</name>
                <description>AH KEIKO SOFIA MZ A LOTE 21
Paita
Paita
Piura
Perú</description>
                <styleUrl>#1491</styleUrl>
                <Point id="1489">
                    <coordinates>-81.1125631,-5.0983879,0.0</coordinates>
                </Point>
            </Placemark>
            <Placemark id="1495">
                <name>MARIA ESTHER SABA MARTINEZ</name>
                <description>AAHH KEIKO SOFIA MZ J LT2 PAITA-PIURA
Paita
Paita
Piura
Perú</description>
                <styleUrl>#1496</styleUrl>
                <Point id="1494">
                    <coordinates>-81.1127536,-5.098417,0.0</coordinates>
                </Point>
            </Placemark>
            <Placemark id="1500">
                <name>MARIA HAYDEE SANCHEZ PERICHE</name>
                <description>AAHH KEIKO SOFIA MZ C LT12 PAITA-PIURA
Paita
Paita
Piura
Perú</description>
                <styleUrl>#1501</styleUrl>
                <Point id="1499">
                    <coordinates>-81.112952,-5.0983558,0.0</coordinates>
                </Point>
            </Placemark>
            <Placemark id="1505">
                <name>JULIO CESAR VARGAS DEYRA</name>
                <description>Keiko Sofía 2 etapa mz E lote 5
Paita
Paita
Piura
Perú</description>
                <styleUrl>#1506</styleUrl>
                <Point id="1504">
                    <coordinates>-81.1149743,-5.099774,0.0</coordinates>
                </Point>
            </Placemark>
            <Placemark id="1510">
                <name>TELBINA LOPEZ CASTILLO</name>
                <description>TELBINA LOPEZ CASTILLO
AAHH MIGUEL GRAU SEC virgen de Guadalupe MZ A lote 4
Paita
Paita
Piura
Perú</description>
                <styleUrl>#1511</styleUrl>
                <Point id="1509">
                    <coordinates>-81.116112,-5.096987,0.0</coordinates>
                </Point>
            </Placemark>
            <Placemark id="1515">
                <name>MELISSA VERONICA CHUQUILLANQUI VILCHEZ</name>
                <description>Ah San Valentín mz D lote 3
Paita
Paita
Piura
Perú</description>
                <styleUrl>#1516</styleUrl>
                <Point id="1514">
                    <coordinates>-81.1173338,-5.096631,0.0</coordinates>
                </Point>
            </Placemark>
            <Placemark id="1520">
                <name>DEICY YANGUA JARAMILLO</name>
                <description>AHH San Valentín mz F lt 2
Paita
Paita
Piura
Perú</description>
                <styleUrl>#1521</styleUrl>
                <Point id="1519">
                    <coordinates>-81.117453,-5.0960116,0.0</coordinates>
                </Point>
            </Placemark>
            <Placemark id="1525">
                <name>GEORGINIA ROSMERY OVIEDO ABAD</name>
                <description>
Paita
Paita
Piura
Perú</description>
                <styleUrl>#1526</styleUrl>
                <Point id="1524">
                    <coordinates>-81.1192227,-5.0953497,0.0</coordinates>
                </Point>
            </Placemark>
            <Placemark id="1530">
                <name>CARMEN CECILIA GUTIERREZ CHUICA</name>
                <description>AH SAN VALENTIN -MZ E LT 18
Paita
Paita
Piura
Perú</description>
                <styleUrl>#1531</styleUrl>
                <Point id="1529">
                    <coordinates>-81.1187798,-5.0960578,0.0</coordinates>
                </Point>
            </Placemark>
        </Folder>
    </Document>
</kml>
