<?xml version="1.0" encoding="UTF-8"?>
<kml xmlns="http://www.opengis.net/kml/2.2" xmlns:gx="http://www.google.com/kml/ext/2.2">
    <Document id="686">
        <Folder id="687">
            <Style id="690">
                <IconStyle id="691">
                    <color>ff0000ff</color>
                    <colorMode>normal</colorMode>
                    <scale>1</scale>
                    <heading>0</heading>
                    <Icon id="692">
                        <href>http://maps.google.com/mapfiles/kml/pushpin/ylw-pushpin.png</href>
                    </Icon>
                </IconStyle>
            </Style>
            <Style id="695">
                <IconStyle id="696">
                    <color>ff0000ff</color>
                    <colorMode>normal</colorMode>
                    <scale>1</scale>
                    <heading>0</heading>
                    <Icon id="697">
                        <href>http://maps.google.com/mapfiles/kml/pushpin/ylw-pushpin.png</href>
                    </Icon>
                </IconStyle>
            </Style>
            <Style id="700">
                <IconStyle id="701">
                    <color>ff0000ff</color>
                    <colorMode>normal</colorMode>
                    <scale>1</scale>
                    <heading>0</heading>
                    <Icon id="702">
                        <href>http://maps.google.com/mapfiles/kml/pushpin/ylw-pushpin.png</href>
                    </Icon>
                </IconStyle>
            </Style>
            <Style id="705">
                <IconStyle id="706">
                    <color>ff0000ff</color>
                    <colorMode>normal</colorMode>
                    <scale>1</scale>
                    <heading>0</heading>
                    <Icon id="707">
                        <href>http://maps.google.com/mapfiles/kml/pushpin/ylw-pushpin.png</href>
                    </Icon>
                </IconStyle>
            </Style>
            <Style id="710">
                <IconStyle id="711">
                    <color>ff0000ff</color>
                    <colorMode>normal</colorMode>
                    <scale>1</scale>
                    <heading>0</heading>
                    <Icon id="712">
                        <href>http://maps.google.com/mapfiles/kml/pushpin/ylw-pushpin.png</href>
                    </Icon>
                </IconStyle>
            </Style>
            <Style id="715">
                <IconStyle id="716">
                    <color>ff0000ff</color>
                    <colorMode>normal</colorMode>
                    <scale>1</scale>
                    <heading>0</heading>
                    <Icon id="717">
                        <href>http://maps.google.com/mapfiles/kml/pushpin/ylw-pushpin.png</href>
                    </Icon>
                </IconStyle>
            </Style>
            <Style id="720">
                <IconStyle id="721">
                    <color>ff0000ff</color>
                    <colorMode>normal</colorMode>
                    <scale>1</scale>
                    <heading>0</heading>
                    <Icon id="722">
                        <href>http://maps.google.com/mapfiles/kml/pushpin/ylw-pushpin.png</href>
                    </Icon>
                </IconStyle>
            </Style>
            <Style id="725">
                <IconStyle id="726">
                    <color>ff0000ff</color>
                    <colorMode>normal</colorMode>
                    <scale>1</scale>
                    <heading>0</heading>
                    <Icon id="727">
                        <href>http://maps.google.com/mapfiles/kml/pushpin/ylw-pushpin.png</href>
                    </Icon>
                </IconStyle>
            </Style>
            <Style id="730">
                <IconStyle id="731">
                    <color>ff0000ff</color>
                    <colorMode>normal</colorMode>
                    <scale>1</scale>
                    <heading>0</heading>
                    <Icon id="732">
                        <href>http://maps.google.com/mapfiles/kml/pushpin/ylw-pushpin.png</href>
                    </Icon>
                </IconStyle>
            </Style>
            <Style id="735">
                <IconStyle id="736">
                    <color>ff0000ff</color>
                    <colorMode>normal</colorMode>
                    <scale>1</scale>
                    <heading>0</heading>
                    <Icon id="737">
                        <href>http://maps.google.com/mapfiles/kml/pushpin/ylw-pushpin.png</href>
                    </Icon>
                </IconStyle>
            </Style>
            <Style id="740">
                <IconStyle id="741">
                    <color>ff0000ff</color>
                    <colorMode>normal</colorMode>
                    <scale>1</scale>
                    <heading>0</heading>
                    <Icon id="742">
                        <href>http://maps.google.com/mapfiles/kml/pushpin/ylw-pushpin.png</href>
                    </Icon>
                </IconStyle>
            </Style>
            <Style id="745">
                <IconStyle id="746">
                    <color>ff0000ff</color>
                    <colorMode>normal</colorMode>
                    <scale>1</scale>
                    <heading>0</heading>
                    <Icon id="747">
                        <href>http://maps.google.com/mapfiles/kml/pushpin/ylw-pushpin.png</href>
                    </Icon>
                </IconStyle>
            </Style>
            <Style id="750">
                <IconStyle id="751">
                    <color>ff0000ff</color>
                    <colorMode>normal</colorMode>
                    <scale>1</scale>
                    <heading>0</heading>
                    <Icon id="752">
                        <href>http://maps.google.com/mapfiles/kml/pushpin/ylw-pushpin.png</href>
                    </Icon>
                </IconStyle>
            </Style>
            <Style id="755">
                <IconStyle id="756">
                    <color>ff0000ff</color>
                    <colorMode>normal</colorMode>
                    <scale>1</scale>
                    <heading>0</heading>
                    <Icon id="757">
                        <href>http://maps.google.com/mapfiles/kml/pushpin/ylw-pushpin.png</href>
                    </Icon>
                </IconStyle>
            </Style>
            <Style id="760">
                <IconStyle id="761">
                    <color>ff0000ff</color>
                    <colorMode>normal</colorMode>
                    <scale>1</scale>
                    <heading>0</heading>
                    <Icon id="762">
                        <href>http://maps.google.com/mapfiles/kml/pushpin/ylw-pushpin.png</href>
                    </Icon>
                </IconStyle>
            </Style>
            <Style id="765">
                <IconStyle id="766">
                    <color>ff0000ff</color>
                    <colorMode>normal</colorMode>
                    <scale>1</scale>
                    <heading>0</heading>
                    <Icon id="767">
                        <href>http://maps.google.com/mapfiles/kml/pushpin/ylw-pushpin.png</href>
                    </Icon>
                </IconStyle>
            </Style>
            <Style id="770">
                <IconStyle id="771">
                    <color>ff0000ff</color>
                    <colorMode>normal</colorMode>
                    <scale>1</scale>
                    <heading>0</heading>
                    <Icon id="772">
                        <href>http://maps.google.com/mapfiles/kml/pushpin/ylw-pushpin.png</href>
                    </Icon>
                </IconStyle>
            </Style>
            <Style id="775">
                <IconStyle id="776">
                    <color>ff0000ff</color>
                    <colorMode>normal</colorMode>
                    <scale>1</scale>
                    <heading>0</heading>
                    <Icon id="777">
                        <href>http://maps.google.com/mapfiles/kml/pushpin/ylw-pushpin.png</href>
                    </Icon>
                </IconStyle>
            </Style>
            <Style id="780">
                <IconStyle id="781">
                    <color>ff0000ff</color>
                    <colorMode>normal</colorMode>
                    <scale>1</scale>
                    <heading>0</heading>
                    <Icon id="782">
                        <href>http://maps.google.com/mapfiles/kml/pushpin/ylw-pushpin.png</href>
                    </Icon>
                </IconStyle>
            </Style>
            <Style id="785">
                <IconStyle id="786">
                    <color>ff0000ff</color>
                    <colorMode>normal</colorMode>
                    <scale>1</scale>
                    <heading>0</heading>
                    <Icon id="787">
                        <href>http://maps.google.com/mapfiles/kml/pushpin/ylw-pushpin.png</href>
                    </Icon>
                </IconStyle>
            </Style>
            <Style id="790">
                <IconStyle id="791">
                    <color>ff0000ff</color>
                    <colorMode>normal</colorMode>
                    <scale>1</scale>
                    <heading>0</heading>
                    <Icon id="792">
                        <href>http://maps.google.com/mapfiles/kml/pushpin/ylw-pushpin.png</href>
                    </Icon>
                </IconStyle>
            </Style>
            <Style id="795">
                <IconStyle id="796">
                    <color>ff0000ff</color>
                    <colorMode>normal</colorMode>
                    <scale>1</scale>
                    <heading>0</heading>
                    <Icon id="797">
                        <href>http://maps.google.com/mapfiles/kml/pushpin/ylw-pushpin.png</href>
                    </Icon>
                </IconStyle>
            </Style>
            <Style id="800">
                <IconStyle id="801">
                    <color>ff0000ff</color>
                    <colorMode>normal</colorMode>
                    <scale>1</scale>
                    <heading>0</heading>
                    <Icon id="802">
                        <href>http://maps.google.com/mapfiles/kml/pushpin/ylw-pushpin.png</href>
                    </Icon>
                </IconStyle>
            </Style>
            <Style id="805">
                <IconStyle id="806">
                    <color>ff0000ff</color>
                    <colorMode>normal</colorMode>
                    <scale>1</scale>
                    <heading>0</heading>
                    <Icon id="807">
                        <href>http://maps.google.com/mapfiles/kml/pushpin/ylw-pushpin.png</href>
                    </Icon>
                </IconStyle>
            </Style>
            <Style id="810">
                <IconStyle id="811">
                    <color>ff0000ff</color>
                    <colorMode>normal</colorMode>
                    <scale>1</scale>
                    <heading>0</heading>
                    <Icon id="812">
                        <href>http://maps.google.com/mapfiles/kml/pushpin/ylw-pushpin.png</href>
                    </Icon>
                </IconStyle>
            </Style>
            <Style id="815">
                <IconStyle id="816">
                    <color>ff0000ff</color>
                    <colorMode>normal</colorMode>
                    <scale>1</scale>
                    <heading>0</heading>
                    <Icon id="817">
                        <href>http://maps.google.com/mapfiles/kml/pushpin/ylw-pushpin.png</href>
                    </Icon>
                </IconStyle>
            </Style>
            <Style id="820">
                <IconStyle id="821">
                    <color>ff0000ff</color>
                    <colorMode>normal</colorMode>
                    <scale>1</scale>
                    <heading>0</heading>
                    <Icon id="822">
                        <href>http://maps.google.com/mapfiles/kml/pushpin/ylw-pushpin.png</href>
                    </Icon>
                </IconStyle>
            </Style>
            <Style id="825">
                <IconStyle id="826">
                    <color>ff0000ff</color>
                    <colorMode>normal</colorMode>
                    <scale>1</scale>
                    <heading>0</heading>
                    <Icon id="827">
                        <href>http://maps.google.com/mapfiles/kml/pushpin/ylw-pushpin.png</href>
                    </Icon>
                </IconStyle>
            </Style>
            <Style id="830">
                <IconStyle id="831">
                    <color>ff0000ff</color>
                    <colorMode>normal</colorMode>
                    <scale>1</scale>
                    <heading>0</heading>
                    <Icon id="832">
                        <href>http://maps.google.com/mapfiles/kml/pushpin/ylw-pushpin.png</href>
                    </Icon>
                </IconStyle>
            </Style>
            <Style id="835">
                <IconStyle id="836">
                    <color>ff0000ff</color>
                    <colorMode>normal</colorMode>
                    <scale>1</scale>
                    <heading>0</heading>
                    <Icon id="837">
                        <href>http://maps.google.com/mapfiles/kml/pushpin/ylw-pushpin.png</href>
                    </Icon>
                </IconStyle>
            </Style>
            <Style id="840">
                <IconStyle id="841">
                    <color>ff0000ff</color>
                    <colorMode>normal</colorMode>
                    <scale>1</scale>
                    <heading>0</heading>
                    <Icon id="842">
                        <href>http://maps.google.com/mapfiles/kml/pushpin/ylw-pushpin.png</href>
                    </Icon>
                </IconStyle>
            </Style>
            <Style id="845">
                <IconStyle id="846">
                    <color>ff0000ff</color>
                    <colorMode>normal</colorMode>
                    <scale>1</scale>
                    <heading>0</heading>
                    <Icon id="847">
                        <href>http://maps.google.com/mapfiles/kml/pushpin/ylw-pushpin.png</href>
                    </Icon>
                </IconStyle>
            </Style>
            <Style id="850">
                <IconStyle id="851">
                    <color>ff0000ff</color>
                    <colorMode>normal</colorMode>
                    <scale>1</scale>
                    <heading>0</heading>
                    <Icon id="852">
                        <href>http://maps.google.com/mapfiles/kml/pushpin/ylw-pushpin.png</href>
                    </Icon>
                </IconStyle>
            </Style>
            <Style id="855">
                <IconStyle id="856">
                    <color>ff0000ff</color>
                    <colorMode>normal</colorMode>
                    <scale>1</scale>
                    <heading>0</heading>
                    <Icon id="857">
                        <href>http://maps.google.com/mapfiles/kml/pushpin/ylw-pushpin.png</href>
                    </Icon>
                </IconStyle>
            </Style>
            <Style id="860">
                <IconStyle id="861">
                    <color>ff0000ff</color>
                    <colorMode>normal</colorMode>
                    <scale>1</scale>
                    <heading>0</heading>
                    <Icon id="862">
                        <href>http://maps.google.com/mapfiles/kml/pushpin/ylw-pushpin.png</href>
                    </Icon>
                </IconStyle>
            </Style>
            <Style id="865">
                <IconStyle id="866">
                    <color>ff0000ff</color>
                    <colorMode>normal</colorMode>
                    <scale>1</scale>
                    <heading>0</heading>
                    <Icon id="867">
                        <href>http://maps.google.com/mapfiles/kml/pushpin/ylw-pushpin.png</href>
                    </Icon>
                </IconStyle>
            </Style>
            <Style id="870">
                <IconStyle id="871">
                    <color>ff0000ff</color>
                    <colorMode>normal</colorMode>
                    <scale>1</scale>
                    <heading>0</heading>
                    <Icon id="872">
                        <href>http://maps.google.com/mapfiles/kml/pushpin/ylw-pushpin.png</href>
                    </Icon>
                </IconStyle>
            </Style>
            <Style id="875">
                <IconStyle id="876">
                    <color>ff0000ff</color>
                    <colorMode>normal</colorMode>
                    <scale>1</scale>
                    <heading>0</heading>
                    <Icon id="877">
                        <href>http://maps.google.com/mapfiles/kml/pushpin/ylw-pushpin.png</href>
                    </Icon>
                </IconStyle>
            </Style>
            <Style id="880">
                <IconStyle id="881">
                    <color>ff0000ff</color>
                    <colorMode>normal</colorMode>
                    <scale>1</scale>
                    <heading>0</heading>
                    <Icon id="882">
                        <href>http://maps.google.com/mapfiles/kml/pushpin/ylw-pushpin.png</href>
                    </Icon>
                </IconStyle>
            </Style>
            <Style id="885">
                <IconStyle id="886">
                    <color>ff0000ff</color>
                    <colorMode>normal</colorMode>
                    <scale>1</scale>
                    <heading>0</heading>
                    <Icon id="887">
                        <href>http://maps.google.com/mapfiles/kml/pushpin/ylw-pushpin.png</href>
                    </Icon>
                </IconStyle>
            </Style>
            <Style id="890">
                <IconStyle id="891">
                    <color>ff0000ff</color>
                    <colorMode>normal</colorMode>
                    <scale>1</scale>
                    <heading>0</heading>
                    <Icon id="892">
                        <href>http://maps.google.com/mapfiles/kml/pushpin/ylw-pushpin.png</href>
                    </Icon>
                </IconStyle>
            </Style>
            <Style id="895">
                <IconStyle id="896">
                    <color>ff0000ff</color>
                    <colorMode>normal</colorMode>
                    <scale>1</scale>
                    <heading>0</heading>
                    <Icon id="897">
                        <href>http://maps.google.com/mapfiles/kml/pushpin/ylw-pushpin.png</href>
                    </Icon>
                </IconStyle>
            </Style>
            <Style id="900">
                <IconStyle id="901">
                    <color>ff0000ff</color>
                    <colorMode>normal</colorMode>
                    <scale>1</scale>
                    <heading>0</heading>
                    <Icon id="902">
                        <href>http://maps.google.com/mapfiles/kml/pushpin/ylw-pushpin.png</href>
                    </Icon>
                </IconStyle>
            </Style>
            <Style id="905">
                <IconStyle id="906">
                    <color>ff0000ff</color>
                    <colorMode>normal</colorMode>
                    <scale>1</scale>
                    <heading>0</heading>
                    <Icon id="907">
                        <href>http://maps.google.com/mapfiles/kml/pushpin/ylw-pushpin.png</href>
                    </Icon>
                </IconStyle>
            </Style>
            <Style id="910">
                <IconStyle id="911">
                    <color>ff0000ff</color>
                    <colorMode>normal</colorMode>
                    <scale>1</scale>
                    <heading>0</heading>
                    <Icon id="912">
                        <href>http://maps.google.com/mapfiles/kml/pushpin/ylw-pushpin.png</href>
                    </Icon>
                </IconStyle>
            </Style>
            <Style id="915">
                <IconStyle id="916">
                    <color>ff0000ff</color>
                    <colorMode>normal</colorMode>
                    <scale>1</scale>
                    <heading>0</heading>
                    <Icon id="917">
                        <href>http://maps.google.com/mapfiles/kml/pushpin/ylw-pushpin.png</href>
                    </Icon>
                </IconStyle>
            </Style>
            <Style id="920">
                <IconStyle id="921">
                    <color>ff0000ff</color>
                    <colorMode>normal</colorMode>
                    <scale>1</scale>
                    <heading>0</heading>
                    <Icon id="922">
                        <href>http://maps.google.com/mapfiles/kml/pushpin/ylw-pushpin.png</href>
                    </Icon>
                </IconStyle>
            </Style>
            <Style id="925">
                <IconStyle id="926">
                    <color>ff0000ff</color>
                    <colorMode>normal</colorMode>
                    <scale>1</scale>
                    <heading>0</heading>
                    <Icon id="927">
                        <href>http://maps.google.com/mapfiles/kml/pushpin/ylw-pushpin.png</href>
                    </Icon>
                </IconStyle>
            </Style>
            <name>DOMITILA QUISPE MIRANDA</name>
            <Placemark id="689">
                <name>SANDOVAL BALDERA JOSE OSCAR</name>
                <description>AH 29 DE DICIEMBRE MZ L-21
Paita
Paita
Piura
Perú</description>
                <styleUrl>#690</styleUrl>
                <Point id="688">
                    <coordinates>-81.117261,-5.109143,0.0</coordinates>
                </Point>
            </Placemark>
            <Placemark id="694">
                <name>FÁTIMA ORDINOLA CORNEJO</name>
                <description>Ah rosa de Guadalupe mz E lote 4 paita alta
Paita
Paita
Piura
Perú</description>
                <styleUrl>#695</styleUrl>
                <Point id="693">
                    <coordinates>-81.1100983,-5.108467,0.0</coordinates>
                </Point>
            </Placemark>
            <Placemark id="699">
                <name>SANDOVAL BALDERA JOSE OSCAR</name>
                <description>AH 29 DE DICIEMBRE MZ L-21
Paita
Paita
Piura
Perú</description>
                <styleUrl>#700</styleUrl>
                <Point id="698">
                    <coordinates>-81.117261,-5.109143,0.0</coordinates>
                </Point>
            </Placemark>
            <Placemark id="704">
                <name>REYDELINDA TORRES SANSEN</name>
                <description>AAHH 2 DE AGOSTO I-21
Paita
Paita
Piura
Perú</description>
                <styleUrl>#705</styleUrl>
                <Point id="703">
                    <coordinates>-81.1097972,-5.107471,0.0</coordinates>
                </Point>
            </Placemark>
            <Placemark id="709">
                <name>GLENY JULYXA CESPEDES JUAREZ</name>
                <description>Ah dos de agosto mz I prima lote 23
Paita
Paita
Piura
Perú</description>
                <styleUrl>#710</styleUrl>
                <Point id="708">
                    <coordinates>-81.11035,-5.1083926,0.0</coordinates>
                </Point>
            </Placemark>
            <Placemark id="714">
                <name>KARINA GIULLIANA SAAVEDRA ALZAMORA</name>
                <description>MZ W LT 28 AH 02 DE AGOSTO - PAITA
Paita
Paita
Piura
Perú</description>
                <styleUrl>#715</styleUrl>
                <Point id="713">
                    <coordinates>-81.1102741,-5.1058449,0.0</coordinates>
                </Point>
            </Placemark>
            <Placemark id="719">
                <name>MARIA BARBARITA YOVERA NEIRA</name>
                <description>MZ U LT 8 AH MIRAFLORES - PAITA
Paita
Paita
Piura
Perú</description>
                <styleUrl>#720</styleUrl>
                <Point id="718">
                    <coordinates>-81.1197242,-5.1038705,0.0</coordinates>
                </Point>
            </Placemark>
            <Placemark id="724">
                <name>BALBINA CORDOVA DE CORDOVA</name>
                <description>Ah villa cristo  calle p1
Paita
Paita
Piura
Perú</description>
                <styleUrl>#725</styleUrl>
                <Point id="723">
                    <coordinates>-81.1184486,-5.1063172,0.0</coordinates>
                </Point>
            </Placemark>
            <Placemark id="729">
                <name>JONATHAN DAVID CASTRO NEYRA</name>
                <description>MZ I LT 4 NUEVO HORIZONTE
Paita
Paita
Piura
Perú</description>
                <styleUrl>#730</styleUrl>
                <Point id="728">
                    <coordinates>-81.1203991,-5.1069816,0.0</coordinates>
                </Point>
            </Placemark>
            <Placemark id="734">
                <name>NARCISA DE JESUS VIERA ECHE</name>
                <description>Ah villa rosas mz g lote 1
Paita
Paita
Piura
Perú</description>
                <styleUrl>#735</styleUrl>
                <Point id="733">
                    <coordinates>-81.1205905,-5.1068036,0.0</coordinates>
                </Point>
            </Placemark>
            <Placemark id="739">
                <name>JESUS DEL MILAGRO CHUNGA PRADO</name>
                <description>Villa rosas Mz F lote 9
Paita
Paita
Piura
Perú</description>
                <styleUrl>#740</styleUrl>
                <Point id="738">
                    <coordinates>-81.122134,-5.1065562,0.0</coordinates>
                </Point>
            </Placemark>
            <Placemark id="744">
                <name>RUBY CHUMACERO SARANGO</name>
                <description>Ah Villa rosas mz J lote 16
Paita

Piura
Perú</description>
                <styleUrl>#745</styleUrl>
                <Point id="743">
                    <coordinates>-81.1220426,-5.1063695,0.0</coordinates>
                </Point>
            </Placemark>
            <Placemark id="749">
                <name>PEDRO PABLO OBLEA YNGA</name>
                <description>Bahía paita mz x lote 57
Paita

Piura
Perú</description>
                <styleUrl>#750</styleUrl>
                <Point id="748">
                    <coordinates>-81.1249092,-5.1061922,0.0</coordinates>
                </Point>
            </Placemark>
            <Placemark id="754">
                <name>MENDOZA NAVARRO YIOVANA</name>
                <description>Upis mi Perú mz E lote 6
Paita

Piura
Perú</description>
                <styleUrl>#755</styleUrl>
                <Point id="753">
                    <coordinates>-81.1241532,-5.112731,0.0</coordinates>
                </Point>
            </Placemark>
            <Placemark id="759">
                <name>EDWIN YOVERA VALLADOLID</name>
                <description>Mz E lote 12 AAHH Mi Perú
Paita
Paita
Piura
Perú</description>
                <styleUrl>#760</styleUrl>
                <Point id="758">
                    <coordinates>-81.1251148,-5.1124082,0.0</coordinates>
                </Point>
            </Placemark>
            <Placemark id="764">
                <name>ANALIA LIZBETH TINEO MORE</name>
                <description>Aahh san juan de miraflores mz jblote 24 1 etapa (cerca a la xapilla)
Paita

Piura
Perú</description>
                <styleUrl>#765</styleUrl>
                <Point id="763">
                    <coordinates>-81.125252,-5.1138016,0.0</coordinates>
                </Point>
            </Placemark>
            <Placemark id="769">
                <name>FLOR DETQUIZAN SEGURA</name>
                <description>Asentamiento Humano San Juan de Miraflores MZ O LT 25
Paita

Piura
Perú</description>
                <styleUrl>#770</styleUrl>
                <Point id="768">
                    <coordinates>-81.1245537,-5.1150295,0.0</coordinates>
                </Point>
            </Placemark>
            <Placemark id="774">
                <name>ESTENIA NOEMI RAMIREZ LOPEZ</name>
                <description>ESTENIA NOEMI RAMIREZ LOPEZ
AHH SN JUAN DE MIRAFLORES MZ C LOTE 13
Paita
Paita
Piura
Perú</description>
                <styleUrl>#775</styleUrl>
                <Point id="773">
                    <coordinates>-81.1246743,-5.1178731,0.0</coordinates>
                </Point>
            </Placemark>
            <Placemark id="779">
                <name>JENNY KATHERINE CARMEN SERNAQUE</name>
                <description>AHH SAN JUAN DE MIRAFLORES MZ F LOTE 18 CUARTA ETAPA
Paita
Paita
Piura
Perú</description>
                <styleUrl>#780</styleUrl>
                <Point id="778">
                    <coordinates>-81.1241656,-5.116923,0.0</coordinates>
                </Point>
            </Placemark>
            <Placemark id="784">
                <name>KATHERINE REXIONA REATEGUI PINEDO</name>
                <description>SAN JUAN DE MIRAFLORES MZ G LT 8 TERCERA ETAPA
Paita
Paita
Piura
Perú</description>
                <styleUrl>#785</styleUrl>
                <Point id="783">
                    <coordinates>-81.1240624,-5.1156637,0.0</coordinates>
                </Point>
            </Placemark>
            <Placemark id="789">
                <name>BEXY FEBRE ROBLEDO</name>
                <description>29 de diciembre Mz M lote 14
Paita
Paita
Piura
Perú</description>
                <styleUrl>#790</styleUrl>
                <Point id="788">
                    <coordinates>-81.117934,-5.1092614,0.0</coordinates>
                </Point>
            </Placemark>
            <Placemark id="794">
                <name>CINDY LIZLEY ABAD VALLADARES</name>
                <description>AAHH 29 DE DICIEMBRE MZ Q LOTE 20
Paita
Paita
Piura
Perú</description>
                <styleUrl>#795</styleUrl>
                <Point id="793">
                    <coordinates>-81.1166812,-5.1099471,0.0</coordinates>
                </Point>
            </Placemark>
            <Placemark id="799">
                <name>MARIA MARGARITA INGA VALVERDE</name>
                <description>REYMUNDO DIOSES MZ T IT 19 MZ A LT
Paita
Paita
Piura
Perú</description>
                <styleUrl>#800</styleUrl>
                <Point id="798">
                    <coordinates>-81.116626,-5.1071325,0.0</coordinates>
                </Point>
            </Placemark>
            <Placemark id="804">
                <name>MARIOLINDA GARCIA SANTOS</name>
                <description>AH LOS LAURELES MZ D PRIMA LT 10 -PAITA
Paita
Paita
Piura
Perú</description>
                <styleUrl>#805</styleUrl>
                <Point id="803">
                    <coordinates>-81.1171563,-5.1056711,0.0</coordinates>
                </Point>
            </Placemark>
            <Placemark id="809">
                <name>IRIS BENITES VALDIVIEZO</name>
                <description>Los laureles primera etapaMz K prima Lote 11
Paita
Paita
Piura
Perú</description>
                <styleUrl>#810</styleUrl>
                <Point id="808">
                    <coordinates>-81.1148058,-5.108812,0.0</coordinates>
                </Point>
            </Placemark>
            <Placemark id="814">
                <name>MARIA ROSA CHERO VILLANUEVA</name>
                <description>AS LAURELES 1ET MZ Q LT 9
Paita
Paita
Piura
Perú</description>
                <styleUrl>#815</styleUrl>
                <Point id="813">
                    <coordinates>-81.1146153,-5.1089479,0.0</coordinates>
                </Point>
            </Placemark>
            <Placemark id="819">
                <name>ELBIA VALDEZ ZAPATA</name>
                <description>Los laureles 2 etapa k lote 8
Paita
Paita
Piura
Perú</description>
                <styleUrl>#820</styleUrl>
                <Point id="818">
                    <coordinates>-81.1145972,-5.107739,0.0</coordinates>
                </Point>
            </Placemark>
            <Placemark id="824">
                <name>VERONICA DEL PILAR MADRID SANCHEZ</name>
                <description>MZ-J PRIMA LT-1 AH.LOS LAURLES ETP-
Paita
Paita
Piura
Perú</description>
                <styleUrl>#825</styleUrl>
                <Point id="823">
                    <coordinates>-81.1149251,-5.1074506,0.0</coordinates>
                </Point>
            </Placemark>
            <Placemark id="829">
                <name>ROSA ELENA MEZONES TOCA</name>
                <description>AAHH LOS LAURELES PRIMERA ETAPA Mz G lote 20
Paita
Paita
Piura
Perú</description>
                <styleUrl>#830</styleUrl>
                <Point id="828">
                    <coordinates>-81.1161201,-5.105448,0.0</coordinates>
                </Point>
            </Placemark>
            <Placemark id="834">
                <name>NARLY MILAGROS NUÑEZ ROMAN</name>
                <description>Los laureles segunda etapa MZ I lote 2
Paita
Paita
Piura
Perú</description>
                <styleUrl>#835</styleUrl>
                <Point id="833">
                    <coordinates>-81.113579,-5.1078694,0.0</coordinates>
                </Point>
            </Placemark>
            <Placemark id="839">
                <name>NOEMI ROSMERY LOPEZ CHAVEZ</name>
                <description>MZ U LT 2 LOS LAURELES II ETAPA PAITA-PIURA
Paita
Paita
Piura
Perú</description>
                <styleUrl>#840</styleUrl>
                <Point id="838">
                    <coordinates>-81.1121081,-5.1088692,0.0</coordinates>
                </Point>
            </Placemark>
            <Placemark id="844">
                <name>VILMA COVEÑAS ESTRADA</name>
                <description>Laureles mz C lote 16 2 etapa
Paita
Paita
Piura
Perú</description>
                <styleUrl>#845</styleUrl>
                <Point id="843">
                    <coordinates>-81.1134309,-5.1071523,0.0</coordinates>
                </Point>
            </Placemark>
            <Placemark id="849">
                <name>ELAR AUGUSTO GARCIA ESPINOZA</name>
                <description>AH LOS LAURELES MZ-R LT-16
Paita
Paita
Piura
Perú</description>
                <styleUrl>#850</styleUrl>
                <Point id="848">
                    <coordinates>-81.1149855,-5.1053508,0.0</coordinates>
                </Point>
            </Placemark>
            <Placemark id="854">
                <name>EDIN JANNETH CUSTODIO NUÑEZ</name>
                <description>Ah los laureles Mz R lote 1
Paita
Paita
Piura
Perú</description>
                <styleUrl>#855</styleUrl>
                <Point id="853">
                    <coordinates>-81.1150177,-5.104589,0.0</coordinates>
                </Point>
            </Placemark>
            <Placemark id="859">
                <name>VITALINA SARANGO CAMPOVERDE</name>
                <description>MZ C PRIMA LT 6 AH LOS LAURELES -PAITA
Paita
Paita
Piura
Perú</description>
                <styleUrl>#860</styleUrl>
                <Point id="858">
                    <coordinates>-81.1130204,-5.1060502,0.0</coordinates>
                </Point>
            </Placemark>
            <Placemark id="864">
                <name>JUDITH JANINA BARRIENTOS SICHA</name>
                <description>MZ G LT 10 SEGUNDA ETAPA LOS LAURELES - PAITA
Paita
Paita
Piura
Perú</description>
                <styleUrl>#865</styleUrl>
                <Point id="863">
                    <coordinates>-81.1121444,-5.1075207,0.0</coordinates>
                </Point>
            </Placemark>
            <Placemark id="869">
                <name>NOEMÍ LEON NEYRA</name>
                <description>Dos de agosto mz v lote 29
Paita
Paita
Piura
Perú</description>
                <styleUrl>#870</styleUrl>
                <Point id="868">
                    <coordinates>-81.1110414,-5.1061947,0.0</coordinates>
                </Point>
            </Placemark>
            <Placemark id="874">
                <name>VICTOR MANUEL CHAPILLIQUEN QUINTANA</name>
                <description>Ah dos de agosto Mz O lote 28
Paita
Paita
Piura
Perú</description>
                <styleUrl>#875</styleUrl>
                <Point id="873">
                    <coordinates>-81.1112418,-5.1056685,0.0</coordinates>
                </Point>
            </Placemark>
            <Placemark id="879">
                <name>DEYSI JULISSA RUIZ MARTINEZ</name>
                <description>MZ-C LT-33 AH 2 DE AGOSTO
Paita
Paita
Piura
Perú</description>
                <styleUrl>#880</styleUrl>
                <Point id="878">
                    <coordinates>-81.117861,-5.1091843,0.0</coordinates>
                </Point>
            </Placemark>
            <Placemark id="884">
                <name>ANA PINTA ABAD</name>
                <description>Ah dos de agosto mz K lote 21
Paita
Paita
Piura
Perú</description>
                <styleUrl>#885</styleUrl>
                <Point id="883">
                    <coordinates>-81.1108072,-5.1043533,0.0</coordinates>
                </Point>
            </Placemark>
            <Placemark id="889">
                <name>DORA ALICIA CERNA NAVARRO</name>
                <description>AH JUAN VALER MZ I LT 08 - PAITA
Paita
Paita
Piura
Perú</description>
                <styleUrl>#890</styleUrl>
                <Point id="888">
                    <coordinates>-81.111005,-5.1026154,0.0</coordinates>
                </Point>
            </Placemark>
            <Placemark id="894">
                <name>MARISELA VALENCIA VILLEGAS</name>
                <description>JUAN VALER B LOT 10 PAITA
Paita
Paita
Piura
Perú</description>
                <styleUrl>#895</styleUrl>
                <Point id="893">
                    <coordinates>-81.1114351,-5.1015055,0.0</coordinates>
                </Point>
            </Placemark>
            <Placemark id="899">
                <name>MARGARITA ALBURQUEQUE INFANTE</name>
                <description>JUAN VALER MZ D LT33 PAITA ALTA
Paita
Paita
Piura
Perú</description>
                <styleUrl>#900</styleUrl>
                <Point id="898">
                    <coordinates>-81.1105188,-5.1013687,0.0</coordinates>
                </Point>
            </Placemark>
            <Placemark id="904">
                <name>JULIO RETO MONTERO</name>
                <description>Juan valer Sandoval mz k lote 27
Paita
Paita
Piura
Perú</description>
                <styleUrl>#905</styleUrl>
                <Point id="903">
                    <coordinates>-81.1087618,-5.1025562,0.0</coordinates>
                </Point>
            </Placemark>
            <Placemark id="909">
                <name>ROSALIA JULCAHUANCA MANCHAY</name>
                <description>AAHH JUAN VALER MZ T LT 24 - PAITA
Paita
Paita
Piura
Perú</description>
                <styleUrl>#910</styleUrl>
                <Point id="908">
                    <coordinates>-81.1086932,-5.1052522,0.0</coordinates>
                </Point>
            </Placemark>
            <Placemark id="914">
                <name>MARILIA LAZARO JUAREZ</name>
                <description>AAHH 2 DE AGOSTO MZ G' LOTE 19 FRENTE AL PARADERO
Paita

Piura
Perú</description>
                <styleUrl>#915</styleUrl>
                <Point id="913">
                    <coordinates>-81.1080856,-5.1077159,0.0</coordinates>
                </Point>
            </Placemark>
            <Placemark id="919">
                <name>SANTOS ANCAJIMA NIMA</name>
                <description>AH ROSA DE GUADALUPE MZ J LT 14 - PAITA
Paita
Paita
Piura
Perú</description>
                <styleUrl>#920</styleUrl>
                <Point id="918">
                    <coordinates>-81.1081524,-5.1091603,0.0</coordinates>
                </Point>
            </Placemark>
            <Placemark id="924">
                <name>SILVIA FIDELIA GARCIA ALVARADO</name>
                <description>MZ - E LT - 19 A H ROSA DE GUADALUPE PAITA
Paita
Paita
Piura
Perú</description>
                <styleUrl>#925</styleUrl>
                <Point id="923">
                    <coordinates>-81.1098551,-5.109241,0.0</coordinates>
                </Point>
            </Placemark>
        </Folder>
        <Folder id="928">
            <Style id="931">
                <IconStyle id="932">
                    <color>ffff0000</color>
                    <colorMode>normal</colorMode>
                    <scale>1</scale>
                    <heading>0</heading>
                    <Icon id="933">
                        <href>http://maps.google.com/mapfiles/kml/pushpin/ylw-pushpin.png</href>
                    </Icon>
                </IconStyle>
            </Style>
            <Style id="936">
                <IconStyle id="937">
                    <color>ffff0000</color>
                    <colorMode>normal</colorMode>
                    <scale>1</scale>
                    <heading>0</heading>
                    <Icon id="938">
                        <href>http://maps.google.com/mapfiles/kml/pushpin/ylw-pushpin.png</href>
                    </Icon>
                </IconStyle>
            </Style>
            <Style id="941">
                <IconStyle id="942">
                    <color>ffff0000</color>
                    <colorMode>normal</colorMode>
                    <scale>1</scale>
                    <heading>0</heading>
                    <Icon id="943">
                        <href>http://maps.google.com/mapfiles/kml/pushpin/ylw-pushpin.png</href>
                    </Icon>
                </IconStyle>
            </Style>
            <Style id="946">
                <IconStyle id="947">
                    <color>ffff0000</color>
                    <colorMode>normal</colorMode>
                    <scale>1</scale>
                    <heading>0</heading>
                    <Icon id="948">
                        <href>http://maps.google.com/mapfiles/kml/pushpin/ylw-pushpin.png</href>
                    </Icon>
                </IconStyle>
            </Style>
            <Style id="951">
                <IconStyle id="952">
                    <color>ffff0000</color>
                    <colorMode>normal</colorMode>
                    <scale>1</scale>
                    <heading>0</heading>
                    <Icon id="953">
                        <href>http://maps.google.com/mapfiles/kml/pushpin/ylw-pushpin.png</href>
                    </Icon>
                </IconStyle>
            </Style>
            <Style id="956">
                <IconStyle id="957">
                    <color>ffff0000</color>
                    <colorMode>normal</colorMode>
                    <scale>1</scale>
                    <heading>0</heading>
                    <Icon id="958">
                        <href>http://maps.google.com/mapfiles/kml/pushpin/ylw-pushpin.png</href>
                    </Icon>
                </IconStyle>
            </Style>
            <Style id="961">
                <IconStyle id="962">
                    <color>ffff0000</color>
                    <colorMode>normal</colorMode>
                    <scale>1</scale>
                    <heading>0</heading>
                    <Icon id="963">
                        <href>http://maps.google.com/mapfiles/kml/pushpin/ylw-pushpin.png</href>
                    </Icon>
                </IconStyle>
            </Style>
            <Style id="966">
                <IconStyle id="967">
                    <color>ffff0000</color>
                    <colorMode>normal</colorMode>
                    <scale>1</scale>
                    <heading>0</heading>
                    <Icon id="968">
                        <href>http://maps.google.com/mapfiles/kml/pushpin/ylw-pushpin.png</href>
                    </Icon>
                </IconStyle>
            </Style>
            <Style id="971">
                <IconStyle id="972">
                    <color>ffff0000</color>
                    <colorMode>normal</colorMode>
                    <scale>1</scale>
                    <heading>0</heading>
                    <Icon id="973">
                        <href>http://maps.google.com/mapfiles/kml/pushpin/ylw-pushpin.png</href>
                    </Icon>
                </IconStyle>
            </Style>
            <Style id="976">
                <IconStyle id="977">
                    <color>ffff0000</color>
                    <colorMode>normal</colorMode>
                    <scale>1</scale>
                    <heading>0</heading>
                    <Icon id="978">
                        <href>http://maps.google.com/mapfiles/kml/pushpin/ylw-pushpin.png</href>
                    </Icon>
                </IconStyle>
            </Style>
            <name>LEONARDO VIERA CHAVEZ</name>
            <Placemark id="930">
                <name>MARIA NELLY CIEZA CORONADO</name>
                <description>Mercado modelo paita baja puesto 1 sector 5
Paita
Paita
Piura
Perú</description>
                <styleUrl>#931</styleUrl>
                <Point id="929">
                    <coordinates>-81.1128793,-5.0906258,0.0</coordinates>
                </Point>
            </Placemark>
            <Placemark id="935">
                <name>Jhoan Josué ipanaque Cienfuegos</name>
                <description>Mercado santa rosa Paita alta puesto 25
Paita
Paita
Piura
Perú</description>
                <styleUrl>#936</styleUrl>
                <Point id="934">
                    <coordinates>-81.0989253,-5.0920726,0.0</coordinates>
                </Point>
            </Placemark>
            <Placemark id="940">
                <name>RAFAEL JULIAN PEREZ MEZA</name>
                <description>Mercado santa rosa paita alta
Paita
Paita
Piura
Perú</description>
                <styleUrl>#941</styleUrl>
                <Point id="939">
                    <coordinates>-81.0989593,-5.0928378,0.0</coordinates>
                </Point>
            </Placemark>
            <Placemark id="945">
                <name>NEGOCIOS QUINECHE E.I.R.L.</name>
                <description>NEGOCIOS QUINECHE E.I.R.L.
MZ G2 LOTE 3 AAHH CIUDAD BLANCA PAITA-PIURA
Paita
Paita
Piura
Perú</description>
                <styleUrl>#946</styleUrl>
                <Point id="944">
                    <coordinates>-81.112435,-5.0907217,0.0</coordinates>
                </Point>
            </Placemark>
            <Placemark id="950">
                <name>ROSA ELVIRA PALACIOS HUAMAN</name>
                <description>ROSA ELVIRA PALACIOS HUAMAN
JR MALAGA PTO 62 MCDO MODE
Paita
-Paita
Piura
Perú</description>
                <styleUrl>#951</styleUrl>
                <Point id="949">
                    <coordinates>-81.1128813,-5.0909221,0.0</coordinates>
                </Point>
            </Placemark>
            <Placemark id="955">
                <name>ALEXANDER ALBAN VARGAS</name>
                <description>ALEXANDER ALBAN VARGAS
ZANJON KIOSKO 0116 MERCADO MODELO
Paita
Paita
Piura
Perú</description>
                <styleUrl>#956</styleUrl>
                <Point id="954">
                    <coordinates>-81.1125046,-5.0904788,0.0</coordinates>
                </Point>
            </Placemark>
            <Placemark id="960">
                <name>YULI LILIANA CRUZ HIJUELA</name>
                <description>Mercado modelo paita baja .
Paita
Paita
Piura
Perú</description>
                <styleUrl>#961</styleUrl>
                <Point id="959">
                    <coordinates>-81.1130847,-5.0899168,0.0</coordinates>
                </Point>
            </Placemark>
            <Placemark id="965">
                <name>NEGOCIOS Y TRANSPORTES OROZCO E.I.R.L.</name>
                <description>MZA. F1 LOTE. 11A A.H.  05 DE FEBRERO
Paita
200502Paita
Piura
Perú</description>
                <styleUrl>#966</styleUrl>
                <Point id="964">
                    <coordinates>-81.0992757,-5.0922973,0.0</coordinates>
                </Point>
            </Placemark>
            <Placemark id="970">
                <name>TODO MAX E.I.R.L.</name>
                <description>TODO MAX E.I.R.L.
PSTO NRO 4 MCDO STA ROSA - PAITA
Paita
Paita
Piura
Perú</description>
                <styleUrl>#971</styleUrl>
                <Point id="969">
                    <coordinates>-81.0993198,-5.0927039,0.0</coordinates>
                </Point>
            </Placemark>
            <Placemark id="975">
                <name>JOSE PASCUAL MARTINEZ MORALES</name>
                <description>Paita alta mercadillo santa rosa
Paita
Paita
Piura
Perú</description>
                <styleUrl>#976</styleUrl>
                <Point id="974">
                    <coordinates>-81.1124877,-5.0909155,0.0</coordinates>
                </Point>
            </Placemark>
        </Folder>
    </Document>
</kml>
