<?xml version="1.0" encoding="UTF-8"?>
<kml xmlns="http://www.opengis.net/kml/2.2" xmlns:gx="http://www.google.com/kml/ext/2.2">
    <Document id="1116">
        <Folder id="1117">
            <Style id="1120">
                <IconStyle id="1121">
                    <color>ff0000ff</color>
                    <colorMode>normal</colorMode>
                    <scale>1</scale>
                    <heading>0</heading>
                    <Icon id="1122">
                        <href>http://maps.google.com/mapfiles/kml/pushpin/ylw-pushpin.png</href>
                    </Icon>
                </IconStyle>
            </Style>
            <Style id="1125">
                <IconStyle id="1126">
                    <color>ff0000ff</color>
                    <colorMode>normal</colorMode>
                    <scale>1</scale>
                    <heading>0</heading>
                    <Icon id="1127">
                        <href>http://maps.google.com/mapfiles/kml/pushpin/ylw-pushpin.png</href>
                    </Icon>
                </IconStyle>
            </Style>
            <Style id="1130">
                <IconStyle id="1131">
                    <color>ff0000ff</color>
                    <colorMode>normal</colorMode>
                    <scale>1</scale>
                    <heading>0</heading>
                    <Icon id="1132">
                        <href>http://maps.google.com/mapfiles/kml/pushpin/ylw-pushpin.png</href>
                    </Icon>
                </IconStyle>
            </Style>
            <Style id="1135">
                <IconStyle id="1136">
                    <color>ff0000ff</color>
                    <colorMode>normal</colorMode>
                    <scale>1</scale>
                    <heading>0</heading>
                    <Icon id="1137">
                        <href>http://maps.google.com/mapfiles/kml/pushpin/ylw-pushpin.png</href>
                    </Icon>
                </IconStyle>
            </Style>
            <Style id="1140">
                <IconStyle id="1141">
                    <color>ff0000ff</color>
                    <colorMode>normal</colorMode>
                    <scale>1</scale>
                    <heading>0</heading>
                    <Icon id="1142">
                        <href>http://maps.google.com/mapfiles/kml/pushpin/ylw-pushpin.png</href>
                    </Icon>
                </IconStyle>
            </Style>
            <Style id="1145">
                <IconStyle id="1146">
                    <color>ff0000ff</color>
                    <colorMode>normal</colorMode>
                    <scale>1</scale>
                    <heading>0</heading>
                    <Icon id="1147">
                        <href>http://maps.google.com/mapfiles/kml/pushpin/ylw-pushpin.png</href>
                    </Icon>
                </IconStyle>
            </Style>
            <Style id="1150">
                <IconStyle id="1151">
                    <color>ff0000ff</color>
                    <colorMode>normal</colorMode>
                    <scale>1</scale>
                    <heading>0</heading>
                    <Icon id="1152">
                        <href>http://maps.google.com/mapfiles/kml/pushpin/ylw-pushpin.png</href>
                    </Icon>
                </IconStyle>
            </Style>
            <Style id="1155">
                <IconStyle id="1156">
                    <color>ff0000ff</color>
                    <colorMode>normal</colorMode>
                    <scale>1</scale>
                    <heading>0</heading>
                    <Icon id="1157">
                        <href>http://maps.google.com/mapfiles/kml/pushpin/ylw-pushpin.png</href>
                    </Icon>
                </IconStyle>
            </Style>
            <Style id="1160">
                <IconStyle id="1161">
                    <color>ff0000ff</color>
                    <colorMode>normal</colorMode>
                    <scale>1</scale>
                    <heading>0</heading>
                    <Icon id="1162">
                        <href>http://maps.google.com/mapfiles/kml/pushpin/ylw-pushpin.png</href>
                    </Icon>
                </IconStyle>
            </Style>
            <Style id="1165">
                <IconStyle id="1166">
                    <color>ff0000ff</color>
                    <colorMode>normal</colorMode>
                    <scale>1</scale>
                    <heading>0</heading>
                    <Icon id="1167">
                        <href>http://maps.google.com/mapfiles/kml/pushpin/ylw-pushpin.png</href>
                    </Icon>
                </IconStyle>
            </Style>
            <Style id="1170">
                <IconStyle id="1171">
                    <color>ff0000ff</color>
                    <colorMode>normal</colorMode>
                    <scale>1</scale>
                    <heading>0</heading>
                    <Icon id="1172">
                        <href>http://maps.google.com/mapfiles/kml/pushpin/ylw-pushpin.png</href>
                    </Icon>
                </IconStyle>
            </Style>
            <Style id="1175">
                <IconStyle id="1176">
                    <color>ff0000ff</color>
                    <colorMode>normal</colorMode>
                    <scale>1</scale>
                    <heading>0</heading>
                    <Icon id="1177">
                        <href>http://maps.google.com/mapfiles/kml/pushpin/ylw-pushpin.png</href>
                    </Icon>
                </IconStyle>
            </Style>
            <Style id="1180">
                <IconStyle id="1181">
                    <color>ff0000ff</color>
                    <colorMode>normal</colorMode>
                    <scale>1</scale>
                    <heading>0</heading>
                    <Icon id="1182">
                        <href>http://maps.google.com/mapfiles/kml/pushpin/ylw-pushpin.png</href>
                    </Icon>
                </IconStyle>
            </Style>
            <Style id="1185">
                <IconStyle id="1186">
                    <color>ff0000ff</color>
                    <colorMode>normal</colorMode>
                    <scale>1</scale>
                    <heading>0</heading>
                    <Icon id="1187">
                        <href>http://maps.google.com/mapfiles/kml/pushpin/ylw-pushpin.png</href>
                    </Icon>
                </IconStyle>
            </Style>
            <Style id="1190">
                <IconStyle id="1191">
                    <color>ff0000ff</color>
                    <colorMode>normal</colorMode>
                    <scale>1</scale>
                    <heading>0</heading>
                    <Icon id="1192">
                        <href>http://maps.google.com/mapfiles/kml/pushpin/ylw-pushpin.png</href>
                    </Icon>
                </IconStyle>
            </Style>
            <Style id="1195">
                <IconStyle id="1196">
                    <color>ff0000ff</color>
                    <colorMode>normal</colorMode>
                    <scale>1</scale>
                    <heading>0</heading>
                    <Icon id="1197">
                        <href>http://maps.google.com/mapfiles/kml/pushpin/ylw-pushpin.png</href>
                    </Icon>
                </IconStyle>
            </Style>
            <Style id="1200">
                <IconStyle id="1201">
                    <color>ff0000ff</color>
                    <colorMode>normal</colorMode>
                    <scale>1</scale>
                    <heading>0</heading>
                    <Icon id="1202">
                        <href>http://maps.google.com/mapfiles/kml/pushpin/ylw-pushpin.png</href>
                    </Icon>
                </IconStyle>
            </Style>
            <Style id="1205">
                <IconStyle id="1206">
                    <color>ff0000ff</color>
                    <colorMode>normal</colorMode>
                    <scale>1</scale>
                    <heading>0</heading>
                    <Icon id="1207">
                        <href>http://maps.google.com/mapfiles/kml/pushpin/ylw-pushpin.png</href>
                    </Icon>
                </IconStyle>
            </Style>
            <Style id="1210">
                <IconStyle id="1211">
                    <color>ff0000ff</color>
                    <colorMode>normal</colorMode>
                    <scale>1</scale>
                    <heading>0</heading>
                    <Icon id="1212">
                        <href>http://maps.google.com/mapfiles/kml/pushpin/ylw-pushpin.png</href>
                    </Icon>
                </IconStyle>
            </Style>
            <Style id="1215">
                <IconStyle id="1216">
                    <color>ff0000ff</color>
                    <colorMode>normal</colorMode>
                    <scale>1</scale>
                    <heading>0</heading>
                    <Icon id="1217">
                        <href>http://maps.google.com/mapfiles/kml/pushpin/ylw-pushpin.png</href>
                    </Icon>
                </IconStyle>
            </Style>
            <Style id="1220">
                <IconStyle id="1221">
                    <color>ff0000ff</color>
                    <colorMode>normal</colorMode>
                    <scale>1</scale>
                    <heading>0</heading>
                    <Icon id="1222">
                        <href>http://maps.google.com/mapfiles/kml/pushpin/ylw-pushpin.png</href>
                    </Icon>
                </IconStyle>
            </Style>
            <Style id="1225">
                <IconStyle id="1226">
                    <color>ff0000ff</color>
                    <colorMode>normal</colorMode>
                    <scale>1</scale>
                    <heading>0</heading>
                    <Icon id="1227">
                        <href>http://maps.google.com/mapfiles/kml/pushpin/ylw-pushpin.png</href>
                    </Icon>
                </IconStyle>
            </Style>
            <Style id="1230">
                <IconStyle id="1231">
                    <color>ff0000ff</color>
                    <colorMode>normal</colorMode>
                    <scale>1</scale>
                    <heading>0</heading>
                    <Icon id="1232">
                        <href>http://maps.google.com/mapfiles/kml/pushpin/ylw-pushpin.png</href>
                    </Icon>
                </IconStyle>
            </Style>
            <Style id="1235">
                <IconStyle id="1236">
                    <color>ff0000ff</color>
                    <colorMode>normal</colorMode>
                    <scale>1</scale>
                    <heading>0</heading>
                    <Icon id="1237">
                        <href>http://maps.google.com/mapfiles/kml/pushpin/ylw-pushpin.png</href>
                    </Icon>
                </IconStyle>
            </Style>
            <Style id="1240">
                <IconStyle id="1241">
                    <color>ff0000ff</color>
                    <colorMode>normal</colorMode>
                    <scale>1</scale>
                    <heading>0</heading>
                    <Icon id="1242">
                        <href>http://maps.google.com/mapfiles/kml/pushpin/ylw-pushpin.png</href>
                    </Icon>
                </IconStyle>
            </Style>
            <Style id="1245">
                <IconStyle id="1246">
                    <color>ff0000ff</color>
                    <colorMode>normal</colorMode>
                    <scale>1</scale>
                    <heading>0</heading>
                    <Icon id="1247">
                        <href>http://maps.google.com/mapfiles/kml/pushpin/ylw-pushpin.png</href>
                    </Icon>
                </IconStyle>
            </Style>
            <Style id="1250">
                <IconStyle id="1251">
                    <color>ff0000ff</color>
                    <colorMode>normal</colorMode>
                    <scale>1</scale>
                    <heading>0</heading>
                    <Icon id="1252">
                        <href>http://maps.google.com/mapfiles/kml/pushpin/ylw-pushpin.png</href>
                    </Icon>
                </IconStyle>
            </Style>
            <Style id="1255">
                <IconStyle id="1256">
                    <color>ff0000ff</color>
                    <colorMode>normal</colorMode>
                    <scale>1</scale>
                    <heading>0</heading>
                    <Icon id="1257">
                        <href>http://maps.google.com/mapfiles/kml/pushpin/ylw-pushpin.png</href>
                    </Icon>
                </IconStyle>
            </Style>
            <Style id="1260">
                <IconStyle id="1261">
                    <color>ff0000ff</color>
                    <colorMode>normal</colorMode>
                    <scale>1</scale>
                    <heading>0</heading>
                    <Icon id="1262">
                        <href>http://maps.google.com/mapfiles/kml/pushpin/ylw-pushpin.png</href>
                    </Icon>
                </IconStyle>
            </Style>
            <name>DOMITILA QUISPE MIRANDA</name>
            <Placemark id="1119">
                <name>ESTEFANY ANABEL SARMIENTO QUEREVALU</name>
                <description>CALLE QUIÑONES MZ B LOTE 09 YACILA
Paita
Paita
Piura
Perú</description>
                <styleUrl>#1120</styleUrl>
                <Point id="1118">
                    <coordinates>-81.169989,-5.131849,0.0</coordinates>
                </Point>
            </Placemark>
            <Placemark id="1124">
                <name>SOLUCIONES ALIMENTICIAS 102 S.R.L.</name>
                <description>SOLUCIONES ALIMENTICIAS 102 S.R.L.
Av complementaria paita
Paita
200101Paita
Piura
Perú</description>
                <styleUrl>#1125</styleUrl>
                <Point id="1123">
                    <coordinates>-81.1100249,-5.1084531,0.0</coordinates>
                </Point>
            </Placemark>
            <Placemark id="1129">
                <name>YLSY MARÍA  ESCURRA TEPE</name>
                <description>Base naval paita
Paita
Paita
Piura
Perú</description>
                <styleUrl>#1130</styleUrl>
                <Point id="1128">
                    <coordinates>-81.122742,-5.0826012,0.0</coordinates>
                </Point>
            </Placemark>
            <Placemark id="1134">
                <name>FERNANDO FABIANO IPANAQUE SALAZAR</name>
                <description>referencia a espaldas de l capilla
Paita

Piura
Perú</description>
                <styleUrl>#1135</styleUrl>
                <Point id="1133">
                    <coordinates>-81.1704522,-5.1366522,0.0</coordinates>
                </Point>
            </Placemark>
            <Placemark id="1139">
                <name>YLSY MARÍA  ESCURRA TEPE</name>
                <description>Base naval paita
Paita
Paita
Piura
Perú</description>
                <styleUrl>#1140</styleUrl>
                <Point id="1138">
                    <coordinates>-81.122742,-5.0826012,0.0</coordinates>
                </Point>
            </Placemark>
            <Placemark id="1144">
                <name>ROSA ELENA CHAPILLIQUEN TEMOCHE</name>
                <description>Calle Piura s/n centro poblado la Tortuga Paita coffe market
Paita

Piura
Perú</description>
                <styleUrl>#1145</styleUrl>
                <Point id="1143">
                    <coordinates>-81.120474,-5.279877,0.0</coordinates>
                </Point>
            </Placemark>
            <Placemark id="1149">
                <name>RUTH ZARELY LLENQUE ECHE</name>
                <description>Av Piura s/n tortuga
Paita

Piura
Perú</description>
                <styleUrl>#1150</styleUrl>
                <Point id="1148">
                    <coordinates>-81.119761,-5.279513,0.0</coordinates>
                </Point>
            </Placemark>
            <Placemark id="1154">
                <name>DOLORES PRADO QUEREVALU</name>
                <description>Av Piura tortuga
Paita
Paita
Piura
Perú</description>
                <styleUrl>#1155</styleUrl>
                <Point id="1153">
                    <coordinates>-81.1201024,-5.2792053,0.0</coordinates>
                </Point>
            </Placemark>
            <Placemark id="1159">
                <name>MELISA EVELIN PUESCAS MONCADA</name>
                <description>Calle  nuevo porvenir s/n referencia 2 calles atrás del colegio Jesús es mi pastor
Paita
Paita
Piura
Perú</description>
                <styleUrl>#1160</styleUrl>
                <Point id="1158">
                    <coordinates>-81.1226833,-5.2799637,0.0</coordinates>
                </Point>
            </Placemark>
            <Placemark id="1164">
                <name>MARIANELLA MEDINA FARFAN DE ARCELLES</name>
                <description>Asociacion nuevo amanecer mz b lote 5
Paita
Paita
Piura
Perú</description>
                <styleUrl>#1165</styleUrl>
                <Point id="1163">
                    <coordinates>-81.1312384,-5.1154509,0.0</coordinates>
                </Point>
            </Placemark>
            <Placemark id="1169">
                <name>MIRIAM YANETH  PRADO VITE</name>
                <description>CALLE BALTA S/N LA TORTUGA-PAITA-PAITA
Paita
Paita
Piura
Perú</description>
                <styleUrl>#1170</styleUrl>
                <Point id="1168">
                    <coordinates>-81.1231199,-5.2815831,0.0</coordinates>
                </Point>
            </Placemark>
            <Placemark id="1174">
                <name>SANTAMARIA SANDOVAL RAUL</name>
                <description>SANTAMARIA SANDOVAL RAUL
La tortuga S/N
Paita
Paita
Piura
Perú</description>
                <styleUrl>#1175</styleUrl>
                <Point id="1173">
                    <coordinates>-81.123189,-5.2791355,0.0</coordinates>
                </Point>
            </Placemark>
            <Placemark id="1179">
                <name>MARIA DEL SOCORRO QUEREVALU QUEREVALU</name>
                <description>Calle Ayabaca la tortuga
Paita
Paita
Piura
Perú</description>
                <styleUrl>#1180</styleUrl>
                <Point id="1178">
                    <coordinates>-81.1222111,-5.2784384,0.0</coordinates>
                </Point>
            </Placemark>
            <Placemark id="1184">
                <name>JESUS MARIA PINGO PURIZACA</name>
                <description>Calle san Pedro S/n tortuga
Paita

Piura
Perú</description>
                <styleUrl>#1185</styleUrl>
                <Point id="1183">
                    <coordinates>-81.118258,-5.277576,0.0</coordinates>
                </Point>
            </Placemark>
            <Placemark id="1189">
                <name>NORMA CHAPILLIQUEN QUEREVALU</name>
                <description>Calle vice sin número la tortuga
Paita
Paita
Piura
Perú</description>
                <styleUrl>#1190</styleUrl>
                <Point id="1188">
                    <coordinates>-81.1181717,-5.2785205,0.0</coordinates>
                </Point>
            </Placemark>
            <Placemark id="1194">
                <name>MILAGROS DEL PILAR ECHE PUESCAS</name>
                <description>Calle chalaco referencia al frente d antena Movistar la tortuga
Paita
Paita
Piura
Perú</description>
                <styleUrl>#1195</styleUrl>
                <Point id="1193">
                    <coordinates>-81.1101877,-5.1084957,0.0</coordinates>
                </Point>
            </Placemark>
            <Placemark id="1199">
                <name>ESTEFANY DEL CARMEN ANDRADE CARLOS</name>
                <description>A.h 2 de mayo Mz A lote 32
Paita
Paita
Piura
Perú</description>
                <styleUrl>#1200</styleUrl>
                <Point id="1198">
                    <coordinates>-81.110222,-5.1084838,0.0</coordinates>
                </Point>
            </Placemark>
            <Placemark id="1204">
                <name>JULIA QUEREVALU QUEREVALU</name>
                <description>Calle paita referencia x la entrada de la san Pedro tortuga 🐢
Paita
Paita
Piura
Perú</description>
                <styleUrl>#1205</styleUrl>
                <Point id="1203">
                    <coordinates>-81.1159661,-5.2756659,0.0</coordinates>
                </Point>
            </Placemark>
            <Placemark id="1209">
                <name>MIRTHA MILAGROS QUEREVALU SANTOS</name>
                <description>Calle Piura   referencia al costado de decormuebles tortuga 🐢
Paita
Paita
Piura
Perú</description>
                <styleUrl>#1210</styleUrl>
                <Point id="1208">
                    <coordinates>-81.1160652,-5.2764767,0.0</coordinates>
                </Point>
            </Placemark>
            <Placemark id="1214">
                <name>OLGA BIGIL SALAZAR</name>
                <description>Yacila referencia por el agente bcp
Paita

Piura
Perú</description>
                <styleUrl>#1215</styleUrl>
                <Point id="1213">
                    <coordinates>-81.1100889,-5.1083735,0.0</coordinates>
                </Point>
            </Placemark>
            <Placemark id="1219">
                <name>MELANEA QUEREVALU QUEREVALU</name>
                <description>CA MIRAMAR MZ B LT 26 YACILA PAITA
Paita
Paita
Piura
Perú</description>
                <styleUrl>#1220</styleUrl>
                <Point id="1218">
                    <coordinates>-81.1713688,-5.1319018,0.0</coordinates>
                </Point>
            </Placemark>
            <Placemark id="1224">
                <name>JUANA MARLENE LLENQUE VILELA</name>
                <description>Calle santa Isabel mz c Lt 2 YACILA
Paita
Paita
Piura
Perú</description>
                <styleUrl>#1225</styleUrl>
                <Point id="1223">
                    <coordinates>-81.1709369,-5.1338495,0.0</coordinates>
                </Point>
            </Placemark>
            <Placemark id="1229">
                <name>MARIA SANTOS QUEREVALU QUEREVALU</name>
                <description>Calle santa Isabel yacila
Paita
Paita
Piura
Perú</description>
                <styleUrl>#1230</styleUrl>
                <Point id="1228">
                    <coordinates>-81.1706593,-5.1359352,0.0</coordinates>
                </Point>
            </Placemark>
            <Placemark id="1234">
                <name>KAREN MIRELLA QUEREVALU ZETA</name>
                <description>San Benito s/n por la iglesia
Paita
Paita
Piura
Perú</description>
                <styleUrl>#1235</styleUrl>
                <Point id="1233">
                    <coordinates>-81.1710683,-5.1322208,0.0</coordinates>
                </Point>
            </Placemark>
            <Placemark id="1239">
                <name>VILLEGAS PUESCAS ELENA MARLEN</name>
                <description>CA.CALETA YACILA MZ.B LT-10
Paita
Paita
Piura
Perú</description>
                <styleUrl>#1240</styleUrl>
                <Point id="1238">
                    <coordinates>-81.1709554,-5.1319578,0.0</coordinates>
                </Point>
            </Placemark>
            <Placemark id="1244">
                <name>QUEREVALU PUESCAS CLARA</name>
                <description>MZ E LOTE 20 YACILA
Paita
Paita
Piura
Perú</description>
                <styleUrl>#1245</styleUrl>
                <Point id="1243">
                    <coordinates>-81.1703353,-5.1325935,0.0</coordinates>
                </Point>
            </Placemark>
            <Placemark id="1249">
                <name>QUEREVALU QUEREVALU JOSEFA</name>
                <description>CALETA YACILA MZ Z LT 9 PAITA
Paita
Paita
Piura
Perú</description>
                <styleUrl>#1250</styleUrl>
                <Point id="1248">
                    <coordinates>-81.1700443,-5.1326802,0.0</coordinates>
                </Point>
            </Placemark>
            <Placemark id="1254">
                <name>MARIA ADELA PASAPERA ANCAJIMA</name>
                <description>AH.FRANCISCO BOLOGNESI MZ F LT 3 YA
Paita
Paita
Piura
Perú</description>
                <styleUrl>#1255</styleUrl>
                <Point id="1253">
                    <coordinates>-81.1706698,-5.1340833,0.0</coordinates>
                </Point>
            </Placemark>
            <Placemark id="1259">
                <name>DE PURIZACA LIDIA YPANAQUE SILVA</name>
                <description>FRANCISCO BOLOGNESI LOTE C 23 YACILA
Paita
Paita
Piura
Perú</description>
                <styleUrl>#1260</styleUrl>
                <Point id="1258">
                    <coordinates>-81.1706079,-5.1344569,0.0</coordinates>
                </Point>
            </Placemark>
        </Folder>
        <Folder id="1263">
            <Style id="1266">
                <IconStyle id="1267">
                    <color>ffff0000</color>
                    <colorMode>normal</colorMode>
                    <scale>1</scale>
                    <heading>0</heading>
                    <Icon id="1268">
                        <href>http://maps.google.com/mapfiles/kml/pushpin/ylw-pushpin.png</href>
                    </Icon>
                </IconStyle>
            </Style>
            <Style id="1271">
                <IconStyle id="1272">
                    <color>ffff0000</color>
                    <colorMode>normal</colorMode>
                    <scale>1</scale>
                    <heading>0</heading>
                    <Icon id="1273">
                        <href>http://maps.google.com/mapfiles/kml/pushpin/ylw-pushpin.png</href>
                    </Icon>
                </IconStyle>
            </Style>
            <Style id="1276">
                <IconStyle id="1277">
                    <color>ffff0000</color>
                    <colorMode>normal</colorMode>
                    <scale>1</scale>
                    <heading>0</heading>
                    <Icon id="1278">
                        <href>http://maps.google.com/mapfiles/kml/pushpin/ylw-pushpin.png</href>
                    </Icon>
                </IconStyle>
            </Style>
            <Style id="1281">
                <IconStyle id="1282">
                    <color>ffff0000</color>
                    <colorMode>normal</colorMode>
                    <scale>1</scale>
                    <heading>0</heading>
                    <Icon id="1283">
                        <href>http://maps.google.com/mapfiles/kml/pushpin/ylw-pushpin.png</href>
                    </Icon>
                </IconStyle>
            </Style>
            <Style id="1286">
                <IconStyle id="1287">
                    <color>ffff0000</color>
                    <colorMode>normal</colorMode>
                    <scale>1</scale>
                    <heading>0</heading>
                    <Icon id="1288">
                        <href>http://maps.google.com/mapfiles/kml/pushpin/ylw-pushpin.png</href>
                    </Icon>
                </IconStyle>
            </Style>
            <Style id="1291">
                <IconStyle id="1292">
                    <color>ffff0000</color>
                    <colorMode>normal</colorMode>
                    <scale>1</scale>
                    <heading>0</heading>
                    <Icon id="1293">
                        <href>http://maps.google.com/mapfiles/kml/pushpin/ylw-pushpin.png</href>
                    </Icon>
                </IconStyle>
            </Style>
            <Style id="1296">
                <IconStyle id="1297">
                    <color>ffff0000</color>
                    <colorMode>normal</colorMode>
                    <scale>1</scale>
                    <heading>0</heading>
                    <Icon id="1298">
                        <href>http://maps.google.com/mapfiles/kml/pushpin/ylw-pushpin.png</href>
                    </Icon>
                </IconStyle>
            </Style>
            <Style id="1301">
                <IconStyle id="1302">
                    <color>ffff0000</color>
                    <colorMode>normal</colorMode>
                    <scale>1</scale>
                    <heading>0</heading>
                    <Icon id="1303">
                        <href>http://maps.google.com/mapfiles/kml/pushpin/ylw-pushpin.png</href>
                    </Icon>
                </IconStyle>
            </Style>
            <name>LEONARDO VIERA CHAVEZ</name>
            <Placemark id="1265">
                <name>DALINDA JARAMILLO VALLE</name>
                <description>Interior mercado santa rosa paita alta
Paita
Paita
Piura
Perú</description>
                <styleUrl>#1266</styleUrl>
                <Point id="1264">
                    <coordinates>-81.0991439,-5.0921427,0.0</coordinates>
                </Point>
            </Placemark>
            <Placemark id="1270">
                <name>FERNANDEZ MIRANDA JOSEFA</name>
                <description>MZ.E1 LT.08 AH CIUDAD ROJA
Paita
Paita
Piura
Perú</description>
                <styleUrl>#1271</styleUrl>
                <Point id="1269">
                    <coordinates>-81.0989557,-5.0928504,0.0</coordinates>
                </Point>
            </Placemark>
            <Placemark id="1275">
                <name>NEGOCIOS Y TRANSPORTES OROZCO E.I.R.L.</name>
                <description>MZA. F1 LOTE. 11A A.H.  05 DE FEBRERO
Paita
200502Paita
Piura
Perú</description>
                <styleUrl>#1276</styleUrl>
                <Point id="1274">
                    <coordinates>-81.0992757,-5.0922973,0.0</coordinates>
                </Point>
            </Placemark>
            <Placemark id="1280">
                <name>TODO MAX E.I.R.L.</name>
                <description>TODO MAX E.I.R.L.
PSTO NRO 4 MCDO STA ROSA - PAITA
Paita
Paita
Piura
Perú</description>
                <styleUrl>#1281</styleUrl>
                <Point id="1279">
                    <coordinates>-81.0993198,-5.0927039,0.0</coordinates>
                </Point>
            </Placemark>
            <Placemark id="1285">
                <name>JOSE PASCUAL MARTINEZ MORALES</name>
                <description>Paita alta mercadillo santa rosa
Paita
Paita
Piura
Perú</description>
                <styleUrl>#1286</styleUrl>
                <Point id="1284">
                    <coordinates>-81.1124877,-5.0909155,0.0</coordinates>
                </Point>
            </Placemark>
            <Placemark id="1290">
                <name>MARIA NELLY CIEZA CORONADO</name>
                <description>Mercado modelo paita baja puesto 1 sector 5
Paita
Paita
Piura
Perú</description>
                <styleUrl>#1291</styleUrl>
                <Point id="1289">
                    <coordinates>-81.1128793,-5.0906258,0.0</coordinates>
                </Point>
            </Placemark>
            <Placemark id="1295">
                <name>YULI LILIANA CRUZ HIJUELA</name>
                <description>Mercado modelo paita baja .
Paita
Paita
Piura
Perú</description>
                <styleUrl>#1296</styleUrl>
                <Point id="1294">
                    <coordinates>-81.1130847,-5.0899168,0.0</coordinates>
                </Point>
            </Placemark>
            <Placemark id="1300">
                <name>FERNANDEZ MIRANDA JOSEFA</name>
                <description>MZ.E1 LT.08 AH CIUDAD ROJA
Paita
Paita
Piura
Perú</description>
                <styleUrl>#1301</styleUrl>
                <Point id="1299">
                    <coordinates>-81.0989557,-5.0928504,0.0</coordinates>
                </Point>
            </Placemark>
        </Folder>
    </Document>
</kml>
