<?xml version="1.0" encoding="UTF-8"?>
<kml xmlns="http://www.opengis.net/kml/2.2" xmlns:gx="http://www.google.com/kml/ext/2.2">
    <Document id="849">
        <Folder id="850">
            <Style id="853">
                <IconStyle id="854">
                    <color>ff0000ff</color>
                    <colorMode>normal</colorMode>
                    <scale>1</scale>
                    <heading>0</heading>
                    <Icon id="855">
                        <href>http://maps.google.com/mapfiles/kml/pushpin/ylw-pushpin.png</href>
                    </Icon>
                </IconStyle>
            </Style>
            <Style id="858">
                <IconStyle id="859">
                    <color>ff0000ff</color>
                    <colorMode>normal</colorMode>
                    <scale>1</scale>
                    <heading>0</heading>
                    <Icon id="860">
                        <href>http://maps.google.com/mapfiles/kml/pushpin/ylw-pushpin.png</href>
                    </Icon>
                </IconStyle>
            </Style>
            <Style id="863">
                <IconStyle id="864">
                    <color>ff0000ff</color>
                    <colorMode>normal</colorMode>
                    <scale>1</scale>
                    <heading>0</heading>
                    <Icon id="865">
                        <href>http://maps.google.com/mapfiles/kml/pushpin/ylw-pushpin.png</href>
                    </Icon>
                </IconStyle>
            </Style>
            <Style id="868">
                <IconStyle id="869">
                    <color>ff0000ff</color>
                    <colorMode>normal</colorMode>
                    <scale>1</scale>
                    <heading>0</heading>
                    <Icon id="870">
                        <href>http://maps.google.com/mapfiles/kml/pushpin/ylw-pushpin.png</href>
                    </Icon>
                </IconStyle>
            </Style>
            <Style id="873">
                <IconStyle id="874">
                    <color>ff0000ff</color>
                    <colorMode>normal</colorMode>
                    <scale>1</scale>
                    <heading>0</heading>
                    <Icon id="875">
                        <href>http://maps.google.com/mapfiles/kml/pushpin/ylw-pushpin.png</href>
                    </Icon>
                </IconStyle>
            </Style>
            <Style id="878">
                <IconStyle id="879">
                    <color>ff0000ff</color>
                    <colorMode>normal</colorMode>
                    <scale>1</scale>
                    <heading>0</heading>
                    <Icon id="880">
                        <href>http://maps.google.com/mapfiles/kml/pushpin/ylw-pushpin.png</href>
                    </Icon>
                </IconStyle>
            </Style>
            <Style id="883">
                <IconStyle id="884">
                    <color>ff0000ff</color>
                    <colorMode>normal</colorMode>
                    <scale>1</scale>
                    <heading>0</heading>
                    <Icon id="885">
                        <href>http://maps.google.com/mapfiles/kml/pushpin/ylw-pushpin.png</href>
                    </Icon>
                </IconStyle>
            </Style>
            <Style id="888">
                <IconStyle id="889">
                    <color>ff0000ff</color>
                    <colorMode>normal</colorMode>
                    <scale>1</scale>
                    <heading>0</heading>
                    <Icon id="890">
                        <href>http://maps.google.com/mapfiles/kml/pushpin/ylw-pushpin.png</href>
                    </Icon>
                </IconStyle>
            </Style>
            <Style id="893">
                <IconStyle id="894">
                    <color>ff0000ff</color>
                    <colorMode>normal</colorMode>
                    <scale>1</scale>
                    <heading>0</heading>
                    <Icon id="895">
                        <href>http://maps.google.com/mapfiles/kml/pushpin/ylw-pushpin.png</href>
                    </Icon>
                </IconStyle>
            </Style>
            <Style id="898">
                <IconStyle id="899">
                    <color>ff0000ff</color>
                    <colorMode>normal</colorMode>
                    <scale>1</scale>
                    <heading>0</heading>
                    <Icon id="900">
                        <href>http://maps.google.com/mapfiles/kml/pushpin/ylw-pushpin.png</href>
                    </Icon>
                </IconStyle>
            </Style>
            <Style id="903">
                <IconStyle id="904">
                    <color>ff0000ff</color>
                    <colorMode>normal</colorMode>
                    <scale>1</scale>
                    <heading>0</heading>
                    <Icon id="905">
                        <href>http://maps.google.com/mapfiles/kml/pushpin/ylw-pushpin.png</href>
                    </Icon>
                </IconStyle>
            </Style>
            <Style id="908">
                <IconStyle id="909">
                    <color>ff0000ff</color>
                    <colorMode>normal</colorMode>
                    <scale>1</scale>
                    <heading>0</heading>
                    <Icon id="910">
                        <href>http://maps.google.com/mapfiles/kml/pushpin/ylw-pushpin.png</href>
                    </Icon>
                </IconStyle>
            </Style>
            <Style id="913">
                <IconStyle id="914">
                    <color>ff0000ff</color>
                    <colorMode>normal</colorMode>
                    <scale>1</scale>
                    <heading>0</heading>
                    <Icon id="915">
                        <href>http://maps.google.com/mapfiles/kml/pushpin/ylw-pushpin.png</href>
                    </Icon>
                </IconStyle>
            </Style>
            <Style id="918">
                <IconStyle id="919">
                    <color>ff0000ff</color>
                    <colorMode>normal</colorMode>
                    <scale>1</scale>
                    <heading>0</heading>
                    <Icon id="920">
                        <href>http://maps.google.com/mapfiles/kml/pushpin/ylw-pushpin.png</href>
                    </Icon>
                </IconStyle>
            </Style>
            <Style id="923">
                <IconStyle id="924">
                    <color>ff0000ff</color>
                    <colorMode>normal</colorMode>
                    <scale>1</scale>
                    <heading>0</heading>
                    <Icon id="925">
                        <href>http://maps.google.com/mapfiles/kml/pushpin/ylw-pushpin.png</href>
                    </Icon>
                </IconStyle>
            </Style>
            <Style id="928">
                <IconStyle id="929">
                    <color>ff0000ff</color>
                    <colorMode>normal</colorMode>
                    <scale>1</scale>
                    <heading>0</heading>
                    <Icon id="930">
                        <href>http://maps.google.com/mapfiles/kml/pushpin/ylw-pushpin.png</href>
                    </Icon>
                </IconStyle>
            </Style>
            <Style id="933">
                <IconStyle id="934">
                    <color>ff0000ff</color>
                    <colorMode>normal</colorMode>
                    <scale>1</scale>
                    <heading>0</heading>
                    <Icon id="935">
                        <href>http://maps.google.com/mapfiles/kml/pushpin/ylw-pushpin.png</href>
                    </Icon>
                </IconStyle>
            </Style>
            <Style id="938">
                <IconStyle id="939">
                    <color>ff0000ff</color>
                    <colorMode>normal</colorMode>
                    <scale>1</scale>
                    <heading>0</heading>
                    <Icon id="940">
                        <href>http://maps.google.com/mapfiles/kml/pushpin/ylw-pushpin.png</href>
                    </Icon>
                </IconStyle>
            </Style>
            <Style id="943">
                <IconStyle id="944">
                    <color>ff0000ff</color>
                    <colorMode>normal</colorMode>
                    <scale>1</scale>
                    <heading>0</heading>
                    <Icon id="945">
                        <href>http://maps.google.com/mapfiles/kml/pushpin/ylw-pushpin.png</href>
                    </Icon>
                </IconStyle>
            </Style>
            <Style id="948">
                <IconStyle id="949">
                    <color>ff0000ff</color>
                    <colorMode>normal</colorMode>
                    <scale>1</scale>
                    <heading>0</heading>
                    <Icon id="950">
                        <href>http://maps.google.com/mapfiles/kml/pushpin/ylw-pushpin.png</href>
                    </Icon>
                </IconStyle>
            </Style>
            <Style id="953">
                <IconStyle id="954">
                    <color>ff0000ff</color>
                    <colorMode>normal</colorMode>
                    <scale>1</scale>
                    <heading>0</heading>
                    <Icon id="955">
                        <href>http://maps.google.com/mapfiles/kml/pushpin/ylw-pushpin.png</href>
                    </Icon>
                </IconStyle>
            </Style>
            <Style id="958">
                <IconStyle id="959">
                    <color>ff0000ff</color>
                    <colorMode>normal</colorMode>
                    <scale>1</scale>
                    <heading>0</heading>
                    <Icon id="960">
                        <href>http://maps.google.com/mapfiles/kml/pushpin/ylw-pushpin.png</href>
                    </Icon>
                </IconStyle>
            </Style>
            <Style id="963">
                <IconStyle id="964">
                    <color>ff0000ff</color>
                    <colorMode>normal</colorMode>
                    <scale>1</scale>
                    <heading>0</heading>
                    <Icon id="965">
                        <href>http://maps.google.com/mapfiles/kml/pushpin/ylw-pushpin.png</href>
                    </Icon>
                </IconStyle>
            </Style>
            <Style id="968">
                <IconStyle id="969">
                    <color>ff0000ff</color>
                    <colorMode>normal</colorMode>
                    <scale>1</scale>
                    <heading>0</heading>
                    <Icon id="970">
                        <href>http://maps.google.com/mapfiles/kml/pushpin/ylw-pushpin.png</href>
                    </Icon>
                </IconStyle>
            </Style>
            <Style id="973">
                <IconStyle id="974">
                    <color>ff0000ff</color>
                    <colorMode>normal</colorMode>
                    <scale>1</scale>
                    <heading>0</heading>
                    <Icon id="975">
                        <href>http://maps.google.com/mapfiles/kml/pushpin/ylw-pushpin.png</href>
                    </Icon>
                </IconStyle>
            </Style>
            <Style id="978">
                <IconStyle id="979">
                    <color>ff0000ff</color>
                    <colorMode>normal</colorMode>
                    <scale>1</scale>
                    <heading>0</heading>
                    <Icon id="980">
                        <href>http://maps.google.com/mapfiles/kml/pushpin/ylw-pushpin.png</href>
                    </Icon>
                </IconStyle>
            </Style>
            <Style id="983">
                <IconStyle id="984">
                    <color>ff0000ff</color>
                    <colorMode>normal</colorMode>
                    <scale>1</scale>
                    <heading>0</heading>
                    <Icon id="985">
                        <href>http://maps.google.com/mapfiles/kml/pushpin/ylw-pushpin.png</href>
                    </Icon>
                </IconStyle>
            </Style>
            <Style id="988">
                <IconStyle id="989">
                    <color>ff0000ff</color>
                    <colorMode>normal</colorMode>
                    <scale>1</scale>
                    <heading>0</heading>
                    <Icon id="990">
                        <href>http://maps.google.com/mapfiles/kml/pushpin/ylw-pushpin.png</href>
                    </Icon>
                </IconStyle>
            </Style>
            <Style id="993">
                <IconStyle id="994">
                    <color>ff0000ff</color>
                    <colorMode>normal</colorMode>
                    <scale>1</scale>
                    <heading>0</heading>
                    <Icon id="995">
                        <href>http://maps.google.com/mapfiles/kml/pushpin/ylw-pushpin.png</href>
                    </Icon>
                </IconStyle>
            </Style>
            <Style id="998">
                <IconStyle id="999">
                    <color>ff0000ff</color>
                    <colorMode>normal</colorMode>
                    <scale>1</scale>
                    <heading>0</heading>
                    <Icon id="1000">
                        <href>http://maps.google.com/mapfiles/kml/pushpin/ylw-pushpin.png</href>
                    </Icon>
                </IconStyle>
            </Style>
            <Style id="1003">
                <IconStyle id="1004">
                    <color>ff0000ff</color>
                    <colorMode>normal</colorMode>
                    <scale>1</scale>
                    <heading>0</heading>
                    <Icon id="1005">
                        <href>http://maps.google.com/mapfiles/kml/pushpin/ylw-pushpin.png</href>
                    </Icon>
                </IconStyle>
            </Style>
            <Style id="1008">
                <IconStyle id="1009">
                    <color>ff0000ff</color>
                    <colorMode>normal</colorMode>
                    <scale>1</scale>
                    <heading>0</heading>
                    <Icon id="1010">
                        <href>http://maps.google.com/mapfiles/kml/pushpin/ylw-pushpin.png</href>
                    </Icon>
                </IconStyle>
            </Style>
            <Style id="1013">
                <IconStyle id="1014">
                    <color>ff0000ff</color>
                    <colorMode>normal</colorMode>
                    <scale>1</scale>
                    <heading>0</heading>
                    <Icon id="1015">
                        <href>http://maps.google.com/mapfiles/kml/pushpin/ylw-pushpin.png</href>
                    </Icon>
                </IconStyle>
            </Style>
            <Style id="1018">
                <IconStyle id="1019">
                    <color>ff0000ff</color>
                    <colorMode>normal</colorMode>
                    <scale>1</scale>
                    <heading>0</heading>
                    <Icon id="1020">
                        <href>http://maps.google.com/mapfiles/kml/pushpin/ylw-pushpin.png</href>
                    </Icon>
                </IconStyle>
            </Style>
            <Style id="1023">
                <IconStyle id="1024">
                    <color>ff0000ff</color>
                    <colorMode>normal</colorMode>
                    <scale>1</scale>
                    <heading>0</heading>
                    <Icon id="1025">
                        <href>http://maps.google.com/mapfiles/kml/pushpin/ylw-pushpin.png</href>
                    </Icon>
                </IconStyle>
            </Style>
            <Style id="1028">
                <IconStyle id="1029">
                    <color>ff0000ff</color>
                    <colorMode>normal</colorMode>
                    <scale>1</scale>
                    <heading>0</heading>
                    <Icon id="1030">
                        <href>http://maps.google.com/mapfiles/kml/pushpin/ylw-pushpin.png</href>
                    </Icon>
                </IconStyle>
            </Style>
            <Style id="1033">
                <IconStyle id="1034">
                    <color>ff0000ff</color>
                    <colorMode>normal</colorMode>
                    <scale>1</scale>
                    <heading>0</heading>
                    <Icon id="1035">
                        <href>http://maps.google.com/mapfiles/kml/pushpin/ylw-pushpin.png</href>
                    </Icon>
                </IconStyle>
            </Style>
            <Style id="1038">
                <IconStyle id="1039">
                    <color>ff0000ff</color>
                    <colorMode>normal</colorMode>
                    <scale>1</scale>
                    <heading>0</heading>
                    <Icon id="1040">
                        <href>http://maps.google.com/mapfiles/kml/pushpin/ylw-pushpin.png</href>
                    </Icon>
                </IconStyle>
            </Style>
            <Style id="1043">
                <IconStyle id="1044">
                    <color>ff0000ff</color>
                    <colorMode>normal</colorMode>
                    <scale>1</scale>
                    <heading>0</heading>
                    <Icon id="1045">
                        <href>http://maps.google.com/mapfiles/kml/pushpin/ylw-pushpin.png</href>
                    </Icon>
                </IconStyle>
            </Style>
            <Style id="1048">
                <IconStyle id="1049">
                    <color>ff0000ff</color>
                    <colorMode>normal</colorMode>
                    <scale>1</scale>
                    <heading>0</heading>
                    <Icon id="1050">
                        <href>http://maps.google.com/mapfiles/kml/pushpin/ylw-pushpin.png</href>
                    </Icon>
                </IconStyle>
            </Style>
            <Style id="1053">
                <IconStyle id="1054">
                    <color>ff0000ff</color>
                    <colorMode>normal</colorMode>
                    <scale>1</scale>
                    <heading>0</heading>
                    <Icon id="1055">
                        <href>http://maps.google.com/mapfiles/kml/pushpin/ylw-pushpin.png</href>
                    </Icon>
                </IconStyle>
            </Style>
            <Style id="1058">
                <IconStyle id="1059">
                    <color>ff0000ff</color>
                    <colorMode>normal</colorMode>
                    <scale>1</scale>
                    <heading>0</heading>
                    <Icon id="1060">
                        <href>http://maps.google.com/mapfiles/kml/pushpin/ylw-pushpin.png</href>
                    </Icon>
                </IconStyle>
            </Style>
            <Style id="1063">
                <IconStyle id="1064">
                    <color>ff0000ff</color>
                    <colorMode>normal</colorMode>
                    <scale>1</scale>
                    <heading>0</heading>
                    <Icon id="1065">
                        <href>http://maps.google.com/mapfiles/kml/pushpin/ylw-pushpin.png</href>
                    </Icon>
                </IconStyle>
            </Style>
            <Style id="1068">
                <IconStyle id="1069">
                    <color>ff0000ff</color>
                    <colorMode>normal</colorMode>
                    <scale>1</scale>
                    <heading>0</heading>
                    <Icon id="1070">
                        <href>http://maps.google.com/mapfiles/kml/pushpin/ylw-pushpin.png</href>
                    </Icon>
                </IconStyle>
            </Style>
            <Style id="1073">
                <IconStyle id="1074">
                    <color>ff0000ff</color>
                    <colorMode>normal</colorMode>
                    <scale>1</scale>
                    <heading>0</heading>
                    <Icon id="1075">
                        <href>http://maps.google.com/mapfiles/kml/pushpin/ylw-pushpin.png</href>
                    </Icon>
                </IconStyle>
            </Style>
            <Style id="1078">
                <IconStyle id="1079">
                    <color>ff0000ff</color>
                    <colorMode>normal</colorMode>
                    <scale>1</scale>
                    <heading>0</heading>
                    <Icon id="1080">
                        <href>http://maps.google.com/mapfiles/kml/pushpin/ylw-pushpin.png</href>
                    </Icon>
                </IconStyle>
            </Style>
            <Style id="1083">
                <IconStyle id="1084">
                    <color>ff0000ff</color>
                    <colorMode>normal</colorMode>
                    <scale>1</scale>
                    <heading>0</heading>
                    <Icon id="1085">
                        <href>http://maps.google.com/mapfiles/kml/pushpin/ylw-pushpin.png</href>
                    </Icon>
                </IconStyle>
            </Style>
            <Style id="1088">
                <IconStyle id="1089">
                    <color>ff0000ff</color>
                    <colorMode>normal</colorMode>
                    <scale>1</scale>
                    <heading>0</heading>
                    <Icon id="1090">
                        <href>http://maps.google.com/mapfiles/kml/pushpin/ylw-pushpin.png</href>
                    </Icon>
                </IconStyle>
            </Style>
            <Style id="1093">
                <IconStyle id="1094">
                    <color>ff0000ff</color>
                    <colorMode>normal</colorMode>
                    <scale>1</scale>
                    <heading>0</heading>
                    <Icon id="1095">
                        <href>http://maps.google.com/mapfiles/kml/pushpin/ylw-pushpin.png</href>
                    </Icon>
                </IconStyle>
            </Style>
            <Style id="1098">
                <IconStyle id="1099">
                    <color>ff0000ff</color>
                    <colorMode>normal</colorMode>
                    <scale>1</scale>
                    <heading>0</heading>
                    <Icon id="1100">
                        <href>http://maps.google.com/mapfiles/kml/pushpin/ylw-pushpin.png</href>
                    </Icon>
                </IconStyle>
            </Style>
            <Style id="1103">
                <IconStyle id="1104">
                    <color>ff0000ff</color>
                    <colorMode>normal</colorMode>
                    <scale>1</scale>
                    <heading>0</heading>
                    <Icon id="1105">
                        <href>http://maps.google.com/mapfiles/kml/pushpin/ylw-pushpin.png</href>
                    </Icon>
                </IconStyle>
            </Style>
            <Style id="1108">
                <IconStyle id="1109">
                    <color>ff0000ff</color>
                    <colorMode>normal</colorMode>
                    <scale>1</scale>
                    <heading>0</heading>
                    <Icon id="1110">
                        <href>http://maps.google.com/mapfiles/kml/pushpin/ylw-pushpin.png</href>
                    </Icon>
                </IconStyle>
            </Style>
            <Style id="1113">
                <IconStyle id="1114">
                    <color>ff0000ff</color>
                    <colorMode>normal</colorMode>
                    <scale>1</scale>
                    <heading>0</heading>
                    <Icon id="1115">
                        <href>http://maps.google.com/mapfiles/kml/pushpin/ylw-pushpin.png</href>
                    </Icon>
                </IconStyle>
            </Style>
            <Style id="1118">
                <IconStyle id="1119">
                    <color>ff0000ff</color>
                    <colorMode>normal</colorMode>
                    <scale>1</scale>
                    <heading>0</heading>
                    <Icon id="1120">
                        <href>http://maps.google.com/mapfiles/kml/pushpin/ylw-pushpin.png</href>
                    </Icon>
                </IconStyle>
            </Style>
            <Style id="1123">
                <IconStyle id="1124">
                    <color>ff0000ff</color>
                    <colorMode>normal</colorMode>
                    <scale>1</scale>
                    <heading>0</heading>
                    <Icon id="1125">
                        <href>http://maps.google.com/mapfiles/kml/pushpin/ylw-pushpin.png</href>
                    </Icon>
                </IconStyle>
            </Style>
            <Style id="1128">
                <IconStyle id="1129">
                    <color>ff0000ff</color>
                    <colorMode>normal</colorMode>
                    <scale>1</scale>
                    <heading>0</heading>
                    <Icon id="1130">
                        <href>http://maps.google.com/mapfiles/kml/pushpin/ylw-pushpin.png</href>
                    </Icon>
                </IconStyle>
            </Style>
            <Style id="1133">
                <IconStyle id="1134">
                    <color>ff0000ff</color>
                    <colorMode>normal</colorMode>
                    <scale>1</scale>
                    <heading>0</heading>
                    <Icon id="1135">
                        <href>http://maps.google.com/mapfiles/kml/pushpin/ylw-pushpin.png</href>
                    </Icon>
                </IconStyle>
            </Style>
            <Style id="1138">
                <IconStyle id="1139">
                    <color>ff0000ff</color>
                    <colorMode>normal</colorMode>
                    <scale>1</scale>
                    <heading>0</heading>
                    <Icon id="1140">
                        <href>http://maps.google.com/mapfiles/kml/pushpin/ylw-pushpin.png</href>
                    </Icon>
                </IconStyle>
            </Style>
            <Style id="1143">
                <IconStyle id="1144">
                    <color>ff0000ff</color>
                    <colorMode>normal</colorMode>
                    <scale>1</scale>
                    <heading>0</heading>
                    <Icon id="1145">
                        <href>http://maps.google.com/mapfiles/kml/pushpin/ylw-pushpin.png</href>
                    </Icon>
                </IconStyle>
            </Style>
            <Style id="1148">
                <IconStyle id="1149">
                    <color>ff0000ff</color>
                    <colorMode>normal</colorMode>
                    <scale>1</scale>
                    <heading>0</heading>
                    <Icon id="1150">
                        <href>http://maps.google.com/mapfiles/kml/pushpin/ylw-pushpin.png</href>
                    </Icon>
                </IconStyle>
            </Style>
            <name>DOMITILA QUISPE MIRANDA</name>
            <Placemark id="852">
                <name>MARIO CORDOVA SAAVEDRA</name>
                <description>Mercado marco jara al frente del grifo avaa
Paita
Paita
Piura
Perú</description>
                <styleUrl>#853</styleUrl>
                <Point id="851">
                    <coordinates>-81.1013498,-5.09936,0.0</coordinates>
                </Point>
            </Placemark>
            <Placemark id="857">
                <name>MARIO CORDOVA SAAVEDRA</name>
                <description>Mercado marco jara al frente del grifo avaa
Paita
Paita
Piura
Perú</description>
                <styleUrl>#858</styleUrl>
                <Point id="856">
                    <coordinates>-81.1013498,-5.09936,0.0</coordinates>
                </Point>
            </Placemark>
            <Placemark id="862">
                <name>ALI ARTURO AYALA CHUNA</name>
                <description>Marco jara mercadillo
Paita
Paita
Piura
Perú</description>
                <styleUrl>#863</styleUrl>
                <Point id="861">
                    <coordinates>-81.1014446,-5.0996844,0.0</coordinates>
                </Point>
            </Placemark>
            <Placemark id="867">
                <name>ROCIO DE LOS ANGELES CHAPILLIQUEN ABAD</name>
                <description>María consuelo mz t lote 27
Paita
Paita
Piura
Perú</description>
                <styleUrl>#868</styleUrl>
                <Point id="866">
                    <coordinates>-81.0988734,-5.1063835,0.0</coordinates>
                </Point>
            </Placemark>
            <Placemark id="872">
                <name>PEGUI VELA USHIÑAHUA</name>
                <description>MERCADILLO MARCO JARA S/N
Paita
Paita
Piura
Perú</description>
                <styleUrl>#873</styleUrl>
                <Point id="871">
                    <coordinates>-81.1009642,-5.1000167,0.0</coordinates>
                </Point>
            </Placemark>
            <Placemark id="877">
                <name>ROSA MARIA RAMOS HERNA</name>
                <description>Mercadillo marco jara
Paita
Paita
Piura
Perú</description>
                <styleUrl>#878</styleUrl>
                <Point id="876">
                    <coordinates>-81.1009218,-5.1005206,0.0</coordinates>
                </Point>
            </Placemark>
            <Placemark id="882">
                <name>ROCIO DE LOS ANGELES CHAPILLIQUEN ABAD</name>
                <description>María consuelo mz t lote 27
Paita
Paita
Piura
Perú</description>
                <styleUrl>#883</styleUrl>
                <Point id="881">
                    <coordinates>-81.0988734,-5.1063835,0.0</coordinates>
                </Point>
            </Placemark>
            <Placemark id="887">
                <name>SIRLY MEDINA MENDOZA DE ARISMENDIS</name>
                <description>CA JUAN VALER MZ O LT 17 - PAITA
Paita
Paita
Piura
Perú</description>
                <styleUrl>#888</styleUrl>
                <Point id="886">
                    <coordinates>-81.1071842,-5.1025481,0.0</coordinates>
                </Point>
            </Placemark>
            <Placemark id="892">
                <name>MARIA LUCINDA SUNCION FARFAN</name>
                <description>MARCO JARA U LT 20 PAITA-PIURA
Paita
Paita
Piura
Perú</description>
                <styleUrl>#893</styleUrl>
                <Point id="891">
                    <coordinates>-81.1065349,-5.1017952,0.0</coordinates>
                </Point>
            </Placemark>
            <Placemark id="897">
                <name>MARIA VICTORIA CHAVEZ RIVAS DE SULLON</name>
                <description>Marco jara 2 etapa mz c2 Lot,8
Paita
Paita
Piura
Perú</description>
                <styleUrl>#898</styleUrl>
                <Point id="896">
                    <coordinates>-81.1060789,-5.1004849,0.0</coordinates>
                </Point>
            </Placemark>
            <Placemark id="902">
                <name>MARIA NANCY TORRES SANSEN</name>
                <description>MARCO JARA MZVC1-1 PAITA-PIURA
Paita
Paita
Piura
Perú</description>
                <styleUrl>#903</styleUrl>
                <Point id="901">
                    <coordinates>-81.1055372,-5.1008383,0.0</coordinates>
                </Point>
            </Placemark>
            <Placemark id="907">
                <name>ANGELA YAMUNAQUE LOPEZ</name>
                <description>MZ U PRIMA LT 2 AHMARCO JARA - PAITA
Paita
Paita
Piura
Perú</description>
                <styleUrl>#908</styleUrl>
                <Point id="906">
                    <coordinates>-81.1060045,-5.101167,0.0</coordinates>
                </Point>
            </Placemark>
            <Placemark id="912">
                <name>BRENIS SUCLUPE JOSE P.</name>
                <description>MZ.B 02 AH.MARCO JARA SHE.2
Paita
Paita
Piura
Perú</description>
                <styleUrl>#913</styleUrl>
                <Point id="911">
                    <coordinates>-81.1055468,-5.1036365,0.0</coordinates>
                </Point>
            </Placemark>
            <Placemark id="917">
                <name>HAYDEE LEYTON SALAZAR</name>
                <description>MZ C PRIMA LT 23 AH MARCO JARA IIETAPA -PAITA
Paita
Paita
Piura
Perú</description>
                <styleUrl>#918</styleUrl>
                <Point id="916">
                    <coordinates>-81.106575,-5.103439,0.0</coordinates>
                </Point>
            </Placemark>
            <Placemark id="922">
                <name>ROSA BEATRIZ DE LA CRUZ CAJUSOL</name>
                <description>Ah María consuelo mz o lote 17
Paita
Paita
Piura
Perú</description>
                <styleUrl>#923</styleUrl>
                <Point id="921">
                    <coordinates>-81.0999672,-5.1065316,0.0</coordinates>
                </Point>
            </Placemark>
            <Placemark id="927">
                <name>REYNA ISABEL MAZA JUAREZ</name>
                <description>Marco jara 2 etapa mz T prima lote 36
Paita
Paita
Piura
Perú</description>
                <styleUrl>#928</styleUrl>
                <Point id="926">
                    <coordinates>-81.1044717,-5.1047028,0.0</coordinates>
                </Point>
            </Placemark>
            <Placemark id="932">
                <name>NOELY CHERO SOCOLA</name>
                <description>Ah María parado mz g lote 35
Paita
Paita
Piura
Perú</description>
                <styleUrl>#933</styleUrl>
                <Point id="931">
                    <coordinates>-81.1020874,-5.1066864,0.0</coordinates>
                </Point>
            </Placemark>
            <Placemark id="937">
                <name>RONDOY ALAMA ROSELINA</name>
                <description>P-11 AH M.PARADO BELLIDO PAITA
Paita
Paita
Piura
Perú</description>
                <styleUrl>#938</styleUrl>
                <Point id="936">
                    <coordinates>-81.1016967,-5.1072933,0.0</coordinates>
                </Point>
            </Placemark>
            <Placemark id="942">
                <name>ENMA ARAUJO ALCARAZO</name>
                <description>MARIA PRADO DE BELLIDO J1 LT 20 PAITA-PIURA
Paita

Piura
Perú</description>
                <styleUrl>#943</styleUrl>
                <Point id="941">
                    <coordinates>-81.1023437,-5.1092325,0.0</coordinates>
                </Point>
            </Placemark>
            <Placemark id="947">
                <name>CARMELA ROJAS CERCADO</name>
                <description>María parado mz E1 lote 9 paita
Tamarindo
Paita
Piura
Perú</description>
                <styleUrl>#948</styleUrl>
                <Point id="946">
                    <coordinates>-81.101167,-5.108639,0.0</coordinates>
                </Point>
            </Placemark>
            <Placemark id="952">
                <name>MARIA GLORIA CHANTA CAMPOVERDE</name>
                <description>Ah María parado de Bellido mz r lote 11
Paita
Paita
Piura
Perú</description>
                <styleUrl>#953</styleUrl>
                <Point id="951">
                    <coordinates>-81.1009007,-5.107038,0.0</coordinates>
                </Point>
            </Placemark>
            <Placemark id="957">
                <name>SEGUNDINA CORDOVA LOPEZ</name>
                <description>Ah María parado mz E lote 8
Paita
Paita
Piura
Perú</description>
                <styleUrl>#958</styleUrl>
                <Point id="956">
                    <coordinates>-81.1014246,-5.1071402,0.0</coordinates>
                </Point>
            </Placemark>
            <Placemark id="962">
                <name>DAVID ANTONIO GARCIA CORDOVA</name>
                <description>María consuelo de Velasco mz Q lote 27
Paita
Paita
Piura
Perú</description>
                <styleUrl>#963</styleUrl>
                <Point id="961">
                    <coordinates>-81.1008774,-5.1061353,0.0</coordinates>
                </Point>
            </Placemark>
            <Placemark id="967">
                <name>EDELIA GARCIA HERNANDEZ</name>
                <description>EDELIA GARCIA HERNANDEZ
AAHH MARIA PARADO DE BELLIDO MZ G LT 15
Paita
Paita
Piura
Perú</description>
                <styleUrl>#968</styleUrl>
                <Point id="966">
                    <coordinates>-81.1007365,-5.1057878,0.0</coordinates>
                </Point>
            </Placemark>
            <Placemark id="972">
                <name>ALEXIS ALDAIR VILCHERRES ANCAJIMA</name>
                <description>ah María parado de Bellido Mz A lote 4
Paita
Paita
Piura
Perú</description>
                <styleUrl>#973</styleUrl>
                <Point id="971">
                    <coordinates>-81.1020763,-5.1056695,0.0</coordinates>
                </Point>
            </Placemark>
            <Placemark id="977">
                <name>NONAJULCA CUNYA ABEL</name>
                <description>R.CASTILLO MZ.F1 LT.2 PORVENIR
Paita
Paita
Piura
Perú</description>
                <styleUrl>#978</styleUrl>
                <Point id="976">
                    <coordinates>-81.0995794,-5.1037137,0.0</coordinates>
                </Point>
            </Placemark>
            <Placemark id="982">
                <name>DERLYN CRUZ CORDOVA</name>
                <description>MZ P LT 15 AH.MARIA CONSUELO DE VEL
Paita
Paita
Piura
Perú</description>
                <styleUrl>#983</styleUrl>
                <Point id="981">
                    <coordinates>-81.098486,-5.1054544,0.0</coordinates>
                </Point>
            </Placemark>
            <Placemark id="987">
                <name>YULY MARISOL ACARO CORDOVA</name>
                <description>MZ P LT 22 AAHH.MARIA CONSUELO DE V
Paita
Paita
Piura
Perú</description>
                <styleUrl>#988</styleUrl>
                <Point id="986">
                    <coordinates>-81.0987987,-5.1058769,0.0</coordinates>
                </Point>
            </Placemark>
            <Placemark id="992">
                <name>LIA RAMIREZ CORDOVA</name>
                <description>MZ W LT 15 AH.MARIA CONSUELO DE VEL
Paita
Paita
Piura
Perú</description>
                <styleUrl>#993</styleUrl>
                <Point id="991">
                    <coordinates>-81.0983768,-5.1063888,0.0</coordinates>
                </Point>
            </Placemark>
            <Placemark id="997">
                <name>RUTH ELIZABETH ARISMENDIZ IPANAQUE</name>
                <description>AHH CONSUELO DE VELAZCO MZ Y LT 34- PAITA
Paita
Paita
Piura
Perú</description>
                <styleUrl>#998</styleUrl>
                <Point id="996">
                    <coordinates>-81.0980885,-5.1073851,0.0</coordinates>
                </Point>
            </Placemark>
            <Placemark id="1002">
                <name>MARITZA ALEXANDRA VALLADARES GOMEZ</name>
                <description>JESUS EL BUEN PASTOR MZ K LOTE 15-PAITA-PAITA
Paita
Paita
Piura
Perú</description>
                <styleUrl>#1003</styleUrl>
                <Point id="1001">
                    <coordinates>-81.0938133,-5.1077233,0.0</coordinates>
                </Point>
            </Placemark>
            <Placemark id="1007">
                <name>FELIPA CHUMACERO ERAZO</name>
                <description>MZ. P - LT. 09 AH. JESUS EL BUEN PASTOR PAITA
Paita
Paita
Piura
Perú</description>
                <styleUrl>#1008</styleUrl>
                <Point id="1006">
                    <coordinates>-81.0940103,-5.1080947,0.0</coordinates>
                </Point>
            </Placemark>
            <Placemark id="1012">
                <name>JOSE ALBERTO SALVADOR ROBLEDO</name>
                <description>MZ E lote 6 rey de reyes
Paita
Paita
Piura
Perú</description>
                <styleUrl>#1013</styleUrl>
                <Point id="1011">
                    <coordinates>-81.0953183,-5.1065308,0.0</coordinates>
                </Point>
            </Placemark>
            <Placemark id="1017">
                <name>MARIA ESTHER HUAMAN CALVA</name>
                <description>Anexo comunal el buen pastor  mz  E lote 2
Paita
Paita
Piura
Perú</description>
                <styleUrl>#1018</styleUrl>
                <Point id="1016">
                    <coordinates>-81.0944836,-5.106215,0.0</coordinates>
                </Point>
            </Placemark>
            <Placemark id="1022">
                <name>LUZ GLORIA CORDOVA ABARCA</name>
                <description>MZ D LT 6 AH.CONSUELO DE VELASCO -
Paita
Paita
Piura
Perú</description>
                <styleUrl>#1023</styleUrl>
                <Point id="1021">
                    <coordinates>-81.0959492,-5.1037471,0.0</coordinates>
                </Point>
            </Placemark>
            <Placemark id="1027">
                <name>AGUILAR RIVERA YOLANDA</name>
                <description>B1-10 AH RAMON CASTILLA PAITA
Paita
Paita
Piura
Perú</description>
                <styleUrl>#1028</styleUrl>
                <Point id="1026">
                    <coordinates>-81.0956141,-5.1024363,0.0</coordinates>
                </Point>
            </Placemark>
            <Placemark id="1032">
                <name>WILFREDO GARCIA ELERA</name>
                <description>mz y lote 16 marcó jara 1 etapa
Paita
Paita
Piura
Perú</description>
                <styleUrl>#1033</styleUrl>
                <Point id="1031">
                    <coordinates>-81.0966052,-5.1018997,0.0</coordinates>
                </Point>
            </Placemark>
            <Placemark id="1037">
                <name>SEGUNDO MANUEL CAMPOS MANCHAY</name>
                <description>SEGUNDO MANUEL CAMPOS MANCHAY
AAHH MARCO JARA SHENONE V 13
Paita
Paita
Piura
Perú</description>
                <styleUrl>#1038</styleUrl>
                <Point id="1036">
                    <coordinates>-81.0971422,-5.1011388,0.0</coordinates>
                </Point>
            </Placemark>
            <Placemark id="1042">
                <name>JESUS JANETH GARCIA LLACSAHUACHE</name>
                <description>MZA LL LT-37 I ETP MARCO JARA PAITA
Paita
Paita
Piura
Perú</description>
                <styleUrl>#1043</styleUrl>
                <Point id="1041">
                    <coordinates>-81.0977441,-5.0996917,0.0</coordinates>
                </Point>
            </Placemark>
            <Placemark id="1047">
                <name>MARIA CHUCAS CORNEJO</name>
                <description>AV JOSE OLAYA MZT LT18 I ETAPA AHMARCO JARA
Paita
Paita
Piura
Perú</description>
                <styleUrl>#1048</styleUrl>
                <Point id="1046">
                    <coordinates>-81.0977092,-5.0998707,0.0</coordinates>
                </Point>
            </Placemark>
            <Placemark id="1052">
                <name>PEGUI VELA USHIÑAHUA</name>
                <description>MERCADILLO MARCO JARA S/N
Paita
Paita
Piura
Perú</description>
                <styleUrl>#1053</styleUrl>
                <Point id="1051">
                    <coordinates>-81.1009642,-5.1000167,0.0</coordinates>
                </Point>
            </Placemark>
            <Placemark id="1057">
                <name>MARIA CHÁVEZ RONDOY</name>
                <description>Marco jara mercado referencia en toda la entrada x el grifo ava
Paita
Paita
Piura
Perú</description>
                <styleUrl>#1058</styleUrl>
                <Point id="1056">
                    <coordinates>-81.1013066,-5.099284,0.0</coordinates>
                </Point>
            </Placemark>
            <Placemark id="1062">
                <name>CRISTIAN YHONATAN MURILLO HUANCAS</name>
                <description>MCDILLO MARCO JARA FRENTE RESTAURANTE DALILA
Paita
Paita
Piura
Perú</description>
                <styleUrl>#1063</styleUrl>
                <Point id="1061">
                    <coordinates>-81.101077,-5.099376,0.0</coordinates>
                </Point>
            </Placemark>
            <Placemark id="1067">
                <name>MARIO CORDOVA SAAVEDRA</name>
                <description>Mercado marco jara al frente del grifo avaa
Paita
Paita
Piura
Perú</description>
                <styleUrl>#1068</styleUrl>
                <Point id="1066">
                    <coordinates>-81.1013498,-5.09936,0.0</coordinates>
                </Point>
            </Placemark>
            <Placemark id="1072">
                <name>MARIA DEL ROSARIO SANDOVAL FLORES</name>
                <description>Mercado marco jara paita alta
Paita
Paita
Piura
Perú</description>
                <styleUrl>#1073</styleUrl>
                <Point id="1071">
                    <coordinates>-81.1012077,-5.0998893,0.0</coordinates>
                </Point>
            </Placemark>
            <Placemark id="1077">
                <name>ROSA MARIA RAMOS HERNA</name>
                <description>Mercadillo marco jara
Paita
Paita
Piura
Perú</description>
                <styleUrl>#1078</styleUrl>
                <Point id="1076">
                    <coordinates>-81.1009218,-5.1005206,0.0</coordinates>
                </Point>
            </Placemark>
            <Placemark id="1082">
                <name>JULCAHUANCA DE ALVARADO SANTOS</name>
                <description>Marco jara 2 etapa mz C 1
Paita
Paita
Piura
Perú</description>
                <styleUrl>#1083</styleUrl>
                <Point id="1081">
                    <coordinates>-81.1021188,-5.1009092,0.0</coordinates>
                </Point>
            </Placemark>
            <Placemark id="1087">
                <name>PINTADO LIVIA MARIA LUISA</name>
                <description>A.H.M.JARA I I ETAPA CH 4
Paita
Paita
Piura
Perú</description>
                <styleUrl>#1088</styleUrl>
                <Point id="1086">
                    <coordinates>-81.115418,-5.099649,0.0</coordinates>
                </Point>
            </Placemark>
            <Placemark id="1092">
                <name>BLANCA NELLY PALACIOS ROGEL</name>
                <description>Marco jara 2 etapa f 37
Paita
Paita
Piura
Perú</description>
                <styleUrl>#1093</styleUrl>
                <Point id="1091">
                    <coordinates>-81.1038828,-5.1017273,0.0</coordinates>
                </Point>
            </Placemark>
            <Placemark id="1097">
                <name>ANTONIA CALVA CALVA</name>
                <description>MARCO JARA II ETAPA MZ F LT 35 PAITA-PIURA
Paita
Paita
Piura
Perú</description>
                <styleUrl>#1098</styleUrl>
                <Point id="1096">
                    <coordinates>-81.1037406,-5.1016992,0.0</coordinates>
                </Point>
            </Placemark>
            <Placemark id="1102">
                <name>MAURA CASTILLO PERALTA DE BERRU</name>
                <description>MZ.F LTE.28 II ETAPA MARCO JARA - P
Paita
Paita
Piura
Perú</description>
                <styleUrl>#1103</styleUrl>
                <Point id="1101">
                    <coordinates>-81.1031179,-5.1017124,0.0</coordinates>
                </Point>
            </Placemark>
            <Placemark id="1107">
                <name>ELIZABETH DEL SOCORRO TALLEDO LOPEZ</name>
                <description>MARCO JARA MZ G' LT 35 PAITA-PIURA
Paita
Paita
Piura
Perú</description>
                <styleUrl>#1108</styleUrl>
                <Point id="1106">
                    <coordinates>-81.1035333,-5.1021433,0.0</coordinates>
                </Point>
            </Placemark>
            <Placemark id="1112">
                <name>EXILDA CORREA YANGUA</name>
                <description>AH MARCO JARA 2 ETP MZ P PRIMA LT5 - PAITA
Paita
Paita
Piura
Perú</description>
                <styleUrl>#1113</styleUrl>
                <Point id="1111">
                    <coordinates>-81.1027563,-5.1022569,0.0</coordinates>
                </Point>
            </Placemark>
            <Placemark id="1117">
                <name>NORMA CALLE NAVARRO</name>
                <description>MZ.P LTE.16 II ETAPA MARCO JARA - P
Paita
Paita
Piura
Perú</description>
                <styleUrl>#1118</styleUrl>
                <Point id="1116">
                    <coordinates>-81.1036351,-5.1035312,0.0</coordinates>
                </Point>
            </Placemark>
            <Placemark id="1122">
                <name>TROYA OCAMPOS MARGARITA</name>
                <description>A.H.RAMON CASTILLA MZ.L1 LT.15
Paita
Paita
Piura
Perú</description>
                <styleUrl>#1123</styleUrl>
                <Point id="1121">
                    <coordinates>-81.1028242,-5.1050662,0.0</coordinates>
                </Point>
            </Placemark>
            <Placemark id="1127">
                <name>ESMERALDA AGUILAR CHAMBILLA</name>
                <description>Ah María parado de Bellido Mz E lote 5
Paita
Paita
Piura
Perú</description>
                <styleUrl>#1128</styleUrl>
                <Point id="1126">
                    <coordinates>-81.1031417,-5.1061533,0.0</coordinates>
                </Point>
            </Placemark>
            <Placemark id="1132">
                <name>ELIA CORDOVA PEÑA</name>
                <description>AAHH MARIA PARADO DE BELLIDO MZ E LT 2 - PAITA
Paita
Paita
Piura
Perú</description>
                <styleUrl>#1133</styleUrl>
                <Point id="1131">
                    <coordinates>-81.1034706,-5.1061493,0.0</coordinates>
                </Point>
            </Placemark>
            <Placemark id="1137">
                <name>OLINDA VELASQUEZ CARHUAPOMA</name>
                <description>AS MARÃA PARADO DE BELLIDO MZ H LT
Paita
Paita
Piura
Perú</description>
                <styleUrl>#1138</styleUrl>
                <Point id="1136">
                    <coordinates>-81.103625,-5.1070017,0.0</coordinates>
                </Point>
            </Placemark>
            <Placemark id="1142">
                <name>LIZCET LARAYNE CARMEN VASQUEZ</name>
                <description>AAHH RAMON CASTILLA FE Y ALEGRIA MZ A LT 19
Paita
Paita
Piura
Perú</description>
                <styleUrl>#1143</styleUrl>
                <Point id="1141">
                    <coordinates>-81.105525,-5.1069115,0.0</coordinates>
                </Point>
            </Placemark>
            <Placemark id="1147">
                <name>MARIELA MARTINEZ VALENCIA</name>
                <description>Maria Parado de Bellido MZ D lote 34
Paita
Paita
Piura
Perú</description>
                <styleUrl>#1148</styleUrl>
                <Point id="1146">
                    <coordinates>-81.1051354,-5.107219,0.0</coordinates>
                </Point>
            </Placemark>
        </Folder>
        <Folder id="1151">
            <Style id="1154">
                <IconStyle id="1155">
                    <color>ffff0000</color>
                    <colorMode>normal</colorMode>
                    <scale>1</scale>
                    <heading>0</heading>
                    <Icon id="1156">
                        <href>http://maps.google.com/mapfiles/kml/pushpin/ylw-pushpin.png</href>
                    </Icon>
                </IconStyle>
            </Style>
            <Style id="1159">
                <IconStyle id="1160">
                    <color>ffff0000</color>
                    <colorMode>normal</colorMode>
                    <scale>1</scale>
                    <heading>0</heading>
                    <Icon id="1161">
                        <href>http://maps.google.com/mapfiles/kml/pushpin/ylw-pushpin.png</href>
                    </Icon>
                </IconStyle>
            </Style>
            <Style id="1164">
                <IconStyle id="1165">
                    <color>ffff0000</color>
                    <colorMode>normal</colorMode>
                    <scale>1</scale>
                    <heading>0</heading>
                    <Icon id="1166">
                        <href>http://maps.google.com/mapfiles/kml/pushpin/ylw-pushpin.png</href>
                    </Icon>
                </IconStyle>
            </Style>
            <Style id="1169">
                <IconStyle id="1170">
                    <color>ffff0000</color>
                    <colorMode>normal</colorMode>
                    <scale>1</scale>
                    <heading>0</heading>
                    <Icon id="1171">
                        <href>http://maps.google.com/mapfiles/kml/pushpin/ylw-pushpin.png</href>
                    </Icon>
                </IconStyle>
            </Style>
            <Style id="1174">
                <IconStyle id="1175">
                    <color>ffff0000</color>
                    <colorMode>normal</colorMode>
                    <scale>1</scale>
                    <heading>0</heading>
                    <Icon id="1176">
                        <href>http://maps.google.com/mapfiles/kml/pushpin/ylw-pushpin.png</href>
                    </Icon>
                </IconStyle>
            </Style>
            <Style id="1179">
                <IconStyle id="1180">
                    <color>ffff0000</color>
                    <colorMode>normal</colorMode>
                    <scale>1</scale>
                    <heading>0</heading>
                    <Icon id="1181">
                        <href>http://maps.google.com/mapfiles/kml/pushpin/ylw-pushpin.png</href>
                    </Icon>
                </IconStyle>
            </Style>
            <Style id="1184">
                <IconStyle id="1185">
                    <color>ffff0000</color>
                    <colorMode>normal</colorMode>
                    <scale>1</scale>
                    <heading>0</heading>
                    <Icon id="1186">
                        <href>http://maps.google.com/mapfiles/kml/pushpin/ylw-pushpin.png</href>
                    </Icon>
                </IconStyle>
            </Style>
            <Style id="1189">
                <IconStyle id="1190">
                    <color>ffff0000</color>
                    <colorMode>normal</colorMode>
                    <scale>1</scale>
                    <heading>0</heading>
                    <Icon id="1191">
                        <href>http://maps.google.com/mapfiles/kml/pushpin/ylw-pushpin.png</href>
                    </Icon>
                </IconStyle>
            </Style>
            <Style id="1194">
                <IconStyle id="1195">
                    <color>ffff0000</color>
                    <colorMode>normal</colorMode>
                    <scale>1</scale>
                    <heading>0</heading>
                    <Icon id="1196">
                        <href>http://maps.google.com/mapfiles/kml/pushpin/ylw-pushpin.png</href>
                    </Icon>
                </IconStyle>
            </Style>
            <Style id="1199">
                <IconStyle id="1200">
                    <color>ffff0000</color>
                    <colorMode>normal</colorMode>
                    <scale>1</scale>
                    <heading>0</heading>
                    <Icon id="1201">
                        <href>http://maps.google.com/mapfiles/kml/pushpin/ylw-pushpin.png</href>
                    </Icon>
                </IconStyle>
            </Style>
            <Style id="1204">
                <IconStyle id="1205">
                    <color>ffff0000</color>
                    <colorMode>normal</colorMode>
                    <scale>1</scale>
                    <heading>0</heading>
                    <Icon id="1206">
                        <href>http://maps.google.com/mapfiles/kml/pushpin/ylw-pushpin.png</href>
                    </Icon>
                </IconStyle>
            </Style>
            <Style id="1209">
                <IconStyle id="1210">
                    <color>ffff0000</color>
                    <colorMode>normal</colorMode>
                    <scale>1</scale>
                    <heading>0</heading>
                    <Icon id="1211">
                        <href>http://maps.google.com/mapfiles/kml/pushpin/ylw-pushpin.png</href>
                    </Icon>
                </IconStyle>
            </Style>
            <Style id="1214">
                <IconStyle id="1215">
                    <color>ffff0000</color>
                    <colorMode>normal</colorMode>
                    <scale>1</scale>
                    <heading>0</heading>
                    <Icon id="1216">
                        <href>http://maps.google.com/mapfiles/kml/pushpin/ylw-pushpin.png</href>
                    </Icon>
                </IconStyle>
            </Style>
            <Style id="1219">
                <IconStyle id="1220">
                    <color>ffff0000</color>
                    <colorMode>normal</colorMode>
                    <scale>1</scale>
                    <heading>0</heading>
                    <Icon id="1221">
                        <href>http://maps.google.com/mapfiles/kml/pushpin/ylw-pushpin.png</href>
                    </Icon>
                </IconStyle>
            </Style>
            <Style id="1224">
                <IconStyle id="1225">
                    <color>ffff0000</color>
                    <colorMode>normal</colorMode>
                    <scale>1</scale>
                    <heading>0</heading>
                    <Icon id="1226">
                        <href>http://maps.google.com/mapfiles/kml/pushpin/ylw-pushpin.png</href>
                    </Icon>
                </IconStyle>
            </Style>
            <Style id="1229">
                <IconStyle id="1230">
                    <color>ffff0000</color>
                    <colorMode>normal</colorMode>
                    <scale>1</scale>
                    <heading>0</heading>
                    <Icon id="1231">
                        <href>http://maps.google.com/mapfiles/kml/pushpin/ylw-pushpin.png</href>
                    </Icon>
                </IconStyle>
            </Style>
            <Style id="1234">
                <IconStyle id="1235">
                    <color>ffff0000</color>
                    <colorMode>normal</colorMode>
                    <scale>1</scale>
                    <heading>0</heading>
                    <Icon id="1236">
                        <href>http://maps.google.com/mapfiles/kml/pushpin/ylw-pushpin.png</href>
                    </Icon>
                </IconStyle>
            </Style>
            <Style id="1239">
                <IconStyle id="1240">
                    <color>ffff0000</color>
                    <colorMode>normal</colorMode>
                    <scale>1</scale>
                    <heading>0</heading>
                    <Icon id="1241">
                        <href>http://maps.google.com/mapfiles/kml/pushpin/ylw-pushpin.png</href>
                    </Icon>
                </IconStyle>
            </Style>
            <name>LEONARDO VIERA CHAVEZ</name>
            <Placemark id="1153">
                <name>YULI LILIANA CRUZ HIJUELA</name>
                <description>Mercado modelo paita baja .
Paita
Paita
Piura
Perú</description>
                <styleUrl>#1154</styleUrl>
                <Point id="1152">
                    <coordinates>-81.1130847,-5.0899168,0.0</coordinates>
                </Point>
            </Placemark>
            <Placemark id="1158">
                <name>ERNA SILVA EUSEBIA</name>
                <description>AV.BOLOGNESI 477 AH 13 JULIO
Paita
Paita
Piura
Perú</description>
                <styleUrl>#1159</styleUrl>
                <Point id="1157">
                    <coordinates>-81.1106854,-5.0918939,0.0</coordinates>
                </Point>
            </Placemark>
            <Placemark id="1163">
                <name>GABRIELA SANTIAGO AYALA</name>
                <description>JR SAN SEBASTIÃ#N 303 303
Paita
Paita
Piura
Perú</description>
                <styleUrl>#1164</styleUrl>
                <Point id="1162">
                    <coordinates>-81.1107056,-5.0928701,0.0</coordinates>
                </Point>
            </Placemark>
            <Placemark id="1168">
                <name>GABRIELA SANTIAGO AYALA</name>
                <description>JR SAN SEBASTIÃ#N 303 303
Paita
Paita
Piura
Perú</description>
                <styleUrl>#1169</styleUrl>
                <Point id="1167">
                    <coordinates>-81.1107056,-5.0928701,0.0</coordinates>
                </Point>
            </Placemark>
            <Placemark id="1173">
                <name>CARMEN LUCIA REYES GODOS</name>
                <description>SAN ISIDRO 224 SAN MARTIN CENTRAL-PAITA-PAITA
Paita
Paita
Piura
Perú</description>
                <styleUrl>#1174</styleUrl>
                <Point id="1172">
                    <coordinates>-81.1148505,-5.0930664,0.0</coordinates>
                </Point>
            </Placemark>
            <Placemark id="1178">
                <name>SÁNCHEZ CRUZ GIANELLA.</name>
                <description>JR.3 DE OCTUBRE 513
Paita

Piura
Perú</description>
                <styleUrl>#1179</styleUrl>
                <Point id="1177">
                    <coordinates>-81.1155817,-5.088117,0.0</coordinates>
                </Point>
            </Placemark>
            <Placemark id="1183">
                <name>GARCIA MAURICIO NOELIA JESUS</name>
                <description>JR NUEVA ESPERANZA AH LA MERCE
Paita

Piura
Perú</description>
                <styleUrl>#1184</styleUrl>
                <Point id="1182">
                    <coordinates>-81.1163729,-5.0884988,0.0</coordinates>
                </Point>
            </Placemark>
            <Placemark id="1188">
                <name>RUFINA MARCELO SERNAQUE</name>
                <description>
Paita
Paita
Piura
Perú</description>
                <styleUrl>#1189</styleUrl>
                <Point id="1187">
                    <coordinates>-81.1135392,-5.0882685,0.0</coordinates>
                </Point>
            </Placemark>
            <Placemark id="1193">
                <name>GAMBOA GARCIA SANDRA MELISSA</name>
                <description>GAMBOA GARCIA SANDRA MELISSA
JR. BOLIVAR  469 PAITA
Paita
Paita
Piura
Perú</description>
                <styleUrl>#1194</styleUrl>
                <Point id="1192">
                    <coordinates>-81.1164687,-5.0842426,0.0</coordinates>
                </Point>
            </Placemark>
            <Placemark id="1198">
                <name>GAMBOA GARCIA SANDRA MELISSA</name>
                <description>GAMBOA GARCIA SANDRA MELISSA
JR. BOLIVAR  469 PAITA
Paita
Paita
Piura
Perú</description>
                <styleUrl>#1199</styleUrl>
                <Point id="1197">
                    <coordinates>-81.1164687,-5.0842426,0.0</coordinates>
                </Point>
            </Placemark>
            <Placemark id="1203">
                <name>MORALES DE PAZO CECILIA</name>
                <description>PUERTO NUEVO MZ F-01 PAITA
Paita
Paita
Piura
Perú</description>
                <styleUrl>#1204</styleUrl>
                <Point id="1202">
                    <coordinates>-81.117919,-5.08137,0.0</coordinates>
                </Point>
            </Placemark>
            <Placemark id="1208">
                <name>PAIVA RUIZ JULIO CESAR</name>
                <description>PAIVA RUIZ JULIO CESAR
MZ D LT2 BR. UERTO NVO PAITA
Paita
Paita
Piura
Perú</description>
                <styleUrl>#1209</styleUrl>
                <Point id="1207">
                    <coordinates>-81.1175166,-5.0818109,0.0</coordinates>
                </Point>
            </Placemark>
            <Placemark id="1213">
                <name>AYALA AYALA TEMPORA</name>
                <description>PUERTO NUEVO B 6 PAITA
Paita
Paita
Piura
Perú</description>
                <styleUrl>#1214</styleUrl>
                <Point id="1212">
                    <coordinates>-81.117373,-5.0818362,0.0</coordinates>
                </Point>
            </Placemark>
            <Placemark id="1218">
                <name>DOMINGA MARLENI ENRIQUEZ ZAVALETA</name>
                <description>JIRON ZEPITA 449 PAITA BAJA
Paita
Paita
Piura
Perú</description>
                <styleUrl>#1219</styleUrl>
                <Point id="1217">
                    <coordinates>-81.1116912,-5.0866042,0.0</coordinates>
                </Point>
            </Placemark>
            <Placemark id="1223">
                <name>DOMINGA MARLENI ENRIQUEZ ZAVALETA</name>
                <description>JIRON ZEPITA 449 PAITA BAJA
Paita
Paita
Piura
Perú</description>
                <styleUrl>#1224</styleUrl>
                <Point id="1222">
                    <coordinates>-81.1116912,-5.0866042,0.0</coordinates>
                </Point>
            </Placemark>
            <Placemark id="1228">
                <name>RUBY DEL CARMEN CARRILLO VASQUEZ</name>
                <description>JR Miguel grau 333 paita baja
Paita
Paita
Piura
Perú</description>
                <styleUrl>#1229</styleUrl>
                <Point id="1227">
                    <coordinates>-81.1100059,-5.0871344,0.0</coordinates>
                </Point>
            </Placemark>
            <Placemark id="1233">
                <name>WILMER JIMENEZ CRUZ</name>
                <description>AA HH NUEVA ESPERANZA  MZ B LT 1 - PAITA
Paita
Paita
Piura
Perú</description>
                <styleUrl>#1234</styleUrl>
                <Point id="1232">
                    <coordinates>-81.1083252,-5.0892118,0.0</coordinates>
                </Point>
            </Placemark>
            <Placemark id="1238">
                <name>JULISSA LILIANA LOPEZ MENDOZA</name>
                <description>JULISSA LILIANA LOPEZ MENDOZA
AH.NUEVA ESPERANZA MZ H LT 5 - PAIT
Paita
Paita
Piura
Perú</description>
                <styleUrl>#1239</styleUrl>
                <Point id="1237">
                    <coordinates>-81.1074037,-5.0887939,0.0</coordinates>
                </Point>
            </Placemark>
        </Folder>
    </Document>
</kml>
