<?xml version="1.0" encoding="UTF-8"?>
<kml xmlns="http://www.opengis.net/kml/2.2" xmlns:gx="http://www.google.com/kml/ext/2.2">
    <Document id="433">
        <Folder id="434">
            <Style id="437">
                <IconStyle id="438">
                    <color>ff0000ff</color>
                    <colorMode>normal</colorMode>
                    <scale>1</scale>
                    <heading>0</heading>
                    <Icon id="439">
                        <href>http://maps.google.com/mapfiles/kml/pushpin/ylw-pushpin.png</href>
                    </Icon>
                </IconStyle>
            </Style>
            <Style id="442">
                <IconStyle id="443">
                    <color>ff0000ff</color>
                    <colorMode>normal</colorMode>
                    <scale>1</scale>
                    <heading>0</heading>
                    <Icon id="444">
                        <href>http://maps.google.com/mapfiles/kml/pushpin/ylw-pushpin.png</href>
                    </Icon>
                </IconStyle>
            </Style>
            <Style id="447">
                <IconStyle id="448">
                    <color>ff0000ff</color>
                    <colorMode>normal</colorMode>
                    <scale>1</scale>
                    <heading>0</heading>
                    <Icon id="449">
                        <href>http://maps.google.com/mapfiles/kml/pushpin/ylw-pushpin.png</href>
                    </Icon>
                </IconStyle>
            </Style>
            <Style id="452">
                <IconStyle id="453">
                    <color>ff0000ff</color>
                    <colorMode>normal</colorMode>
                    <scale>1</scale>
                    <heading>0</heading>
                    <Icon id="454">
                        <href>http://maps.google.com/mapfiles/kml/pushpin/ylw-pushpin.png</href>
                    </Icon>
                </IconStyle>
            </Style>
            <Style id="457">
                <IconStyle id="458">
                    <color>ff0000ff</color>
                    <colorMode>normal</colorMode>
                    <scale>1</scale>
                    <heading>0</heading>
                    <Icon id="459">
                        <href>http://maps.google.com/mapfiles/kml/pushpin/ylw-pushpin.png</href>
                    </Icon>
                </IconStyle>
            </Style>
            <Style id="462">
                <IconStyle id="463">
                    <color>ff0000ff</color>
                    <colorMode>normal</colorMode>
                    <scale>1</scale>
                    <heading>0</heading>
                    <Icon id="464">
                        <href>http://maps.google.com/mapfiles/kml/pushpin/ylw-pushpin.png</href>
                    </Icon>
                </IconStyle>
            </Style>
            <Style id="467">
                <IconStyle id="468">
                    <color>ff0000ff</color>
                    <colorMode>normal</colorMode>
                    <scale>1</scale>
                    <heading>0</heading>
                    <Icon id="469">
                        <href>http://maps.google.com/mapfiles/kml/pushpin/ylw-pushpin.png</href>
                    </Icon>
                </IconStyle>
            </Style>
            <Style id="472">
                <IconStyle id="473">
                    <color>ff0000ff</color>
                    <colorMode>normal</colorMode>
                    <scale>1</scale>
                    <heading>0</heading>
                    <Icon id="474">
                        <href>http://maps.google.com/mapfiles/kml/pushpin/ylw-pushpin.png</href>
                    </Icon>
                </IconStyle>
            </Style>
            <Style id="477">
                <IconStyle id="478">
                    <color>ff0000ff</color>
                    <colorMode>normal</colorMode>
                    <scale>1</scale>
                    <heading>0</heading>
                    <Icon id="479">
                        <href>http://maps.google.com/mapfiles/kml/pushpin/ylw-pushpin.png</href>
                    </Icon>
                </IconStyle>
            </Style>
            <Style id="482">
                <IconStyle id="483">
                    <color>ff0000ff</color>
                    <colorMode>normal</colorMode>
                    <scale>1</scale>
                    <heading>0</heading>
                    <Icon id="484">
                        <href>http://maps.google.com/mapfiles/kml/pushpin/ylw-pushpin.png</href>
                    </Icon>
                </IconStyle>
            </Style>
            <Style id="487">
                <IconStyle id="488">
                    <color>ff0000ff</color>
                    <colorMode>normal</colorMode>
                    <scale>1</scale>
                    <heading>0</heading>
                    <Icon id="489">
                        <href>http://maps.google.com/mapfiles/kml/pushpin/ylw-pushpin.png</href>
                    </Icon>
                </IconStyle>
            </Style>
            <Style id="492">
                <IconStyle id="493">
                    <color>ff0000ff</color>
                    <colorMode>normal</colorMode>
                    <scale>1</scale>
                    <heading>0</heading>
                    <Icon id="494">
                        <href>http://maps.google.com/mapfiles/kml/pushpin/ylw-pushpin.png</href>
                    </Icon>
                </IconStyle>
            </Style>
            <Style id="497">
                <IconStyle id="498">
                    <color>ff0000ff</color>
                    <colorMode>normal</colorMode>
                    <scale>1</scale>
                    <heading>0</heading>
                    <Icon id="499">
                        <href>http://maps.google.com/mapfiles/kml/pushpin/ylw-pushpin.png</href>
                    </Icon>
                </IconStyle>
            </Style>
            <Style id="502">
                <IconStyle id="503">
                    <color>ff0000ff</color>
                    <colorMode>normal</colorMode>
                    <scale>1</scale>
                    <heading>0</heading>
                    <Icon id="504">
                        <href>http://maps.google.com/mapfiles/kml/pushpin/ylw-pushpin.png</href>
                    </Icon>
                </IconStyle>
            </Style>
            <Style id="507">
                <IconStyle id="508">
                    <color>ff0000ff</color>
                    <colorMode>normal</colorMode>
                    <scale>1</scale>
                    <heading>0</heading>
                    <Icon id="509">
                        <href>http://maps.google.com/mapfiles/kml/pushpin/ylw-pushpin.png</href>
                    </Icon>
                </IconStyle>
            </Style>
            <Style id="512">
                <IconStyle id="513">
                    <color>ff0000ff</color>
                    <colorMode>normal</colorMode>
                    <scale>1</scale>
                    <heading>0</heading>
                    <Icon id="514">
                        <href>http://maps.google.com/mapfiles/kml/pushpin/ylw-pushpin.png</href>
                    </Icon>
                </IconStyle>
            </Style>
            <Style id="517">
                <IconStyle id="518">
                    <color>ff0000ff</color>
                    <colorMode>normal</colorMode>
                    <scale>1</scale>
                    <heading>0</heading>
                    <Icon id="519">
                        <href>http://maps.google.com/mapfiles/kml/pushpin/ylw-pushpin.png</href>
                    </Icon>
                </IconStyle>
            </Style>
            <Style id="522">
                <IconStyle id="523">
                    <color>ff0000ff</color>
                    <colorMode>normal</colorMode>
                    <scale>1</scale>
                    <heading>0</heading>
                    <Icon id="524">
                        <href>http://maps.google.com/mapfiles/kml/pushpin/ylw-pushpin.png</href>
                    </Icon>
                </IconStyle>
            </Style>
            <Style id="527">
                <IconStyle id="528">
                    <color>ff0000ff</color>
                    <colorMode>normal</colorMode>
                    <scale>1</scale>
                    <heading>0</heading>
                    <Icon id="529">
                        <href>http://maps.google.com/mapfiles/kml/pushpin/ylw-pushpin.png</href>
                    </Icon>
                </IconStyle>
            </Style>
            <Style id="532">
                <IconStyle id="533">
                    <color>ff0000ff</color>
                    <colorMode>normal</colorMode>
                    <scale>1</scale>
                    <heading>0</heading>
                    <Icon id="534">
                        <href>http://maps.google.com/mapfiles/kml/pushpin/ylw-pushpin.png</href>
                    </Icon>
                </IconStyle>
            </Style>
            <Style id="537">
                <IconStyle id="538">
                    <color>ff0000ff</color>
                    <colorMode>normal</colorMode>
                    <scale>1</scale>
                    <heading>0</heading>
                    <Icon id="539">
                        <href>http://maps.google.com/mapfiles/kml/pushpin/ylw-pushpin.png</href>
                    </Icon>
                </IconStyle>
            </Style>
            <Style id="542">
                <IconStyle id="543">
                    <color>ff0000ff</color>
                    <colorMode>normal</colorMode>
                    <scale>1</scale>
                    <heading>0</heading>
                    <Icon id="544">
                        <href>http://maps.google.com/mapfiles/kml/pushpin/ylw-pushpin.png</href>
                    </Icon>
                </IconStyle>
            </Style>
            <Style id="547">
                <IconStyle id="548">
                    <color>ff0000ff</color>
                    <colorMode>normal</colorMode>
                    <scale>1</scale>
                    <heading>0</heading>
                    <Icon id="549">
                        <href>http://maps.google.com/mapfiles/kml/pushpin/ylw-pushpin.png</href>
                    </Icon>
                </IconStyle>
            </Style>
            <Style id="552">
                <IconStyle id="553">
                    <color>ff0000ff</color>
                    <colorMode>normal</colorMode>
                    <scale>1</scale>
                    <heading>0</heading>
                    <Icon id="554">
                        <href>http://maps.google.com/mapfiles/kml/pushpin/ylw-pushpin.png</href>
                    </Icon>
                </IconStyle>
            </Style>
            <Style id="557">
                <IconStyle id="558">
                    <color>ff0000ff</color>
                    <colorMode>normal</colorMode>
                    <scale>1</scale>
                    <heading>0</heading>
                    <Icon id="559">
                        <href>http://maps.google.com/mapfiles/kml/pushpin/ylw-pushpin.png</href>
                    </Icon>
                </IconStyle>
            </Style>
            <Style id="562">
                <IconStyle id="563">
                    <color>ff0000ff</color>
                    <colorMode>normal</colorMode>
                    <scale>1</scale>
                    <heading>0</heading>
                    <Icon id="564">
                        <href>http://maps.google.com/mapfiles/kml/pushpin/ylw-pushpin.png</href>
                    </Icon>
                </IconStyle>
            </Style>
            <Style id="567">
                <IconStyle id="568">
                    <color>ff0000ff</color>
                    <colorMode>normal</colorMode>
                    <scale>1</scale>
                    <heading>0</heading>
                    <Icon id="569">
                        <href>http://maps.google.com/mapfiles/kml/pushpin/ylw-pushpin.png</href>
                    </Icon>
                </IconStyle>
            </Style>
            <Style id="572">
                <IconStyle id="573">
                    <color>ff0000ff</color>
                    <colorMode>normal</colorMode>
                    <scale>1</scale>
                    <heading>0</heading>
                    <Icon id="574">
                        <href>http://maps.google.com/mapfiles/kml/pushpin/ylw-pushpin.png</href>
                    </Icon>
                </IconStyle>
            </Style>
            <Style id="577">
                <IconStyle id="578">
                    <color>ff0000ff</color>
                    <colorMode>normal</colorMode>
                    <scale>1</scale>
                    <heading>0</heading>
                    <Icon id="579">
                        <href>http://maps.google.com/mapfiles/kml/pushpin/ylw-pushpin.png</href>
                    </Icon>
                </IconStyle>
            </Style>
            <Style id="582">
                <IconStyle id="583">
                    <color>ff0000ff</color>
                    <colorMode>normal</colorMode>
                    <scale>1</scale>
                    <heading>0</heading>
                    <Icon id="584">
                        <href>http://maps.google.com/mapfiles/kml/pushpin/ylw-pushpin.png</href>
                    </Icon>
                </IconStyle>
            </Style>
            <Style id="587">
                <IconStyle id="588">
                    <color>ff0000ff</color>
                    <colorMode>normal</colorMode>
                    <scale>1</scale>
                    <heading>0</heading>
                    <Icon id="589">
                        <href>http://maps.google.com/mapfiles/kml/pushpin/ylw-pushpin.png</href>
                    </Icon>
                </IconStyle>
            </Style>
            <Style id="592">
                <IconStyle id="593">
                    <color>ff0000ff</color>
                    <colorMode>normal</colorMode>
                    <scale>1</scale>
                    <heading>0</heading>
                    <Icon id="594">
                        <href>http://maps.google.com/mapfiles/kml/pushpin/ylw-pushpin.png</href>
                    </Icon>
                </IconStyle>
            </Style>
            <Style id="597">
                <IconStyle id="598">
                    <color>ff0000ff</color>
                    <colorMode>normal</colorMode>
                    <scale>1</scale>
                    <heading>0</heading>
                    <Icon id="599">
                        <href>http://maps.google.com/mapfiles/kml/pushpin/ylw-pushpin.png</href>
                    </Icon>
                </IconStyle>
            </Style>
            <Style id="602">
                <IconStyle id="603">
                    <color>ff0000ff</color>
                    <colorMode>normal</colorMode>
                    <scale>1</scale>
                    <heading>0</heading>
                    <Icon id="604">
                        <href>http://maps.google.com/mapfiles/kml/pushpin/ylw-pushpin.png</href>
                    </Icon>
                </IconStyle>
            </Style>
            <Style id="607">
                <IconStyle id="608">
                    <color>ff0000ff</color>
                    <colorMode>normal</colorMode>
                    <scale>1</scale>
                    <heading>0</heading>
                    <Icon id="609">
                        <href>http://maps.google.com/mapfiles/kml/pushpin/ylw-pushpin.png</href>
                    </Icon>
                </IconStyle>
            </Style>
            <Style id="612">
                <IconStyle id="613">
                    <color>ff0000ff</color>
                    <colorMode>normal</colorMode>
                    <scale>1</scale>
                    <heading>0</heading>
                    <Icon id="614">
                        <href>http://maps.google.com/mapfiles/kml/pushpin/ylw-pushpin.png</href>
                    </Icon>
                </IconStyle>
            </Style>
            <Style id="617">
                <IconStyle id="618">
                    <color>ff0000ff</color>
                    <colorMode>normal</colorMode>
                    <scale>1</scale>
                    <heading>0</heading>
                    <Icon id="619">
                        <href>http://maps.google.com/mapfiles/kml/pushpin/ylw-pushpin.png</href>
                    </Icon>
                </IconStyle>
            </Style>
            <Style id="622">
                <IconStyle id="623">
                    <color>ff0000ff</color>
                    <colorMode>normal</colorMode>
                    <scale>1</scale>
                    <heading>0</heading>
                    <Icon id="624">
                        <href>http://maps.google.com/mapfiles/kml/pushpin/ylw-pushpin.png</href>
                    </Icon>
                </IconStyle>
            </Style>
            <Style id="627">
                <IconStyle id="628">
                    <color>ff0000ff</color>
                    <colorMode>normal</colorMode>
                    <scale>1</scale>
                    <heading>0</heading>
                    <Icon id="629">
                        <href>http://maps.google.com/mapfiles/kml/pushpin/ylw-pushpin.png</href>
                    </Icon>
                </IconStyle>
            </Style>
            <Style id="632">
                <IconStyle id="633">
                    <color>ff0000ff</color>
                    <colorMode>normal</colorMode>
                    <scale>1</scale>
                    <heading>0</heading>
                    <Icon id="634">
                        <href>http://maps.google.com/mapfiles/kml/pushpin/ylw-pushpin.png</href>
                    </Icon>
                </IconStyle>
            </Style>
            <Style id="637">
                <IconStyle id="638">
                    <color>ff0000ff</color>
                    <colorMode>normal</colorMode>
                    <scale>1</scale>
                    <heading>0</heading>
                    <Icon id="639">
                        <href>http://maps.google.com/mapfiles/kml/pushpin/ylw-pushpin.png</href>
                    </Icon>
                </IconStyle>
            </Style>
            <Style id="642">
                <IconStyle id="643">
                    <color>ff0000ff</color>
                    <colorMode>normal</colorMode>
                    <scale>1</scale>
                    <heading>0</heading>
                    <Icon id="644">
                        <href>http://maps.google.com/mapfiles/kml/pushpin/ylw-pushpin.png</href>
                    </Icon>
                </IconStyle>
            </Style>
            <Style id="647">
                <IconStyle id="648">
                    <color>ff0000ff</color>
                    <colorMode>normal</colorMode>
                    <scale>1</scale>
                    <heading>0</heading>
                    <Icon id="649">
                        <href>http://maps.google.com/mapfiles/kml/pushpin/ylw-pushpin.png</href>
                    </Icon>
                </IconStyle>
            </Style>
            <Style id="652">
                <IconStyle id="653">
                    <color>ff0000ff</color>
                    <colorMode>normal</colorMode>
                    <scale>1</scale>
                    <heading>0</heading>
                    <Icon id="654">
                        <href>http://maps.google.com/mapfiles/kml/pushpin/ylw-pushpin.png</href>
                    </Icon>
                </IconStyle>
            </Style>
            <name>DOMITILA QUISPE MIRANDA</name>
            <Placemark id="436">
                <name>KAREN KATHERINE RONDOY VALVERDE</name>
                <description>CA TACNA S/N LIBERTAD - TAMARINDO
Tamarindo
Paita
Piura
Perú</description>
                <styleUrl>#437</styleUrl>
                <Point id="435">
                    <coordinates>-80.9835518,-4.879222,0.0</coordinates>
                </Point>
            </Placemark>
            <Placemark id="441">
                <name>BACILIO RUFINO IPANAQUE MARTINEZ</name>
                <description>Calle Tacna, la libertad tamarindo
Tamarindo
Paita
Piura
Perú</description>
                <styleUrl>#442</styleUrl>
                <Point id="440">
                    <coordinates>-80.9849204,-4.8792415,0.0</coordinates>
                </Point>
            </Placemark>
            <Placemark id="446">
                <name>ROSA ARISMENDIS ATOCHE</name>
                <description>CA. PLAZA DE ARMAS 019 CP. TAMARIND
Tamarindo
Tamarindo
Piura
Perú</description>
                <styleUrl>#447</styleUrl>
                <Point id="445">
                    <coordinates>-80.9755629,-4.8780273,0.0</coordinates>
                </Point>
            </Placemark>
            <Placemark id="451">
                <name>TEOFILO SIGIFREDO GUEVARA MECA</name>
                <description>Calle grau mz H lote 7
Tamarindo
Paita
Piura
Perú</description>
                <styleUrl>#452</styleUrl>
                <Point id="450">
                    <coordinates>-81.0266435,-4.8828692,0.0</coordinates>
                </Point>
            </Placemark>
            <Placemark id="456">
                <name>ROSA MARIA SOBRINO DIOSES</name>
                <description>CALLE GRAU (AL FRENTE DE LA PLAZA DEL ARENAL)
Tamarindo
Paita
Piura
Perú</description>
                <styleUrl>#457</styleUrl>
                <Point id="455">
                    <coordinates>-81.0261374,-4.8834957,0.0</coordinates>
                </Point>
            </Placemark>
            <Placemark id="461">
                <name>YULI CEVALLOS JULIAN</name>
                <description>Calle callo 125 el arenal referencia por la placita integración
Tamarindo
Paita
Piura
Perú</description>
                <styleUrl>#462</styleUrl>
                <Point id="460">
                    <coordinates>-81.0274944,-4.8827993,0.0</coordinates>
                </Point>
            </Placemark>
            <Placemark id="466">
                <name>INES VIERA ESTRADA</name>
                <description>Calle Callao sin número el arenal al costado del  centro salud
Arenal
Paita
Piura
Perú</description>
                <styleUrl>#467</styleUrl>
                <Point id="465">
                    <coordinates>-81.0263241,-4.8841954,0.0</coordinates>
                </Point>
            </Placemark>
            <Placemark id="471">
                <name>JENNY PAOLA RUJEL SANTOS</name>
                <description>Calle la victoria MZ f lote 10 nuevo libertad
Tamarindo
Paita
Piura
Perú</description>
                <styleUrl>#472</styleUrl>
                <Point id="470">
                    <coordinates>-80.9877621,-4.8796521,0.0</coordinates>
                </Point>
            </Placemark>
            <Placemark id="476">
                <name>BETHA CARMINA CASTILLO CORTEZ</name>
                <description>Calle la Víctor nuevo libertad S/N
Tamarindo
Tamarindo
Piura
Perú</description>
                <styleUrl>#477</styleUrl>
                <Point id="475">
                    <coordinates>-80.9875895,-4.8801147,0.0</coordinates>
                </Point>
            </Placemark>
            <Placemark id="481">
                <name>IPANAQUE MARTINEZ ISIDORA</name>
                <description>La libertad
Paita
Paita
Piura
Perú</description>
                <styleUrl>#482</styleUrl>
                <Point id="480">
                    <coordinates>-80.9875091,-4.8785238,0.0</coordinates>
                </Point>
            </Placemark>
            <Placemark id="486">
                <name>VICTOR HUGO AVILA MARCELO</name>
                <description>Calle Loreto la libertad s/n
Paita
Paita
Piura
Perú</description>
                <styleUrl>#487</styleUrl>
                <Point id="485">
                    <coordinates>-80.9847663,-4.8782189,0.0</coordinates>
                </Point>
            </Placemark>
            <Placemark id="491">
                <name>EVELIN DESIRE PAICO ATOCHE</name>
                <description>Calle arequipa- la libertad
Tamarindo

Piura
Perú</description>
                <styleUrl>#492</styleUrl>
                <Point id="490">
                    <coordinates>-80.97942,-4.88039,0.0</coordinates>
                </Point>
            </Placemark>
            <Placemark id="496">
                <name>FELIX LEONARDO ROJAS YOVERA</name>
                <description>CL SANCHEZ CERRO 033
Tamarindo
Paita
Piura
Perú</description>
                <styleUrl>#497</styleUrl>
                <Point id="495">
                    <coordinates>-80.981971,-4.8791553,0.0</coordinates>
                </Point>
            </Placemark>
            <Placemark id="501">
                <name>IPANAQUE CRUZ TANIA MILAGROS</name>
                <description>JR SANCHEZ CERRO SN EL TAMARI C P-
Tamarindo
Paita

Perú</description>
                <styleUrl>#502</styleUrl>
                <Point id="500">
                    <coordinates>-80.9819751,-4.8791541,0.0</coordinates>
                </Point>
            </Placemark>
            <Placemark id="506">
                <name>BERONICA PILA LOPEZ AVILA DE MEDINA</name>
                <description>CA BOLIVAR 205
Paita
Paita
Piura
Perú</description>
                <styleUrl>#507</styleUrl>
                <Point id="505">
                    <coordinates>-81.0958466,-5.1026833,0.0</coordinates>
                </Point>
            </Placemark>
            <Placemark id="511">
                <name>CARLOS JOSUE MONTENEGRO TANTALEAN</name>
                <description>BOLIVAR N 142 - TAMARINDO
Tamarindo
Paita
Piura
Perú</description>
                <styleUrl>#512</styleUrl>
                <Point id="510">
                    <coordinates>-80.9735324,-4.8783122,0.0</coordinates>
                </Point>
            </Placemark>
            <Placemark id="516">
                <name>CLAVIJO DE SAENZ MARIA ISABEL</name>
                <description>CA.SAN MARTIN SN al costado de la comisaría amotape
Paita
Paita
Piura
Perú</description>
                <styleUrl>#517</styleUrl>
                <Point id="515">
                    <coordinates>-81.015935,-4.880586,0.0</coordinates>
                </Point>
            </Placemark>
            <Placemark id="521">
                <name>ANAGALY YOMAIRA NIZAMA CHAPA</name>
                <description>CONSTITUCION S/N 3 TAMARINDO-SULLANA
Tamarindo
Paita
Piura
Perú</description>
                <styleUrl>#522</styleUrl>
                <Point id="520">
                    <coordinates>-80.9772644,-4.8786515,0.0</coordinates>
                </Point>
            </Placemark>
            <Placemark id="526">
                <name>NANCY CLAVIJO MORAN</name>
                <description>Calle Salaverry SN tamarindo
Tamarindo
Paita
Piura
Perú</description>
                <styleUrl>#527</styleUrl>
                <Point id="525">
                    <coordinates>-80.9742683,-4.8779319,0.0</coordinates>
                </Point>
            </Placemark>
            <Placemark id="531">
                <name>JACINTA BENITES RUFINO</name>
                <description>CA MANCO CAPAC LT 1D
Tamarindo
Paita
Piura
Perú</description>
                <styleUrl>#532</styleUrl>
                <Point id="530">
                    <coordinates>-80.9749068,-4.8768698,0.0</coordinates>
                </Point>
            </Placemark>
            <Placemark id="536">
                <name>VILCHEZ MEDINA YENY</name>
                <description>Calle manco capac sn
Tamarindo
Paita
Piura
Perú</description>
                <styleUrl>#537</styleUrl>
                <Point id="535">
                    <coordinates>-80.9724871,-4.8769296,0.0</coordinates>
                </Point>
            </Placemark>
            <Placemark id="541">
                <name>JEMMY LIANA CRUZ ALBINES</name>
                <description>CA. JOSE OLAY S/N
Tamarindo
Paita
Piura
Perú</description>
                <styleUrl>#542</styleUrl>
                <Point id="540">
                    <coordinates>-80.9772762,-4.8803049,0.0</coordinates>
                </Point>
            </Placemark>
            <Placemark id="546">
                <name>CARMEN ELENA MENDOZA PAICO</name>
                <description>Calle manco Cápac SN tamarindo al costado del estadio
Tamarindo
Paita
Piura
Perú</description>
                <styleUrl>#547</styleUrl>
                <Point id="545">
                    <coordinates>-80.9713013,-4.8766824,0.0</coordinates>
                </Point>
            </Placemark>
            <Placemark id="551">
                <name>MARJURY MENDOZA CORTEZ</name>
                <description>Calle sechurita tamarindo
Paita
Paita
Piura
Perú</description>
                <styleUrl>#552</styleUrl>
                <Point id="550">
                    <coordinates>-80.969026,-4.8763338,0.0</coordinates>
                </Point>
            </Placemark>
            <Placemark id="556">
                <name>MARIA ANTONIA CHAPA SILUPU DE MOGOLLON</name>
                <description>SECHURITA FRENTE AL PARQUE TAMARINDO-PIURA
Tamarindo
Paita
Piura
Perú</description>
                <styleUrl>#557</styleUrl>
                <Point id="555">
                    <coordinates>-80.9695349,-4.8769471,0.0</coordinates>
                </Point>
            </Placemark>
            <Placemark id="561">
                <name>CARLOS JOSUE MONTENEGRO TANTALEAN</name>
                <description>BOLIVAR N 142 - TAMARINDO
Tamarindo
Paita
Piura
Perú</description>
                <styleUrl>#562</styleUrl>
                <Point id="560">
                    <coordinates>-80.9735324,-4.8783122,0.0</coordinates>
                </Point>
            </Placemark>
            <Placemark id="566">
                <name>SANTOS MARLENE REYNOSO CASTRO</name>
                <description>Plaza de armas tamarindo
Tamarindo
Paita
Piura
Perú</description>
                <styleUrl>#567</styleUrl>
                <Point id="565">
                    <coordinates>-80.975569,-4.877926,0.0</coordinates>
                </Point>
            </Placemark>
            <Placemark id="571">
                <name>ELIDA YUVICCIA OLAYA RUIZ</name>
                <description>Calle Plaza de Armas 026 Tamarindo
Tamarindo
Paita
Piura
Perú</description>
                <styleUrl>#572</styleUrl>
                <Point id="570">
                    <coordinates>-80.9756581,-4.8776367,0.0</coordinates>
                </Point>
            </Placemark>
            <Placemark id="576">
                <name>AMELIA PEÑA GIRON</name>
                <description>Calle San Martin tamarindo
Tamarindo
Paita
Piura
Perú</description>
                <styleUrl>#577</styleUrl>
                <Point id="575">
                    <coordinates>-80.9761198,-4.8798192,0.0</coordinates>
                </Point>
            </Placemark>
            <Placemark id="581">
                <name>LUCY SMITH LOPEZ INFANTE</name>
                <description>Alfonso Ugarte 62 tamarindo
Tamarindo
Paita
Piura
Perú</description>
                <styleUrl>#582</styleUrl>
                <Point id="580">
                    <coordinates>-80.9771422,-4.8805769,0.0</coordinates>
                </Point>
            </Placemark>
            <Placemark id="586">
                <name>ELENA ATOCHE IPANAQUE</name>
                <description>Av panamericana sin número referencia bazar t y t
Tamarindo
Paita
Piura
Perú</description>
                <styleUrl>#587</styleUrl>
                <Point id="585">
                    <coordinates>-81.0024519,-4.8858938,0.0</coordinates>
                </Point>
            </Placemark>
            <Placemark id="591">
                <name>KAREN SHESIRA YAMUNAQUE NIZAMA</name>
                <description>Calle Simón Rodríguez S/N el tambo
Tamarindo
Paita
Piura
Perú</description>
                <styleUrl>#592</styleUrl>
                <Point id="590">
                    <coordinates>-81.0030332,-4.8859453,0.0</coordinates>
                </Point>
            </Placemark>
            <Placemark id="596">
                <name>FREDY SOSA ESTRADA DE BAYONA</name>
                <description>PANAMERICA S/N el tambo
Tamarindo
Paita
Piura
Perú</description>
                <styleUrl>#597</styleUrl>
                <Point id="595">
                    <coordinates>-81.0041277,-4.8869531,0.0</coordinates>
                </Point>
            </Placemark>
            <Placemark id="601">
                <name>PATRICIA LILIANA MENDOZA MOGOLLON</name>
                <description>MZ 1 LT 10 CA JOSE CARLOS MARIATEGUI NUEVO TAMARINDO
Vichayal
Paita
Piura
Perú</description>
                <styleUrl>#602</styleUrl>
                <Point id="600">
                    <coordinates>-81.102246,-4.8746732,0.0</coordinates>
                </Point>
            </Placemark>
            <Placemark id="606">
                <name>CRUZ VIERA INGRID ARACELY</name>
                <description>CAL. BOLIVAR MZ. 26 LT. 15 CERC. Amotape
Tamarindo
Paita
Piura
Perú</description>
                <styleUrl>#607</styleUrl>
                <Point id="605">
                    <coordinates>-81.0157745,-4.8848832,0.0</coordinates>
                </Point>
            </Placemark>
            <Placemark id="611">
                <name>BENITES GARCIA VDA DE MEDINA LOURDES MARTINA</name>
                <description>CA.INDEPENDENCIA -AMOTAPE NÂ°333 -Q
Tamarindo
Paita
Piura
Perú</description>
                <styleUrl>#612</styleUrl>
                <Point id="610">
                    <coordinates>-81.0151915,-4.8855813,0.0</coordinates>
                </Point>
            </Placemark>
            <Placemark id="616">
                <name>ZAVALA MARIA PEÑA DE</name>
                <description>CAL INDEPENDENCIA 115 - AMOTAPE
Tamarindo
Paita
Piura
Perú</description>
                <styleUrl>#617</styleUrl>
                <Point id="615">
                    <coordinates>-81.015263,-4.8833616,0.0</coordinates>
                </Point>
            </Placemark>
            <Placemark id="621">
                <name>CORNEJO SOCOLA LUIS FRANCISCO</name>
                <description>CA BOLIVAR SN - amotape
Amotape
Paita
Piura
Perú</description>
                <styleUrl>#622</styleUrl>
                <Point id="620">
                    <coordinates>-81.0153754,-4.8822487,0.0</coordinates>
                </Point>
            </Placemark>
            <Placemark id="626">
                <name>CLAVIJO DE SAENZ MARIA ISABEL</name>
                <description>CA.SAN MARTIN SN al costado de la comisaría amotape
Paita
Paita
Piura
Perú</description>
                <styleUrl>#627</styleUrl>
                <Point id="625">
                    <coordinates>-81.015935,-4.880586,0.0</coordinates>
                </Point>
            </Placemark>
            <Placemark id="631">
                <name>LUZ MARIA SANCHEZ RAMOS</name>
                <description>VICHAYAL
Vichayal
Paita
Piura
Perú</description>
                <styleUrl>#632</styleUrl>
                <Point id="630">
                    <coordinates>-81.0651004,-4.8657593,0.0</coordinates>
                </Point>
            </Placemark>
            <Placemark id="636">
                <name>ANITA MARLENY VILCHEZ FERNANDEZ</name>
                <description>Calle nuevo talara salida de vichayal
Vichayal
Talara
Piura
Perú</description>
                <styleUrl>#637</styleUrl>
                <Point id="635">
                    <coordinates>-81.0623827,-4.8650128,0.0</coordinates>
                </Point>
            </Placemark>
            <Placemark id="641">
                <name>GABY GUISELA ESTRADA SILVA</name>
                <description>Calle grau sn miramar
Vichayal


Perú</description>
                <styleUrl>#642</styleUrl>
                <Point id="640">
                    <coordinates>-81.100572,-4.87187,0.0</coordinates>
                </Point>
            </Placemark>
            <Placemark id="646">
                <name>MADELEINE ESTRADA RAMOS</name>
                <description>MADELEINE ESTRADA RAMOS
JR. MIGUEL GRAU NRO. S/N C.P.M MIRA
Colan
Paita
Piura
Perú</description>
                <styleUrl>#647</styleUrl>
                <Point id="645">
                    <coordinates>-81.056225,-4.901797,0.0</coordinates>
                </Point>
            </Placemark>
            <Placemark id="651">
                <name>NERY MICHEL CRUZ CALDERON</name>
                <description>Miramar a espaldas de la plazuela
Tamarindo
Paita
Piura
Perú</description>
                <styleUrl>#652</styleUrl>
                <Point id="650">
                    <coordinates>-81.1019342,-4.8746148,0.0</coordinates>
                </Point>
            </Placemark>
        </Folder>
        <Folder id="655">
            <Style id="658">
                <IconStyle id="659">
                    <color>ffff0000</color>
                    <colorMode>normal</colorMode>
                    <scale>1</scale>
                    <heading>0</heading>
                    <Icon id="660">
                        <href>http://maps.google.com/mapfiles/kml/pushpin/ylw-pushpin.png</href>
                    </Icon>
                </IconStyle>
            </Style>
            <Style id="663">
                <IconStyle id="664">
                    <color>ffff0000</color>
                    <colorMode>normal</colorMode>
                    <scale>1</scale>
                    <heading>0</heading>
                    <Icon id="665">
                        <href>http://maps.google.com/mapfiles/kml/pushpin/ylw-pushpin.png</href>
                    </Icon>
                </IconStyle>
            </Style>
            <Style id="668">
                <IconStyle id="669">
                    <color>ffff0000</color>
                    <colorMode>normal</colorMode>
                    <scale>1</scale>
                    <heading>0</heading>
                    <Icon id="670">
                        <href>http://maps.google.com/mapfiles/kml/pushpin/ylw-pushpin.png</href>
                    </Icon>
                </IconStyle>
            </Style>
            <Style id="673">
                <IconStyle id="674">
                    <color>ffff0000</color>
                    <colorMode>normal</colorMode>
                    <scale>1</scale>
                    <heading>0</heading>
                    <Icon id="675">
                        <href>http://maps.google.com/mapfiles/kml/pushpin/ylw-pushpin.png</href>
                    </Icon>
                </IconStyle>
            </Style>
            <Style id="678">
                <IconStyle id="679">
                    <color>ffff0000</color>
                    <colorMode>normal</colorMode>
                    <scale>1</scale>
                    <heading>0</heading>
                    <Icon id="680">
                        <href>http://maps.google.com/mapfiles/kml/pushpin/ylw-pushpin.png</href>
                    </Icon>
                </IconStyle>
            </Style>
            <Style id="683">
                <IconStyle id="684">
                    <color>ffff0000</color>
                    <colorMode>normal</colorMode>
                    <scale>1</scale>
                    <heading>0</heading>
                    <Icon id="685">
                        <href>http://maps.google.com/mapfiles/kml/pushpin/ylw-pushpin.png</href>
                    </Icon>
                </IconStyle>
            </Style>
            <Style id="688">
                <IconStyle id="689">
                    <color>ffff0000</color>
                    <colorMode>normal</colorMode>
                    <scale>1</scale>
                    <heading>0</heading>
                    <Icon id="690">
                        <href>http://maps.google.com/mapfiles/kml/pushpin/ylw-pushpin.png</href>
                    </Icon>
                </IconStyle>
            </Style>
            <Style id="693">
                <IconStyle id="694">
                    <color>ffff0000</color>
                    <colorMode>normal</colorMode>
                    <scale>1</scale>
                    <heading>0</heading>
                    <Icon id="695">
                        <href>http://maps.google.com/mapfiles/kml/pushpin/ylw-pushpin.png</href>
                    </Icon>
                </IconStyle>
            </Style>
            <Style id="698">
                <IconStyle id="699">
                    <color>ffff0000</color>
                    <colorMode>normal</colorMode>
                    <scale>1</scale>
                    <heading>0</heading>
                    <Icon id="700">
                        <href>http://maps.google.com/mapfiles/kml/pushpin/ylw-pushpin.png</href>
                    </Icon>
                </IconStyle>
            </Style>
            <Style id="703">
                <IconStyle id="704">
                    <color>ffff0000</color>
                    <colorMode>normal</colorMode>
                    <scale>1</scale>
                    <heading>0</heading>
                    <Icon id="705">
                        <href>http://maps.google.com/mapfiles/kml/pushpin/ylw-pushpin.png</href>
                    </Icon>
                </IconStyle>
            </Style>
            <Style id="708">
                <IconStyle id="709">
                    <color>ffff0000</color>
                    <colorMode>normal</colorMode>
                    <scale>1</scale>
                    <heading>0</heading>
                    <Icon id="710">
                        <href>http://maps.google.com/mapfiles/kml/pushpin/ylw-pushpin.png</href>
                    </Icon>
                </IconStyle>
            </Style>
            <Style id="713">
                <IconStyle id="714">
                    <color>ffff0000</color>
                    <colorMode>normal</colorMode>
                    <scale>1</scale>
                    <heading>0</heading>
                    <Icon id="715">
                        <href>http://maps.google.com/mapfiles/kml/pushpin/ylw-pushpin.png</href>
                    </Icon>
                </IconStyle>
            </Style>
            <Style id="718">
                <IconStyle id="719">
                    <color>ffff0000</color>
                    <colorMode>normal</colorMode>
                    <scale>1</scale>
                    <heading>0</heading>
                    <Icon id="720">
                        <href>http://maps.google.com/mapfiles/kml/pushpin/ylw-pushpin.png</href>
                    </Icon>
                </IconStyle>
            </Style>
            <Style id="723">
                <IconStyle id="724">
                    <color>ffff0000</color>
                    <colorMode>normal</colorMode>
                    <scale>1</scale>
                    <heading>0</heading>
                    <Icon id="725">
                        <href>http://maps.google.com/mapfiles/kml/pushpin/ylw-pushpin.png</href>
                    </Icon>
                </IconStyle>
            </Style>
            <Style id="728">
                <IconStyle id="729">
                    <color>ffff0000</color>
                    <colorMode>normal</colorMode>
                    <scale>1</scale>
                    <heading>0</heading>
                    <Icon id="730">
                        <href>http://maps.google.com/mapfiles/kml/pushpin/ylw-pushpin.png</href>
                    </Icon>
                </IconStyle>
            </Style>
            <Style id="733">
                <IconStyle id="734">
                    <color>ffff0000</color>
                    <colorMode>normal</colorMode>
                    <scale>1</scale>
                    <heading>0</heading>
                    <Icon id="735">
                        <href>http://maps.google.com/mapfiles/kml/pushpin/ylw-pushpin.png</href>
                    </Icon>
                </IconStyle>
            </Style>
            <Style id="738">
                <IconStyle id="739">
                    <color>ffff0000</color>
                    <colorMode>normal</colorMode>
                    <scale>1</scale>
                    <heading>0</heading>
                    <Icon id="740">
                        <href>http://maps.google.com/mapfiles/kml/pushpin/ylw-pushpin.png</href>
                    </Icon>
                </IconStyle>
            </Style>
            <Style id="743">
                <IconStyle id="744">
                    <color>ffff0000</color>
                    <colorMode>normal</colorMode>
                    <scale>1</scale>
                    <heading>0</heading>
                    <Icon id="745">
                        <href>http://maps.google.com/mapfiles/kml/pushpin/ylw-pushpin.png</href>
                    </Icon>
                </IconStyle>
            </Style>
            <Style id="748">
                <IconStyle id="749">
                    <color>ffff0000</color>
                    <colorMode>normal</colorMode>
                    <scale>1</scale>
                    <heading>0</heading>
                    <Icon id="750">
                        <href>http://maps.google.com/mapfiles/kml/pushpin/ylw-pushpin.png</href>
                    </Icon>
                </IconStyle>
            </Style>
            <Style id="753">
                <IconStyle id="754">
                    <color>ffff0000</color>
                    <colorMode>normal</colorMode>
                    <scale>1</scale>
                    <heading>0</heading>
                    <Icon id="755">
                        <href>http://maps.google.com/mapfiles/kml/pushpin/ylw-pushpin.png</href>
                    </Icon>
                </IconStyle>
            </Style>
            <Style id="758">
                <IconStyle id="759">
                    <color>ffff0000</color>
                    <colorMode>normal</colorMode>
                    <scale>1</scale>
                    <heading>0</heading>
                    <Icon id="760">
                        <href>http://maps.google.com/mapfiles/kml/pushpin/ylw-pushpin.png</href>
                    </Icon>
                </IconStyle>
            </Style>
            <Style id="763">
                <IconStyle id="764">
                    <color>ffff0000</color>
                    <colorMode>normal</colorMode>
                    <scale>1</scale>
                    <heading>0</heading>
                    <Icon id="765">
                        <href>http://maps.google.com/mapfiles/kml/pushpin/ylw-pushpin.png</href>
                    </Icon>
                </IconStyle>
            </Style>
            <Style id="768">
                <IconStyle id="769">
                    <color>ffff0000</color>
                    <colorMode>normal</colorMode>
                    <scale>1</scale>
                    <heading>0</heading>
                    <Icon id="770">
                        <href>http://maps.google.com/mapfiles/kml/pushpin/ylw-pushpin.png</href>
                    </Icon>
                </IconStyle>
            </Style>
            <Style id="773">
                <IconStyle id="774">
                    <color>ffff0000</color>
                    <colorMode>normal</colorMode>
                    <scale>1</scale>
                    <heading>0</heading>
                    <Icon id="775">
                        <href>http://maps.google.com/mapfiles/kml/pushpin/ylw-pushpin.png</href>
                    </Icon>
                </IconStyle>
            </Style>
            <Style id="778">
                <IconStyle id="779">
                    <color>ffff0000</color>
                    <colorMode>normal</colorMode>
                    <scale>1</scale>
                    <heading>0</heading>
                    <Icon id="780">
                        <href>http://maps.google.com/mapfiles/kml/pushpin/ylw-pushpin.png</href>
                    </Icon>
                </IconStyle>
            </Style>
            <Style id="783">
                <IconStyle id="784">
                    <color>ffff0000</color>
                    <colorMode>normal</colorMode>
                    <scale>1</scale>
                    <heading>0</heading>
                    <Icon id="785">
                        <href>http://maps.google.com/mapfiles/kml/pushpin/ylw-pushpin.png</href>
                    </Icon>
                </IconStyle>
            </Style>
            <Style id="788">
                <IconStyle id="789">
                    <color>ffff0000</color>
                    <colorMode>normal</colorMode>
                    <scale>1</scale>
                    <heading>0</heading>
                    <Icon id="790">
                        <href>http://maps.google.com/mapfiles/kml/pushpin/ylw-pushpin.png</href>
                    </Icon>
                </IconStyle>
            </Style>
            <Style id="793">
                <IconStyle id="794">
                    <color>ffff0000</color>
                    <colorMode>normal</colorMode>
                    <scale>1</scale>
                    <heading>0</heading>
                    <Icon id="795">
                        <href>http://maps.google.com/mapfiles/kml/pushpin/ylw-pushpin.png</href>
                    </Icon>
                </IconStyle>
            </Style>
            <name>LEONARDO VIERA CHAVEZ</name>
            <Placemark id="657">
                <name>JUAN FACUNDO LABAN</name>
                <description>Mercadillo santa rosa referencia al frente de negocios Jhonatan
Paita
Paita
Piura
Perú</description>
                <styleUrl>#658</styleUrl>
                <Point id="656">
                    <coordinates>-81.0984048,-5.0924735,0.0</coordinates>
                </Point>
            </Placemark>
            <Placemark id="662">
                <name>OFELIA CHINGA AYALA</name>
                <description>OFELIA CHINGA AYALA
JR. BOLIVAR SN C.P. PBLO NUEVO DE C
Colan
Paita
Piura
Perú</description>
                <styleUrl>#663</styleUrl>
                <Point id="661">
                    <coordinates>-81.0572277,-4.9056308,0.0</coordinates>
                </Point>
            </Placemark>
            <Placemark id="667">
                <name>SOCORRO CUEVA CRUZ</name>
                <description>
Colan
Colan
Piura
Perú</description>
                <styleUrl>#668</styleUrl>
                <Point id="666">
                    <coordinates>-81.0584451,-4.9074962,0.0</coordinates>
                </Point>
            </Placemark>
            <Placemark id="672">
                <name>DOMINGA SUSAN MARTINEZ CARDOZA</name>
                <description>Trans cahuide S/n
Colan
Paita
Piura
Perú</description>
                <styleUrl>#673</styleUrl>
                <Point id="671">
                    <coordinates>-81.0567276,-4.9056251,0.0</coordinates>
                </Point>
            </Placemark>
            <Placemark id="677">
                <name>JUAN FACUNDO LABAN</name>
                <description>Mercadillo santa rosa referencia al frente de negocios Jhonatan
Paita
Paita
Piura
Perú</description>
                <styleUrl>#678</styleUrl>
                <Point id="676">
                    <coordinates>-81.0984048,-5.0924735,0.0</coordinates>
                </Point>
            </Placemark>
            <Placemark id="682">
                <name>VANESA MEDALY SILVA BRUNO</name>
                <description>CA. SAN MARTIN NÂ°198 PUEBLO NUVO.D
Colan
Paita
Piura
Perú</description>
                <styleUrl>#683</styleUrl>
                <Point id="681">
                    <coordinates>-81.0599635,-4.9125749,0.0</coordinates>
                </Point>
            </Placemark>
            <Placemark id="687">
                <name>YAMO MACHARE OFELIA</name>
                <description>JR.SAN MARTIN 690 PUEBLO NVO
Colan
Paita
Piura
Perú</description>
                <styleUrl>#688</styleUrl>
                <Point id="686">
                    <coordinates>-81.057165,-4.903179,0.0</coordinates>
                </Point>
            </Placemark>
            <Placemark id="692">
                <name>LUZ MARIA SANCHEZ REMIGIO</name>
                <description>LUZ MARIA SANCHEZ REMIGIO
SAN MARTIN N 1701 PUEBLO NUEVO DE C
Colan
Paita
Piura
Perú</description>
                <styleUrl>#693</styleUrl>
                <Point id="691">
                    <coordinates>-81.0598963,-4.9122846,0.0</coordinates>
                </Point>
            </Placemark>
            <Placemark id="697">
                <name>CUEVA CRUZ CARMEN DORINDA</name>
                <description>JR.SAN MARTIN 6 NUEVO COLAN
Colan
Paita
Piura
Perú</description>
                <styleUrl>#698</styleUrl>
                <Point id="696">
                    <coordinates>-81.05962,-4.911478,0.0</coordinates>
                </Point>
            </Placemark>
            <Placemark id="702">
                <name>MERCEDES ARACELLY AYON SILVA</name>
                <description>CALLE JR LA MAR CUADRA 12-132 PUEBLO NUEVO COLAN-PIURA
Colan
Paita
Piura
Perú</description>
                <styleUrl>#703</styleUrl>
                <Point id="701">
                    <coordinates>-81.0600995,-4.9084439,0.0</coordinates>
                </Point>
            </Placemark>
            <Placemark id="707">
                <name>TERESA DE JESUS RODRIGUEZ VILELA</name>
                <description>Calle Alfonso Ugarte S/N espaldas del colegio 14752
Colan
Paita
Piura
Perú</description>
                <styleUrl>#708</styleUrl>
                <Point id="706">
                    <coordinates>-81.0586221,-4.9063288,0.0</coordinates>
                </Point>
            </Placemark>
            <Placemark id="712">
                <name>TERESA BAYONA DE LEQUERNAQUE</name>
                <description>CALLE JR PIURA 1 NUEVO COLAN-PAITA - POR EL COLEGIO LA CATORCE
Colan
Colan
Piura
Perú</description>
                <styleUrl>#713</styleUrl>
                <Point id="711">
                    <coordinates>-81.0579247,-4.9058437,0.0</coordinates>
                </Point>
            </Placemark>
            <Placemark id="717">
                <name>Maria santos Coveñas elias</name>
                <description>Calle Bolívar MZ 37 lote 10 pueblo nuevo
Colan

Piura
Perú</description>
                <styleUrl>#718</styleUrl>
                <Point id="716">
                    <coordinates>-81.0568797,-4.9030199,0.0</coordinates>
                </Point>
            </Placemark>
            <Placemark id="722">
                <name>Martha nizama Coronado</name>
                <description>Calle Bolívar 620 pueblo Nuevo de colan
Paita
Paita
Piura
Perú</description>
                <styleUrl>#723</styleUrl>
                <Point id="721">
                    <coordinates>-81.056868,-4.9027677,0.0</coordinates>
                </Point>
            </Placemark>
            <Placemark id="727">
                <name>YAMO MACHARE OFELIA</name>
                <description>JR.SAN MARTIN 690 PUEBLO NVO
Colan
Paita
Piura
Perú</description>
                <styleUrl>#728</styleUrl>
                <Point id="726">
                    <coordinates>-81.057165,-4.903179,0.0</coordinates>
                </Point>
            </Placemark>
            <Placemark id="732">
                <name>SANTOS MARTINA SEMINARIO DE CRUZ</name>
                <description>CA.LA MAR 401 MZ.28 LT.2 P.NUE
Colan
Paita
Piura
Perú</description>
                <styleUrl>#733</styleUrl>
                <Point id="731">
                    <coordinates>-81.057797,-4.901484,0.0</coordinates>
                </Point>
            </Placemark>
            <Placemark id="737">
                <name>OTERO LOPEZ AMELIA</name>
                <description>JR.BOLIVAR 525
Colan

Piura
Perú</description>
                <styleUrl>#738</styleUrl>
                <Point id="736">
                    <coordinates>-81.0571469,-4.9042296,0.0</coordinates>
                </Point>
            </Placemark>
            <Placemark id="742">
                <name>IRIS IVON ALVARADO ZAPATA</name>
                <description>CA. SUCRE 38-2A LADO NORTE BARRIO-P
Colan
Paita
Piura
Perú</description>
                <styleUrl>#743</styleUrl>
                <Point id="741">
                    <coordinates>-81.0562974,-4.9026914,0.0</coordinates>
                </Point>
            </Placemark>
            <Placemark id="747">
                <name>MARCELINA AYALA DE SALAZAR</name>
                <description>Calle maravilla 249 pueblo nuevo Paita
Paita

Piura
Perú</description>
                <styleUrl>#748</styleUrl>
                <Point id="746">
                    <coordinates>-81.0554613,-4.9040761,0.0</coordinates>
                </Point>
            </Placemark>
            <Placemark id="752">
                <name>LEONOR ANCAJIMA DE ALBINES</name>
                <description>
Paita
Paita
Piura
Perú</description>
                <styleUrl>#753</styleUrl>
                <Point id="751">
                    <coordinates>-81.0546429,-4.9063518,0.0</coordinates>
                </Point>
            </Placemark>
            <Placemark id="757">
                <name>ALBINES CHIROQUE JANINA V.</name>
                <description>JR.MIRADOR 106
Colan
Paita
Piura
Perú</description>
                <styleUrl>#758</styleUrl>
                <Point id="756">
                    <coordinates>-81.058001,-4.909697,0.0</coordinates>
                </Point>
            </Placemark>
            <Placemark id="762">
                <name>CARMEN CECILIA ALVINES MORALES</name>
                <description>JR. MIRADOR NÂ°108 CP.PUEBLO NUEVO
Colan
Paita
Piura
Perú</description>
                <styleUrl>#763</styleUrl>
                <Point id="761">
                    <coordinates>-81.0547737,-4.9102313,0.0</coordinates>
                </Point>
            </Placemark>
            <Placemark id="767">
                <name>TERESA ROSSANA AYALA AYALA</name>
                <description>CA.LIBERTAD NÂ°603 C.P. PUEBLO NUEV
Colan
Colan
Piura
Perú</description>
                <styleUrl>#768</styleUrl>
                <Point id="766">
                    <coordinates>-81.0577863,-4.9108067,0.0</coordinates>
                </Point>
            </Placemark>
            <Placemark id="772">
                <name>MARIA FELICITA MACHARE COVEÑAS</name>
                <description>CA LIBETAD N 800 PUEBLO NVO COLAN
Paita
Paita
Piura
Perú</description>
                <styleUrl>#773</styleUrl>
                <Point id="771">
                    <coordinates>-81.057905,-4.9110092,0.0</coordinates>
                </Point>
            </Placemark>
            <Placemark id="777">
                <name>GARCIA ZAPATA FELICIA</name>
                <description>JR.JOSE OLAYA 110
Colan
Paita
Piura
Perú</description>
                <styleUrl>#778</styleUrl>
                <Point id="776">
                    <coordinates>-81.059641,-4.910727,0.0</coordinates>
                </Point>
            </Placemark>
            <Placemark id="782">
                <name>RAMOS ESPERANZA VILCHEZ VILCHEZ</name>
                <description>Calle Andrés Avelino Cáceres sn - Pueblo Nuevo
Colan
Paita
Piura
Perú</description>
                <styleUrl>#783</styleUrl>
                <Point id="781">
                    <coordinates>-81.0573894,-4.9132061,0.0</coordinates>
                </Point>
            </Placemark>
            <Placemark id="787">
                <name>ISABEL CHUNGA PAICO</name>
                <description>JR.NUEVA ESPERANZA SN CP.PUEBLO NUE
Colan
Colan
Piura
Perú</description>
                <styleUrl>#788</styleUrl>
                <Point id="786">
                    <coordinates>-81.0547174,-4.9127777,0.0</coordinates>
                </Point>
            </Placemark>
            <Placemark id="792">
                <name>JOSE LUIS AGUILAR DE LA CRUZ</name>
                <description>Pueblo nuevo -- calle lima 1123
Colan
Paita
Piura
Perú</description>
                <styleUrl>#793</styleUrl>
                <Point id="791">
                    <coordinates>-81.0530582,-4.910999,0.0</coordinates>
                </Point>
            </Placemark>
        </Folder>
    </Document>
</kml>
