<?xml version="1.0" encoding="UTF-8"?>
<kml xmlns="http://www.opengis.net/kml/2.2" xmlns:gx="http://www.google.com/kml/ext/2.2">
    <Document id="948">
        <Folder id="949">
            <Style id="952">
                <IconStyle id="953">
                    <color>ff0000ff</color>
                    <colorMode>normal</colorMode>
                    <scale>1</scale>
                    <heading>0</heading>
                    <Icon id="954">
                        <href>http://maps.google.com/mapfiles/kml/pushpin/ylw-pushpin.png</href>
                    </Icon>
                </IconStyle>
            </Style>
            <Style id="957">
                <IconStyle id="958">
                    <color>ff0000ff</color>
                    <colorMode>normal</colorMode>
                    <scale>1</scale>
                    <heading>0</heading>
                    <Icon id="959">
                        <href>http://maps.google.com/mapfiles/kml/pushpin/ylw-pushpin.png</href>
                    </Icon>
                </IconStyle>
            </Style>
            <Style id="962">
                <IconStyle id="963">
                    <color>ff0000ff</color>
                    <colorMode>normal</colorMode>
                    <scale>1</scale>
                    <heading>0</heading>
                    <Icon id="964">
                        <href>http://maps.google.com/mapfiles/kml/pushpin/ylw-pushpin.png</href>
                    </Icon>
                </IconStyle>
            </Style>
            <Style id="967">
                <IconStyle id="968">
                    <color>ff0000ff</color>
                    <colorMode>normal</colorMode>
                    <scale>1</scale>
                    <heading>0</heading>
                    <Icon id="969">
                        <href>http://maps.google.com/mapfiles/kml/pushpin/ylw-pushpin.png</href>
                    </Icon>
                </IconStyle>
            </Style>
            <Style id="972">
                <IconStyle id="973">
                    <color>ff0000ff</color>
                    <colorMode>normal</colorMode>
                    <scale>1</scale>
                    <heading>0</heading>
                    <Icon id="974">
                        <href>http://maps.google.com/mapfiles/kml/pushpin/ylw-pushpin.png</href>
                    </Icon>
                </IconStyle>
            </Style>
            <Style id="977">
                <IconStyle id="978">
                    <color>ff0000ff</color>
                    <colorMode>normal</colorMode>
                    <scale>1</scale>
                    <heading>0</heading>
                    <Icon id="979">
                        <href>http://maps.google.com/mapfiles/kml/pushpin/ylw-pushpin.png</href>
                    </Icon>
                </IconStyle>
            </Style>
            <Style id="982">
                <IconStyle id="983">
                    <color>ff0000ff</color>
                    <colorMode>normal</colorMode>
                    <scale>1</scale>
                    <heading>0</heading>
                    <Icon id="984">
                        <href>http://maps.google.com/mapfiles/kml/pushpin/ylw-pushpin.png</href>
                    </Icon>
                </IconStyle>
            </Style>
            <Style id="987">
                <IconStyle id="988">
                    <color>ff0000ff</color>
                    <colorMode>normal</colorMode>
                    <scale>1</scale>
                    <heading>0</heading>
                    <Icon id="989">
                        <href>http://maps.google.com/mapfiles/kml/pushpin/ylw-pushpin.png</href>
                    </Icon>
                </IconStyle>
            </Style>
            <Style id="992">
                <IconStyle id="993">
                    <color>ff0000ff</color>
                    <colorMode>normal</colorMode>
                    <scale>1</scale>
                    <heading>0</heading>
                    <Icon id="994">
                        <href>http://maps.google.com/mapfiles/kml/pushpin/ylw-pushpin.png</href>
                    </Icon>
                </IconStyle>
            </Style>
            <Style id="997">
                <IconStyle id="998">
                    <color>ff0000ff</color>
                    <colorMode>normal</colorMode>
                    <scale>1</scale>
                    <heading>0</heading>
                    <Icon id="999">
                        <href>http://maps.google.com/mapfiles/kml/pushpin/ylw-pushpin.png</href>
                    </Icon>
                </IconStyle>
            </Style>
            <Style id="1002">
                <IconStyle id="1003">
                    <color>ff0000ff</color>
                    <colorMode>normal</colorMode>
                    <scale>1</scale>
                    <heading>0</heading>
                    <Icon id="1004">
                        <href>http://maps.google.com/mapfiles/kml/pushpin/ylw-pushpin.png</href>
                    </Icon>
                </IconStyle>
            </Style>
            <Style id="1007">
                <IconStyle id="1008">
                    <color>ff0000ff</color>
                    <colorMode>normal</colorMode>
                    <scale>1</scale>
                    <heading>0</heading>
                    <Icon id="1009">
                        <href>http://maps.google.com/mapfiles/kml/pushpin/ylw-pushpin.png</href>
                    </Icon>
                </IconStyle>
            </Style>
            <Style id="1012">
                <IconStyle id="1013">
                    <color>ff0000ff</color>
                    <colorMode>normal</colorMode>
                    <scale>1</scale>
                    <heading>0</heading>
                    <Icon id="1014">
                        <href>http://maps.google.com/mapfiles/kml/pushpin/ylw-pushpin.png</href>
                    </Icon>
                </IconStyle>
            </Style>
            <Style id="1017">
                <IconStyle id="1018">
                    <color>ff0000ff</color>
                    <colorMode>normal</colorMode>
                    <scale>1</scale>
                    <heading>0</heading>
                    <Icon id="1019">
                        <href>http://maps.google.com/mapfiles/kml/pushpin/ylw-pushpin.png</href>
                    </Icon>
                </IconStyle>
            </Style>
            <Style id="1022">
                <IconStyle id="1023">
                    <color>ff0000ff</color>
                    <colorMode>normal</colorMode>
                    <scale>1</scale>
                    <heading>0</heading>
                    <Icon id="1024">
                        <href>http://maps.google.com/mapfiles/kml/pushpin/ylw-pushpin.png</href>
                    </Icon>
                </IconStyle>
            </Style>
            <Style id="1027">
                <IconStyle id="1028">
                    <color>ff0000ff</color>
                    <colorMode>normal</colorMode>
                    <scale>1</scale>
                    <heading>0</heading>
                    <Icon id="1029">
                        <href>http://maps.google.com/mapfiles/kml/pushpin/ylw-pushpin.png</href>
                    </Icon>
                </IconStyle>
            </Style>
            <Style id="1032">
                <IconStyle id="1033">
                    <color>ff0000ff</color>
                    <colorMode>normal</colorMode>
                    <scale>1</scale>
                    <heading>0</heading>
                    <Icon id="1034">
                        <href>http://maps.google.com/mapfiles/kml/pushpin/ylw-pushpin.png</href>
                    </Icon>
                </IconStyle>
            </Style>
            <Style id="1037">
                <IconStyle id="1038">
                    <color>ff0000ff</color>
                    <colorMode>normal</colorMode>
                    <scale>1</scale>
                    <heading>0</heading>
                    <Icon id="1039">
                        <href>http://maps.google.com/mapfiles/kml/pushpin/ylw-pushpin.png</href>
                    </Icon>
                </IconStyle>
            </Style>
            <Style id="1042">
                <IconStyle id="1043">
                    <color>ff0000ff</color>
                    <colorMode>normal</colorMode>
                    <scale>1</scale>
                    <heading>0</heading>
                    <Icon id="1044">
                        <href>http://maps.google.com/mapfiles/kml/pushpin/ylw-pushpin.png</href>
                    </Icon>
                </IconStyle>
            </Style>
            <Style id="1047">
                <IconStyle id="1048">
                    <color>ff0000ff</color>
                    <colorMode>normal</colorMode>
                    <scale>1</scale>
                    <heading>0</heading>
                    <Icon id="1049">
                        <href>http://maps.google.com/mapfiles/kml/pushpin/ylw-pushpin.png</href>
                    </Icon>
                </IconStyle>
            </Style>
            <name>DOMITILA QUISPE MIRANDA</name>
            <Placemark id="951">
                <name>MIRIAM YANETH  PRADO VITE</name>
                <description>CALLE BALTA S/N LA TORTUGA-PAITA-PAITA
Paita
Paita
Piura
Perú</description>
                <styleUrl>#952</styleUrl>
                <Point id="950">
                    <coordinates>-81.1231199,-5.2815831,0.0</coordinates>
                </Point>
            </Placemark>
            <Placemark id="956">
                <name>SOLUCIONES ALIMENTICIAS 102 S.R.L.</name>
                <description>SOLUCIONES ALIMENTICIAS 102 S.R.L.
Av complementaria paita
Paita
200101Paita
Piura
Perú</description>
                <styleUrl>#957</styleUrl>
                <Point id="955">
                    <coordinates>-81.1100249,-5.1084531,0.0</coordinates>
                </Point>
            </Placemark>
            <Placemark id="961">
                <name>MIRTHA MILAGROS QUEREVALU SANTOS</name>
                <description>Calle Piura   referencia al costado de decormuebles tortuga 🐢
Paita
Paita
Piura
Perú</description>
                <styleUrl>#962</styleUrl>
                <Point id="960">
                    <coordinates>-81.1160652,-5.2764767,0.0</coordinates>
                </Point>
            </Placemark>
            <Placemark id="966">
                <name>NORMA CHAPILLIQUEN QUEREVALU</name>
                <description>Calle vice sin número la tortuga
Paita
Paita
Piura
Perú</description>
                <styleUrl>#967</styleUrl>
                <Point id="965">
                    <coordinates>-81.1181717,-5.2785205,0.0</coordinates>
                </Point>
            </Placemark>
            <Placemark id="971">
                <name>DOLORES PRADO QUEREVALU</name>
                <description>Av Piura tortuga
Paita
Paita
Piura
Perú</description>
                <styleUrl>#972</styleUrl>
                <Point id="970">
                    <coordinates>-81.1201024,-5.2792053,0.0</coordinates>
                </Point>
            </Placemark>
            <Placemark id="976">
                <name>RUTH ZARELY LLENQUE ECHE</name>
                <description>Av Piura s/n tortuga
Paita

Piura
Perú</description>
                <styleUrl>#977</styleUrl>
                <Point id="975">
                    <coordinates>-81.119761,-5.279513,0.0</coordinates>
                </Point>
            </Placemark>
            <Placemark id="981">
                <name>KATY YESSENIA JUAREZ PAZ</name>
                <description>Av Piura s/n Caleta la Tortuga
Paita
Paita
Piura
Perú</description>
                <styleUrl>#982</styleUrl>
                <Point id="980">
                    <coordinates>-81.1202387,-5.2795282,0.0</coordinates>
                </Point>
            </Placemark>
            <Placemark id="986">
                <name>MELISA EVELIN PUESCAS MONCADA</name>
                <description>Calle  nuevo porvenir s/n referencia 2 calles atrás del colegio Jesús es mi pastor
Paita
Paita
Piura
Perú</description>
                <styleUrl>#987</styleUrl>
                <Point id="985">
                    <coordinates>-81.1226833,-5.2799637,0.0</coordinates>
                </Point>
            </Placemark>
            <Placemark id="991">
                <name>MILAGROS QUEREVALU ALVAREZ</name>
                <description>Calle Ayabaca sin número tortuga
Paita
Paita
Piura
Perú</description>
                <styleUrl>#992</styleUrl>
                <Point id="990">
                    <coordinates>-81.1225578,-5.2785106,0.0</coordinates>
                </Point>
            </Placemark>
            <Placemark id="996">
                <name>ROSMERY YESENIA PAZO MARTINEZ</name>
                <description>Calle itamarati tortuga
Paita

Piura
Perú</description>
                <styleUrl>#997</styleUrl>
                <Point id="995">
                    <coordinates>-81.1216465,-5.2817028,0.0</coordinates>
                </Point>
            </Placemark>
            <Placemark id="1001">
                <name>OLGA BIGIL SALAZAR</name>
                <description>Yacila referencia por el agente bcp
Paita

Piura
Perú</description>
                <styleUrl>#1002</styleUrl>
                <Point id="1000">
                    <coordinates>-81.1100889,-5.1083735,0.0</coordinates>
                </Point>
            </Placemark>
            <Placemark id="1006">
                <name>GUISSELA DEL CARMEN QUEREVALU VILLEGAS</name>
                <description>Calle Miramar tortuga
Paita
Paita
Piura
Perú</description>
                <styleUrl>#1007</styleUrl>
                <Point id="1005">
                    <coordinates>-81.1228667,-5.2798434,0.0</coordinates>
                </Point>
            </Placemark>
            <Placemark id="1011">
                <name>JUANA MARLENE LLENQUE VILELA</name>
                <description>Calle santa Isabel mz c Lt 2 YACILA
Paita
Paita
Piura
Perú</description>
                <styleUrl>#1012</styleUrl>
                <Point id="1010">
                    <coordinates>-81.1709369,-5.1338495,0.0</coordinates>
                </Point>
            </Placemark>
            <Placemark id="1016">
                <name>KAREN MIRELLA QUEREVALU ZETA</name>
                <description>San Benito s/n por la iglesia
Paita
Paita
Piura
Perú</description>
                <styleUrl>#1017</styleUrl>
                <Point id="1015">
                    <coordinates>-81.1710683,-5.1322208,0.0</coordinates>
                </Point>
            </Placemark>
            <Placemark id="1021">
                <name>VILLEGAS PUESCAS ELENA MARLEN</name>
                <description>CA.CALETA YACILA MZ.B LT-10
Paita
Paita
Piura
Perú</description>
                <styleUrl>#1022</styleUrl>
                <Point id="1020">
                    <coordinates>-81.1709554,-5.1319578,0.0</coordinates>
                </Point>
            </Placemark>
            <Placemark id="1026">
                <name>VILLEGAS PUESCAS ELENA MARLEN</name>
                <description>CA.CALETA YACILA MZ.B LT-10
Paita
Paita
Piura
Perú</description>
                <styleUrl>#1027</styleUrl>
                <Point id="1025">
                    <coordinates>-81.1709554,-5.1319578,0.0</coordinates>
                </Point>
            </Placemark>
            <Placemark id="1031">
                <name>MARIA YANET VALDERA VALDERA</name>
                <description>JR YACILAz P lote 11 yacila
Paita
Paita
Piura
Perú</description>
                <styleUrl>#1032</styleUrl>
                <Point id="1030">
                    <coordinates>-81.1692223,-5.1319744,0.0</coordinates>
                </Point>
            </Placemark>
            <Placemark id="1036">
                <name>DE PURIZACA LIDIA YPANAQUE SILVA</name>
                <description>FRANCISCO BOLOGNESI LOTE C 23 YACILA
Paita
Paita
Piura
Perú</description>
                <styleUrl>#1037</styleUrl>
                <Point id="1035">
                    <coordinates>-81.1706079,-5.1344569,0.0</coordinates>
                </Point>
            </Placemark>
            <Placemark id="1041">
                <name>NANCY QUEREVALU IPANAQUE</name>
                <description>CALLE AV JOSE OLAYA Q-04 YACILA-PAITA-PAITA
Paita

Piura
Perú</description>
                <styleUrl>#1042</styleUrl>
                <Point id="1040">
                    <coordinates>-81.169499,-5.1327289,0.0</coordinates>
                </Point>
            </Placemark>
            <Placemark id="1046">
                <name>MARIA ADELA PASAPERA ANCAJIMA</name>
                <description>AH.FRANCISCO BOLOGNESI MZ F LT 3 YA
Paita
Paita
Piura
Perú</description>
                <styleUrl>#1047</styleUrl>
                <Point id="1045">
                    <coordinates>-81.1706698,-5.1340833,0.0</coordinates>
                </Point>
            </Placemark>
        </Folder>
        <Folder id="1050">
            <Style id="1053">
                <IconStyle id="1054">
                    <color>ffff0000</color>
                    <colorMode>normal</colorMode>
                    <scale>1</scale>
                    <heading>0</heading>
                    <Icon id="1055">
                        <href>http://maps.google.com/mapfiles/kml/pushpin/ylw-pushpin.png</href>
                    </Icon>
                </IconStyle>
            </Style>
            <Style id="1058">
                <IconStyle id="1059">
                    <color>ffff0000</color>
                    <colorMode>normal</colorMode>
                    <scale>1</scale>
                    <heading>0</heading>
                    <Icon id="1060">
                        <href>http://maps.google.com/mapfiles/kml/pushpin/ylw-pushpin.png</href>
                    </Icon>
                </IconStyle>
            </Style>
            <Style id="1063">
                <IconStyle id="1064">
                    <color>ffff0000</color>
                    <colorMode>normal</colorMode>
                    <scale>1</scale>
                    <heading>0</heading>
                    <Icon id="1065">
                        <href>http://maps.google.com/mapfiles/kml/pushpin/ylw-pushpin.png</href>
                    </Icon>
                </IconStyle>
            </Style>
            <Style id="1068">
                <IconStyle id="1069">
                    <color>ffff0000</color>
                    <colorMode>normal</colorMode>
                    <scale>1</scale>
                    <heading>0</heading>
                    <Icon id="1070">
                        <href>http://maps.google.com/mapfiles/kml/pushpin/ylw-pushpin.png</href>
                    </Icon>
                </IconStyle>
            </Style>
            <Style id="1073">
                <IconStyle id="1074">
                    <color>ffff0000</color>
                    <colorMode>normal</colorMode>
                    <scale>1</scale>
                    <heading>0</heading>
                    <Icon id="1075">
                        <href>http://maps.google.com/mapfiles/kml/pushpin/ylw-pushpin.png</href>
                    </Icon>
                </IconStyle>
            </Style>
            <Style id="1078">
                <IconStyle id="1079">
                    <color>ffff0000</color>
                    <colorMode>normal</colorMode>
                    <scale>1</scale>
                    <heading>0</heading>
                    <Icon id="1080">
                        <href>http://maps.google.com/mapfiles/kml/pushpin/ylw-pushpin.png</href>
                    </Icon>
                </IconStyle>
            </Style>
            <Style id="1083">
                <IconStyle id="1084">
                    <color>ffff0000</color>
                    <colorMode>normal</colorMode>
                    <scale>1</scale>
                    <heading>0</heading>
                    <Icon id="1085">
                        <href>http://maps.google.com/mapfiles/kml/pushpin/ylw-pushpin.png</href>
                    </Icon>
                </IconStyle>
            </Style>
            <Style id="1088">
                <IconStyle id="1089">
                    <color>ffff0000</color>
                    <colorMode>normal</colorMode>
                    <scale>1</scale>
                    <heading>0</heading>
                    <Icon id="1090">
                        <href>http://maps.google.com/mapfiles/kml/pushpin/ylw-pushpin.png</href>
                    </Icon>
                </IconStyle>
            </Style>
            <Style id="1093">
                <IconStyle id="1094">
                    <color>ffff0000</color>
                    <colorMode>normal</colorMode>
                    <scale>1</scale>
                    <heading>0</heading>
                    <Icon id="1095">
                        <href>http://maps.google.com/mapfiles/kml/pushpin/ylw-pushpin.png</href>
                    </Icon>
                </IconStyle>
            </Style>
            <Style id="1098">
                <IconStyle id="1099">
                    <color>ffff0000</color>
                    <colorMode>normal</colorMode>
                    <scale>1</scale>
                    <heading>0</heading>
                    <Icon id="1100">
                        <href>http://maps.google.com/mapfiles/kml/pushpin/ylw-pushpin.png</href>
                    </Icon>
                </IconStyle>
            </Style>
            <Style id="1103">
                <IconStyle id="1104">
                    <color>ffff0000</color>
                    <colorMode>normal</colorMode>
                    <scale>1</scale>
                    <heading>0</heading>
                    <Icon id="1105">
                        <href>http://maps.google.com/mapfiles/kml/pushpin/ylw-pushpin.png</href>
                    </Icon>
                </IconStyle>
            </Style>
            <name>LEONARDO VIERA CHAVEZ</name>
            <Placemark id="1052">
                <name>JOSE PASCUAL MARTINEZ MORALES</name>
                <description>Paita alta mercadillo santa rosa
Paita
Paita
Piura
Perú</description>
                <styleUrl>#1053</styleUrl>
                <Point id="1051">
                    <coordinates>-81.1124877,-5.0909155,0.0</coordinates>
                </Point>
            </Placemark>
            <Placemark id="1057">
                <name>PASACHE RUIZ KATHERINE ADALI</name>
                <description>Mercadillo santa rosa s/n paita
Paita
Paita
Piura
Perú</description>
                <styleUrl>#1058</styleUrl>
                <Point id="1056">
                    <coordinates>-81.0988401,-5.0919978,0.0</coordinates>
                </Point>
            </Placemark>
            <Placemark id="1062">
                <name>MARIA JESUS RODRIGUEZ SILVA</name>
                <description>MZ. CH LT. 2 AH. 5 FEBRERO - PAITA interior mercadillo santa rosa frente al sagrado
Paita
Paita
Piura
Perú</description>
                <styleUrl>#1063</styleUrl>
                <Point id="1061">
                    <coordinates>-81.0989605,-5.0905724,0.0</coordinates>
                </Point>
            </Placemark>
            <Placemark id="1067">
                <name>FERNANDEZ MIRANDA JOSEFA</name>
                <description>MZ.E1 LT.08 AH CIUDAD ROJA
Paita
Paita
Piura
Perú</description>
                <styleUrl>#1068</styleUrl>
                <Point id="1066">
                    <coordinates>-81.0989557,-5.0928504,0.0</coordinates>
                </Point>
            </Placemark>
            <Placemark id="1072">
                <name>FERNANDEZ MIRANDA JOSEFA</name>
                <description>MZ.E1 LT.08 AH CIUDAD ROJA
Paita
Paita
Piura
Perú</description>
                <styleUrl>#1073</styleUrl>
                <Point id="1071">
                    <coordinates>-81.0989557,-5.0928504,0.0</coordinates>
                </Point>
            </Placemark>
            <Placemark id="1077">
                <name>DALINDA JARAMILLO VALLE</name>
                <description>Interior mercado santa rosa paita alta
Paita
Paita
Piura
Perú</description>
                <styleUrl>#1078</styleUrl>
                <Point id="1076">
                    <coordinates>-81.0991439,-5.0921427,0.0</coordinates>
                </Point>
            </Placemark>
            <Placemark id="1082">
                <name>MARIA MELANIA ALBERCA QUINDE</name>
                <description>MERCADILLO SANTA ROSA-PAITA-PAITA
Paita
Paita
Piura
Perú</description>
                <styleUrl>#1083</styleUrl>
                <Point id="1081">
                    <coordinates>-81.1131569,-5.0899093,0.0</coordinates>
                </Point>
            </Placemark>
            <Placemark id="1087">
                <name>MARIA MELANIA ALBERCA QUINDE</name>
                <description>MERCADILLO SANTA ROSA-PAITA-PAITA
Paita
Paita
Piura
Perú</description>
                <styleUrl>#1088</styleUrl>
                <Point id="1086">
                    <coordinates>-81.1131569,-5.0899093,0.0</coordinates>
                </Point>
            </Placemark>
            <Placemark id="1092">
                <name>JOSE PASCUAL MARTINEZ MORALES</name>
                <description>Paita alta mercadillo santa rosa
Paita
Paita
Piura
Perú</description>
                <styleUrl>#1093</styleUrl>
                <Point id="1091">
                    <coordinates>-81.1124877,-5.0909155,0.0</coordinates>
                </Point>
            </Placemark>
            <Placemark id="1097">
                <name>DALINDA JARAMILLO VALLE</name>
                <description>Interior mercado santa rosa paita alta
Paita
Paita
Piura
Perú</description>
                <styleUrl>#1098</styleUrl>
                <Point id="1096">
                    <coordinates>-81.0991439,-5.0921427,0.0</coordinates>
                </Point>
            </Placemark>
            <Placemark id="1102">
                <name>PASACHE RUIZ KATHERINE ADALI</name>
                <description>Mercadillo santa rosa s/n paita
Paita
Paita
Piura
Perú</description>
                <styleUrl>#1103</styleUrl>
                <Point id="1101">
                    <coordinates>-81.0988401,-5.0919978,0.0</coordinates>
                </Point>
            </Placemark>
        </Folder>
    </Document>
</kml>
