<?xml version="1.0" encoding="UTF-8"?>
<kml xmlns="http://www.opengis.net/kml/2.2" xmlns:gx="http://www.google.com/kml/ext/2.2">
    <Document id="872">
        <Folder id="873">
            <Style id="876">
                <IconStyle id="877">
                    <color>ff0000ff</color>
                    <colorMode>normal</colorMode>
                    <scale>1</scale>
                    <heading>0</heading>
                    <Icon id="878">
                        <href>http://maps.google.com/mapfiles/kml/pushpin/ylw-pushpin.png</href>
                    </Icon>
                </IconStyle>
            </Style>
            <Style id="881">
                <IconStyle id="882">
                    <color>ff0000ff</color>
                    <colorMode>normal</colorMode>
                    <scale>1</scale>
                    <heading>0</heading>
                    <Icon id="883">
                        <href>http://maps.google.com/mapfiles/kml/pushpin/ylw-pushpin.png</href>
                    </Icon>
                </IconStyle>
            </Style>
            <Style id="886">
                <IconStyle id="887">
                    <color>ff0000ff</color>
                    <colorMode>normal</colorMode>
                    <scale>1</scale>
                    <heading>0</heading>
                    <Icon id="888">
                        <href>http://maps.google.com/mapfiles/kml/pushpin/ylw-pushpin.png</href>
                    </Icon>
                </IconStyle>
            </Style>
            <Style id="891">
                <IconStyle id="892">
                    <color>ff0000ff</color>
                    <colorMode>normal</colorMode>
                    <scale>1</scale>
                    <heading>0</heading>
                    <Icon id="893">
                        <href>http://maps.google.com/mapfiles/kml/pushpin/ylw-pushpin.png</href>
                    </Icon>
                </IconStyle>
            </Style>
            <Style id="896">
                <IconStyle id="897">
                    <color>ff0000ff</color>
                    <colorMode>normal</colorMode>
                    <scale>1</scale>
                    <heading>0</heading>
                    <Icon id="898">
                        <href>http://maps.google.com/mapfiles/kml/pushpin/ylw-pushpin.png</href>
                    </Icon>
                </IconStyle>
            </Style>
            <Style id="901">
                <IconStyle id="902">
                    <color>ff0000ff</color>
                    <colorMode>normal</colorMode>
                    <scale>1</scale>
                    <heading>0</heading>
                    <Icon id="903">
                        <href>http://maps.google.com/mapfiles/kml/pushpin/ylw-pushpin.png</href>
                    </Icon>
                </IconStyle>
            </Style>
            <Style id="906">
                <IconStyle id="907">
                    <color>ff0000ff</color>
                    <colorMode>normal</colorMode>
                    <scale>1</scale>
                    <heading>0</heading>
                    <Icon id="908">
                        <href>http://maps.google.com/mapfiles/kml/pushpin/ylw-pushpin.png</href>
                    </Icon>
                </IconStyle>
            </Style>
            <Style id="911">
                <IconStyle id="912">
                    <color>ff0000ff</color>
                    <colorMode>normal</colorMode>
                    <scale>1</scale>
                    <heading>0</heading>
                    <Icon id="913">
                        <href>http://maps.google.com/mapfiles/kml/pushpin/ylw-pushpin.png</href>
                    </Icon>
                </IconStyle>
            </Style>
            <Style id="916">
                <IconStyle id="917">
                    <color>ff0000ff</color>
                    <colorMode>normal</colorMode>
                    <scale>1</scale>
                    <heading>0</heading>
                    <Icon id="918">
                        <href>http://maps.google.com/mapfiles/kml/pushpin/ylw-pushpin.png</href>
                    </Icon>
                </IconStyle>
            </Style>
            <Style id="921">
                <IconStyle id="922">
                    <color>ff0000ff</color>
                    <colorMode>normal</colorMode>
                    <scale>1</scale>
                    <heading>0</heading>
                    <Icon id="923">
                        <href>http://maps.google.com/mapfiles/kml/pushpin/ylw-pushpin.png</href>
                    </Icon>
                </IconStyle>
            </Style>
            <Style id="926">
                <IconStyle id="927">
                    <color>ff0000ff</color>
                    <colorMode>normal</colorMode>
                    <scale>1</scale>
                    <heading>0</heading>
                    <Icon id="928">
                        <href>http://maps.google.com/mapfiles/kml/pushpin/ylw-pushpin.png</href>
                    </Icon>
                </IconStyle>
            </Style>
            <Style id="931">
                <IconStyle id="932">
                    <color>ff0000ff</color>
                    <colorMode>normal</colorMode>
                    <scale>1</scale>
                    <heading>0</heading>
                    <Icon id="933">
                        <href>http://maps.google.com/mapfiles/kml/pushpin/ylw-pushpin.png</href>
                    </Icon>
                </IconStyle>
            </Style>
            <Style id="936">
                <IconStyle id="937">
                    <color>ff0000ff</color>
                    <colorMode>normal</colorMode>
                    <scale>1</scale>
                    <heading>0</heading>
                    <Icon id="938">
                        <href>http://maps.google.com/mapfiles/kml/pushpin/ylw-pushpin.png</href>
                    </Icon>
                </IconStyle>
            </Style>
            <Style id="941">
                <IconStyle id="942">
                    <color>ff0000ff</color>
                    <colorMode>normal</colorMode>
                    <scale>1</scale>
                    <heading>0</heading>
                    <Icon id="943">
                        <href>http://maps.google.com/mapfiles/kml/pushpin/ylw-pushpin.png</href>
                    </Icon>
                </IconStyle>
            </Style>
            <Style id="946">
                <IconStyle id="947">
                    <color>ff0000ff</color>
                    <colorMode>normal</colorMode>
                    <scale>1</scale>
                    <heading>0</heading>
                    <Icon id="948">
                        <href>http://maps.google.com/mapfiles/kml/pushpin/ylw-pushpin.png</href>
                    </Icon>
                </IconStyle>
            </Style>
            <Style id="951">
                <IconStyle id="952">
                    <color>ff0000ff</color>
                    <colorMode>normal</colorMode>
                    <scale>1</scale>
                    <heading>0</heading>
                    <Icon id="953">
                        <href>http://maps.google.com/mapfiles/kml/pushpin/ylw-pushpin.png</href>
                    </Icon>
                </IconStyle>
            </Style>
            <Style id="956">
                <IconStyle id="957">
                    <color>ff0000ff</color>
                    <colorMode>normal</colorMode>
                    <scale>1</scale>
                    <heading>0</heading>
                    <Icon id="958">
                        <href>http://maps.google.com/mapfiles/kml/pushpin/ylw-pushpin.png</href>
                    </Icon>
                </IconStyle>
            </Style>
            <Style id="961">
                <IconStyle id="962">
                    <color>ff0000ff</color>
                    <colorMode>normal</colorMode>
                    <scale>1</scale>
                    <heading>0</heading>
                    <Icon id="963">
                        <href>http://maps.google.com/mapfiles/kml/pushpin/ylw-pushpin.png</href>
                    </Icon>
                </IconStyle>
            </Style>
            <Style id="966">
                <IconStyle id="967">
                    <color>ff0000ff</color>
                    <colorMode>normal</colorMode>
                    <scale>1</scale>
                    <heading>0</heading>
                    <Icon id="968">
                        <href>http://maps.google.com/mapfiles/kml/pushpin/ylw-pushpin.png</href>
                    </Icon>
                </IconStyle>
            </Style>
            <Style id="971">
                <IconStyle id="972">
                    <color>ff0000ff</color>
                    <colorMode>normal</colorMode>
                    <scale>1</scale>
                    <heading>0</heading>
                    <Icon id="973">
                        <href>http://maps.google.com/mapfiles/kml/pushpin/ylw-pushpin.png</href>
                    </Icon>
                </IconStyle>
            </Style>
            <Style id="976">
                <IconStyle id="977">
                    <color>ff0000ff</color>
                    <colorMode>normal</colorMode>
                    <scale>1</scale>
                    <heading>0</heading>
                    <Icon id="978">
                        <href>http://maps.google.com/mapfiles/kml/pushpin/ylw-pushpin.png</href>
                    </Icon>
                </IconStyle>
            </Style>
            <Style id="981">
                <IconStyle id="982">
                    <color>ff0000ff</color>
                    <colorMode>normal</colorMode>
                    <scale>1</scale>
                    <heading>0</heading>
                    <Icon id="983">
                        <href>http://maps.google.com/mapfiles/kml/pushpin/ylw-pushpin.png</href>
                    </Icon>
                </IconStyle>
            </Style>
            <Style id="986">
                <IconStyle id="987">
                    <color>ff0000ff</color>
                    <colorMode>normal</colorMode>
                    <scale>1</scale>
                    <heading>0</heading>
                    <Icon id="988">
                        <href>http://maps.google.com/mapfiles/kml/pushpin/ylw-pushpin.png</href>
                    </Icon>
                </IconStyle>
            </Style>
            <Style id="991">
                <IconStyle id="992">
                    <color>ff0000ff</color>
                    <colorMode>normal</colorMode>
                    <scale>1</scale>
                    <heading>0</heading>
                    <Icon id="993">
                        <href>http://maps.google.com/mapfiles/kml/pushpin/ylw-pushpin.png</href>
                    </Icon>
                </IconStyle>
            </Style>
            <Style id="996">
                <IconStyle id="997">
                    <color>ff0000ff</color>
                    <colorMode>normal</colorMode>
                    <scale>1</scale>
                    <heading>0</heading>
                    <Icon id="998">
                        <href>http://maps.google.com/mapfiles/kml/pushpin/ylw-pushpin.png</href>
                    </Icon>
                </IconStyle>
            </Style>
            <Style id="1001">
                <IconStyle id="1002">
                    <color>ff0000ff</color>
                    <colorMode>normal</colorMode>
                    <scale>1</scale>
                    <heading>0</heading>
                    <Icon id="1003">
                        <href>http://maps.google.com/mapfiles/kml/pushpin/ylw-pushpin.png</href>
                    </Icon>
                </IconStyle>
            </Style>
            <Style id="1006">
                <IconStyle id="1007">
                    <color>ff0000ff</color>
                    <colorMode>normal</colorMode>
                    <scale>1</scale>
                    <heading>0</heading>
                    <Icon id="1008">
                        <href>http://maps.google.com/mapfiles/kml/pushpin/ylw-pushpin.png</href>
                    </Icon>
                </IconStyle>
            </Style>
            <Style id="1011">
                <IconStyle id="1012">
                    <color>ff0000ff</color>
                    <colorMode>normal</colorMode>
                    <scale>1</scale>
                    <heading>0</heading>
                    <Icon id="1013">
                        <href>http://maps.google.com/mapfiles/kml/pushpin/ylw-pushpin.png</href>
                    </Icon>
                </IconStyle>
            </Style>
            <Style id="1016">
                <IconStyle id="1017">
                    <color>ff0000ff</color>
                    <colorMode>normal</colorMode>
                    <scale>1</scale>
                    <heading>0</heading>
                    <Icon id="1018">
                        <href>http://maps.google.com/mapfiles/kml/pushpin/ylw-pushpin.png</href>
                    </Icon>
                </IconStyle>
            </Style>
            <Style id="1021">
                <IconStyle id="1022">
                    <color>ff0000ff</color>
                    <colorMode>normal</colorMode>
                    <scale>1</scale>
                    <heading>0</heading>
                    <Icon id="1023">
                        <href>http://maps.google.com/mapfiles/kml/pushpin/ylw-pushpin.png</href>
                    </Icon>
                </IconStyle>
            </Style>
            <Style id="1026">
                <IconStyle id="1027">
                    <color>ff0000ff</color>
                    <colorMode>normal</colorMode>
                    <scale>1</scale>
                    <heading>0</heading>
                    <Icon id="1028">
                        <href>http://maps.google.com/mapfiles/kml/pushpin/ylw-pushpin.png</href>
                    </Icon>
                </IconStyle>
            </Style>
            <Style id="1031">
                <IconStyle id="1032">
                    <color>ff0000ff</color>
                    <colorMode>normal</colorMode>
                    <scale>1</scale>
                    <heading>0</heading>
                    <Icon id="1033">
                        <href>http://maps.google.com/mapfiles/kml/pushpin/ylw-pushpin.png</href>
                    </Icon>
                </IconStyle>
            </Style>
            <Style id="1036">
                <IconStyle id="1037">
                    <color>ff0000ff</color>
                    <colorMode>normal</colorMode>
                    <scale>1</scale>
                    <heading>0</heading>
                    <Icon id="1038">
                        <href>http://maps.google.com/mapfiles/kml/pushpin/ylw-pushpin.png</href>
                    </Icon>
                </IconStyle>
            </Style>
            <Style id="1041">
                <IconStyle id="1042">
                    <color>ff0000ff</color>
                    <colorMode>normal</colorMode>
                    <scale>1</scale>
                    <heading>0</heading>
                    <Icon id="1043">
                        <href>http://maps.google.com/mapfiles/kml/pushpin/ylw-pushpin.png</href>
                    </Icon>
                </IconStyle>
            </Style>
            <Style id="1046">
                <IconStyle id="1047">
                    <color>ff0000ff</color>
                    <colorMode>normal</colorMode>
                    <scale>1</scale>
                    <heading>0</heading>
                    <Icon id="1048">
                        <href>http://maps.google.com/mapfiles/kml/pushpin/ylw-pushpin.png</href>
                    </Icon>
                </IconStyle>
            </Style>
            <Style id="1051">
                <IconStyle id="1052">
                    <color>ff0000ff</color>
                    <colorMode>normal</colorMode>
                    <scale>1</scale>
                    <heading>0</heading>
                    <Icon id="1053">
                        <href>http://maps.google.com/mapfiles/kml/pushpin/ylw-pushpin.png</href>
                    </Icon>
                </IconStyle>
            </Style>
            <Style id="1056">
                <IconStyle id="1057">
                    <color>ff0000ff</color>
                    <colorMode>normal</colorMode>
                    <scale>1</scale>
                    <heading>0</heading>
                    <Icon id="1058">
                        <href>http://maps.google.com/mapfiles/kml/pushpin/ylw-pushpin.png</href>
                    </Icon>
                </IconStyle>
            </Style>
            <Style id="1061">
                <IconStyle id="1062">
                    <color>ff0000ff</color>
                    <colorMode>normal</colorMode>
                    <scale>1</scale>
                    <heading>0</heading>
                    <Icon id="1063">
                        <href>http://maps.google.com/mapfiles/kml/pushpin/ylw-pushpin.png</href>
                    </Icon>
                </IconStyle>
            </Style>
            <name>DOMITILA QUISPE MIRANDA</name>
            <Placemark id="875">
                <name>PATRICIA LILIANA MENDOZA MOGOLLON</name>
                <description>MZ 1 LT 10 CA JOSE CARLOS MARIATEGUI NUEVO TAMARINDO
Vichayal
Paita
Piura
Perú</description>
                <styleUrl>#876</styleUrl>
                <Point id="874">
                    <coordinates>-81.102246,-4.8746732,0.0</coordinates>
                </Point>
            </Placemark>
            <Placemark id="880">
                <name>ROSA ARISMENDIS ATOCHE</name>
                <description>CA. PLAZA DE ARMAS 019 CP. TAMARIND
Tamarindo
Tamarindo
Piura
Perú</description>
                <styleUrl>#881</styleUrl>
                <Point id="879">
                    <coordinates>-80.9755629,-4.8780273,0.0</coordinates>
                </Point>
            </Placemark>
            <Placemark id="885">
                <name>BETHA CARMINA CASTILLO CORTEZ</name>
                <description>Calle la Víctor nuevo libertad S/N
Tamarindo
Tamarindo
Piura
Perú</description>
                <styleUrl>#886</styleUrl>
                <Point id="884">
                    <coordinates>-80.9875895,-4.8801147,0.0</coordinates>
                </Point>
            </Placemark>
            <Placemark id="890">
                <name>ARIANA MASSIEL VEGA MEDINA</name>
                <description>Calle Sánchez cerro con Loreto la libertad
Tamarindo
Paita
Piura
Perú</description>
                <styleUrl>#891</styleUrl>
                <Point id="889">
                    <coordinates>-80.9844167,-4.8796325,0.0</coordinates>
                </Point>
            </Placemark>
            <Placemark id="895">
                <name>EVELIN DESIRE PAICO ATOCHE</name>
                <description>Calle arequipa- la libertad
Tamarindo

Piura
Perú</description>
                <styleUrl>#896</styleUrl>
                <Point id="894">
                    <coordinates>-80.97942,-4.88039,0.0</coordinates>
                </Point>
            </Placemark>
            <Placemark id="900">
                <name>KAREN KATHERINE RONDOY VALVERDE</name>
                <description>CA TACNA S/N LIBERTAD - TAMARINDO
Tamarindo
Paita
Piura
Perú</description>
                <styleUrl>#901</styleUrl>
                <Point id="899">
                    <coordinates>-80.9835518,-4.879222,0.0</coordinates>
                </Point>
            </Placemark>
            <Placemark id="905">
                <name>ANA CECILIA MEDINA PAICO</name>
                <description>Calle santo rojas 14 (costado del pozo)
Tamarindo
Paita
Piura
Perú</description>
                <styleUrl>#906</styleUrl>
                <Point id="904">
                    <coordinates>-80.9770892,-4.8802757,0.0</coordinates>
                </Point>
            </Placemark>
            <Placemark id="910">
                <name>ANAGALY YOMAIRA NIZAMA CHAPA</name>
                <description>CONSTITUCION S/N 3 TAMARINDO-SULLANA
Tamarindo
Paita
Piura
Perú</description>
                <styleUrl>#911</styleUrl>
                <Point id="909">
                    <coordinates>-80.9772644,-4.8786515,0.0</coordinates>
                </Point>
            </Placemark>
            <Placemark id="915">
                <name>GARAY GARCIA YENY MARIELA</name>
                <description>CA.SALAVERRY SN
Tamarindo
Paita
Piura
Perú</description>
                <styleUrl>#916</styleUrl>
                <Point id="914">
                    <coordinates>-80.9742432,-4.8778865,0.0</coordinates>
                </Point>
            </Placemark>
            <Placemark id="920">
                <name>ROSANA FACUNDO VEGA</name>
                <description>Manco Cápac1 S/N
Tamarindo
Paita
Piura
Perú</description>
                <styleUrl>#921</styleUrl>
                <Point id="919">
                    <coordinates>-80.974698,-4.8770669,0.0</coordinates>
                </Point>
            </Placemark>
            <Placemark id="925">
                <name>JESUS JANETH GARCIA LLACSAHUACHE</name>
                <description>MZA LL LT-37 I ETP MARCO JARA PAITA
Paita
Paita
Piura
Perú</description>
                <styleUrl>#926</styleUrl>
                <Point id="924">
                    <coordinates>-81.0977441,-5.0996917,0.0</coordinates>
                </Point>
            </Placemark>
            <Placemark id="930">
                <name>MARJURY MENDOZA CORTEZ</name>
                <description>Calle sechurita tamarindo
Paita
Paita
Piura
Perú</description>
                <styleUrl>#931</styleUrl>
                <Point id="929">
                    <coordinates>-80.969026,-4.8763338,0.0</coordinates>
                </Point>
            </Placemark>
            <Placemark id="935">
                <name>MARIA ANTONIA CHAPA SILUPU DE MOGOLLON</name>
                <description>SECHURITA FRENTE AL PARQUE TAMARINDO-PIURA
Tamarindo
Paita
Piura
Perú</description>
                <styleUrl>#936</styleUrl>
                <Point id="934">
                    <coordinates>-80.9695349,-4.8769471,0.0</coordinates>
                </Point>
            </Placemark>
            <Placemark id="940">
                <name>TALLEDO PALACIOS NELLY</name>
                <description>CA CONSTITUCION SN POR LA POSTA DE TAMARINDO
Tamarindo
Paita
Piura
Perú</description>
                <styleUrl>#941</styleUrl>
                <Point id="939">
                    <coordinates>-80.9723186,-4.8781549,0.0</coordinates>
                </Point>
            </Placemark>
            <Placemark id="945">
                <name>LOPEZ NUÑEZ LALESHKA MERCEDES</name>
                <description>LOPEZ NUÑEZ LALESHKA MERCEDES
Calle plaza de armas S/N tamarindo
Tamarindo
Paita
Piura
Perú</description>
                <styleUrl>#946</styleUrl>
                <Point id="944">
                    <coordinates>-80.9756166,-4.8784149,0.0</coordinates>
                </Point>
            </Placemark>
            <Placemark id="950">
                <name>NANCY CLAVIJO MORAN</name>
                <description>Calle Salaverry SN tamarindo
Tamarindo
Paita
Piura
Perú</description>
                <styleUrl>#951</styleUrl>
                <Point id="949">
                    <coordinates>-80.9742683,-4.8779319,0.0</coordinates>
                </Point>
            </Placemark>
            <Placemark id="955">
                <name>LOPEZ NUÑEZ LALESHKA MERCEDES</name>
                <description>LOPEZ NUÑEZ LALESHKA MERCEDES
Calle plaza de armas S/N tamarindo
Tamarindo
Paita
Piura
Perú</description>
                <styleUrl>#956</styleUrl>
                <Point id="954">
                    <coordinates>-80.9756166,-4.8784149,0.0</coordinates>
                </Point>
            </Placemark>
            <Placemark id="960">
                <name>NANCY CLAVIJO MORAN</name>
                <description>Calle Salaverry SN tamarindo
Tamarindo
Paita
Piura
Perú</description>
                <styleUrl>#961</styleUrl>
                <Point id="959">
                    <coordinates>-80.9742683,-4.8779319,0.0</coordinates>
                </Point>
            </Placemark>
            <Placemark id="965">
                <name>JENNY EMIDIA CRUZ ALBINES</name>
                <description>Calle Bolognesi sn tamarindo
Tamarindo
Paita
Piura
Perú</description>
                <styleUrl>#966</styleUrl>
                <Point id="964">
                    <coordinates>-80.9762283,-4.8799201,0.0</coordinates>
                </Point>
            </Placemark>
            <Placemark id="970">
                <name>CARNAQUE DELGADO MARIA DEL PILAR</name>
                <description>CA el tambo
Tamarindo
Paita
Piura
Perú</description>
                <styleUrl>#971</styleUrl>
                <Point id="969">
                    <coordinates>-81.0041634,-4.886857,0.0</coordinates>
                </Point>
            </Placemark>
            <Placemark id="975">
                <name>AMELIA PEÑA GIRON</name>
                <description>Calle San Martin tamarindo
Tamarindo
Paita
Piura
Perú</description>
                <styleUrl>#976</styleUrl>
                <Point id="974">
                    <coordinates>-80.9761198,-4.8798192,0.0</coordinates>
                </Point>
            </Placemark>
            <Placemark id="980">
                <name>CRUZ BENITES ERIKA ABIGAIL</name>
                <description>C.P.TAMBO SN
Tamarindo
Paita
Piura
Perú</description>
                <styleUrl>#981</styleUrl>
                <Point id="979">
                    <coordinates>-81.004647,-4.888201,0.0</coordinates>
                </Point>
            </Placemark>
            <Placemark id="985">
                <name>KAREN SHESIRA YAMUNAQUE NIZAMA</name>
                <description>Calle Simón Rodríguez S/N el tambo
Tamarindo
Paita
Piura
Perú</description>
                <styleUrl>#986</styleUrl>
                <Point id="984">
                    <coordinates>-81.0030332,-4.8859453,0.0</coordinates>
                </Point>
            </Placemark>
            <Placemark id="990">
                <name>LUCY SMITH LOPEZ INFANTE</name>
                <description>Alfonso Ugarte 62 tamarindo
Tamarindo
Paita
Piura
Perú</description>
                <styleUrl>#991</styleUrl>
                <Point id="989">
                    <coordinates>-80.9771422,-4.8805769,0.0</coordinates>
                </Point>
            </Placemark>
            <Placemark id="995">
                <name>ESTHER CESPEDES LUPU</name>
                <description>Calle independencia amotape  referencia frente al cacique
Tamarindo

Piura
Perú</description>
                <styleUrl>#996</styleUrl>
                <Point id="994">
                    <coordinates>-81.0154898,-4.8829023,0.0</coordinates>
                </Point>
            </Placemark>
            <Placemark id="1000">
                <name>BENITES GARCIA VDA DE MEDINA LOURDES MARTINA</name>
                <description>CA.INDEPENDENCIA -AMOTAPE NÂ°333 -Q
Tamarindo
Paita
Piura
Perú</description>
                <styleUrl>#1001</styleUrl>
                <Point id="999">
                    <coordinates>-81.0151915,-4.8855813,0.0</coordinates>
                </Point>
            </Placemark>
            <Placemark id="1005">
                <name>GABY GUISELA ESTRADA SILVA</name>
                <description>Calle grau sn miramar
Vichayal


Perú</description>
                <styleUrl>#1006</styleUrl>
                <Point id="1004">
                    <coordinates>-81.100572,-4.87187,0.0</coordinates>
                </Point>
            </Placemark>
            <Placemark id="1010">
                <name>CARLOS ALBERTO OLIVA PEÑA</name>
                <description>Plaza de armas 114 amotape
Tamarindo

Piura
Perú</description>
                <styleUrl>#1011</styleUrl>
                <Point id="1009">
                    <coordinates>-81.0150023,-4.8811925,0.0</coordinates>
                </Point>
            </Placemark>
            <Placemark id="1015">
                <name>JENNY CARRILLO VARGAS</name>
                <description>CAL. PLAZA DE ARMAS MZ.6 LT11 CERCA
Tamarindo
Paita
Piura
Perú</description>
                <styleUrl>#1016</styleUrl>
                <Point id="1014">
                    <coordinates>-81.0151236,-4.8810972,0.0</coordinates>
                </Point>
            </Placemark>
            <Placemark id="1020">
                <name>CLAVIJO DE SAENZ MARIA ISABEL</name>
                <description>CA.SAN MARTIN SN al costado de la comisaría amotape
Paita
Paita
Piura
Perú</description>
                <styleUrl>#1021</styleUrl>
                <Point id="1019">
                    <coordinates>-81.015935,-4.880586,0.0</coordinates>
                </Point>
            </Placemark>
            <Placemark id="1025">
                <name>CARRASCO BURGOS SARY KAMALIX</name>
                <description>AV.PIURA MZ.14 LT.3 CERCADO FRNT AL
Vichayal
Paita
Piura
Perú</description>
                <styleUrl>#1026</styleUrl>
                <Point id="1024">
                    <coordinates>-81.0669443,-4.8654516,0.0</coordinates>
                </Point>
            </Placemark>
            <Placemark id="1030">
                <name>LUZ MARIA SANCHEZ RAMOS</name>
                <description>VICHAYAL
Vichayal
Paita
Piura
Perú</description>
                <styleUrl>#1031</styleUrl>
                <Point id="1029">
                    <coordinates>-81.0651004,-4.8657593,0.0</coordinates>
                </Point>
            </Placemark>
            <Placemark id="1035">
                <name>PEÑA VARGAS MACHUCA BRIGITTE DEYANN</name>
                <description>AV MARISCAL CASTILLA MZ 35 LT 14 C.
Vichayal
Vichayal
Piura
Perú</description>
                <styleUrl>#1036</styleUrl>
                <Point id="1034">
                    <coordinates>-81.0706702,-4.8647364,0.0</coordinates>
                </Point>
            </Placemark>
            <Placemark id="1040">
                <name>ANITA MARLENY VILCHEZ FERNANDEZ</name>
                <description>Calle nuevo talara salida de vichayal
Vichayal
Talara
Piura
Perú</description>
                <styleUrl>#1041</styleUrl>
                <Point id="1039">
                    <coordinates>-81.0623827,-4.8650128,0.0</coordinates>
                </Point>
            </Placemark>
            <Placemark id="1045">
                <name>ALICE NATALI RUIZ SERNAQUE</name>
                <description>Calle grau  frente al parque la amistad miramar
Vichayal
Paita
Piura
Perú</description>
                <styleUrl>#1046</styleUrl>
                <Point id="1044">
                    <coordinates>-81.1005227,-4.8718071,0.0</coordinates>
                </Point>
            </Placemark>
            <Placemark id="1050">
                <name>ROSA MARIA TAVARA OLAYA</name>
                <description>CA MIGUEL GRAU S/N MIRAMAR referencia frente comunidad campesina
Tamarindo
Paita
Piura
Perú</description>
                <styleUrl>#1051</styleUrl>
                <Point id="1049">
                    <coordinates>-81.1011817,-4.8735825,0.0</coordinates>
                </Point>
            </Placemark>
            <Placemark id="1055">
                <name>MADELEINE ESTRADA RAMOS</name>
                <description>MADELEINE ESTRADA RAMOS
JR. MIGUEL GRAU NRO. S/N C.P.M MIRA
Colan
Paita
Piura
Perú</description>
                <styleUrl>#1056</styleUrl>
                <Point id="1054">
                    <coordinates>-81.056225,-4.901797,0.0</coordinates>
                </Point>
            </Placemark>
            <Placemark id="1060">
                <name>NERY MICHEL CRUZ CALDERON</name>
                <description>Miramar a espaldas de la plazuela
Tamarindo
Paita
Piura
Perú</description>
                <styleUrl>#1061</styleUrl>
                <Point id="1059">
                    <coordinates>-81.1019342,-4.8746148,0.0</coordinates>
                </Point>
            </Placemark>
        </Folder>
        <Folder id="1064">
            <Style id="1067">
                <IconStyle id="1068">
                    <color>ffff0000</color>
                    <colorMode>normal</colorMode>
                    <scale>1</scale>
                    <heading>0</heading>
                    <Icon id="1069">
                        <href>http://maps.google.com/mapfiles/kml/pushpin/ylw-pushpin.png</href>
                    </Icon>
                </IconStyle>
            </Style>
            <Style id="1072">
                <IconStyle id="1073">
                    <color>ffff0000</color>
                    <colorMode>normal</colorMode>
                    <scale>1</scale>
                    <heading>0</heading>
                    <Icon id="1074">
                        <href>http://maps.google.com/mapfiles/kml/pushpin/ylw-pushpin.png</href>
                    </Icon>
                </IconStyle>
            </Style>
            <Style id="1077">
                <IconStyle id="1078">
                    <color>ffff0000</color>
                    <colorMode>normal</colorMode>
                    <scale>1</scale>
                    <heading>0</heading>
                    <Icon id="1079">
                        <href>http://maps.google.com/mapfiles/kml/pushpin/ylw-pushpin.png</href>
                    </Icon>
                </IconStyle>
            </Style>
            <Style id="1082">
                <IconStyle id="1083">
                    <color>ffff0000</color>
                    <colorMode>normal</colorMode>
                    <scale>1</scale>
                    <heading>0</heading>
                    <Icon id="1084">
                        <href>http://maps.google.com/mapfiles/kml/pushpin/ylw-pushpin.png</href>
                    </Icon>
                </IconStyle>
            </Style>
            <Style id="1087">
                <IconStyle id="1088">
                    <color>ffff0000</color>
                    <colorMode>normal</colorMode>
                    <scale>1</scale>
                    <heading>0</heading>
                    <Icon id="1089">
                        <href>http://maps.google.com/mapfiles/kml/pushpin/ylw-pushpin.png</href>
                    </Icon>
                </IconStyle>
            </Style>
            <Style id="1092">
                <IconStyle id="1093">
                    <color>ffff0000</color>
                    <colorMode>normal</colorMode>
                    <scale>1</scale>
                    <heading>0</heading>
                    <Icon id="1094">
                        <href>http://maps.google.com/mapfiles/kml/pushpin/ylw-pushpin.png</href>
                    </Icon>
                </IconStyle>
            </Style>
            <Style id="1097">
                <IconStyle id="1098">
                    <color>ffff0000</color>
                    <colorMode>normal</colorMode>
                    <scale>1</scale>
                    <heading>0</heading>
                    <Icon id="1099">
                        <href>http://maps.google.com/mapfiles/kml/pushpin/ylw-pushpin.png</href>
                    </Icon>
                </IconStyle>
            </Style>
            <Style id="1102">
                <IconStyle id="1103">
                    <color>ffff0000</color>
                    <colorMode>normal</colorMode>
                    <scale>1</scale>
                    <heading>0</heading>
                    <Icon id="1104">
                        <href>http://maps.google.com/mapfiles/kml/pushpin/ylw-pushpin.png</href>
                    </Icon>
                </IconStyle>
            </Style>
            <Style id="1107">
                <IconStyle id="1108">
                    <color>ffff0000</color>
                    <colorMode>normal</colorMode>
                    <scale>1</scale>
                    <heading>0</heading>
                    <Icon id="1109">
                        <href>http://maps.google.com/mapfiles/kml/pushpin/ylw-pushpin.png</href>
                    </Icon>
                </IconStyle>
            </Style>
            <Style id="1112">
                <IconStyle id="1113">
                    <color>ffff0000</color>
                    <colorMode>normal</colorMode>
                    <scale>1</scale>
                    <heading>0</heading>
                    <Icon id="1114">
                        <href>http://maps.google.com/mapfiles/kml/pushpin/ylw-pushpin.png</href>
                    </Icon>
                </IconStyle>
            </Style>
            <Style id="1117">
                <IconStyle id="1118">
                    <color>ffff0000</color>
                    <colorMode>normal</colorMode>
                    <scale>1</scale>
                    <heading>0</heading>
                    <Icon id="1119">
                        <href>http://maps.google.com/mapfiles/kml/pushpin/ylw-pushpin.png</href>
                    </Icon>
                </IconStyle>
            </Style>
            <Style id="1122">
                <IconStyle id="1123">
                    <color>ffff0000</color>
                    <colorMode>normal</colorMode>
                    <scale>1</scale>
                    <heading>0</heading>
                    <Icon id="1124">
                        <href>http://maps.google.com/mapfiles/kml/pushpin/ylw-pushpin.png</href>
                    </Icon>
                </IconStyle>
            </Style>
            <Style id="1127">
                <IconStyle id="1128">
                    <color>ffff0000</color>
                    <colorMode>normal</colorMode>
                    <scale>1</scale>
                    <heading>0</heading>
                    <Icon id="1129">
                        <href>http://maps.google.com/mapfiles/kml/pushpin/ylw-pushpin.png</href>
                    </Icon>
                </IconStyle>
            </Style>
            <Style id="1132">
                <IconStyle id="1133">
                    <color>ffff0000</color>
                    <colorMode>normal</colorMode>
                    <scale>1</scale>
                    <heading>0</heading>
                    <Icon id="1134">
                        <href>http://maps.google.com/mapfiles/kml/pushpin/ylw-pushpin.png</href>
                    </Icon>
                </IconStyle>
            </Style>
            <Style id="1137">
                <IconStyle id="1138">
                    <color>ffff0000</color>
                    <colorMode>normal</colorMode>
                    <scale>1</scale>
                    <heading>0</heading>
                    <Icon id="1139">
                        <href>http://maps.google.com/mapfiles/kml/pushpin/ylw-pushpin.png</href>
                    </Icon>
                </IconStyle>
            </Style>
            <Style id="1142">
                <IconStyle id="1143">
                    <color>ffff0000</color>
                    <colorMode>normal</colorMode>
                    <scale>1</scale>
                    <heading>0</heading>
                    <Icon id="1144">
                        <href>http://maps.google.com/mapfiles/kml/pushpin/ylw-pushpin.png</href>
                    </Icon>
                </IconStyle>
            </Style>
            <Style id="1147">
                <IconStyle id="1148">
                    <color>ffff0000</color>
                    <colorMode>normal</colorMode>
                    <scale>1</scale>
                    <heading>0</heading>
                    <Icon id="1149">
                        <href>http://maps.google.com/mapfiles/kml/pushpin/ylw-pushpin.png</href>
                    </Icon>
                </IconStyle>
            </Style>
            <Style id="1152">
                <IconStyle id="1153">
                    <color>ffff0000</color>
                    <colorMode>normal</colorMode>
                    <scale>1</scale>
                    <heading>0</heading>
                    <Icon id="1154">
                        <href>http://maps.google.com/mapfiles/kml/pushpin/ylw-pushpin.png</href>
                    </Icon>
                </IconStyle>
            </Style>
            <Style id="1157">
                <IconStyle id="1158">
                    <color>ffff0000</color>
                    <colorMode>normal</colorMode>
                    <scale>1</scale>
                    <heading>0</heading>
                    <Icon id="1159">
                        <href>http://maps.google.com/mapfiles/kml/pushpin/ylw-pushpin.png</href>
                    </Icon>
                </IconStyle>
            </Style>
            <Style id="1162">
                <IconStyle id="1163">
                    <color>ffff0000</color>
                    <colorMode>normal</colorMode>
                    <scale>1</scale>
                    <heading>0</heading>
                    <Icon id="1164">
                        <href>http://maps.google.com/mapfiles/kml/pushpin/ylw-pushpin.png</href>
                    </Icon>
                </IconStyle>
            </Style>
            <Style id="1167">
                <IconStyle id="1168">
                    <color>ffff0000</color>
                    <colorMode>normal</colorMode>
                    <scale>1</scale>
                    <heading>0</heading>
                    <Icon id="1169">
                        <href>http://maps.google.com/mapfiles/kml/pushpin/ylw-pushpin.png</href>
                    </Icon>
                </IconStyle>
            </Style>
            <Style id="1172">
                <IconStyle id="1173">
                    <color>ffff0000</color>
                    <colorMode>normal</colorMode>
                    <scale>1</scale>
                    <heading>0</heading>
                    <Icon id="1174">
                        <href>http://maps.google.com/mapfiles/kml/pushpin/ylw-pushpin.png</href>
                    </Icon>
                </IconStyle>
            </Style>
            <Style id="1177">
                <IconStyle id="1178">
                    <color>ffff0000</color>
                    <colorMode>normal</colorMode>
                    <scale>1</scale>
                    <heading>0</heading>
                    <Icon id="1179">
                        <href>http://maps.google.com/mapfiles/kml/pushpin/ylw-pushpin.png</href>
                    </Icon>
                </IconStyle>
            </Style>
            <Style id="1182">
                <IconStyle id="1183">
                    <color>ffff0000</color>
                    <colorMode>normal</colorMode>
                    <scale>1</scale>
                    <heading>0</heading>
                    <Icon id="1184">
                        <href>http://maps.google.com/mapfiles/kml/pushpin/ylw-pushpin.png</href>
                    </Icon>
                </IconStyle>
            </Style>
            <Style id="1187">
                <IconStyle id="1188">
                    <color>ffff0000</color>
                    <colorMode>normal</colorMode>
                    <scale>1</scale>
                    <heading>0</heading>
                    <Icon id="1189">
                        <href>http://maps.google.com/mapfiles/kml/pushpin/ylw-pushpin.png</href>
                    </Icon>
                </IconStyle>
            </Style>
            <name>LEONARDO VIERA CHAVEZ</name>
            <Placemark id="1066">
                <name>SANTOS MARTINA SEMINARIO DE CRUZ</name>
                <description>CA.LA MAR 401 MZ.28 LT.2 P.NUE
Colan
Paita
Piura
Perú</description>
                <styleUrl>#1067</styleUrl>
                <Point id="1065">
                    <coordinates>-81.057797,-4.901484,0.0</coordinates>
                </Point>
            </Placemark>
            <Placemark id="1071">
                <name>IRIS IVON ALVARADO ZAPATA</name>
                <description>CA. SUCRE 38-2A LADO NORTE BARRIO-P
Colan
Paita
Piura
Perú</description>
                <styleUrl>#1072</styleUrl>
                <Point id="1070">
                    <coordinates>-81.0562974,-4.9026914,0.0</coordinates>
                </Point>
            </Placemark>
            <Placemark id="1076">
                <name>ALEJANDRA ELENA SEMINARIO DELGADILLO</name>
                <description>Calle Jorge Chávez #218 Pueblo nuevo de Colan
Colan
Colan
Piura
Perú</description>
                <styleUrl>#1077</styleUrl>
                <Point id="1075">
                    <coordinates>-81.0586054,-4.9094931,0.0</coordinates>
                </Point>
            </Placemark>
            <Placemark id="1081">
                <name>LUZ MARIA SANCHEZ REMIGIO</name>
                <description>LUZ MARIA SANCHEZ REMIGIO
SAN MARTIN N 1701 PUEBLO NUEVO DE C
Colan
Paita
Piura
Perú</description>
                <styleUrl>#1082</styleUrl>
                <Point id="1080">
                    <coordinates>-81.0598963,-4.9122846,0.0</coordinates>
                </Point>
            </Placemark>
            <Placemark id="1086">
                <name>Juana prado bruno</name>
                <description>Jr jorge chavez sn ( al frente de la agrotecnica)
Paita

Piura
Perú</description>
                <styleUrl>#1087</styleUrl>
                <Point id="1085">
                    <coordinates>-81.0589332,-4.9108174,0.0</coordinates>
                </Point>
            </Placemark>
            <Placemark id="1091">
                <name>SANTAMARIA SANTISTEBAN JUAN</name>
                <description>Mercado Paita
Paita
Paita
Piura
Perú</description>
                <styleUrl>#1092</styleUrl>
                <Point id="1090">
                    <coordinates>-81.1125713,-5.0906563,0.0</coordinates>
                </Point>
            </Placemark>
            <Placemark id="1096">
                <name>JOSE LUIS ROJAS REYES</name>
                <description>JOSE LUIS ROJAS REYES
JR. SUCRE NÂ°1326 CP.PUEBLO NUEVO
Colan
Paita
Piura
Perú</description>
                <styleUrl>#1097</styleUrl>
                <Point id="1095">
                    <coordinates>-81.0569089,-4.9078419,0.0</coordinates>
                </Point>
            </Placemark>
            <Placemark id="1101">
                <name>DOMINGA SUSAN MARTINEZ CARDOZA</name>
                <description>Trans cahuide S/n
Colan
Paita
Piura
Perú</description>
                <styleUrl>#1102</styleUrl>
                <Point id="1100">
                    <coordinates>-81.0567276,-4.9056251,0.0</coordinates>
                </Point>
            </Placemark>
            <Placemark id="1106">
                <name>TERESA DE JESUS RODRIGUEZ VILELA</name>
                <description>Calle Alfonso Ugarte S/N espaldas del colegio 14752
Colan
Paita
Piura
Perú</description>
                <styleUrl>#1107</styleUrl>
                <Point id="1105">
                    <coordinates>-81.0586221,-4.9063288,0.0</coordinates>
                </Point>
            </Placemark>
            <Placemark id="1111">
                <name>YAMO MACHARE OFELIA</name>
                <description>JR.SAN MARTIN 690 PUEBLO NVO
Colan
Paita
Piura
Perú</description>
                <styleUrl>#1112</styleUrl>
                <Point id="1110">
                    <coordinates>-81.057165,-4.903179,0.0</coordinates>
                </Point>
            </Placemark>
            <Placemark id="1116">
                <name>GUISSABELLY MERCEDES GAMBOA ZAPATA</name>
                <description>Jr san martin 602( wx grifo quezada)
Colan
Colan
Piura
Perú</description>
                <styleUrl>#1117</styleUrl>
                <Point id="1115">
                    <coordinates>-81.0570976,-4.9028628,0.0</coordinates>
                </Point>
            </Placemark>
            <Placemark id="1121">
                <name>SANTOS MARTINA SEMINARIO DE CRUZ</name>
                <description>CA.LA MAR 401 MZ.28 LT.2 P.NUE
Colan
Paita
Piura
Perú</description>
                <styleUrl>#1122</styleUrl>
                <Point id="1120">
                    <coordinates>-81.057797,-4.901484,0.0</coordinates>
                </Point>
            </Placemark>
            <Placemark id="1126">
                <name>SOCORRO CUEVA CRUZ</name>
                <description>
Colan
Colan
Piura
Perú</description>
                <styleUrl>#1127</styleUrl>
                <Point id="1125">
                    <coordinates>-81.0584451,-4.9074962,0.0</coordinates>
                </Point>
            </Placemark>
            <Placemark id="1131">
                <name>OTERO LOPEZ AMELIA</name>
                <description>JR.BOLIVAR 525
Colan

Piura
Perú</description>
                <styleUrl>#1132</styleUrl>
                <Point id="1130">
                    <coordinates>-81.0571469,-4.9042296,0.0</coordinates>
                </Point>
            </Placemark>
            <Placemark id="1136">
                <name>IRIS IVON ALVARADO ZAPATA</name>
                <description>CA. SUCRE 38-2A LADO NORTE BARRIO-P
Colan
Paita
Piura
Perú</description>
                <styleUrl>#1137</styleUrl>
                <Point id="1135">
                    <coordinates>-81.0562974,-4.9026914,0.0</coordinates>
                </Point>
            </Placemark>
            <Placemark id="1141">
                <name>ANA MARIA CORTEZ CRUZ</name>
                <description>Calle maravilla s/ n
Paita
Paita
Piura
Perú</description>
                <styleUrl>#1142</styleUrl>
                <Point id="1140">
                    <coordinates>-81.0554738,-4.9038621,0.0</coordinates>
                </Point>
            </Placemark>
            <Placemark id="1146">
                <name>CHIROQUE VILCHEZ MARIA SANTOS</name>
                <description>CHIROQUE VILCHEZ MARIA SANTOS
Jirón Bellavista 531 pueblo nuevo de colan
Colan

Piura
Perú</description>
                <styleUrl>#1147</styleUrl>
                <Point id="1145">
                    <coordinates>-81.055146,-4.905604,0.0</coordinates>
                </Point>
            </Placemark>
            <Placemark id="1151">
                <name>CARMEN CECILIA ALVINES MORALES</name>
                <description>JR. MIRADOR NÂ°108 CP.PUEBLO NUEVO
Colan
Paita
Piura
Perú</description>
                <styleUrl>#1152</styleUrl>
                <Point id="1150">
                    <coordinates>-81.0547737,-4.9102313,0.0</coordinates>
                </Point>
            </Placemark>
            <Placemark id="1156">
                <name>ALBINES CHIROQUE JANINA V.</name>
                <description>JR.MIRADOR 106
Colan
Paita
Piura
Perú</description>
                <styleUrl>#1157</styleUrl>
                <Point id="1155">
                    <coordinates>-81.058001,-4.909697,0.0</coordinates>
                </Point>
            </Placemark>
            <Placemark id="1161">
                <name>DARWIN JOEL PONCE HUERTAS</name>
                <description>CA JIRON LIMA PUEBLO NUEVO COLAN
Colan
Colan
Piura
Perú</description>
                <styleUrl>#1162</styleUrl>
                <Point id="1160">
                    <coordinates>-81.0584149,-4.9099032,0.0</coordinates>
                </Point>
            </Placemark>
            <Placemark id="1166">
                <name>RAMOS ESPERANZA VILCHEZ VILCHEZ</name>
                <description>Calle Andrés Avelino Cáceres sn - Pueblo Nuevo
Colan
Paita
Piura
Perú</description>
                <styleUrl>#1167</styleUrl>
                <Point id="1165">
                    <coordinates>-81.0573894,-4.9132061,0.0</coordinates>
                </Point>
            </Placemark>
            <Placemark id="1171">
                <name>LILIANA MERCEDES AGREDA YESQUEN</name>
                <description>AV 204 AVELINO CACERES 204 PUEBLO NUEVA DE C
Colan
Paita
Piura
Perú</description>
                <styleUrl>#1172</styleUrl>
                <Point id="1170">
                    <coordinates>-81.0573524,-4.9133193,0.0</coordinates>
                </Point>
            </Placemark>
            <Placemark id="1176">
                <name>MARIA ALEJANDRA COBEÑAS GARCIA</name>
                <description>Calle Cáceres 410 pueblo nuevo Paita
Paita
Paita
Piura
Perú</description>
                <styleUrl>#1177</styleUrl>
                <Point id="1175">
                    <coordinates>-81.0562716,-4.91353,0.0</coordinates>
                </Point>
            </Placemark>
            <Placemark id="1181">
                <name>MIRTHA MARISOL DE LA CRUZ VILLEGAS</name>
                <description>Ca. NUEVA ESPERANZA frente AL PARQUE PUEBLO NUEVO
Colan

Piura
Perú</description>
                <styleUrl>#1182</styleUrl>
                <Point id="1180">
                    <coordinates>-81.0548581,-4.9127304,0.0</coordinates>
                </Point>
            </Placemark>
            <Placemark id="1186">
                <name>ISABEL CHUNGA PAICO</name>
                <description>JR.NUEVA ESPERANZA SN CP.PUEBLO NUE
Colan
Colan
Piura
Perú</description>
                <styleUrl>#1187</styleUrl>
                <Point id="1185">
                    <coordinates>-81.0547174,-4.9127777,0.0</coordinates>
                </Point>
            </Placemark>
        </Folder>
    </Document>
</kml>
