<?xml version="1.0" encoding="UTF-8"?>
<kml xmlns="http://www.opengis.net/kml/2.2" xmlns:gx="http://www.google.com/kml/ext/2.2">
    <Document id="1196">
        <Folder id="1197">
            <Style id="1200">
                <IconStyle id="1201">
                    <color>ff0000ff</color>
                    <colorMode>normal</colorMode>
                    <scale>1</scale>
                    <heading>0</heading>
                    <Icon id="1202">
                        <href>http://maps.google.com/mapfiles/kml/pushpin/ylw-pushpin.png</href>
                    </Icon>
                </IconStyle>
            </Style>
            <Style id="1205">
                <IconStyle id="1206">
                    <color>ff0000ff</color>
                    <colorMode>normal</colorMode>
                    <scale>1</scale>
                    <heading>0</heading>
                    <Icon id="1207">
                        <href>http://maps.google.com/mapfiles/kml/pushpin/ylw-pushpin.png</href>
                    </Icon>
                </IconStyle>
            </Style>
            <Style id="1210">
                <IconStyle id="1211">
                    <color>ff0000ff</color>
                    <colorMode>normal</colorMode>
                    <scale>1</scale>
                    <heading>0</heading>
                    <Icon id="1212">
                        <href>http://maps.google.com/mapfiles/kml/pushpin/ylw-pushpin.png</href>
                    </Icon>
                </IconStyle>
            </Style>
            <Style id="1215">
                <IconStyle id="1216">
                    <color>ff0000ff</color>
                    <colorMode>normal</colorMode>
                    <scale>1</scale>
                    <heading>0</heading>
                    <Icon id="1217">
                        <href>http://maps.google.com/mapfiles/kml/pushpin/ylw-pushpin.png</href>
                    </Icon>
                </IconStyle>
            </Style>
            <Style id="1220">
                <IconStyle id="1221">
                    <color>ff0000ff</color>
                    <colorMode>normal</colorMode>
                    <scale>1</scale>
                    <heading>0</heading>
                    <Icon id="1222">
                        <href>http://maps.google.com/mapfiles/kml/pushpin/ylw-pushpin.png</href>
                    </Icon>
                </IconStyle>
            </Style>
            <Style id="1225">
                <IconStyle id="1226">
                    <color>ff0000ff</color>
                    <colorMode>normal</colorMode>
                    <scale>1</scale>
                    <heading>0</heading>
                    <Icon id="1227">
                        <href>http://maps.google.com/mapfiles/kml/pushpin/ylw-pushpin.png</href>
                    </Icon>
                </IconStyle>
            </Style>
            <Style id="1230">
                <IconStyle id="1231">
                    <color>ff0000ff</color>
                    <colorMode>normal</colorMode>
                    <scale>1</scale>
                    <heading>0</heading>
                    <Icon id="1232">
                        <href>http://maps.google.com/mapfiles/kml/pushpin/ylw-pushpin.png</href>
                    </Icon>
                </IconStyle>
            </Style>
            <Style id="1235">
                <IconStyle id="1236">
                    <color>ff0000ff</color>
                    <colorMode>normal</colorMode>
                    <scale>1</scale>
                    <heading>0</heading>
                    <Icon id="1237">
                        <href>http://maps.google.com/mapfiles/kml/pushpin/ylw-pushpin.png</href>
                    </Icon>
                </IconStyle>
            </Style>
            <Style id="1240">
                <IconStyle id="1241">
                    <color>ff0000ff</color>
                    <colorMode>normal</colorMode>
                    <scale>1</scale>
                    <heading>0</heading>
                    <Icon id="1242">
                        <href>http://maps.google.com/mapfiles/kml/pushpin/ylw-pushpin.png</href>
                    </Icon>
                </IconStyle>
            </Style>
            <Style id="1245">
                <IconStyle id="1246">
                    <color>ff0000ff</color>
                    <colorMode>normal</colorMode>
                    <scale>1</scale>
                    <heading>0</heading>
                    <Icon id="1247">
                        <href>http://maps.google.com/mapfiles/kml/pushpin/ylw-pushpin.png</href>
                    </Icon>
                </IconStyle>
            </Style>
            <Style id="1250">
                <IconStyle id="1251">
                    <color>ff0000ff</color>
                    <colorMode>normal</colorMode>
                    <scale>1</scale>
                    <heading>0</heading>
                    <Icon id="1252">
                        <href>http://maps.google.com/mapfiles/kml/pushpin/ylw-pushpin.png</href>
                    </Icon>
                </IconStyle>
            </Style>
            <Style id="1255">
                <IconStyle id="1256">
                    <color>ff0000ff</color>
                    <colorMode>normal</colorMode>
                    <scale>1</scale>
                    <heading>0</heading>
                    <Icon id="1257">
                        <href>http://maps.google.com/mapfiles/kml/pushpin/ylw-pushpin.png</href>
                    </Icon>
                </IconStyle>
            </Style>
            <Style id="1260">
                <IconStyle id="1261">
                    <color>ff0000ff</color>
                    <colorMode>normal</colorMode>
                    <scale>1</scale>
                    <heading>0</heading>
                    <Icon id="1262">
                        <href>http://maps.google.com/mapfiles/kml/pushpin/ylw-pushpin.png</href>
                    </Icon>
                </IconStyle>
            </Style>
            <Style id="1265">
                <IconStyle id="1266">
                    <color>ff0000ff</color>
                    <colorMode>normal</colorMode>
                    <scale>1</scale>
                    <heading>0</heading>
                    <Icon id="1267">
                        <href>http://maps.google.com/mapfiles/kml/pushpin/ylw-pushpin.png</href>
                    </Icon>
                </IconStyle>
            </Style>
            <Style id="1270">
                <IconStyle id="1271">
                    <color>ff0000ff</color>
                    <colorMode>normal</colorMode>
                    <scale>1</scale>
                    <heading>0</heading>
                    <Icon id="1272">
                        <href>http://maps.google.com/mapfiles/kml/pushpin/ylw-pushpin.png</href>
                    </Icon>
                </IconStyle>
            </Style>
            <Style id="1275">
                <IconStyle id="1276">
                    <color>ff0000ff</color>
                    <colorMode>normal</colorMode>
                    <scale>1</scale>
                    <heading>0</heading>
                    <Icon id="1277">
                        <href>http://maps.google.com/mapfiles/kml/pushpin/ylw-pushpin.png</href>
                    </Icon>
                </IconStyle>
            </Style>
            <Style id="1280">
                <IconStyle id="1281">
                    <color>ff0000ff</color>
                    <colorMode>normal</colorMode>
                    <scale>1</scale>
                    <heading>0</heading>
                    <Icon id="1282">
                        <href>http://maps.google.com/mapfiles/kml/pushpin/ylw-pushpin.png</href>
                    </Icon>
                </IconStyle>
            </Style>
            <Style id="1285">
                <IconStyle id="1286">
                    <color>ff0000ff</color>
                    <colorMode>normal</colorMode>
                    <scale>1</scale>
                    <heading>0</heading>
                    <Icon id="1287">
                        <href>http://maps.google.com/mapfiles/kml/pushpin/ylw-pushpin.png</href>
                    </Icon>
                </IconStyle>
            </Style>
            <Style id="1290">
                <IconStyle id="1291">
                    <color>ff0000ff</color>
                    <colorMode>normal</colorMode>
                    <scale>1</scale>
                    <heading>0</heading>
                    <Icon id="1292">
                        <href>http://maps.google.com/mapfiles/kml/pushpin/ylw-pushpin.png</href>
                    </Icon>
                </IconStyle>
            </Style>
            <Style id="1295">
                <IconStyle id="1296">
                    <color>ff0000ff</color>
                    <colorMode>normal</colorMode>
                    <scale>1</scale>
                    <heading>0</heading>
                    <Icon id="1297">
                        <href>http://maps.google.com/mapfiles/kml/pushpin/ylw-pushpin.png</href>
                    </Icon>
                </IconStyle>
            </Style>
            <Style id="1300">
                <IconStyle id="1301">
                    <color>ff0000ff</color>
                    <colorMode>normal</colorMode>
                    <scale>1</scale>
                    <heading>0</heading>
                    <Icon id="1302">
                        <href>http://maps.google.com/mapfiles/kml/pushpin/ylw-pushpin.png</href>
                    </Icon>
                </IconStyle>
            </Style>
            <Style id="1305">
                <IconStyle id="1306">
                    <color>ff0000ff</color>
                    <colorMode>normal</colorMode>
                    <scale>1</scale>
                    <heading>0</heading>
                    <Icon id="1307">
                        <href>http://maps.google.com/mapfiles/kml/pushpin/ylw-pushpin.png</href>
                    </Icon>
                </IconStyle>
            </Style>
            <Style id="1310">
                <IconStyle id="1311">
                    <color>ff0000ff</color>
                    <colorMode>normal</colorMode>
                    <scale>1</scale>
                    <heading>0</heading>
                    <Icon id="1312">
                        <href>http://maps.google.com/mapfiles/kml/pushpin/ylw-pushpin.png</href>
                    </Icon>
                </IconStyle>
            </Style>
            <Style id="1315">
                <IconStyle id="1316">
                    <color>ff0000ff</color>
                    <colorMode>normal</colorMode>
                    <scale>1</scale>
                    <heading>0</heading>
                    <Icon id="1317">
                        <href>http://maps.google.com/mapfiles/kml/pushpin/ylw-pushpin.png</href>
                    </Icon>
                </IconStyle>
            </Style>
            <Style id="1320">
                <IconStyle id="1321">
                    <color>ff0000ff</color>
                    <colorMode>normal</colorMode>
                    <scale>1</scale>
                    <heading>0</heading>
                    <Icon id="1322">
                        <href>http://maps.google.com/mapfiles/kml/pushpin/ylw-pushpin.png</href>
                    </Icon>
                </IconStyle>
            </Style>
            <Style id="1325">
                <IconStyle id="1326">
                    <color>ff0000ff</color>
                    <colorMode>normal</colorMode>
                    <scale>1</scale>
                    <heading>0</heading>
                    <Icon id="1327">
                        <href>http://maps.google.com/mapfiles/kml/pushpin/ylw-pushpin.png</href>
                    </Icon>
                </IconStyle>
            </Style>
            <Style id="1330">
                <IconStyle id="1331">
                    <color>ff0000ff</color>
                    <colorMode>normal</colorMode>
                    <scale>1</scale>
                    <heading>0</heading>
                    <Icon id="1332">
                        <href>http://maps.google.com/mapfiles/kml/pushpin/ylw-pushpin.png</href>
                    </Icon>
                </IconStyle>
            </Style>
            <Style id="1335">
                <IconStyle id="1336">
                    <color>ff0000ff</color>
                    <colorMode>normal</colorMode>
                    <scale>1</scale>
                    <heading>0</heading>
                    <Icon id="1337">
                        <href>http://maps.google.com/mapfiles/kml/pushpin/ylw-pushpin.png</href>
                    </Icon>
                </IconStyle>
            </Style>
            <Style id="1340">
                <IconStyle id="1341">
                    <color>ff0000ff</color>
                    <colorMode>normal</colorMode>
                    <scale>1</scale>
                    <heading>0</heading>
                    <Icon id="1342">
                        <href>http://maps.google.com/mapfiles/kml/pushpin/ylw-pushpin.png</href>
                    </Icon>
                </IconStyle>
            </Style>
            <Style id="1345">
                <IconStyle id="1346">
                    <color>ff0000ff</color>
                    <colorMode>normal</colorMode>
                    <scale>1</scale>
                    <heading>0</heading>
                    <Icon id="1347">
                        <href>http://maps.google.com/mapfiles/kml/pushpin/ylw-pushpin.png</href>
                    </Icon>
                </IconStyle>
            </Style>
            <Style id="1350">
                <IconStyle id="1351">
                    <color>ff0000ff</color>
                    <colorMode>normal</colorMode>
                    <scale>1</scale>
                    <heading>0</heading>
                    <Icon id="1352">
                        <href>http://maps.google.com/mapfiles/kml/pushpin/ylw-pushpin.png</href>
                    </Icon>
                </IconStyle>
            </Style>
            <Style id="1355">
                <IconStyle id="1356">
                    <color>ff0000ff</color>
                    <colorMode>normal</colorMode>
                    <scale>1</scale>
                    <heading>0</heading>
                    <Icon id="1357">
                        <href>http://maps.google.com/mapfiles/kml/pushpin/ylw-pushpin.png</href>
                    </Icon>
                </IconStyle>
            </Style>
            <Style id="1360">
                <IconStyle id="1361">
                    <color>ff0000ff</color>
                    <colorMode>normal</colorMode>
                    <scale>1</scale>
                    <heading>0</heading>
                    <Icon id="1362">
                        <href>http://maps.google.com/mapfiles/kml/pushpin/ylw-pushpin.png</href>
                    </Icon>
                </IconStyle>
            </Style>
            <Style id="1365">
                <IconStyle id="1366">
                    <color>ff0000ff</color>
                    <colorMode>normal</colorMode>
                    <scale>1</scale>
                    <heading>0</heading>
                    <Icon id="1367">
                        <href>http://maps.google.com/mapfiles/kml/pushpin/ylw-pushpin.png</href>
                    </Icon>
                </IconStyle>
            </Style>
            <Style id="1370">
                <IconStyle id="1371">
                    <color>ff0000ff</color>
                    <colorMode>normal</colorMode>
                    <scale>1</scale>
                    <heading>0</heading>
                    <Icon id="1372">
                        <href>http://maps.google.com/mapfiles/kml/pushpin/ylw-pushpin.png</href>
                    </Icon>
                </IconStyle>
            </Style>
            <Style id="1375">
                <IconStyle id="1376">
                    <color>ff0000ff</color>
                    <colorMode>normal</colorMode>
                    <scale>1</scale>
                    <heading>0</heading>
                    <Icon id="1377">
                        <href>http://maps.google.com/mapfiles/kml/pushpin/ylw-pushpin.png</href>
                    </Icon>
                </IconStyle>
            </Style>
            <Style id="1380">
                <IconStyle id="1381">
                    <color>ff0000ff</color>
                    <colorMode>normal</colorMode>
                    <scale>1</scale>
                    <heading>0</heading>
                    <Icon id="1382">
                        <href>http://maps.google.com/mapfiles/kml/pushpin/ylw-pushpin.png</href>
                    </Icon>
                </IconStyle>
            </Style>
            <Style id="1385">
                <IconStyle id="1386">
                    <color>ff0000ff</color>
                    <colorMode>normal</colorMode>
                    <scale>1</scale>
                    <heading>0</heading>
                    <Icon id="1387">
                        <href>http://maps.google.com/mapfiles/kml/pushpin/ylw-pushpin.png</href>
                    </Icon>
                </IconStyle>
            </Style>
            <Style id="1390">
                <IconStyle id="1391">
                    <color>ff0000ff</color>
                    <colorMode>normal</colorMode>
                    <scale>1</scale>
                    <heading>0</heading>
                    <Icon id="1392">
                        <href>http://maps.google.com/mapfiles/kml/pushpin/ylw-pushpin.png</href>
                    </Icon>
                </IconStyle>
            </Style>
            <Style id="1395">
                <IconStyle id="1396">
                    <color>ff0000ff</color>
                    <colorMode>normal</colorMode>
                    <scale>1</scale>
                    <heading>0</heading>
                    <Icon id="1397">
                        <href>http://maps.google.com/mapfiles/kml/pushpin/ylw-pushpin.png</href>
                    </Icon>
                </IconStyle>
            </Style>
            <Style id="1400">
                <IconStyle id="1401">
                    <color>ff0000ff</color>
                    <colorMode>normal</colorMode>
                    <scale>1</scale>
                    <heading>0</heading>
                    <Icon id="1402">
                        <href>http://maps.google.com/mapfiles/kml/pushpin/ylw-pushpin.png</href>
                    </Icon>
                </IconStyle>
            </Style>
            <Style id="1405">
                <IconStyle id="1406">
                    <color>ff0000ff</color>
                    <colorMode>normal</colorMode>
                    <scale>1</scale>
                    <heading>0</heading>
                    <Icon id="1407">
                        <href>http://maps.google.com/mapfiles/kml/pushpin/ylw-pushpin.png</href>
                    </Icon>
                </IconStyle>
            </Style>
            <Style id="1410">
                <IconStyle id="1411">
                    <color>ff0000ff</color>
                    <colorMode>normal</colorMode>
                    <scale>1</scale>
                    <heading>0</heading>
                    <Icon id="1412">
                        <href>http://maps.google.com/mapfiles/kml/pushpin/ylw-pushpin.png</href>
                    </Icon>
                </IconStyle>
            </Style>
            <Style id="1415">
                <IconStyle id="1416">
                    <color>ff0000ff</color>
                    <colorMode>normal</colorMode>
                    <scale>1</scale>
                    <heading>0</heading>
                    <Icon id="1417">
                        <href>http://maps.google.com/mapfiles/kml/pushpin/ylw-pushpin.png</href>
                    </Icon>
                </IconStyle>
            </Style>
            <Style id="1420">
                <IconStyle id="1421">
                    <color>ff0000ff</color>
                    <colorMode>normal</colorMode>
                    <scale>1</scale>
                    <heading>0</heading>
                    <Icon id="1422">
                        <href>http://maps.google.com/mapfiles/kml/pushpin/ylw-pushpin.png</href>
                    </Icon>
                </IconStyle>
            </Style>
            <Style id="1425">
                <IconStyle id="1426">
                    <color>ff0000ff</color>
                    <colorMode>normal</colorMode>
                    <scale>1</scale>
                    <heading>0</heading>
                    <Icon id="1427">
                        <href>http://maps.google.com/mapfiles/kml/pushpin/ylw-pushpin.png</href>
                    </Icon>
                </IconStyle>
            </Style>
            <Style id="1430">
                <IconStyle id="1431">
                    <color>ff0000ff</color>
                    <colorMode>normal</colorMode>
                    <scale>1</scale>
                    <heading>0</heading>
                    <Icon id="1432">
                        <href>http://maps.google.com/mapfiles/kml/pushpin/ylw-pushpin.png</href>
                    </Icon>
                </IconStyle>
            </Style>
            <Style id="1435">
                <IconStyle id="1436">
                    <color>ff0000ff</color>
                    <colorMode>normal</colorMode>
                    <scale>1</scale>
                    <heading>0</heading>
                    <Icon id="1437">
                        <href>http://maps.google.com/mapfiles/kml/pushpin/ylw-pushpin.png</href>
                    </Icon>
                </IconStyle>
            </Style>
            <Style id="1440">
                <IconStyle id="1441">
                    <color>ff0000ff</color>
                    <colorMode>normal</colorMode>
                    <scale>1</scale>
                    <heading>0</heading>
                    <Icon id="1442">
                        <href>http://maps.google.com/mapfiles/kml/pushpin/ylw-pushpin.png</href>
                    </Icon>
                </IconStyle>
            </Style>
            <Style id="1445">
                <IconStyle id="1446">
                    <color>ff0000ff</color>
                    <colorMode>normal</colorMode>
                    <scale>1</scale>
                    <heading>0</heading>
                    <Icon id="1447">
                        <href>http://maps.google.com/mapfiles/kml/pushpin/ylw-pushpin.png</href>
                    </Icon>
                </IconStyle>
            </Style>
            <name>DOMITILA QUISPE MIRANDA</name>
            <Placemark id="1199">
                <name>CRISANTO TOCTO LLACSAHUACHE</name>
                <description>MZ H LT 30 1ERO DE JUNIO PAITA
Paita
Paita
Piura
Perú</description>
                <styleUrl>#1200</styleUrl>
                <Point id="1198">
                    <coordinates>-81.0909466,-5.0949536,0.0</coordinates>
                </Point>
            </Placemark>
            <Placemark id="1204">
                <name>ANTONIA ALVARADO GONZALES DE LUDEÑA</name>
                <description>A.H.MARCO JARA MZ.CH LTE.17 I ETAP
Paita
Paita
Piura
Perú</description>
                <styleUrl>#1205</styleUrl>
                <Point id="1203">
                    <coordinates>-81.0945548,-5.0977965,0.0</coordinates>
                </Point>
            </Placemark>
            <Placemark id="1209">
                <name>CHAPILLIQUEN RUIZ ANA ISABEL</name>
                <description>B-18 AH 01 DE JUNIO PAITA
Paita
Paita
Piura
Perú</description>
                <styleUrl>#1210</styleUrl>
                <Point id="1208">
                    <coordinates>-81.094321,-5.09756,0.0</coordinates>
                </Point>
            </Placemark>
            <Placemark id="1214">
                <name>OBDULIA QUINDE ROMERO</name>
                <description>A H 1 DE JUNIO MZ C1 LT17 P ALTA
Paita
Paita
Piura
Perú</description>
                <styleUrl>#1215</styleUrl>
                <Point id="1213">
                    <coordinates>-81.0930408,-5.097288,0.0</coordinates>
                </Point>
            </Placemark>
            <Placemark id="1219">
                <name>PALACIOS NEYRA LUZ MARIA</name>
                <description>F-19URB.POP.VIÑA DEL SR PAITA
Paita
Paita
Piura
Perú</description>
                <styleUrl>#1220</styleUrl>
                <Point id="1218">
                    <coordinates>-81.088744,-5.091214,0.0</coordinates>
                </Point>
            </Placemark>
            <Placemark id="1224">
                <name>MARIBEL INGA CASTRO</name>
                <description>URB. POPULAR VIÑA DEL SEÑOR MZ. I L
Paita
Paita
Piura
Perú</description>
                <styleUrl>#1225</styleUrl>
                <Point id="1223">
                    <coordinates>-81.0885967,-5.0908437,0.0</coordinates>
                </Point>
            </Placemark>
            <Placemark id="1229">
                <name>KETTY CABANILLAS DE JESUS</name>
                <description>VIÑA DEL SEÑOR MZ M LT 17 Paita
Paita
Paita
Piura
Perú</description>
                <styleUrl>#1230</styleUrl>
                <Point id="1228">
                    <coordinates>-81.0870111,-5.0907187,0.0</coordinates>
                </Point>
            </Placemark>
            <Placemark id="1234">
                <name>REYNA SOLEDAD BALAREZO CARRASCO</name>
                <description>Upis viña del señor mz N lote 8
Paita
Paita
Piura
Perú</description>
                <styleUrl>#1235</styleUrl>
                <Point id="1233">
                    <coordinates>-81.0874671,-5.0905971,0.0</coordinates>
                </Point>
            </Placemark>
            <Placemark id="1239">
                <name>KARINA VANESSA SANCHEZ NUÑEZ</name>
                <description>URB.VIÑAS DEL SEÑOR MZ U LT 28 - PA
Paita
Paita
Piura
Perú</description>
                <styleUrl>#1240</styleUrl>
                <Point id="1238">
                    <coordinates>-81.0865573,-5.0885165,0.0</coordinates>
                </Point>
            </Placemark>
            <Placemark id="1244">
                <name>TANIA SOLEDAD ARIAS NUÑEZ</name>
                <description>MZ V LT 10 3 ERA ETAPA VIÑA DEL SEÑ
Paita
Paita
Piura
Perú</description>
                <styleUrl>#1245</styleUrl>
                <Point id="1243">
                    <coordinates>-81.0861196,-5.0880279,0.0</coordinates>
                </Point>
            </Placemark>
            <Placemark id="1249">
                <name>MARLENY ISABEL ADANAQUE VILCHEZ</name>
                <description>AAHH VIÑAS DEL SEÑOR MZ U LT 23 PAITA
Paita
Paita
Piura
Perú</description>
                <styleUrl>#1250</styleUrl>
                <Point id="1248">
                    <coordinates>-81.0862471,-5.0886495,0.0</coordinates>
                </Point>
            </Placemark>
            <Placemark id="1254">
                <name>OLGA ROSARIO GIRON VILELA</name>
                <description>AAHH VIÑA DEL SEÑOR MZ R LT - 31 -
Paita

Piura
Perú</description>
                <styleUrl>#1255</styleUrl>
                <Point id="1253">
                    <coordinates>-81.0869656,-5.0891551,0.0</coordinates>
                </Point>
            </Placemark>
            <Placemark id="1259">
                <name>JOEL MONDRAGON JARA</name>
                <description>MZ.E LTE.15 COMUNIDAD CAMPESINA - P
Paita
Paita
Piura
Perú</description>
                <styleUrl>#1260</styleUrl>
                <Point id="1258">
                    <coordinates>-81.0853862,-5.0911299,0.0</coordinates>
                </Point>
            </Placemark>
            <Placemark id="1264">
                <name>GERVACIO ACEVEDO MATILDE</name>
                <description>MZ C2 LT 37 COMUNIDAD CAMPESIN
Paita
Paita
Piura
Perú</description>
                <styleUrl>#1265</styleUrl>
                <Point id="1263">
                    <coordinates>-81.0836622,-5.0926934,0.0</coordinates>
                </Point>
            </Placemark>
            <Placemark id="1269">
                <name>MARIELA CRUZ ZUARES</name>
                <description>MZ. C3 LT. 31 COMUNIDAD CAMPESINA -
Paita
Paita
Piura
Perú</description>
                <styleUrl>#1270</styleUrl>
                <Point id="1268">
                    <coordinates>-81.0819273,-5.0935635,0.0</coordinates>
                </Point>
            </Placemark>
            <Placemark id="1274">
                <name>ROSA ANITA PAIVA PALOMINO</name>
                <description>La comunidad Mz C3 lote 19
Paita
Paita
Piura
Perú</description>
                <styleUrl>#1275</styleUrl>
                <Point id="1273">
                    <coordinates>-81.0809634,-5.0937457,0.0</coordinates>
                </Point>
            </Placemark>
            <Placemark id="1279">
                <name>MARITHA PATIÑO RIMAYCUNA</name>
                <description>AA.HH 1 DE JUNIO MZ H LT 29
Paita
Paita
Piura
Perú</description>
                <styleUrl>#1280</styleUrl>
                <Point id="1278">
                    <coordinates>-81.0911497,-5.0949184,0.0</coordinates>
                </Point>
            </Placemark>
            <Placemark id="1284">
                <name>GINY MARGOT FLORES GARCIA</name>
                <description>MZ.G LTE.21 PRIMERO DE JUNIO - PA
Paita
Paita
Piura
Perú</description>
                <styleUrl>#1285</styleUrl>
                <Point id="1283">
                    <coordinates>-81.0898554,-5.0953822,0.0</coordinates>
                </Point>
            </Placemark>
            <Placemark id="1289">
                <name>AMELIA PANTA SANTIAGO</name>
                <description>AAHH PRIMERO DE JUNIO MZ F LT 7 - P
Paita
Paita
Piura
Perú</description>
                <styleUrl>#1290</styleUrl>
                <Point id="1288">
                    <coordinates>-81.0896088,-5.0956499,0.0</coordinates>
                </Point>
            </Placemark>
            <Placemark id="1294">
                <name>DENY GUERRERO LIZANO</name>
                <description>Ah 1 junio mz Y prima lote 14
Paita
Paita
Piura
Perú</description>
                <styleUrl>#1295</styleUrl>
                <Point id="1293">
                    <coordinates>-81.0889371,-5.0962029,0.0</coordinates>
                </Point>
            </Placemark>
            <Placemark id="1299">
                <name>EDILMA SALVADOR DOMINGUEZ DE CALLE</name>
                <description>AAHH PRIMERO DE JUNIO MZ Y LT 18 -
Paita

Piura
Perú</description>
                <styleUrl>#1300</styleUrl>
                <Point id="1298">
                    <coordinates>-81.0890334,-5.0965592,0.0</coordinates>
                </Point>
            </Placemark>
            <Placemark id="1304">
                <name>ODILIA EDELINA PINGO ZETA</name>
                <description>JESUS DE NAZARETH MZ A LT 27
Paita
Paita
Piura
Perú</description>
                <styleUrl>#1305</styleUrl>
                <Point id="1303">
                    <coordinates>-81.0877404,-5.0983749,0.0</coordinates>
                </Point>
            </Placemark>
            <Placemark id="1309">
                <name>ELVA CAROLINA SERNAQUE INGA</name>
                <description>Anexo comunal Jesús de Nazareth Mz B lt 18
Paita
Paita
Piura
Perú</description>
                <styleUrl>#1310</styleUrl>
                <Point id="1308">
                    <coordinates>-81.0871143,-5.0982567,0.0</coordinates>
                </Point>
            </Placemark>
            <Placemark id="1314">
                <name>MARLENE ZETA SIANCAS</name>
                <description>Jesus de Nazareth mz B lote 22 referencia frente al colegio
Paita
Paita
Piura
Perú</description>
                <styleUrl>#1315</styleUrl>
                <Point id="1313">
                    <coordinates>-81.0871708,-5.098485,0.0</coordinates>
                </Point>
            </Placemark>
            <Placemark id="1319">
                <name>MERY JULIA NAVARRO CHIROQUE</name>
                <description>Anexo comunal nuevo paraíso MZ G LOTE 13 referencia por la torres gemelas
Paita
Paita
Piura
Perú</description>
                <styleUrl>#1320</styleUrl>
                <Point id="1318">
                    <coordinates>-81.0916203,-5.1004404,0.0</coordinates>
                </Point>
            </Placemark>
            <Placemark id="1324">
                <name>ERICKA MILAGROS UCHOFEN CALVAY</name>
                <description>SAN IGNACIO DE LOYOLA MZ C LT 18 PAITA ALTA
Paita
Paita
Piura
Perú</description>
                <styleUrl>#1325</styleUrl>
                <Point id="1323">
                    <coordinates>-81.0892912,-5.0968347,0.0</coordinates>
                </Point>
            </Placemark>
            <Placemark id="1329">
                <name>CHAVEZ DE ZETA DORA</name>
                <description>Z-10 AH 01 DE JUNIO PAITA
Paita
Paita
Piura
Perú</description>
                <styleUrl>#1330</styleUrl>
                <Point id="1328">
                    <coordinates>-81.089535,-5.096652,0.0</coordinates>
                </Point>
            </Placemark>
            <Placemark id="1334">
                <name>PANTALEON SILUPU MARIA DEL CARMEN</name>
                <description>PANTALEON SILUPU MARIA DEL CARMEN
MZA Z LT 8 A H 1ERO DE JUNIO
Paita
Paita
Piura
Perú</description>
                <styleUrl>#1335</styleUrl>
                <Point id="1333">
                    <coordinates>-81.0896786,-5.0966616,0.0</coordinates>
                </Point>
            </Placemark>
            <Placemark id="1339">
                <name>ROSA ROMELIA ROSILLO CORDOVA</name>
                <description>MZ-R LT-7 AH 1 DE JUNIO PAITA ALTA
Paita
Paita
Piura
Perú</description>
                <styleUrl>#1340</styleUrl>
                <Point id="1338">
                    <coordinates>-81.0917524,-5.0981072,0.0</coordinates>
                </Point>
            </Placemark>
            <Placemark id="1344">
                <name>JESLIN DAYANA ACARO CAMPOS</name>
                <description>Primero de junio Mz V lt 16
Paita
Paita
Piura
Perú</description>
                <styleUrl>#1345</styleUrl>
                <Point id="1343">
                    <coordinates>-81.093015,-5.09809,0.0</coordinates>
                </Point>
            </Placemark>
            <Placemark id="1349">
                <name>JUANA MARIA VILLARREYES RAMIREZ</name>
                <description>MZ U LT 10 AAHH PRIMERO DE JUNIO
Paita
Paita
Piura
Perú</description>
                <styleUrl>#1350</styleUrl>
                <Point id="1348">
                    <coordinates>-81.0935055,-5.0979317,0.0</coordinates>
                </Point>
            </Placemark>
            <Placemark id="1354">
                <name>IPANAQUE ESPINOZA TEMPORA</name>
                <description>MZ.X LT.07 AH 01 DE JUNIO
Paita
Paita
Piura
Perú</description>
                <styleUrl>#1355</styleUrl>
                <Point id="1353">
                    <coordinates>-81.0928864,-5.0988199,0.0</coordinates>
                </Point>
            </Placemark>
            <Placemark id="1359">
                <name>FREDDY ROLAND HERRERA VALDIVIEZO</name>
                <description>MZ X LT12 1ÂªJUNIO - PAITA
Paita
Paita
Piura
Perú</description>
                <styleUrl>#1360</styleUrl>
                <Point id="1358">
                    <coordinates>-81.0927342,-5.098775,0.0</coordinates>
                </Point>
            </Placemark>
            <Placemark id="1364">
                <name>NORLEY JANINA QUINTANA RAMOS</name>
                <description>MZ X LT 26 AH 1 DE JUNIO
Paita
Paita
Piura
Perú</description>
                <styleUrl>#1365</styleUrl>
                <Point id="1363">
                    <coordinates>-81.0926743,-5.0992995,0.0</coordinates>
                </Point>
            </Placemark>
            <Placemark id="1369">
                <name>JUANA CALLE ZETA</name>
                <description>RAMON CASTILLA MZ D LT16 PAITA-PIURA
Paita
Paita
Piura
Perú</description>
                <styleUrl>#1370</styleUrl>
                <Point id="1368">
                    <coordinates>-81.0928887,-5.100265,0.0</coordinates>
                </Point>
            </Placemark>
            <Placemark id="1374">
                <name>ERNESTINA GUERRERO RONDOY</name>
                <description>ah violeta Ayón
Paita
Paita
Piura
Perú</description>
                <styleUrl>#1375</styleUrl>
                <Point id="1373">
                    <coordinates>-81.0930447,-5.1004702,0.0</coordinates>
                </Point>
            </Placemark>
            <Placemark id="1379">
                <name>CRUZ YOVERA JAVIER</name>
                <description>VILLA LOS ALGARROBOS MZ D LT14
Paita
Paita
Piura
Perú</description>
                <styleUrl>#1380</styleUrl>
                <Point id="1378">
                    <coordinates>-81.092002,-5.1016717,0.0</coordinates>
                </Point>
            </Placemark>
            <Placemark id="1384">
                <name>ANYELA NEREIDA YPARRAGUIRRE VERA</name>
                <description>ANEXO COMUNAL NUEVA JERUSALÉN MZ C LOTE 9
Paita
Paita
Piura
Perú</description>
                <styleUrl>#1385</styleUrl>
                <Point id="1383">
                    <coordinates>-81.0922253,-5.1026739,0.0</coordinates>
                </Point>
            </Placemark>
            <Placemark id="1389">
                <name>FELICITA REGALADO FRIAS</name>
                <description>Nueva Jerusalén mz C lote 4 paita alta
Paita
Paita
Piura
Perú</description>
                <styleUrl>#1390</styleUrl>
                <Point id="1388">
                    <coordinates>-81.0929286,-5.1021209,0.0</coordinates>
                </Point>
            </Placemark>
            <Placemark id="1394">
                <name>CINTHIA DORIN SEMINARIO MARIN</name>
                <description>Anexo comunal nuevo Jerusalén mz I lote 9
Paita
Paita
Piura
Perú</description>
                <styleUrl>#1395</styleUrl>
                <Point id="1393">
                    <coordinates>-81.0938582,-5.1024303,0.0</coordinates>
                </Point>
            </Placemark>
            <Placemark id="1399">
                <name>NARCISA DE JESUS OLAZABAL PUPUCHE</name>
                <description>CA.RAMON CASTILLA MZ B LT 8 AH.N.PO
Paita
Paita
Piura
Perú</description>
                <styleUrl>#1400</styleUrl>
                <Point id="1398">
                    <coordinates>-81.0939745,-5.1019909,0.0</coordinates>
                </Point>
            </Placemark>
            <Placemark id="1404">
                <name>MARILU REYNOSO CHANTA</name>
                <description>Ramón Castilla sector nuevo porvenir mz a prima lote 5
Paita
Paita
Piura
Perú</description>
                <styleUrl>#1405</styleUrl>
                <Point id="1403">
                    <coordinates>-81.0946092,-5.101721,0.0</coordinates>
                </Point>
            </Placemark>
            <Placemark id="1409">
                <name>MARILU REYNOSO CHANTA</name>
                <description>Ramón Castilla sector nuevo porvenir mz a prima lote 5
Paita
Paita
Piura
Perú</description>
                <styleUrl>#1410</styleUrl>
                <Point id="1408">
                    <coordinates>-81.0946092,-5.101721,0.0</coordinates>
                </Point>
            </Placemark>
            <Placemark id="1414">
                <name>JULIA ADRIANA COLLAZOS PERICHE</name>
                <description>Ah marco jara 1 etapa mz I lote 5
Paita
Paita
Piura
Perú</description>
                <styleUrl>#1415</styleUrl>
                <Point id="1413">
                    <coordinates>-81.0945009,-5.1010886,0.0</coordinates>
                </Point>
            </Placemark>
            <Placemark id="1419">
                <name>LUZ ANGELICA GARCIA VASQUEZ</name>
                <description>MZ.H LTE.31 I ETAPA MARCO JARA - PA
Paita
Paita
Piura
Perú</description>
                <styleUrl>#1420</styleUrl>
                <Point id="1418">
                    <coordinates>-81.0948328,-5.1010299,0.0</coordinates>
                </Point>
            </Placemark>
            <Placemark id="1424">
                <name>ANGEL CRUZ AGURTO</name>
                <description>MZ.E LTE.14 I ETAPA MARCO JARA - PA
Paita
Paita
Piura
Perú</description>
                <styleUrl>#1425</styleUrl>
                <Point id="1423">
                    <coordinates>-81.0940035,-5.1003884,0.0</coordinates>
                </Point>
            </Placemark>
            <Placemark id="1429">
                <name>MARIA PANFILA JULCA CULQUICONDOR</name>
                <description>MZ CH LT 21 AH.MARCO JARA 1 ETP - P
Paita
Paita
Piura
Perú</description>
                <styleUrl>#1430</styleUrl>
                <Point id="1428">
                    <coordinates>-81.0949248,-5.0988696,0.0</coordinates>
                </Point>
            </Placemark>
            <Placemark id="1434">
                <name>TEOFILA ECHE MORALES</name>
                <description>Marco.jara 1 etapa mz A lote 21
Paita
Paita
Piura
Perú</description>
                <styleUrl>#1435</styleUrl>
                <Point id="1433">
                    <coordinates>-81.0952809,-5.0979484,0.0</coordinates>
                </Point>
            </Placemark>
            <Placemark id="1439">
                <name>MARIA MARGARITA VILCHEZ MACALUPU</name>
                <description>A.H MARCO JARA PRIMERA ETAPA MZ A LOTE 16- PAITA
Paita
Paita
Piura
Perú</description>
                <styleUrl>#1440</styleUrl>
                <Point id="1438">
                    <coordinates>-81.0950609,-5.0983503,0.0</coordinates>
                </Point>
            </Placemark>
            <Placemark id="1444">
                <name>MERCEDES PAULA RAMIREZ SAGUMA</name>
                <description>Marco jara mz Ll lote 12
Paita
Paita
Piura
Perú</description>
                <styleUrl>#1445</styleUrl>
                <Point id="1443">
                    <coordinates>-81.0967224,-5.0990039,0.0</coordinates>
                </Point>
            </Placemark>
        </Folder>
        <Folder id="1448">
            <Style id="1451">
                <IconStyle id="1452">
                    <color>ffff0000</color>
                    <colorMode>normal</colorMode>
                    <scale>1</scale>
                    <heading>0</heading>
                    <Icon id="1453">
                        <href>http://maps.google.com/mapfiles/kml/pushpin/ylw-pushpin.png</href>
                    </Icon>
                </IconStyle>
            </Style>
            <Style id="1456">
                <IconStyle id="1457">
                    <color>ffff0000</color>
                    <colorMode>normal</colorMode>
                    <scale>1</scale>
                    <heading>0</heading>
                    <Icon id="1458">
                        <href>http://maps.google.com/mapfiles/kml/pushpin/ylw-pushpin.png</href>
                    </Icon>
                </IconStyle>
            </Style>
            <Style id="1461">
                <IconStyle id="1462">
                    <color>ffff0000</color>
                    <colorMode>normal</colorMode>
                    <scale>1</scale>
                    <heading>0</heading>
                    <Icon id="1463">
                        <href>http://maps.google.com/mapfiles/kml/pushpin/ylw-pushpin.png</href>
                    </Icon>
                </IconStyle>
            </Style>
            <Style id="1466">
                <IconStyle id="1467">
                    <color>ffff0000</color>
                    <colorMode>normal</colorMode>
                    <scale>1</scale>
                    <heading>0</heading>
                    <Icon id="1468">
                        <href>http://maps.google.com/mapfiles/kml/pushpin/ylw-pushpin.png</href>
                    </Icon>
                </IconStyle>
            </Style>
            <Style id="1471">
                <IconStyle id="1472">
                    <color>ffff0000</color>
                    <colorMode>normal</colorMode>
                    <scale>1</scale>
                    <heading>0</heading>
                    <Icon id="1473">
                        <href>http://maps.google.com/mapfiles/kml/pushpin/ylw-pushpin.png</href>
                    </Icon>
                </IconStyle>
            </Style>
            <Style id="1476">
                <IconStyle id="1477">
                    <color>ffff0000</color>
                    <colorMode>normal</colorMode>
                    <scale>1</scale>
                    <heading>0</heading>
                    <Icon id="1478">
                        <href>http://maps.google.com/mapfiles/kml/pushpin/ylw-pushpin.png</href>
                    </Icon>
                </IconStyle>
            </Style>
            <Style id="1481">
                <IconStyle id="1482">
                    <color>ffff0000</color>
                    <colorMode>normal</colorMode>
                    <scale>1</scale>
                    <heading>0</heading>
                    <Icon id="1483">
                        <href>http://maps.google.com/mapfiles/kml/pushpin/ylw-pushpin.png</href>
                    </Icon>
                </IconStyle>
            </Style>
            <Style id="1486">
                <IconStyle id="1487">
                    <color>ffff0000</color>
                    <colorMode>normal</colorMode>
                    <scale>1</scale>
                    <heading>0</heading>
                    <Icon id="1488">
                        <href>http://maps.google.com/mapfiles/kml/pushpin/ylw-pushpin.png</href>
                    </Icon>
                </IconStyle>
            </Style>
            <Style id="1491">
                <IconStyle id="1492">
                    <color>ffff0000</color>
                    <colorMode>normal</colorMode>
                    <scale>1</scale>
                    <heading>0</heading>
                    <Icon id="1493">
                        <href>http://maps.google.com/mapfiles/kml/pushpin/ylw-pushpin.png</href>
                    </Icon>
                </IconStyle>
            </Style>
            <Style id="1496">
                <IconStyle id="1497">
                    <color>ffff0000</color>
                    <colorMode>normal</colorMode>
                    <scale>1</scale>
                    <heading>0</heading>
                    <Icon id="1498">
                        <href>http://maps.google.com/mapfiles/kml/pushpin/ylw-pushpin.png</href>
                    </Icon>
                </IconStyle>
            </Style>
            <Style id="1501">
                <IconStyle id="1502">
                    <color>ffff0000</color>
                    <colorMode>normal</colorMode>
                    <scale>1</scale>
                    <heading>0</heading>
                    <Icon id="1503">
                        <href>http://maps.google.com/mapfiles/kml/pushpin/ylw-pushpin.png</href>
                    </Icon>
                </IconStyle>
            </Style>
            <Style id="1506">
                <IconStyle id="1507">
                    <color>ffff0000</color>
                    <colorMode>normal</colorMode>
                    <scale>1</scale>
                    <heading>0</heading>
                    <Icon id="1508">
                        <href>http://maps.google.com/mapfiles/kml/pushpin/ylw-pushpin.png</href>
                    </Icon>
                </IconStyle>
            </Style>
            <Style id="1511">
                <IconStyle id="1512">
                    <color>ffff0000</color>
                    <colorMode>normal</colorMode>
                    <scale>1</scale>
                    <heading>0</heading>
                    <Icon id="1513">
                        <href>http://maps.google.com/mapfiles/kml/pushpin/ylw-pushpin.png</href>
                    </Icon>
                </IconStyle>
            </Style>
            <Style id="1516">
                <IconStyle id="1517">
                    <color>ffff0000</color>
                    <colorMode>normal</colorMode>
                    <scale>1</scale>
                    <heading>0</heading>
                    <Icon id="1518">
                        <href>http://maps.google.com/mapfiles/kml/pushpin/ylw-pushpin.png</href>
                    </Icon>
                </IconStyle>
            </Style>
            <Style id="1521">
                <IconStyle id="1522">
                    <color>ffff0000</color>
                    <colorMode>normal</colorMode>
                    <scale>1</scale>
                    <heading>0</heading>
                    <Icon id="1523">
                        <href>http://maps.google.com/mapfiles/kml/pushpin/ylw-pushpin.png</href>
                    </Icon>
                </IconStyle>
            </Style>
            <Style id="1526">
                <IconStyle id="1527">
                    <color>ffff0000</color>
                    <colorMode>normal</colorMode>
                    <scale>1</scale>
                    <heading>0</heading>
                    <Icon id="1528">
                        <href>http://maps.google.com/mapfiles/kml/pushpin/ylw-pushpin.png</href>
                    </Icon>
                </IconStyle>
            </Style>
            <Style id="1531">
                <IconStyle id="1532">
                    <color>ffff0000</color>
                    <colorMode>normal</colorMode>
                    <scale>1</scale>
                    <heading>0</heading>
                    <Icon id="1533">
                        <href>http://maps.google.com/mapfiles/kml/pushpin/ylw-pushpin.png</href>
                    </Icon>
                </IconStyle>
            </Style>
            <Style id="1536">
                <IconStyle id="1537">
                    <color>ffff0000</color>
                    <colorMode>normal</colorMode>
                    <scale>1</scale>
                    <heading>0</heading>
                    <Icon id="1538">
                        <href>http://maps.google.com/mapfiles/kml/pushpin/ylw-pushpin.png</href>
                    </Icon>
                </IconStyle>
            </Style>
            <Style id="1541">
                <IconStyle id="1542">
                    <color>ffff0000</color>
                    <colorMode>normal</colorMode>
                    <scale>1</scale>
                    <heading>0</heading>
                    <Icon id="1543">
                        <href>http://maps.google.com/mapfiles/kml/pushpin/ylw-pushpin.png</href>
                    </Icon>
                </IconStyle>
            </Style>
            <Style id="1546">
                <IconStyle id="1547">
                    <color>ffff0000</color>
                    <colorMode>normal</colorMode>
                    <scale>1</scale>
                    <heading>0</heading>
                    <Icon id="1548">
                        <href>http://maps.google.com/mapfiles/kml/pushpin/ylw-pushpin.png</href>
                    </Icon>
                </IconStyle>
            </Style>
            <Style id="1551">
                <IconStyle id="1552">
                    <color>ffff0000</color>
                    <colorMode>normal</colorMode>
                    <scale>1</scale>
                    <heading>0</heading>
                    <Icon id="1553">
                        <href>http://maps.google.com/mapfiles/kml/pushpin/ylw-pushpin.png</href>
                    </Icon>
                </IconStyle>
            </Style>
            <name>LEONARDO VIERA CHAVEZ</name>
            <Placemark id="1450">
                <name>CECILIA DEL CARMEN GARBOZA BANCES</name>
                <description>AH 5 DE FEBRERO MZ CH LT 3 PAITA
Paita
Paita
Piura
Perú</description>
                <styleUrl>#1451</styleUrl>
                <Point id="1449">
                    <coordinates>-81.0990473,-5.0904306,0.0</coordinates>
                </Point>
            </Placemark>
            <Placemark id="1455">
                <name>SUPER NORTE E.I.R.L.</name>
                <description>AV. MIGUEL GRAU MZA. 003 LOTE. 02 PAITA
Paita
200502Paita
Piura
Perú</description>
                <styleUrl>#1456</styleUrl>
                <Point id="1454">
                    <coordinates>-81.098897,-5.0868911,0.0</coordinates>
                </Point>
            </Placemark>
            <Placemark id="1460">
                <name>SUPER NORTE E.I.R.L.</name>
                <description>AV. MIGUEL GRAU MZA. 003 LOTE. 02 PAITA
Paita
200502Paita
Piura
Perú</description>
                <styleUrl>#1461</styleUrl>
                <Point id="1459">
                    <coordinates>-81.098897,-5.0868911,0.0</coordinates>
                </Point>
            </Placemark>
            <Placemark id="1465">
                <name>AVILA REYES JOSE DEL CARMEN</name>
                <description>AVILA REYES JOSE DEL CARMEN
MZ H LT7 CINCO DE FEBRERO PAITA
Paita

Piura
Perú</description>
                <styleUrl>#1466</styleUrl>
                <Point id="1464">
                    <coordinates>-81.1002716,-5.0886688,0.0</coordinates>
                </Point>
            </Placemark>
            <Placemark id="1470">
                <name>LORENA IVON ATOCHE IMAN</name>
                <description>MZ-L LT-3 CIUDAD BLANCA PAITA
Paita
Paita
Piura
Perú</description>
                <styleUrl>#1471</styleUrl>
                <Point id="1469">
                    <coordinates>-81.1009947,-5.0895106,0.0</coordinates>
                </Point>
            </Placemark>
            <Placemark id="1475">
                <name>SANTOS VICTORIA PINTADO VELLASMIN</name>
                <description>Ciudad blanca mz Q lote 30
Paita
Paita
Piura
Perú</description>
                <styleUrl>#1476</styleUrl>
                <Point id="1474">
                    <coordinates>-81.1015374,-5.0932526,0.0</coordinates>
                </Point>
            </Placemark>
            <Placemark id="1480">
                <name>MORAN SILVA MARIA MILAGROS</name>
                <description>MZ.F2 LT-3 CIUDAD BLANCA
Paita
Paita
Piura
Perú</description>
                <styleUrl>#1481</styleUrl>
                <Point id="1479">
                    <coordinates>-81.1022763,-5.0942387,0.0</coordinates>
                </Point>
            </Placemark>
            <Placemark id="1485">
                <name>JHONATAN GUARNIZO LLACSAHUANGA</name>
                <description>MZ E2 lote 7 ciudad Blanca Paita alta
Paita
Paita
Piura
Perú</description>
                <styleUrl>#1486</styleUrl>
                <Point id="1484">
                    <coordinates>-81.1026212,-5.0940581,0.0</coordinates>
                </Point>
            </Placemark>
            <Placemark id="1490">
                <name>CARMEN PRECIADO CORDOVA</name>
                <description>LOS JARDINES MZ D-10 PAITA-PIURA( Ramiro priale)
Paita
Paita
Piura
Perú</description>
                <styleUrl>#1491</styleUrl>
                <Point id="1489">
                    <coordinates>-81.1059714,-5.0939213,0.0</coordinates>
                </Point>
            </Placemark>
            <Placemark id="1495">
                <name>YOBANY CORDOVA VELASQUEZ</name>
                <description>A.H SAN FRANCISCO MZ Z3 LT 33 PAITA
Paita
Paita
Piura
Perú</description>
                <styleUrl>#1496</styleUrl>
                <Point id="1494">
                    <coordinates>-81.1080774,-5.0965624,0.0</coordinates>
                </Point>
            </Placemark>
            <Placemark id="1500">
                <name>MARIA MARLENY ATOCHA MORE</name>
                <description>PROGRESO MZ z2LOTE 1 TABLAZO
Paita
Paita
Piura
Perú</description>
                <styleUrl>#1501</styleUrl>
                <Point id="1499">
                    <coordinates>-81.1061878,-5.0957953,0.0</coordinates>
                </Point>
            </Placemark>
            <Placemark id="1505">
                <name>MARIA MARLENY ATOCHA MORE</name>
                <description>PROGRESO MZ z2LOTE 1 TABLAZO
Paita
Paita
Piura
Perú</description>
                <styleUrl>#1506</styleUrl>
                <Point id="1504">
                    <coordinates>-81.1061878,-5.0957953,0.0</coordinates>
                </Point>
            </Placemark>
            <Placemark id="1510">
                <name>WILSON ALFREDO SALDARRIAGA RAMIREZ</name>
                <description>AV PROGRESO MZ A LT 6 PAITA
Paita
Paita
Piura
Perú</description>
                <styleUrl>#1511</styleUrl>
                <Point id="1509">
                    <coordinates>-81.1066207,-5.0969904,0.0</coordinates>
                </Point>
            </Placemark>
            <Placemark id="1515">
                <name>CRISTINA SULLON CRUZ</name>
                <description>JR BELLO HORIZONTE MZ T LT 30 AH TABLAZO-PAITA
Paita
Paita
Piura
Perú</description>
                <styleUrl>#1516</styleUrl>
                <Point id="1514">
                    <coordinates>-81.1077123,-5.0976522,0.0</coordinates>
                </Point>
            </Placemark>
            <Placemark id="1520">
                <name>MARIA ESTHER SABA MARTINEZ</name>
                <description>AAHH KEIKO SOFIA MZ J LT2 PAITA-PIURA
Paita
Paita
Piura
Perú</description>
                <styleUrl>#1521</styleUrl>
                <Point id="1519">
                    <coordinates>-81.1127536,-5.098417,0.0</coordinates>
                </Point>
            </Placemark>
            <Placemark id="1525">
                <name>BETTY MARIBEL CALDERON MENDOZA</name>
                <description>AAHH KEIKO SOFIA 2DA ETAPA MZ B L
Paita
Paita
Piura
Perú</description>
                <styleUrl>#1526</styleUrl>
                <Point id="1524">
                    <coordinates>-81.1143801,-5.0975165,0.0</coordinates>
                </Point>
            </Placemark>
            <Placemark id="1530">
                <name>JULIO CESAR VARGAS DEYRA</name>
                <description>Keiko Sofía 2 etapa mz E lote 5
Paita
Paita
Piura
Perú</description>
                <styleUrl>#1531</styleUrl>
                <Point id="1529">
                    <coordinates>-81.1149743,-5.099774,0.0</coordinates>
                </Point>
            </Placemark>
            <Placemark id="1535">
                <name>MARIA LUZMILA SANCHEZ SANDOVAL</name>
                <description>AVC B1 MAZB LOT 1
Paita
Paita
Piura
Perú</description>
                <styleUrl>#1536</styleUrl>
                <Point id="1534">
                    <coordinates>-81.1165763,-5.0974003,0.0</coordinates>
                </Point>
            </Placemark>
            <Placemark id="1540">
                <name>DEICY YANGUA JARAMILLO</name>
                <description>AHH San Valentín mz F lt 2
Paita
Paita
Piura
Perú</description>
                <styleUrl>#1541</styleUrl>
                <Point id="1539">
                    <coordinates>-81.117453,-5.0960116,0.0</coordinates>
                </Point>
            </Placemark>
            <Placemark id="1545">
                <name>GEORGINIA ROSMERY OVIEDO ABAD</name>
                <description>
Paita
Paita
Piura
Perú</description>
                <styleUrl>#1546</styleUrl>
                <Point id="1544">
                    <coordinates>-81.1192227,-5.0953497,0.0</coordinates>
                </Point>
            </Placemark>
            <Placemark id="1550">
                <name>CARMEN CECILIA GUTIERREZ CHUICA</name>
                <description>AH SAN VALENTIN -MZ E LT 18
Paita
Paita
Piura
Perú</description>
                <styleUrl>#1551</styleUrl>
                <Point id="1549">
                    <coordinates>-81.1187798,-5.0960578,0.0</coordinates>
                </Point>
            </Placemark>
        </Folder>
    </Document>
</kml>
