<?xml version="1.0" encoding="UTF-8"?>
<kml xmlns="http://www.opengis.net/kml/2.2" xmlns:gx="http://www.google.com/kml/ext/2.2">
    <Document id="1510">
        <Folder id="1511">
            <Style id="1514">
                <IconStyle id="1515">
                    <color>ff0000ff</color>
                    <colorMode>normal</colorMode>
                    <scale>1</scale>
                    <heading>0</heading>
                    <Icon id="1516">
                        <href>http://maps.google.com/mapfiles/kml/pushpin/ylw-pushpin.png</href>
                    </Icon>
                </IconStyle>
            </Style>
            <Style id="1519">
                <IconStyle id="1520">
                    <color>ff0000ff</color>
                    <colorMode>normal</colorMode>
                    <scale>1</scale>
                    <heading>0</heading>
                    <Icon id="1521">
                        <href>http://maps.google.com/mapfiles/kml/pushpin/ylw-pushpin.png</href>
                    </Icon>
                </IconStyle>
            </Style>
            <Style id="1524">
                <IconStyle id="1525">
                    <color>ff0000ff</color>
                    <colorMode>normal</colorMode>
                    <scale>1</scale>
                    <heading>0</heading>
                    <Icon id="1526">
                        <href>http://maps.google.com/mapfiles/kml/pushpin/ylw-pushpin.png</href>
                    </Icon>
                </IconStyle>
            </Style>
            <Style id="1529">
                <IconStyle id="1530">
                    <color>ff0000ff</color>
                    <colorMode>normal</colorMode>
                    <scale>1</scale>
                    <heading>0</heading>
                    <Icon id="1531">
                        <href>http://maps.google.com/mapfiles/kml/pushpin/ylw-pushpin.png</href>
                    </Icon>
                </IconStyle>
            </Style>
            <Style id="1534">
                <IconStyle id="1535">
                    <color>ff0000ff</color>
                    <colorMode>normal</colorMode>
                    <scale>1</scale>
                    <heading>0</heading>
                    <Icon id="1536">
                        <href>http://maps.google.com/mapfiles/kml/pushpin/ylw-pushpin.png</href>
                    </Icon>
                </IconStyle>
            </Style>
            <Style id="1539">
                <IconStyle id="1540">
                    <color>ff0000ff</color>
                    <colorMode>normal</colorMode>
                    <scale>1</scale>
                    <heading>0</heading>
                    <Icon id="1541">
                        <href>http://maps.google.com/mapfiles/kml/pushpin/ylw-pushpin.png</href>
                    </Icon>
                </IconStyle>
            </Style>
            <Style id="1544">
                <IconStyle id="1545">
                    <color>ff0000ff</color>
                    <colorMode>normal</colorMode>
                    <scale>1</scale>
                    <heading>0</heading>
                    <Icon id="1546">
                        <href>http://maps.google.com/mapfiles/kml/pushpin/ylw-pushpin.png</href>
                    </Icon>
                </IconStyle>
            </Style>
            <Style id="1549">
                <IconStyle id="1550">
                    <color>ff0000ff</color>
                    <colorMode>normal</colorMode>
                    <scale>1</scale>
                    <heading>0</heading>
                    <Icon id="1551">
                        <href>http://maps.google.com/mapfiles/kml/pushpin/ylw-pushpin.png</href>
                    </Icon>
                </IconStyle>
            </Style>
            <Style id="1554">
                <IconStyle id="1555">
                    <color>ff0000ff</color>
                    <colorMode>normal</colorMode>
                    <scale>1</scale>
                    <heading>0</heading>
                    <Icon id="1556">
                        <href>http://maps.google.com/mapfiles/kml/pushpin/ylw-pushpin.png</href>
                    </Icon>
                </IconStyle>
            </Style>
            <Style id="1559">
                <IconStyle id="1560">
                    <color>ff0000ff</color>
                    <colorMode>normal</colorMode>
                    <scale>1</scale>
                    <heading>0</heading>
                    <Icon id="1561">
                        <href>http://maps.google.com/mapfiles/kml/pushpin/ylw-pushpin.png</href>
                    </Icon>
                </IconStyle>
            </Style>
            <Style id="1564">
                <IconStyle id="1565">
                    <color>ff0000ff</color>
                    <colorMode>normal</colorMode>
                    <scale>1</scale>
                    <heading>0</heading>
                    <Icon id="1566">
                        <href>http://maps.google.com/mapfiles/kml/pushpin/ylw-pushpin.png</href>
                    </Icon>
                </IconStyle>
            </Style>
            <Style id="1569">
                <IconStyle id="1570">
                    <color>ff0000ff</color>
                    <colorMode>normal</colorMode>
                    <scale>1</scale>
                    <heading>0</heading>
                    <Icon id="1571">
                        <href>http://maps.google.com/mapfiles/kml/pushpin/ylw-pushpin.png</href>
                    </Icon>
                </IconStyle>
            </Style>
            <Style id="1574">
                <IconStyle id="1575">
                    <color>ff0000ff</color>
                    <colorMode>normal</colorMode>
                    <scale>1</scale>
                    <heading>0</heading>
                    <Icon id="1576">
                        <href>http://maps.google.com/mapfiles/kml/pushpin/ylw-pushpin.png</href>
                    </Icon>
                </IconStyle>
            </Style>
            <name>DAVID ALEXIS ATARAMA PINTO</name>
            <Placemark id="1513">
                <name>CORDOVA CASTILLO MELVA MAGALY</name>
                <description>MERCADO CAPULLANAS PUESTO 137 Y PUESTO 138
Veintiséis de Octubre
Veintiséis de Octubre
Piura
Perú</description>
                <styleUrl>#1514</styleUrl>
                <Point id="1512">
                    <coordinates>-80.6698587,-5.1750302,0.0</coordinates>
                </Point>
            </Placemark>
            <Placemark id="1518">
                <name>GOLOSINAS Y BEBIDAS FADI SOCIEDAD ANONIMA CERRADA</name>
                <description>MZA. A LOTE. 12 OTR.  MERCADO MAYORISTA LAS CAPULLANAS
Veintiséis de Octubre
Veintiséis de Octubre
Piura
Perú</description>
                <styleUrl>#1519</styleUrl>
                <Point id="1517">
                    <coordinates>-80.669706,-5.1755536,0.0</coordinates>
                </Point>
            </Placemark>
            <Placemark id="1523">
                <name>JOSE ALEX CUNYA CANGO</name>
                <description>MERCADO CAPULLANAS PUESTO 179
Veintiséis de Octubre
Veintiséis de Octubre
Piura
Perú</description>
                <styleUrl>#1524</styleUrl>
                <Point id="1522">
                    <coordinates>-80.6700528,-5.1753173,0.0</coordinates>
                </Point>
            </Placemark>
            <Placemark id="1528">
                <name>JAZMIN ESTELA GARCIA HUAMAN</name>
                <description>MERCADO CAPULLANAS PUESTO 13
Veintiséis de Octubre
Veintiséis de Octubre
Piura
Perú</description>
                <styleUrl>#1529</styleUrl>
                <Point id="1527">
                    <coordinates>-80.6710676,-5.1757973,0.0</coordinates>
                </Point>
            </Placemark>
            <Placemark id="1533">
                <name>SANTOS SILVA YNGA</name>
                <description>MERCADO CAPULLANAS PUESTO 44
Veintiséis de Octubre
Veintiséis de Octubre
Piura
Perú</description>
                <styleUrl>#1534</styleUrl>
                <Point id="1532">
                    <coordinates>-80.6705743,-5.1754491,0.0</coordinates>
                </Point>
            </Placemark>
            <Placemark id="1538">
                <name>PRODUCT.PIURANOS MECHITA EIRL</name>
                <description>PRODUCT.PIURANOS MECHITA EIRL
PUESTO 36 MERCADO CAPULLANAS
Veintiséis de Octubre

Piura
Perú</description>
                <styleUrl>#1539</styleUrl>
                <Point id="1537">
                    <coordinates>-80.6699586,-5.1756069,0.0</coordinates>
                </Point>
            </Placemark>
            <Placemark id="1543">
                <name>PRODUCT.PIURANOS MECHITA EIRL</name>
                <description>PRODUCT.PIURANOS MECHITA EIRL
PUESTO 36 MERCADO CAPULLANAS
Veintiséis de Octubre

Piura
Perú</description>
                <styleUrl>#1544</styleUrl>
                <Point id="1542">
                    <coordinates>-80.6699586,-5.1756069,0.0</coordinates>
                </Point>
            </Placemark>
            <Placemark id="1548">
                <name>ROSA SEMINARIO RAMOS</name>
                <description>PUESTO 133 / INTERIOR CAPULLANAS
Veintiséis de Octubre
Veintiséis de Octubre
Piura
Perú</description>
                <styleUrl>#1549</styleUrl>
                <Point id="1547">
                    <coordinates>-80.6717536,-5.1760761,0.0</coordinates>
                </Point>
            </Placemark>
            <Placemark id="1553">
                <name>DINO MARCHENA CHINININ</name>
                <description>CAPULLANAS MAYORISTA PUESTO 12
Veintiséis de Octubre
Veintiséis de Octubre
Piura
Perú</description>
                <styleUrl>#1554</styleUrl>
                <Point id="1552">
                    <coordinates>-80.671115,-5.1758526,0.0</coordinates>
                </Point>
            </Placemark>
            <Placemark id="1558">
                <name>YUNIOR REYES ABAD</name>
                <description>PUESTO A- 105 / C -125 MCDO CAPULLANAS
Veintiséis de Octubre
Veintiséis de Octubre
Piura
Perú</description>
                <styleUrl>#1559</styleUrl>
                <Point id="1557">
                    <coordinates>-80.6714863,-5.1758542,0.0</coordinates>
                </Point>
            </Placemark>
            <Placemark id="1563">
                <name>HERMELINDA ALBERCA ZURITA</name>
                <description>PUESTO B - 96 / INTERIOR CAPULLANAS
Veintiséis de Octubre
Veintiséis de Octubre
Piura
Perú</description>
                <styleUrl>#1564</styleUrl>
                <Point id="1562">
                    <coordinates>-80.6715659,-5.1757816,0.0</coordinates>
                </Point>
            </Placemark>
            <Placemark id="1568">
                <name>HERMELINDA ALBERCA ZURITA</name>
                <description>PUESTO B - 96 / INTERIOR CAPULLANAS
Veintiséis de Octubre
Veintiséis de Octubre
Piura
Perú</description>
                <styleUrl>#1569</styleUrl>
                <Point id="1567">
                    <coordinates>-80.6715659,-5.1757816,0.0</coordinates>
                </Point>
            </Placemark>
            <Placemark id="1573">
                <name>ROSA SEMINARIO RAMOS</name>
                <description>PUESTO 133 / INTERIOR CAPULLANAS
Veintiséis de Octubre
Veintiséis de Octubre
Piura
Perú</description>
                <styleUrl>#1574</styleUrl>
                <Point id="1572">
                    <coordinates>-80.6717536,-5.1760761,0.0</coordinates>
                </Point>
            </Placemark>
        </Folder>
        <Folder id="1577">
            <Style id="1580">
                <IconStyle id="1581">
                    <color>ffff0000</color>
                    <colorMode>normal</colorMode>
                    <scale>1</scale>
                    <heading>0</heading>
                    <Icon id="1582">
                        <href>http://maps.google.com/mapfiles/kml/pushpin/ylw-pushpin.png</href>
                    </Icon>
                </IconStyle>
            </Style>
            <Style id="1585">
                <IconStyle id="1586">
                    <color>ffff0000</color>
                    <colorMode>normal</colorMode>
                    <scale>1</scale>
                    <heading>0</heading>
                    <Icon id="1587">
                        <href>http://maps.google.com/mapfiles/kml/pushpin/ylw-pushpin.png</href>
                    </Icon>
                </IconStyle>
            </Style>
            <Style id="1590">
                <IconStyle id="1591">
                    <color>ffff0000</color>
                    <colorMode>normal</colorMode>
                    <scale>1</scale>
                    <heading>0</heading>
                    <Icon id="1592">
                        <href>http://maps.google.com/mapfiles/kml/pushpin/ylw-pushpin.png</href>
                    </Icon>
                </IconStyle>
            </Style>
            <Style id="1595">
                <IconStyle id="1596">
                    <color>ffff0000</color>
                    <colorMode>normal</colorMode>
                    <scale>1</scale>
                    <heading>0</heading>
                    <Icon id="1597">
                        <href>http://maps.google.com/mapfiles/kml/pushpin/ylw-pushpin.png</href>
                    </Icon>
                </IconStyle>
            </Style>
            <Style id="1600">
                <IconStyle id="1601">
                    <color>ffff0000</color>
                    <colorMode>normal</colorMode>
                    <scale>1</scale>
                    <heading>0</heading>
                    <Icon id="1602">
                        <href>http://maps.google.com/mapfiles/kml/pushpin/ylw-pushpin.png</href>
                    </Icon>
                </IconStyle>
            </Style>
            <Style id="1605">
                <IconStyle id="1606">
                    <color>ffff0000</color>
                    <colorMode>normal</colorMode>
                    <scale>1</scale>
                    <heading>0</heading>
                    <Icon id="1607">
                        <href>http://maps.google.com/mapfiles/kml/pushpin/ylw-pushpin.png</href>
                    </Icon>
                </IconStyle>
            </Style>
            <Style id="1610">
                <IconStyle id="1611">
                    <color>ffff0000</color>
                    <colorMode>normal</colorMode>
                    <scale>1</scale>
                    <heading>0</heading>
                    <Icon id="1612">
                        <href>http://maps.google.com/mapfiles/kml/pushpin/ylw-pushpin.png</href>
                    </Icon>
                </IconStyle>
            </Style>
            <Style id="1615">
                <IconStyle id="1616">
                    <color>ffff0000</color>
                    <colorMode>normal</colorMode>
                    <scale>1</scale>
                    <heading>0</heading>
                    <Icon id="1617">
                        <href>http://maps.google.com/mapfiles/kml/pushpin/ylw-pushpin.png</href>
                    </Icon>
                </IconStyle>
            </Style>
            <Style id="1620">
                <IconStyle id="1621">
                    <color>ffff0000</color>
                    <colorMode>normal</colorMode>
                    <scale>1</scale>
                    <heading>0</heading>
                    <Icon id="1622">
                        <href>http://maps.google.com/mapfiles/kml/pushpin/ylw-pushpin.png</href>
                    </Icon>
                </IconStyle>
            </Style>
            <Style id="1625">
                <IconStyle id="1626">
                    <color>ffff0000</color>
                    <colorMode>normal</colorMode>
                    <scale>1</scale>
                    <heading>0</heading>
                    <Icon id="1627">
                        <href>http://maps.google.com/mapfiles/kml/pushpin/ylw-pushpin.png</href>
                    </Icon>
                </IconStyle>
            </Style>
            <Style id="1630">
                <IconStyle id="1631">
                    <color>ffff0000</color>
                    <colorMode>normal</colorMode>
                    <scale>1</scale>
                    <heading>0</heading>
                    <Icon id="1632">
                        <href>http://maps.google.com/mapfiles/kml/pushpin/ylw-pushpin.png</href>
                    </Icon>
                </IconStyle>
            </Style>
            <Style id="1635">
                <IconStyle id="1636">
                    <color>ffff0000</color>
                    <colorMode>normal</colorMode>
                    <scale>1</scale>
                    <heading>0</heading>
                    <Icon id="1637">
                        <href>http://maps.google.com/mapfiles/kml/pushpin/ylw-pushpin.png</href>
                    </Icon>
                </IconStyle>
            </Style>
            <Style id="1640">
                <IconStyle id="1641">
                    <color>ffff0000</color>
                    <colorMode>normal</colorMode>
                    <scale>1</scale>
                    <heading>0</heading>
                    <Icon id="1642">
                        <href>http://maps.google.com/mapfiles/kml/pushpin/ylw-pushpin.png</href>
                    </Icon>
                </IconStyle>
            </Style>
            <Style id="1645">
                <IconStyle id="1646">
                    <color>ffff0000</color>
                    <colorMode>normal</colorMode>
                    <scale>1</scale>
                    <heading>0</heading>
                    <Icon id="1647">
                        <href>http://maps.google.com/mapfiles/kml/pushpin/ylw-pushpin.png</href>
                    </Icon>
                </IconStyle>
            </Style>
            <Style id="1650">
                <IconStyle id="1651">
                    <color>ffff0000</color>
                    <colorMode>normal</colorMode>
                    <scale>1</scale>
                    <heading>0</heading>
                    <Icon id="1652">
                        <href>http://maps.google.com/mapfiles/kml/pushpin/ylw-pushpin.png</href>
                    </Icon>
                </IconStyle>
            </Style>
            <Style id="1655">
                <IconStyle id="1656">
                    <color>ffff0000</color>
                    <colorMode>normal</colorMode>
                    <scale>1</scale>
                    <heading>0</heading>
                    <Icon id="1657">
                        <href>http://maps.google.com/mapfiles/kml/pushpin/ylw-pushpin.png</href>
                    </Icon>
                </IconStyle>
            </Style>
            <Style id="1660">
                <IconStyle id="1661">
                    <color>ffff0000</color>
                    <colorMode>normal</colorMode>
                    <scale>1</scale>
                    <heading>0</heading>
                    <Icon id="1662">
                        <href>http://maps.google.com/mapfiles/kml/pushpin/ylw-pushpin.png</href>
                    </Icon>
                </IconStyle>
            </Style>
            <Style id="1665">
                <IconStyle id="1666">
                    <color>ffff0000</color>
                    <colorMode>normal</colorMode>
                    <scale>1</scale>
                    <heading>0</heading>
                    <Icon id="1667">
                        <href>http://maps.google.com/mapfiles/kml/pushpin/ylw-pushpin.png</href>
                    </Icon>
                </IconStyle>
            </Style>
            <Style id="1670">
                <IconStyle id="1671">
                    <color>ffff0000</color>
                    <colorMode>normal</colorMode>
                    <scale>1</scale>
                    <heading>0</heading>
                    <Icon id="1672">
                        <href>http://maps.google.com/mapfiles/kml/pushpin/ylw-pushpin.png</href>
                    </Icon>
                </IconStyle>
            </Style>
            <Style id="1675">
                <IconStyle id="1676">
                    <color>ffff0000</color>
                    <colorMode>normal</colorMode>
                    <scale>1</scale>
                    <heading>0</heading>
                    <Icon id="1677">
                        <href>http://maps.google.com/mapfiles/kml/pushpin/ylw-pushpin.png</href>
                    </Icon>
                </IconStyle>
            </Style>
            <Style id="1680">
                <IconStyle id="1681">
                    <color>ffff0000</color>
                    <colorMode>normal</colorMode>
                    <scale>1</scale>
                    <heading>0</heading>
                    <Icon id="1682">
                        <href>http://maps.google.com/mapfiles/kml/pushpin/ylw-pushpin.png</href>
                    </Icon>
                </IconStyle>
            </Style>
            <Style id="1685">
                <IconStyle id="1686">
                    <color>ffff0000</color>
                    <colorMode>normal</colorMode>
                    <scale>1</scale>
                    <heading>0</heading>
                    <Icon id="1687">
                        <href>http://maps.google.com/mapfiles/kml/pushpin/ylw-pushpin.png</href>
                    </Icon>
                </IconStyle>
            </Style>
            <Style id="1690">
                <IconStyle id="1691">
                    <color>ffff0000</color>
                    <colorMode>normal</colorMode>
                    <scale>1</scale>
                    <heading>0</heading>
                    <Icon id="1692">
                        <href>http://maps.google.com/mapfiles/kml/pushpin/ylw-pushpin.png</href>
                    </Icon>
                </IconStyle>
            </Style>
            <Style id="1695">
                <IconStyle id="1696">
                    <color>ffff0000</color>
                    <colorMode>normal</colorMode>
                    <scale>1</scale>
                    <heading>0</heading>
                    <Icon id="1697">
                        <href>http://maps.google.com/mapfiles/kml/pushpin/ylw-pushpin.png</href>
                    </Icon>
                </IconStyle>
            </Style>
            <Style id="1700">
                <IconStyle id="1701">
                    <color>ffff0000</color>
                    <colorMode>normal</colorMode>
                    <scale>1</scale>
                    <heading>0</heading>
                    <Icon id="1702">
                        <href>http://maps.google.com/mapfiles/kml/pushpin/ylw-pushpin.png</href>
                    </Icon>
                </IconStyle>
            </Style>
            <Style id="1705">
                <IconStyle id="1706">
                    <color>ffff0000</color>
                    <colorMode>normal</colorMode>
                    <scale>1</scale>
                    <heading>0</heading>
                    <Icon id="1707">
                        <href>http://maps.google.com/mapfiles/kml/pushpin/ylw-pushpin.png</href>
                    </Icon>
                </IconStyle>
            </Style>
            <Style id="1710">
                <IconStyle id="1711">
                    <color>ffff0000</color>
                    <colorMode>normal</colorMode>
                    <scale>1</scale>
                    <heading>0</heading>
                    <Icon id="1712">
                        <href>http://maps.google.com/mapfiles/kml/pushpin/ylw-pushpin.png</href>
                    </Icon>
                </IconStyle>
            </Style>
            <Style id="1715">
                <IconStyle id="1716">
                    <color>ffff0000</color>
                    <colorMode>normal</colorMode>
                    <scale>1</scale>
                    <heading>0</heading>
                    <Icon id="1717">
                        <href>http://maps.google.com/mapfiles/kml/pushpin/ylw-pushpin.png</href>
                    </Icon>
                </IconStyle>
            </Style>
            <Style id="1720">
                <IconStyle id="1721">
                    <color>ffff0000</color>
                    <colorMode>normal</colorMode>
                    <scale>1</scale>
                    <heading>0</heading>
                    <Icon id="1722">
                        <href>http://maps.google.com/mapfiles/kml/pushpin/ylw-pushpin.png</href>
                    </Icon>
                </IconStyle>
            </Style>
            <Style id="1725">
                <IconStyle id="1726">
                    <color>ffff0000</color>
                    <colorMode>normal</colorMode>
                    <scale>1</scale>
                    <heading>0</heading>
                    <Icon id="1727">
                        <href>http://maps.google.com/mapfiles/kml/pushpin/ylw-pushpin.png</href>
                    </Icon>
                </IconStyle>
            </Style>
            <Style id="1730">
                <IconStyle id="1731">
                    <color>ffff0000</color>
                    <colorMode>normal</colorMode>
                    <scale>1</scale>
                    <heading>0</heading>
                    <Icon id="1732">
                        <href>http://maps.google.com/mapfiles/kml/pushpin/ylw-pushpin.png</href>
                    </Icon>
                </IconStyle>
            </Style>
            <Style id="1735">
                <IconStyle id="1736">
                    <color>ffff0000</color>
                    <colorMode>normal</colorMode>
                    <scale>1</scale>
                    <heading>0</heading>
                    <Icon id="1737">
                        <href>http://maps.google.com/mapfiles/kml/pushpin/ylw-pushpin.png</href>
                    </Icon>
                </IconStyle>
            </Style>
            <Style id="1740">
                <IconStyle id="1741">
                    <color>ffff0000</color>
                    <colorMode>normal</colorMode>
                    <scale>1</scale>
                    <heading>0</heading>
                    <Icon id="1742">
                        <href>http://maps.google.com/mapfiles/kml/pushpin/ylw-pushpin.png</href>
                    </Icon>
                </IconStyle>
            </Style>
            <name>ZOILA ALBERTINA DE JESUS MORANTE CARRASCO</name>
            <Placemark id="1579">
                <name>RAQUEL DEL PILAR MORE SOSA</name>
                <description>CA.V.GARCIA H10 20            
Veintiséis de Octubre
Veintiséis de Octubre
Piura
Perú</description>
                <styleUrl>#1580</styleUrl>
                <Point id="1578">
                    <coordinates>-80.6714403,-5.1864133,0.0</coordinates>
                </Point>
            </Placemark>
            <Placemark id="1584">
                <name>VELASCO AGUIRRE DE NESONES R</name>
                <description>MZ.J 06 LOTE 17 AH NUEVA ESPER
Veintiséis de Octubre
Piura
Piura
Perú</description>
                <styleUrl>#1585</styleUrl>
                <Point id="1583">
                    <coordinates>-80.67306,-5.188242,0.0</coordinates>
                </Point>
            </Placemark>
            <Placemark id="1589">
                <name>ISMAEL ENRIQUE GOMEZ SORIANO</name>
                <description>AV CIRCUNVALACIO  E8-6 AH SAN MARTIN



Perú</description>
                <styleUrl>#1590</styleUrl>
                <Point id="1588">
                    <coordinates>-80.6667618,-5.1886697,0.0</coordinates>
                </Point>
            </Placemark>
            <Placemark id="1594">
                <name>ELIZABETH CAMPOVERDE SAAVEDRA</name>
                <description>MZN.C15 LOTE  19 CA.24 SET
Veintiséis de Octubre
Veintiséis de Octubre
Piura
Perú</description>
                <styleUrl>#1595</styleUrl>
                <Point id="1593">
                    <coordinates>-80.675408,-5.184273,0.0</coordinates>
                </Point>
            </Placemark>
            <Placemark id="1599">
                <name>YESSICA VANESA TAPIA ANDRADE</name>
                <description>E1 LT 20 MICAELA BASTIDAS
Veintiséis de Octubre
Piura
Piura
Perú</description>
                <styleUrl>#1600</styleUrl>
                <Point id="1598">
                    <coordinates>-80.6739855,-5.1799443,0.0</coordinates>
                </Point>
            </Placemark>
            <Placemark id="1604">
                <name>DOLLY ARMANDA ANGELDONIS FARFAN DE TIMOTEO</name>
                <description>AV. TIMOTEO PUMACAHUA B13 LOTE 19  ASENTAMIENTO HUMANO SAN MARTIN
Veintiséis de Octubre

Piura
Perú</description>
                <styleUrl>#1605</styleUrl>
                <Point id="1603">
                    <coordinates>-80.6742295,-5.1819763,0.0</coordinates>
                </Point>
            </Placemark>
            <Placemark id="1609">
                <name>YOHANY MARIE NORIEGA LLANOS</name>
                <description>BQ R N°303 TORRE R.COND.RES II
Veintiséis de Octubre
Piura
Piura
Perú</description>
                <styleUrl>#1610</styleUrl>
                <Point id="1608">
                    <coordinates>-80.6767626,-5.1814867,0.0</coordinates>
                </Point>
            </Placemark>
            <Placemark id="1614">
                <name>SMITH ANTONIO VILCHEZ MORENO</name>
                <description>Tienda 03 RESD. LOS PARQUES DE Piura 1 ETAPA
Veintiséis de Octubre
Veintiséis de Octubre
Piura
Perú</description>
                <styleUrl>#1615</styleUrl>
                <Point id="1613">
                    <coordinates>-80.6778834,-5.181504,0.0</coordinates>
                </Point>
            </Placemark>
            <Placemark id="1619">
                <name>RINA GABRIELA MARKY OTERO</name>
                <description>BQ.C 101 TORRE C.COND.RESD 2DA
Veintiséis de Octubre
Piura
Piura
Perú</description>
                <styleUrl>#1620</styleUrl>
                <Point id="1618">
                    <coordinates>-80.6768498,-5.1815026,0.0</coordinates>
                </Point>
            </Placemark>
            <Placemark id="1624">
                <name>MARIELENA ROMAN HOLGUIN</name>
                <description>URB.PARQUES DE PIURA 2DA ETAPA LOCAL 01 AL COSTADO DE LA SRA. Noriega
Veintiséis de Octubre

Piura
Perú</description>
                <styleUrl>#1625</styleUrl>
                <Point id="1623">
                    <coordinates>-80.676621,-5.1815207,0.0</coordinates>
                </Point>
            </Placemark>
            <Placemark id="1629">
                <name>MARIELENA ROMAN HOLGUIN</name>
                <description>URB.PARQUES DE PIURA 2DA ETAPA LOCAL 01 AL COSTADO DE LA SRA. Noriega
Veintiséis de Octubre

Piura
Perú</description>
                <styleUrl>#1630</styleUrl>
                <Point id="1628">
                    <coordinates>-80.676621,-5.1815207,0.0</coordinates>
                </Point>
            </Placemark>
            <Placemark id="1634">
                <name>ESPINOZA CLEMENTINA PINTADO DE</name>
                <description>AV. SAN MARTIN MZ I-15 L-13 PIURA
Veintiséis de Octubre
Piura
Piura
Perú</description>
                <styleUrl>#1635</styleUrl>
                <Point id="1633">
                    <coordinates>-80.6752143,-5.1839894,0.0</coordinates>
                </Point>
            </Placemark>
            <Placemark id="1639">
                <name>JENYFERR PAMELA PAUCAR CHUQUIHUANGA</name>
                <description>Mercado san Martin puesto 21
Veintiséis de Octubre
Veintiséis de Octubre
Piura
Perú</description>
                <styleUrl>#1640</styleUrl>
                <Point id="1638">
                    <coordinates>-80.6716559,-5.1847595,0.0</coordinates>
                </Point>
            </Placemark>
            <Placemark id="1644">
                <name>ERICKA FABIOLA VARILLAS CASTILLO</name>
                <description>AV. CIRCUNVALACIÓN 428 REFERENCIA MOTOREPUESTOS SAMUEL
Veintiséis de Octubre
Veintiséis de Octubre
Piura
Perú</description>
                <styleUrl>#1645</styleUrl>
                <Point id="1643">
                    <coordinates>-80.6700414,-5.1875971,0.0</coordinates>
                </Point>
            </Placemark>
            <Placemark id="1649">
                <name>VANESSA FIORELLA ALVARADO BURNEO</name>
                <description>MZ D10 lote 28 AAHH San Martin , calle Vicente García
Veintiséis de Octubre
Veintiséis de Octubre
Piura
Perú</description>
                <styleUrl>#1650</styleUrl>
                <Point id="1648">
                    <coordinates>-80.6716653,-5.1867478,0.0</coordinates>
                </Point>
            </Placemark>
            <Placemark id="1654">
                <name>FRANKLIN ANTONIO HUACCHILLO CAMPOS</name>
                <description>CALLE JOSÉ MARTI. MZN D12 LOTE 22 ASENTAMIENTO HUMANO SAN MARTIN
Veintiséis de Octubre
Veintiséis de Octubre
Piura
Perú</description>
                <styleUrl>#1655</styleUrl>
                <Point id="1653">
                    <coordinates>-80.6736198,-5.1858841,0.0</coordinates>
                </Point>
            </Placemark>
            <Placemark id="1659">
                <name>MARCELA ESTHER SERQUEN OROZCO</name>
                <description>Ca. 1°de DICIEMBRE Mz K15 LTE 3 AA.HH SAN MARTIN
Veintiséis de Octubre
Veintiséis de Octubre
Piura
Perú</description>
                <styleUrl>#1660</styleUrl>
                <Point id="1658">
                    <coordinates>-80.675826,-5.1836191,0.0</coordinates>
                </Point>
            </Placemark>
            <Placemark id="1664">
                <name>JOSE DANIEL CAMPOS ZAPATA</name>
                <description>MATEO PUMACAHUA  MZN. V3 LOTE 32.AA.HH SAN MARTIN
Veintiséis de Octubre
Veintiséis de Octubre
Piura
Perú</description>
                <styleUrl>#1665</styleUrl>
                <Point id="1663">
                    <coordinates>-80.6746497,-5.1832569,0.0</coordinates>
                </Point>
            </Placemark>
            <Placemark id="1669">
                <name>REBECA ROSA CAMPOVERDE ANICETO</name>
                <description>01 DE DICIEMBRE 264 SAN MARTIN
Veintiséis de Octubre
Veintiséis de Octubre
Piura
Perú</description>
                <styleUrl>#1670</styleUrl>
                <Point id="1668">
                    <coordinates>-80.6755167,-5.1828535,0.0</coordinates>
                </Point>
            </Placemark>
            <Placemark id="1674">
                <name>PETRONILA RODRIGUEZ SILVA</name>
                <description>F1 LOTE 10 AA.HH MICAELA BASTIDAS
Veintiséis de Octubre
Veintiséis de Octubre
Piura
Perú</description>
                <styleUrl>#1675</styleUrl>
                <Point id="1673">
                    <coordinates>-80.6734209,-5.1806506,0.0</coordinates>
                </Point>
            </Placemark>
            <Placemark id="1679">
                <name>BERTHA GIRON VALLE</name>
                <description>Aahh Micaela bastidas MZ D3 lote 5 tercer sector
Veintiséis de Octubre
Veintiséis de Octubre
Piura
Perú</description>
                <styleUrl>#1680</styleUrl>
                <Point id="1678">
                    <coordinates>-80.6742538,-5.1770022,0.0</coordinates>
                </Point>
            </Placemark>
            <Placemark id="1684">
                <name>MARIA IRENE SOTO CASTILLO</name>
                <description>E3 LOTE 2 A.H MICAELA BASTIDAS
Veintiséis de Octubre
Veintiséis de Octubre
Piura
Perú</description>
                <styleUrl>#1685</styleUrl>
                <Point id="1683">
                    <coordinates>-80.6747976,-5.17816,0.0</coordinates>
                </Point>
            </Placemark>
            <Placemark id="1689">
                <name>MILUSKA LISSET QUEZADA MERINO</name>
                <description>MZ B9 LT 9 A.H SN MARTIN      
Veintiséis de Octubre
Veintiséis de Octubre
Piura
Perú</description>
                <styleUrl>#1690</styleUrl>
                <Point id="1688">
                    <coordinates>-80.665838,-5.186146,0.0</coordinates>
                </Point>
            </Placemark>
            <Placemark id="1694">
                <name>BALBINA MADRID DE SERRATO</name>
                <description>CA.MIGUEL CORREA MZ E3 LTE.3 MICAELA BASTIDAS
Veintiséis de Octubre
Piura
Piura
Perú</description>
                <styleUrl>#1695</styleUrl>
                <Point id="1693">
                    <coordinates>-80.674767,-5.178183,0.0</coordinates>
                </Point>
            </Placemark>
            <Placemark id="1699">
                <name>YOLANDA TUME TUME</name>
                <description>Aahh Micaela bastidas MZ E3 lote 12 espaldas del colegio secundario
Veintiséis de Octubre
Veintiséis de Octubre
Piura
Perú</description>
                <styleUrl>#1700</styleUrl>
                <Point id="1698">
                    <coordinates>-80.674277,-5.1785041,0.0</coordinates>
                </Point>
            </Placemark>
            <Placemark id="1704">
                <name>ORALIA ROBLEDO ABAD</name>
                <description>MZ A13 LT 24 AAHH SAN MARTIN  
Veintiséis de Octubre
Veintiséis de Octubre
Piura
Perú</description>
                <styleUrl>#1705</styleUrl>
                <Point id="1703">
                    <coordinates>-80.6731635,-5.1833678,0.0</coordinates>
                </Point>
            </Placemark>
            <Placemark id="1709">
                <name>NORMA ERLITA CASTILLO ALVARADO</name>
                <description>Calle Salvador Allende 348 - MZ A14 lote 13
Veintiséis de Octubre
Veintiséis de Octubre
Piura
Perú</description>
                <styleUrl>#1710</styleUrl>
                <Point id="1708">
                    <coordinates>-80.6700815,-5.183101,0.0</coordinates>
                </Point>
            </Placemark>
            <Placemark id="1714">
                <name>DELIA MARILU PASAPERA ACARO</name>
                <description>A.H.SAN MARTIN MZ A11 LOTE 24 
Veintiséis de Octubre
Veintiséis de Octubre
Piura
Perú</description>
                <styleUrl>#1715</styleUrl>
                <Point id="1713">
                    <coordinates>-80.6694081,-5.1835068,0.0</coordinates>
                </Point>
            </Placemark>
            <Placemark id="1719">
                <name>DILMA GUERRERO ALVERCA</name>
                <description>DILMA GUERRERO ALVERCA
CA.B. HUAMAN MZ11-16 S. MARTIN PI
Veintiséis de Octubre
Piura
Piura
Perú</description>
                <styleUrl>#1720</styleUrl>
                <Point id="1718">
                    <coordinates>-80.6693793,-5.1842269,0.0</coordinates>
                </Point>
            </Placemark>
            <Placemark id="1724">
                <name>JOANY RIOS RIMAYCUNA</name>
                <description>AV JOSE CARLOS B11 LT 40 SAN MARTINMARTIN
Veintiséis de Octubre
Piura
Piura
Perú</description>
                <styleUrl>#1725</styleUrl>
                <Point id="1723">
                    <coordinates>-80.6681493,-5.1846151,0.0</coordinates>
                </Point>
            </Placemark>
            <Placemark id="1729">
                <name>MARIA DEL SOCORRO CASTRO YOVERA</name>
                <description>Calle Marticorena 136 aahh San Martín
Veintiséis de Octubre
Veintiséis de Octubre
Piura
Perú</description>
                <styleUrl>#1730</styleUrl>
                <Point id="1728">
                    <coordinates>-80.666963,-5.184965,0.0</coordinates>
                </Point>
            </Placemark>
            <Placemark id="1734">
                <name>GILBERTO ALBERTO LLACSAHUANGA CUNYA</name>
                <description>GILBERTO ALBERTO LLACSAHUANGA CUNYA
AV.SAN MARTIN MZ B9 LTE.4 (112) AA.HH SAN MARTIN
Veintiséis de Octubre
Piura
Piura
Perú</description>
                <styleUrl>#1735</styleUrl>
                <Point id="1733">
                    <coordinates>-80.6658393,-5.1861207,0.0</coordinates>
                </Point>
            </Placemark>
            <Placemark id="1739">
                <name>GILBERTO ALBERTO LLACSAHUANGA CUNYA</name>
                <description>GILBERTO ALBERTO LLACSAHUANGA CUNYA
AV.SAN MARTIN MZ B9 LTE.4 (112) AA.HH SAN MARTIN
Veintiséis de Octubre
Piura
Piura
Perú</description>
                <styleUrl>#1740</styleUrl>
                <Point id="1738">
                    <coordinates>-80.6658393,-5.1861207,0.0</coordinates>
                </Point>
            </Placemark>
        </Folder>
    </Document>
</kml>
