<?xml version="1.0" encoding="UTF-8"?>
<kml xmlns="http://www.opengis.net/kml/2.2" xmlns:gx="http://www.google.com/kml/ext/2.2">
    <Document id="1670">
        <Folder id="1671">
            <Style id="1674">
                <IconStyle id="1675">
                    <color>ff0000ff</color>
                    <colorMode>normal</colorMode>
                    <scale>1</scale>
                    <heading>0</heading>
                    <Icon id="1676">
                        <href>http://maps.google.com/mapfiles/kml/pushpin/ylw-pushpin.png</href>
                    </Icon>
                </IconStyle>
            </Style>
            <Style id="1679">
                <IconStyle id="1680">
                    <color>ff0000ff</color>
                    <colorMode>normal</colorMode>
                    <scale>1</scale>
                    <heading>0</heading>
                    <Icon id="1681">
                        <href>http://maps.google.com/mapfiles/kml/pushpin/ylw-pushpin.png</href>
                    </Icon>
                </IconStyle>
            </Style>
            <Style id="1684">
                <IconStyle id="1685">
                    <color>ff0000ff</color>
                    <colorMode>normal</colorMode>
                    <scale>1</scale>
                    <heading>0</heading>
                    <Icon id="1686">
                        <href>http://maps.google.com/mapfiles/kml/pushpin/ylw-pushpin.png</href>
                    </Icon>
                </IconStyle>
            </Style>
            <Style id="1689">
                <IconStyle id="1690">
                    <color>ff0000ff</color>
                    <colorMode>normal</colorMode>
                    <scale>1</scale>
                    <heading>0</heading>
                    <Icon id="1691">
                        <href>http://maps.google.com/mapfiles/kml/pushpin/ylw-pushpin.png</href>
                    </Icon>
                </IconStyle>
            </Style>
            <Style id="1694">
                <IconStyle id="1695">
                    <color>ff0000ff</color>
                    <colorMode>normal</colorMode>
                    <scale>1</scale>
                    <heading>0</heading>
                    <Icon id="1696">
                        <href>http://maps.google.com/mapfiles/kml/pushpin/ylw-pushpin.png</href>
                    </Icon>
                </IconStyle>
            </Style>
            <Style id="1699">
                <IconStyle id="1700">
                    <color>ff0000ff</color>
                    <colorMode>normal</colorMode>
                    <scale>1</scale>
                    <heading>0</heading>
                    <Icon id="1701">
                        <href>http://maps.google.com/mapfiles/kml/pushpin/ylw-pushpin.png</href>
                    </Icon>
                </IconStyle>
            </Style>
            <Style id="1704">
                <IconStyle id="1705">
                    <color>ff0000ff</color>
                    <colorMode>normal</colorMode>
                    <scale>1</scale>
                    <heading>0</heading>
                    <Icon id="1706">
                        <href>http://maps.google.com/mapfiles/kml/pushpin/ylw-pushpin.png</href>
                    </Icon>
                </IconStyle>
            </Style>
            <Style id="1709">
                <IconStyle id="1710">
                    <color>ff0000ff</color>
                    <colorMode>normal</colorMode>
                    <scale>1</scale>
                    <heading>0</heading>
                    <Icon id="1711">
                        <href>http://maps.google.com/mapfiles/kml/pushpin/ylw-pushpin.png</href>
                    </Icon>
                </IconStyle>
            </Style>
            <Style id="1714">
                <IconStyle id="1715">
                    <color>ff0000ff</color>
                    <colorMode>normal</colorMode>
                    <scale>1</scale>
                    <heading>0</heading>
                    <Icon id="1716">
                        <href>http://maps.google.com/mapfiles/kml/pushpin/ylw-pushpin.png</href>
                    </Icon>
                </IconStyle>
            </Style>
            <Style id="1719">
                <IconStyle id="1720">
                    <color>ff0000ff</color>
                    <colorMode>normal</colorMode>
                    <scale>1</scale>
                    <heading>0</heading>
                    <Icon id="1721">
                        <href>http://maps.google.com/mapfiles/kml/pushpin/ylw-pushpin.png</href>
                    </Icon>
                </IconStyle>
            </Style>
            <Style id="1724">
                <IconStyle id="1725">
                    <color>ff0000ff</color>
                    <colorMode>normal</colorMode>
                    <scale>1</scale>
                    <heading>0</heading>
                    <Icon id="1726">
                        <href>http://maps.google.com/mapfiles/kml/pushpin/ylw-pushpin.png</href>
                    </Icon>
                </IconStyle>
            </Style>
            <Style id="1729">
                <IconStyle id="1730">
                    <color>ff0000ff</color>
                    <colorMode>normal</colorMode>
                    <scale>1</scale>
                    <heading>0</heading>
                    <Icon id="1731">
                        <href>http://maps.google.com/mapfiles/kml/pushpin/ylw-pushpin.png</href>
                    </Icon>
                </IconStyle>
            </Style>
            <name>KATHERINE REBECA DE JESUS CARDOZA LEE</name>
            <Placemark id="1673">
                <name>CORDOVA CASTILLO MELVA MAGALY</name>
                <description>MERCADO CAPULLANAS PUESTO 137 Y PUESTO 138
Veintiséis de Octubre
Veintiséis de Octubre
Piura
Perú</description>
                <styleUrl>#1674</styleUrl>
                <Point id="1672">
                    <coordinates>-80.6698587,-5.1750302,0.0</coordinates>
                </Point>
            </Placemark>
            <Placemark id="1678">
                <name>DENNER CHINCHAY SANTOS</name>
                <description>PUESTO N 72 / MERCADO CAPULLANAS
Veintiséis de Octubre
Veintiséis de Octubre
Piura
Perú</description>
                <styleUrl>#1679</styleUrl>
                <Point id="1677">
                    <coordinates>-80.6699588,-5.1753257,0.0</coordinates>
                </Point>
            </Placemark>
            <Placemark id="1683">
                <name>JOSE ALEX CUNYA CANGO</name>
                <description>MERCADO CAPULLANAS PUESTO 179
Veintiséis de Octubre
Veintiséis de Octubre
Piura
Perú</description>
                <styleUrl>#1684</styleUrl>
                <Point id="1682">
                    <coordinates>-80.6700528,-5.1753173,0.0</coordinates>
                </Point>
            </Placemark>
            <Placemark id="1688">
                <name>JOSE ALEX CUNYA CANGO</name>
                <description>MERCADO CAPULLANAS PUESTO 179
Veintiséis de Octubre
Veintiséis de Octubre
Piura
Perú</description>
                <styleUrl>#1689</styleUrl>
                <Point id="1687">
                    <coordinates>-80.6700528,-5.1753173,0.0</coordinates>
                </Point>
            </Placemark>
            <Placemark id="1693">
                <name>DENNER CHINCHAY SANTOS</name>
                <description>PUESTO N 72 / MERCADO CAPULLANAS
Veintiséis de Octubre
Veintiséis de Octubre
Piura
Perú</description>
                <styleUrl>#1694</styleUrl>
                <Point id="1692">
                    <coordinates>-80.6699588,-5.1753257,0.0</coordinates>
                </Point>
            </Placemark>
            <Placemark id="1698">
                <name>DENNER CHINCHAY SANTOS</name>
                <description>PUESTO N 72 / MERCADO CAPULLANAS
Veintiséis de Octubre
Veintiséis de Octubre
Piura
Perú</description>
                <styleUrl>#1699</styleUrl>
                <Point id="1697">
                    <coordinates>-80.6699588,-5.1753257,0.0</coordinates>
                </Point>
            </Placemark>
            <Placemark id="1703">
                <name>CHIFLERIA JIMENEZ S.A.C.</name>
                <description>PJ. SECTOR A - PUESTO 88 NRO. S-N OTR.  MDO. MIN. LAS CAPULLANAS
Veintiséis de Octubre
200101Veintiséis de Octubre
Piura
Perú</description>
                <styleUrl>#1704</styleUrl>
                <Point id="1702">
                    <coordinates>-80.6716787,-5.175926,0.0</coordinates>
                </Point>
            </Placemark>
            <Placemark id="1708">
                <name>JAZMIN ESTELA GARCIA HUAMAN</name>
                <description>MERCADO CAPULLANAS PUESTO 13
Veintiséis de Octubre
Veintiséis de Octubre
Piura
Perú</description>
                <styleUrl>#1709</styleUrl>
                <Point id="1707">
                    <coordinates>-80.6710676,-5.1757973,0.0</coordinates>
                </Point>
            </Placemark>
            <Placemark id="1713">
                <name>DINO MARCHENA CHINININ</name>
                <description>CAPULLANAS MAYORISTA PUESTO 12
Veintiséis de Octubre
Veintiséis de Octubre
Piura
Perú</description>
                <styleUrl>#1714</styleUrl>
                <Point id="1712">
                    <coordinates>-80.671115,-5.1758526,0.0</coordinates>
                </Point>
            </Placemark>
            <Placemark id="1718">
                <name>YONATAN REYES PAUCAR</name>
                <description>B - 101 / INTERIOR CAPULLANAS
Veintiséis de Octubre
Piura
Piura
Perú</description>
                <styleUrl>#1719</styleUrl>
                <Point id="1717">
                    <coordinates>-80.6716856,-5.1760225,0.0</coordinates>
                </Point>
            </Placemark>
            <Placemark id="1723">
                <name>ROSA SEMINARIO RAMOS</name>
                <description>PUESTO 133 / INTERIOR CAPULLANAS
Veintiséis de Octubre
Veintiséis de Octubre
Piura
Perú</description>
                <styleUrl>#1724</styleUrl>
                <Point id="1722">
                    <coordinates>-80.6717536,-5.1760761,0.0</coordinates>
                </Point>
            </Placemark>
            <Placemark id="1728">
                <name>YUNIOR REYES ABAD</name>
                <description>PUESTO A- 105 / C -125 MCDO CAPULLANAS
Veintiséis de Octubre
Veintiséis de Octubre
Piura
Perú</description>
                <styleUrl>#1729</styleUrl>
                <Point id="1727">
                    <coordinates>-80.6714863,-5.1758542,0.0</coordinates>
                </Point>
            </Placemark>
        </Folder>
        <Folder id="1732">
            <Style id="1735">
                <IconStyle id="1736">
                    <color>ffff0000</color>
                    <colorMode>normal</colorMode>
                    <scale>1</scale>
                    <heading>0</heading>
                    <Icon id="1737">
                        <href>http://maps.google.com/mapfiles/kml/pushpin/ylw-pushpin.png</href>
                    </Icon>
                </IconStyle>
            </Style>
            <Style id="1740">
                <IconStyle id="1741">
                    <color>ffff0000</color>
                    <colorMode>normal</colorMode>
                    <scale>1</scale>
                    <heading>0</heading>
                    <Icon id="1742">
                        <href>http://maps.google.com/mapfiles/kml/pushpin/ylw-pushpin.png</href>
                    </Icon>
                </IconStyle>
            </Style>
            <Style id="1745">
                <IconStyle id="1746">
                    <color>ffff0000</color>
                    <colorMode>normal</colorMode>
                    <scale>1</scale>
                    <heading>0</heading>
                    <Icon id="1747">
                        <href>http://maps.google.com/mapfiles/kml/pushpin/ylw-pushpin.png</href>
                    </Icon>
                </IconStyle>
            </Style>
            <Style id="1750">
                <IconStyle id="1751">
                    <color>ffff0000</color>
                    <colorMode>normal</colorMode>
                    <scale>1</scale>
                    <heading>0</heading>
                    <Icon id="1752">
                        <href>http://maps.google.com/mapfiles/kml/pushpin/ylw-pushpin.png</href>
                    </Icon>
                </IconStyle>
            </Style>
            <Style id="1755">
                <IconStyle id="1756">
                    <color>ffff0000</color>
                    <colorMode>normal</colorMode>
                    <scale>1</scale>
                    <heading>0</heading>
                    <Icon id="1757">
                        <href>http://maps.google.com/mapfiles/kml/pushpin/ylw-pushpin.png</href>
                    </Icon>
                </IconStyle>
            </Style>
            <Style id="1760">
                <IconStyle id="1761">
                    <color>ffff0000</color>
                    <colorMode>normal</colorMode>
                    <scale>1</scale>
                    <heading>0</heading>
                    <Icon id="1762">
                        <href>http://maps.google.com/mapfiles/kml/pushpin/ylw-pushpin.png</href>
                    </Icon>
                </IconStyle>
            </Style>
            <Style id="1765">
                <IconStyle id="1766">
                    <color>ffff0000</color>
                    <colorMode>normal</colorMode>
                    <scale>1</scale>
                    <heading>0</heading>
                    <Icon id="1767">
                        <href>http://maps.google.com/mapfiles/kml/pushpin/ylw-pushpin.png</href>
                    </Icon>
                </IconStyle>
            </Style>
            <Style id="1770">
                <IconStyle id="1771">
                    <color>ffff0000</color>
                    <colorMode>normal</colorMode>
                    <scale>1</scale>
                    <heading>0</heading>
                    <Icon id="1772">
                        <href>http://maps.google.com/mapfiles/kml/pushpin/ylw-pushpin.png</href>
                    </Icon>
                </IconStyle>
            </Style>
            <Style id="1775">
                <IconStyle id="1776">
                    <color>ffff0000</color>
                    <colorMode>normal</colorMode>
                    <scale>1</scale>
                    <heading>0</heading>
                    <Icon id="1777">
                        <href>http://maps.google.com/mapfiles/kml/pushpin/ylw-pushpin.png</href>
                    </Icon>
                </IconStyle>
            </Style>
            <Style id="1780">
                <IconStyle id="1781">
                    <color>ffff0000</color>
                    <colorMode>normal</colorMode>
                    <scale>1</scale>
                    <heading>0</heading>
                    <Icon id="1782">
                        <href>http://maps.google.com/mapfiles/kml/pushpin/ylw-pushpin.png</href>
                    </Icon>
                </IconStyle>
            </Style>
            <Style id="1785">
                <IconStyle id="1786">
                    <color>ffff0000</color>
                    <colorMode>normal</colorMode>
                    <scale>1</scale>
                    <heading>0</heading>
                    <Icon id="1787">
                        <href>http://maps.google.com/mapfiles/kml/pushpin/ylw-pushpin.png</href>
                    </Icon>
                </IconStyle>
            </Style>
            <Style id="1790">
                <IconStyle id="1791">
                    <color>ffff0000</color>
                    <colorMode>normal</colorMode>
                    <scale>1</scale>
                    <heading>0</heading>
                    <Icon id="1792">
                        <href>http://maps.google.com/mapfiles/kml/pushpin/ylw-pushpin.png</href>
                    </Icon>
                </IconStyle>
            </Style>
            <Style id="1795">
                <IconStyle id="1796">
                    <color>ffff0000</color>
                    <colorMode>normal</colorMode>
                    <scale>1</scale>
                    <heading>0</heading>
                    <Icon id="1797">
                        <href>http://maps.google.com/mapfiles/kml/pushpin/ylw-pushpin.png</href>
                    </Icon>
                </IconStyle>
            </Style>
            <Style id="1800">
                <IconStyle id="1801">
                    <color>ffff0000</color>
                    <colorMode>normal</colorMode>
                    <scale>1</scale>
                    <heading>0</heading>
                    <Icon id="1802">
                        <href>http://maps.google.com/mapfiles/kml/pushpin/ylw-pushpin.png</href>
                    </Icon>
                </IconStyle>
            </Style>
            <Style id="1805">
                <IconStyle id="1806">
                    <color>ffff0000</color>
                    <colorMode>normal</colorMode>
                    <scale>1</scale>
                    <heading>0</heading>
                    <Icon id="1807">
                        <href>http://maps.google.com/mapfiles/kml/pushpin/ylw-pushpin.png</href>
                    </Icon>
                </IconStyle>
            </Style>
            <Style id="1810">
                <IconStyle id="1811">
                    <color>ffff0000</color>
                    <colorMode>normal</colorMode>
                    <scale>1</scale>
                    <heading>0</heading>
                    <Icon id="1812">
                        <href>http://maps.google.com/mapfiles/kml/pushpin/ylw-pushpin.png</href>
                    </Icon>
                </IconStyle>
            </Style>
            <Style id="1815">
                <IconStyle id="1816">
                    <color>ffff0000</color>
                    <colorMode>normal</colorMode>
                    <scale>1</scale>
                    <heading>0</heading>
                    <Icon id="1817">
                        <href>http://maps.google.com/mapfiles/kml/pushpin/ylw-pushpin.png</href>
                    </Icon>
                </IconStyle>
            </Style>
            <Style id="1820">
                <IconStyle id="1821">
                    <color>ffff0000</color>
                    <colorMode>normal</colorMode>
                    <scale>1</scale>
                    <heading>0</heading>
                    <Icon id="1822">
                        <href>http://maps.google.com/mapfiles/kml/pushpin/ylw-pushpin.png</href>
                    </Icon>
                </IconStyle>
            </Style>
            <Style id="1825">
                <IconStyle id="1826">
                    <color>ffff0000</color>
                    <colorMode>normal</colorMode>
                    <scale>1</scale>
                    <heading>0</heading>
                    <Icon id="1827">
                        <href>http://maps.google.com/mapfiles/kml/pushpin/ylw-pushpin.png</href>
                    </Icon>
                </IconStyle>
            </Style>
            <Style id="1830">
                <IconStyle id="1831">
                    <color>ffff0000</color>
                    <colorMode>normal</colorMode>
                    <scale>1</scale>
                    <heading>0</heading>
                    <Icon id="1832">
                        <href>http://maps.google.com/mapfiles/kml/pushpin/ylw-pushpin.png</href>
                    </Icon>
                </IconStyle>
            </Style>
            <Style id="1835">
                <IconStyle id="1836">
                    <color>ffff0000</color>
                    <colorMode>normal</colorMode>
                    <scale>1</scale>
                    <heading>0</heading>
                    <Icon id="1837">
                        <href>http://maps.google.com/mapfiles/kml/pushpin/ylw-pushpin.png</href>
                    </Icon>
                </IconStyle>
            </Style>
            <Style id="1840">
                <IconStyle id="1841">
                    <color>ffff0000</color>
                    <colorMode>normal</colorMode>
                    <scale>1</scale>
                    <heading>0</heading>
                    <Icon id="1842">
                        <href>http://maps.google.com/mapfiles/kml/pushpin/ylw-pushpin.png</href>
                    </Icon>
                </IconStyle>
            </Style>
            <Style id="1845">
                <IconStyle id="1846">
                    <color>ffff0000</color>
                    <colorMode>normal</colorMode>
                    <scale>1</scale>
                    <heading>0</heading>
                    <Icon id="1847">
                        <href>http://maps.google.com/mapfiles/kml/pushpin/ylw-pushpin.png</href>
                    </Icon>
                </IconStyle>
            </Style>
            <Style id="1850">
                <IconStyle id="1851">
                    <color>ffff0000</color>
                    <colorMode>normal</colorMode>
                    <scale>1</scale>
                    <heading>0</heading>
                    <Icon id="1852">
                        <href>http://maps.google.com/mapfiles/kml/pushpin/ylw-pushpin.png</href>
                    </Icon>
                </IconStyle>
            </Style>
            <Style id="1855">
                <IconStyle id="1856">
                    <color>ffff0000</color>
                    <colorMode>normal</colorMode>
                    <scale>1</scale>
                    <heading>0</heading>
                    <Icon id="1857">
                        <href>http://maps.google.com/mapfiles/kml/pushpin/ylw-pushpin.png</href>
                    </Icon>
                </IconStyle>
            </Style>
            <Style id="1860">
                <IconStyle id="1861">
                    <color>ffff0000</color>
                    <colorMode>normal</colorMode>
                    <scale>1</scale>
                    <heading>0</heading>
                    <Icon id="1862">
                        <href>http://maps.google.com/mapfiles/kml/pushpin/ylw-pushpin.png</href>
                    </Icon>
                </IconStyle>
            </Style>
            <Style id="1865">
                <IconStyle id="1866">
                    <color>ffff0000</color>
                    <colorMode>normal</colorMode>
                    <scale>1</scale>
                    <heading>0</heading>
                    <Icon id="1867">
                        <href>http://maps.google.com/mapfiles/kml/pushpin/ylw-pushpin.png</href>
                    </Icon>
                </IconStyle>
            </Style>
            <Style id="1870">
                <IconStyle id="1871">
                    <color>ffff0000</color>
                    <colorMode>normal</colorMode>
                    <scale>1</scale>
                    <heading>0</heading>
                    <Icon id="1872">
                        <href>http://maps.google.com/mapfiles/kml/pushpin/ylw-pushpin.png</href>
                    </Icon>
                </IconStyle>
            </Style>
            <Style id="1875">
                <IconStyle id="1876">
                    <color>ffff0000</color>
                    <colorMode>normal</colorMode>
                    <scale>1</scale>
                    <heading>0</heading>
                    <Icon id="1877">
                        <href>http://maps.google.com/mapfiles/kml/pushpin/ylw-pushpin.png</href>
                    </Icon>
                </IconStyle>
            </Style>
            <Style id="1880">
                <IconStyle id="1881">
                    <color>ffff0000</color>
                    <colorMode>normal</colorMode>
                    <scale>1</scale>
                    <heading>0</heading>
                    <Icon id="1882">
                        <href>http://maps.google.com/mapfiles/kml/pushpin/ylw-pushpin.png</href>
                    </Icon>
                </IconStyle>
            </Style>
            <Style id="1885">
                <IconStyle id="1886">
                    <color>ffff0000</color>
                    <colorMode>normal</colorMode>
                    <scale>1</scale>
                    <heading>0</heading>
                    <Icon id="1887">
                        <href>http://maps.google.com/mapfiles/kml/pushpin/ylw-pushpin.png</href>
                    </Icon>
                </IconStyle>
            </Style>
            <Style id="1890">
                <IconStyle id="1891">
                    <color>ffff0000</color>
                    <colorMode>normal</colorMode>
                    <scale>1</scale>
                    <heading>0</heading>
                    <Icon id="1892">
                        <href>http://maps.google.com/mapfiles/kml/pushpin/ylw-pushpin.png</href>
                    </Icon>
                </IconStyle>
            </Style>
            <Style id="1895">
                <IconStyle id="1896">
                    <color>ffff0000</color>
                    <colorMode>normal</colorMode>
                    <scale>1</scale>
                    <heading>0</heading>
                    <Icon id="1897">
                        <href>http://maps.google.com/mapfiles/kml/pushpin/ylw-pushpin.png</href>
                    </Icon>
                </IconStyle>
            </Style>
            <name>ZOILA ALBERTINA DE JESUS MORANTE CARRASCO</name>
            <Placemark id="1734">
                <name>ELVA HAYDEE CHINININ GONZA</name>
                <description>MERCADILLO SAN MARTIN PUESTO 28 CHIFLERIA LA MISERICORDIA DE DIOS
Veintiséis de Octubre
Veintiséis de Octubre
Piura
Perú</description>
                <styleUrl>#1735</styleUrl>
                <Point id="1733">
                    <coordinates>-80.671256,-5.1845,0.0</coordinates>
                </Point>
            </Placemark>
            <Placemark id="1739">
                <name>KATTY ELIZABETH BACA NOBLECILLA</name>
                <description>COND. PARQUES DE Piura MZ C LT 19
Veintiséis de Octubre
Veintiséis de Octubre
Piura
Perú</description>
                <styleUrl>#1740</styleUrl>
                <Point id="1738">
                    <coordinates>-80.6767828,-5.1821482,0.0</coordinates>
                </Point>
            </Placemark>
            <Placemark id="1744">
                <name>RINA GABRIELA MARKY OTERO</name>
                <description>BQ.C 101 TORRE C.COND.RESD 2DA
Veintiséis de Octubre
Piura
Piura
Perú</description>
                <styleUrl>#1745</styleUrl>
                <Point id="1743">
                    <coordinates>-80.6768498,-5.1815026,0.0</coordinates>
                </Point>
            </Placemark>
            <Placemark id="1749">
                <name>ESPINOZA CLEMENTINA PINTADO DE</name>
                <description>AV. SAN MARTIN MZ I-15 L-13 PIURA
Veintiséis de Octubre
Piura
Piura
Perú</description>
                <styleUrl>#1750</styleUrl>
                <Point id="1748">
                    <coordinates>-80.6752143,-5.1839894,0.0</coordinates>
                </Point>
            </Placemark>
            <Placemark id="1754">
                <name>GILBERTO ALBERTO LLACSAHUANGA CUNYA</name>
                <description>GILBERTO ALBERTO LLACSAHUANGA CUNYA
AV.SAN MARTIN MZ B9 LTE.4 (112) AA.HH SAN MARTIN
Veintiséis de Octubre
Piura
Piura
Perú</description>
                <styleUrl>#1755</styleUrl>
                <Point id="1753">
                    <coordinates>-80.6658393,-5.1861207,0.0</coordinates>
                </Point>
            </Placemark>
            <Placemark id="1759">
                <name>MILUSKA LISSET QUEZADA MERINO</name>
                <description>MZ B9 LT 9 A.H SN MARTIN      
Veintiséis de Octubre
Veintiséis de Octubre
Piura
Perú</description>
                <styleUrl>#1760</styleUrl>
                <Point id="1758">
                    <coordinates>-80.665838,-5.186146,0.0</coordinates>
                </Point>
            </Placemark>
            <Placemark id="1764">
                <name>MARGOTH SUSANA GARCIA GALINDO</name>
                <description>MICAELA BASTIDAS MZ C-3 L-27 PIURA
Veintiséis de Octubre
Piura
Piura
Perú</description>
                <styleUrl>#1765</styleUrl>
                <Point id="1763">
                    <coordinates>-80.6743532,-5.1765374,0.0</coordinates>
                </Point>
            </Placemark>
            <Placemark id="1769">
                <name>GUERRERO DELFINA CARRASCO DE</name>
                <description>AV. CIRCUNVALACION 200 S. MARTIN
Veintiséis de Octubre
Piura
Piura
Perú</description>
                <styleUrl>#1770</styleUrl>
                <Point id="1768">
                    <coordinates>-80.6674176,-5.18871,0.0</coordinates>
                </Point>
            </Placemark>
            <Placemark id="1774">
                <name>SILVIA ISABEL LESCANO MARQUEZ</name>
                <description>SILVIA ISABEL LESCANO MARQUEZ
CA.JOSE C. MARIATEGUI 521 SAN MARTIN - PIURA
Veintiséis de Octubre
Piura
Piura
Perú</description>
                <styleUrl>#1775</styleUrl>
                <Point id="1773">
                    <coordinates>-80.6689214,-5.1870892,0.0</coordinates>
                </Point>
            </Placemark>
            <Placemark id="1779">
                <name>ELVA HAYDEE CHINININ GONZA</name>
                <description>MERCADILLO SAN MARTIN PUESTO 28 CHIFLERIA LA MISERICORDIA DE DIOS
Veintiséis de Octubre
Veintiséis de Octubre
Piura
Perú</description>
                <styleUrl>#1780</styleUrl>
                <Point id="1778">
                    <coordinates>-80.671256,-5.1845,0.0</coordinates>
                </Point>
            </Placemark>
            <Placemark id="1784">
                <name>JENYFERR PAMELA PAUCAR CHUQUIHUANGA</name>
                <description>Mercado san Martin puesto 21
Veintiséis de Octubre
Veintiséis de Octubre
Piura
Perú</description>
                <styleUrl>#1785</styleUrl>
                <Point id="1783">
                    <coordinates>-80.6716559,-5.1847595,0.0</coordinates>
                </Point>
            </Placemark>
            <Placemark id="1789">
                <name>MILAGROS DEL SERNAQUE CHUQUIHUANGA</name>
                <description>INT MCDO SAN MARTIN PSTO 35-36 26 DE OCTUBRE
Veintiséis de Octubre
Piura
Piura
Perú</description>
                <styleUrl>#1790</styleUrl>
                <Point id="1788">
                    <coordinates>-80.6715639,-5.1847583,0.0</coordinates>
                </Point>
            </Placemark>
            <Placemark id="1794">
                <name>RAQUEL DEL PILAR MORE SOSA</name>
                <description>CA.V.GARCIA H10 20            
Veintiséis de Octubre
Veintiséis de Octubre
Piura
Perú</description>
                <styleUrl>#1795</styleUrl>
                <Point id="1793">
                    <coordinates>-80.6714403,-5.1864133,0.0</coordinates>
                </Point>
            </Placemark>
            <Placemark id="1799">
                <name>JOSE DANIEL CAMPOS ZAPATA</name>
                <description>MATEO PUMACAHUA  MZN. V3 LOTE 32.AA.HH SAN MARTIN
Veintiséis de Octubre
Veintiséis de Octubre
Piura
Perú</description>
                <styleUrl>#1800</styleUrl>
                <Point id="1798">
                    <coordinates>-80.6746497,-5.1832569,0.0</coordinates>
                </Point>
            </Placemark>
            <Placemark id="1804">
                <name>REBECA ROSA CAMPOVERDE ANICETO</name>
                <description>01 DE DICIEMBRE 264 SAN MARTIN
Veintiséis de Octubre
Veintiséis de Octubre
Piura
Perú</description>
                <styleUrl>#1805</styleUrl>
                <Point id="1803">
                    <coordinates>-80.6755167,-5.1828535,0.0</coordinates>
                </Point>
            </Placemark>
            <Placemark id="1809">
                <name>MARCIA ALEIDA BANCAYAN SARANGO</name>
                <description>mz H15 LOTE 17 ASENTAMIENTO SAN MARTIN
Veintiséis de Octubre
Veintiséis de Octubre
Piura
Perú</description>
                <styleUrl>#1810</styleUrl>
                <Point id="1808">
                    <coordinates>-80.674402,-5.1819383,0.0</coordinates>
                </Point>
            </Placemark>
            <Placemark id="1814">
                <name>TRONCOS NUNEZ MARIA ANGELICA</name>
                <description>Tienda 01 LOS PARQUE DE Piura 1 ETAPA
Veintiséis de Octubre
Veintiséis de Octubre
Piura
Perú</description>
                <styleUrl>#1815</styleUrl>
                <Point id="1813">
                    <coordinates>-80.6778291,-5.1814238,0.0</coordinates>
                </Point>
            </Placemark>
            <Placemark id="1819">
                <name>SMITH ANTONIO VILCHEZ MORENO</name>
                <description>Tienda 03 RESD. LOS PARQUES DE Piura 1 ETAPA
Veintiséis de Octubre
Veintiséis de Octubre
Piura
Perú</description>
                <styleUrl>#1820</styleUrl>
                <Point id="1818">
                    <coordinates>-80.6778834,-5.181504,0.0</coordinates>
                </Point>
            </Placemark>
            <Placemark id="1824">
                <name>YOHANY MARIE NORIEGA LLANOS</name>
                <description>BQ R N°303 TORRE R.COND.RES II
Veintiséis de Octubre
Piura
Piura
Perú</description>
                <styleUrl>#1825</styleUrl>
                <Point id="1823">
                    <coordinates>-80.6767626,-5.1814867,0.0</coordinates>
                </Point>
            </Placemark>
            <Placemark id="1829">
                <name>RINA GABRIELA MARKY OTERO</name>
                <description>BQ.C 101 TORRE C.COND.RESD 2DA
Veintiséis de Octubre
Piura
Piura
Perú</description>
                <styleUrl>#1830</styleUrl>
                <Point id="1828">
                    <coordinates>-80.6768498,-5.1815026,0.0</coordinates>
                </Point>
            </Placemark>
            <Placemark id="1834">
                <name>JORGE ARMANDO GOMEZ MOGOLLON</name>
                <description>MAZN B1 LOTE 24 MICAELA BASTIDAS
Veintiséis de Octubre
Veintiséis de Octubre
Piura
Perú</description>
                <styleUrl>#1835</styleUrl>
                <Point id="1833">
                    <coordinates>-80.6747835,-5.1787622,0.0</coordinates>
                </Point>
            </Placemark>
            <Placemark id="1839">
                <name>YOLANDA TUME TUME</name>
                <description>Aahh Micaela bastidas MZ E3 lote 12 espaldas del colegio secundario
Veintiséis de Octubre
Veintiséis de Octubre
Piura
Perú</description>
                <styleUrl>#1840</styleUrl>
                <Point id="1838">
                    <coordinates>-80.674277,-5.1785041,0.0</coordinates>
                </Point>
            </Placemark>
            <Placemark id="1844">
                <name>BALBINA MADRID DE SERRATO</name>
                <description>CA.MIGUEL CORREA MZ E3 LTE.3 MICAELA BASTIDAS
Veintiséis de Octubre
Piura
Piura
Perú</description>
                <styleUrl>#1845</styleUrl>
                <Point id="1843">
                    <coordinates>-80.674767,-5.178183,0.0</coordinates>
                </Point>
            </Placemark>
            <Placemark id="1849">
                <name>MARIA IRENE SOTO CASTILLO</name>
                <description>E3 LOTE 2 A.H MICAELA BASTIDAS
Veintiséis de Octubre
Veintiséis de Octubre
Piura
Perú</description>
                <styleUrl>#1850</styleUrl>
                <Point id="1848">
                    <coordinates>-80.6747976,-5.17816,0.0</coordinates>
                </Point>
            </Placemark>
            <Placemark id="1854">
                <name>DOLARISA SILUPU ARRIOLA</name>
                <description>AA. HH MICAELA BASTIDAS MZ A3 LT 9 PIURA
Veintiséis de Octubre
Piura
Piura
Perú</description>
                <styleUrl>#1855</styleUrl>
                <Point id="1853">
                    <coordinates>-80.672808,-5.1773104,0.0</coordinates>
                </Point>
            </Placemark>
            <Placemark id="1859">
                <name>PETRONILA RODRIGUEZ SILVA</name>
                <description>F1 LOTE 10 AA.HH MICAELA BASTIDAS
Veintiséis de Octubre
Veintiséis de Octubre
Piura
Perú</description>
                <styleUrl>#1860</styleUrl>
                <Point id="1858">
                    <coordinates>-80.6734209,-5.1806506,0.0</coordinates>
                </Point>
            </Placemark>
            <Placemark id="1864">
                <name>JULIA ANCAJIMA JUAREZ</name>
                <description>MZ.D14-20 AH SAN MARTIN       
Veintiséis de Octubre
Veintiséis de Octubre
Piura
Perú</description>
                <styleUrl>#1865</styleUrl>
                <Point id="1863">
                    <coordinates>-80.6695253,-5.1823922,0.0</coordinates>
                </Point>
            </Placemark>
            <Placemark id="1869">
                <name>DILMA GUERRERO ALVERCA</name>
                <description>DILMA GUERRERO ALVERCA
CA.B. HUAMAN MZ11-16 S. MARTIN PI
Veintiséis de Octubre
Piura
Piura
Perú</description>
                <styleUrl>#1870</styleUrl>
                <Point id="1868">
                    <coordinates>-80.6693793,-5.1842269,0.0</coordinates>
                </Point>
            </Placemark>
            <Placemark id="1874">
                <name>MAGDALENA CENTURION YARLEQUE</name>
                <description>MZ S-1 LT-3 SAN MARTIN PIURA
Veintiséis de Octubre
Piura
Piura
Perú</description>
                <styleUrl>#1875</styleUrl>
                <Point id="1873">
                    <coordinates>-80.6668646,-5.1835067,0.0</coordinates>
                </Point>
            </Placemark>
            <Placemark id="1879">
                <name>ANTON OTILIA BANCAYAN DE</name>
                <description>MZ.T1 LT.5 SAN MARTIN         
Veintiséis de Octubre
Piura
Piura
Perú</description>
                <styleUrl>#1880</styleUrl>
                <Point id="1878">
                    <coordinates>-80.667367,-5.18414,0.0</coordinates>
                </Point>
            </Placemark>
            <Placemark id="1884">
                <name>MAIRA REINERI NONAJULCA CASTILLO</name>
                <description>MAIRA REINERI NONAJULCA CASTILLO
CALLE MATICORENA T1-15 SAN MARTIN -
Veintiséis de Octubre
Piura
Piura
Perú</description>
                <styleUrl>#1885</styleUrl>
                <Point id="1883">
                    <coordinates>-80.6666415,-5.184327,0.0</coordinates>
                </Point>
            </Placemark>
            <Placemark id="1889">
                <name>MARIA DEL SOCORRO CASTRO YOVERA</name>
                <description>Calle Marticorena 136 aahh San Martín
Veintiséis de Octubre
Veintiséis de Octubre
Piura
Perú</description>
                <styleUrl>#1890</styleUrl>
                <Point id="1888">
                    <coordinates>-80.666963,-5.184965,0.0</coordinates>
                </Point>
            </Placemark>
            <Placemark id="1894">
                <name>ROSAURA SERQUEN BALLONA DE P.</name>
                <description>CA.S.J CHOCANO MZ.A C8 04     
Veintiséis de Octubre
Piura
Piura
Perú</description>
                <styleUrl>#1895</styleUrl>
                <Point id="1893">
                    <coordinates>-80.6662155,-5.187622,0.0</coordinates>
                </Point>
            </Placemark>
        </Folder>
    </Document>
</kml>
