<?xml version="1.0" encoding="UTF-8"?>
<kml xmlns="http://www.opengis.net/kml/2.2" xmlns:gx="http://www.google.com/kml/ext/2.2">
    <Document id="797">
        <Folder id="798">
            <Style id="801">
                <IconStyle id="802">
                    <color>ff0000ff</color>
                    <colorMode>normal</colorMode>
                    <scale>1</scale>
                    <heading>0</heading>
                    <Icon id="803">
                        <href>http://maps.google.com/mapfiles/kml/pushpin/ylw-pushpin.png</href>
                    </Icon>
                </IconStyle>
            </Style>
            <Style id="806">
                <IconStyle id="807">
                    <color>ff0000ff</color>
                    <colorMode>normal</colorMode>
                    <scale>1</scale>
                    <heading>0</heading>
                    <Icon id="808">
                        <href>http://maps.google.com/mapfiles/kml/pushpin/ylw-pushpin.png</href>
                    </Icon>
                </IconStyle>
            </Style>
            <Style id="811">
                <IconStyle id="812">
                    <color>ff0000ff</color>
                    <colorMode>normal</colorMode>
                    <scale>1</scale>
                    <heading>0</heading>
                    <Icon id="813">
                        <href>http://maps.google.com/mapfiles/kml/pushpin/ylw-pushpin.png</href>
                    </Icon>
                </IconStyle>
            </Style>
            <Style id="816">
                <IconStyle id="817">
                    <color>ff0000ff</color>
                    <colorMode>normal</colorMode>
                    <scale>1</scale>
                    <heading>0</heading>
                    <Icon id="818">
                        <href>http://maps.google.com/mapfiles/kml/pushpin/ylw-pushpin.png</href>
                    </Icon>
                </IconStyle>
            </Style>
            <Style id="821">
                <IconStyle id="822">
                    <color>ff0000ff</color>
                    <colorMode>normal</colorMode>
                    <scale>1</scale>
                    <heading>0</heading>
                    <Icon id="823">
                        <href>http://maps.google.com/mapfiles/kml/pushpin/ylw-pushpin.png</href>
                    </Icon>
                </IconStyle>
            </Style>
            <Style id="826">
                <IconStyle id="827">
                    <color>ff0000ff</color>
                    <colorMode>normal</colorMode>
                    <scale>1</scale>
                    <heading>0</heading>
                    <Icon id="828">
                        <href>http://maps.google.com/mapfiles/kml/pushpin/ylw-pushpin.png</href>
                    </Icon>
                </IconStyle>
            </Style>
            <Style id="831">
                <IconStyle id="832">
                    <color>ff0000ff</color>
                    <colorMode>normal</colorMode>
                    <scale>1</scale>
                    <heading>0</heading>
                    <Icon id="833">
                        <href>http://maps.google.com/mapfiles/kml/pushpin/ylw-pushpin.png</href>
                    </Icon>
                </IconStyle>
            </Style>
            <Style id="836">
                <IconStyle id="837">
                    <color>ff0000ff</color>
                    <colorMode>normal</colorMode>
                    <scale>1</scale>
                    <heading>0</heading>
                    <Icon id="838">
                        <href>http://maps.google.com/mapfiles/kml/pushpin/ylw-pushpin.png</href>
                    </Icon>
                </IconStyle>
            </Style>
            <Style id="841">
                <IconStyle id="842">
                    <color>ff0000ff</color>
                    <colorMode>normal</colorMode>
                    <scale>1</scale>
                    <heading>0</heading>
                    <Icon id="843">
                        <href>http://maps.google.com/mapfiles/kml/pushpin/ylw-pushpin.png</href>
                    </Icon>
                </IconStyle>
            </Style>
            <Style id="846">
                <IconStyle id="847">
                    <color>ff0000ff</color>
                    <colorMode>normal</colorMode>
                    <scale>1</scale>
                    <heading>0</heading>
                    <Icon id="848">
                        <href>http://maps.google.com/mapfiles/kml/pushpin/ylw-pushpin.png</href>
                    </Icon>
                </IconStyle>
            </Style>
            <Style id="851">
                <IconStyle id="852">
                    <color>ff0000ff</color>
                    <colorMode>normal</colorMode>
                    <scale>1</scale>
                    <heading>0</heading>
                    <Icon id="853">
                        <href>http://maps.google.com/mapfiles/kml/pushpin/ylw-pushpin.png</href>
                    </Icon>
                </IconStyle>
            </Style>
            <Style id="856">
                <IconStyle id="857">
                    <color>ff0000ff</color>
                    <colorMode>normal</colorMode>
                    <scale>1</scale>
                    <heading>0</heading>
                    <Icon id="858">
                        <href>http://maps.google.com/mapfiles/kml/pushpin/ylw-pushpin.png</href>
                    </Icon>
                </IconStyle>
            </Style>
            <Style id="861">
                <IconStyle id="862">
                    <color>ff0000ff</color>
                    <colorMode>normal</colorMode>
                    <scale>1</scale>
                    <heading>0</heading>
                    <Icon id="863">
                        <href>http://maps.google.com/mapfiles/kml/pushpin/ylw-pushpin.png</href>
                    </Icon>
                </IconStyle>
            </Style>
            <Style id="866">
                <IconStyle id="867">
                    <color>ff0000ff</color>
                    <colorMode>normal</colorMode>
                    <scale>1</scale>
                    <heading>0</heading>
                    <Icon id="868">
                        <href>http://maps.google.com/mapfiles/kml/pushpin/ylw-pushpin.png</href>
                    </Icon>
                </IconStyle>
            </Style>
            <Style id="871">
                <IconStyle id="872">
                    <color>ff0000ff</color>
                    <colorMode>normal</colorMode>
                    <scale>1</scale>
                    <heading>0</heading>
                    <Icon id="873">
                        <href>http://maps.google.com/mapfiles/kml/pushpin/ylw-pushpin.png</href>
                    </Icon>
                </IconStyle>
            </Style>
            <Style id="876">
                <IconStyle id="877">
                    <color>ff0000ff</color>
                    <colorMode>normal</colorMode>
                    <scale>1</scale>
                    <heading>0</heading>
                    <Icon id="878">
                        <href>http://maps.google.com/mapfiles/kml/pushpin/ylw-pushpin.png</href>
                    </Icon>
                </IconStyle>
            </Style>
            <name>KATHERINE REBECA DE JESUS CARDOZA LEE</name>
            <Placemark id="800">
                <name>CORDOVA CASTILLO MELVA MAGALY</name>
                <description>MERCADO CAPULLANAS PUESTO 137 Y PUESTO 138
Veintiséis de Octubre
Veintiséis de Octubre
Piura
Perú</description>
                <styleUrl>#801</styleUrl>
                <Point id="799">
                    <coordinates>-80.6698587,-5.1750302,0.0</coordinates>
                </Point>
            </Placemark>
            <Placemark id="805">
                <name>CORDOVA CASTILLO MELVA MAGALY</name>
                <description>MERCADO CAPULLANAS PUESTO 137 Y PUESTO 138
Veintiséis de Octubre
Veintiséis de Octubre
Piura
Perú</description>
                <styleUrl>#806</styleUrl>
                <Point id="804">
                    <coordinates>-80.6698587,-5.1750302,0.0</coordinates>
                </Point>
            </Placemark>
            <Placemark id="810">
                <name>DEISY ARROYO PARRILLA</name>
                <description>N8 SECTOR 4 /  MERCADO CAPULLANAS
Veintiséis de Octubre
Veintiséis de Octubre
Piura
Perú</description>
                <styleUrl>#811</styleUrl>
                <Point id="809">
                    <coordinates>-80.6712162,-5.1761675,0.0</coordinates>
                </Point>
            </Placemark>
            <Placemark id="815">
                <name>CHIFLERIA JIMENEZ S.A.C.</name>
                <description>PJ. SECTOR A - PUESTO 88 NRO. S-N OTR.  MDO. MIN. LAS CAPULLANAS
Veintiséis de Octubre
200101Veintiséis de Octubre
Piura
Perú</description>
                <styleUrl>#816</styleUrl>
                <Point id="814">
                    <coordinates>-80.6716787,-5.175926,0.0</coordinates>
                </Point>
            </Placemark>
            <Placemark id="820">
                <name>JOSE ALEX CUNYA CANGO</name>
                <description>MERCADO CAPULLANAS PUESTO 179
Veintiséis de Octubre
Veintiséis de Octubre
Piura
Perú</description>
                <styleUrl>#821</styleUrl>
                <Point id="819">
                    <coordinates>-80.6700528,-5.1753173,0.0</coordinates>
                </Point>
            </Placemark>
            <Placemark id="825">
                <name>GOLOSINAS Y BEBIDAS FADI SOCIEDAD ANONIMA CERRADA</name>
                <description>MZA. A LOTE. 12 OTR.  MERCADO MAYORISTA LAS CAPULLANAS
Veintiséis de Octubre
Veintiséis de Octubre
Piura
Perú</description>
                <styleUrl>#826</styleUrl>
                <Point id="824">
                    <coordinates>-80.669706,-5.1755536,0.0</coordinates>
                </Point>
            </Placemark>
            <Placemark id="830">
                <name>CHIFLERIA JIMENEZ S.A.C.</name>
                <description>PJ. SECTOR A - PUESTO 88 NRO. S-N OTR.  MDO. MIN. LAS CAPULLANAS
Veintiséis de Octubre
200101Veintiséis de Octubre
Piura
Perú</description>
                <styleUrl>#831</styleUrl>
                <Point id="829">
                    <coordinates>-80.6716787,-5.175926,0.0</coordinates>
                </Point>
            </Placemark>
            <Placemark id="835">
                <name>SANTOS SILVA YNGA</name>
                <description>MERCADO CAPULLANAS PUESTO 44
Veintiséis de Octubre
Veintiséis de Octubre
Piura
Perú</description>
                <styleUrl>#836</styleUrl>
                <Point id="834">
                    <coordinates>-80.6705743,-5.1754491,0.0</coordinates>
                </Point>
            </Placemark>
            <Placemark id="840">
                <name>MARIA MERCEDES CASTRO YARLEQUE</name>
                <description>PUESTO 33 / MCDO CAPULLANAS
Veintiséis de Octubre
Veintiséis de Octubre
Piura
Perú</description>
                <styleUrl>#841</styleUrl>
                <Point id="839">
                    <coordinates>-80.6699976,-5.1756049,0.0</coordinates>
                </Point>
            </Placemark>
            <Placemark id="845">
                <name>JAZMIN ESTELA GARCIA HUAMAN</name>
                <description>MERCADO CAPULLANAS PUESTO 13
Veintiséis de Octubre
Veintiséis de Octubre
Piura
Perú</description>
                <styleUrl>#846</styleUrl>
                <Point id="844">
                    <coordinates>-80.6710676,-5.1757973,0.0</coordinates>
                </Point>
            </Placemark>
            <Placemark id="850">
                <name>HERMELINDA ALBERCA ZURITA</name>
                <description>PUESTO B - 96 / INTERIOR CAPULLANAS
Veintiséis de Octubre
Veintiséis de Octubre
Piura
Perú</description>
                <styleUrl>#851</styleUrl>
                <Point id="849">
                    <coordinates>-80.6715659,-5.1757816,0.0</coordinates>
                </Point>
            </Placemark>
            <Placemark id="855">
                <name>DEISY ARROYO PARRILLA</name>
                <description>N8 SECTOR 4 /  MERCADO CAPULLANAS
Veintiséis de Octubre
Veintiséis de Octubre
Piura
Perú</description>
                <styleUrl>#856</styleUrl>
                <Point id="854">
                    <coordinates>-80.6712162,-5.1761675,0.0</coordinates>
                </Point>
            </Placemark>
            <Placemark id="860">
                <name>DINO MARCHENA CHINININ</name>
                <description>CAPULLANAS MAYORISTA PUESTO 12
Veintiséis de Octubre
Veintiséis de Octubre
Piura
Perú</description>
                <styleUrl>#861</styleUrl>
                <Point id="859">
                    <coordinates>-80.671115,-5.1758526,0.0</coordinates>
                </Point>
            </Placemark>
            <Placemark id="865">
                <name>YUNIOR REYES ABAD</name>
                <description>PUESTO A- 105 / C -125 MCDO CAPULLANAS
Veintiséis de Octubre
Veintiséis de Octubre
Piura
Perú</description>
                <styleUrl>#866</styleUrl>
                <Point id="864">
                    <coordinates>-80.6714863,-5.1758542,0.0</coordinates>
                </Point>
            </Placemark>
            <Placemark id="870">
                <name>ROSA SEMINARIO RAMOS</name>
                <description>PUESTO 133 / INTERIOR CAPULLANAS
Veintiséis de Octubre
Veintiséis de Octubre
Piura
Perú</description>
                <styleUrl>#871</styleUrl>
                <Point id="869">
                    <coordinates>-80.6717536,-5.1760761,0.0</coordinates>
                </Point>
            </Placemark>
            <Placemark id="875">
                <name>ROSA SEMINARIO RAMOS</name>
                <description>PUESTO 133 / INTERIOR CAPULLANAS
Veintiséis de Octubre
Veintiséis de Octubre
Piura
Perú</description>
                <styleUrl>#876</styleUrl>
                <Point id="874">
                    <coordinates>-80.6717536,-5.1760761,0.0</coordinates>
                </Point>
            </Placemark>
        </Folder>
        <Folder id="879">
            <Style id="882">
                <IconStyle id="883">
                    <color>ffff0000</color>
                    <colorMode>normal</colorMode>
                    <scale>1</scale>
                    <heading>0</heading>
                    <Icon id="884">
                        <href>http://maps.google.com/mapfiles/kml/pushpin/ylw-pushpin.png</href>
                    </Icon>
                </IconStyle>
            </Style>
            <Style id="887">
                <IconStyle id="888">
                    <color>ffff0000</color>
                    <colorMode>normal</colorMode>
                    <scale>1</scale>
                    <heading>0</heading>
                    <Icon id="889">
                        <href>http://maps.google.com/mapfiles/kml/pushpin/ylw-pushpin.png</href>
                    </Icon>
                </IconStyle>
            </Style>
            <Style id="892">
                <IconStyle id="893">
                    <color>ffff0000</color>
                    <colorMode>normal</colorMode>
                    <scale>1</scale>
                    <heading>0</heading>
                    <Icon id="894">
                        <href>http://maps.google.com/mapfiles/kml/pushpin/ylw-pushpin.png</href>
                    </Icon>
                </IconStyle>
            </Style>
            <Style id="897">
                <IconStyle id="898">
                    <color>ffff0000</color>
                    <colorMode>normal</colorMode>
                    <scale>1</scale>
                    <heading>0</heading>
                    <Icon id="899">
                        <href>http://maps.google.com/mapfiles/kml/pushpin/ylw-pushpin.png</href>
                    </Icon>
                </IconStyle>
            </Style>
            <Style id="902">
                <IconStyle id="903">
                    <color>ffff0000</color>
                    <colorMode>normal</colorMode>
                    <scale>1</scale>
                    <heading>0</heading>
                    <Icon id="904">
                        <href>http://maps.google.com/mapfiles/kml/pushpin/ylw-pushpin.png</href>
                    </Icon>
                </IconStyle>
            </Style>
            <Style id="907">
                <IconStyle id="908">
                    <color>ffff0000</color>
                    <colorMode>normal</colorMode>
                    <scale>1</scale>
                    <heading>0</heading>
                    <Icon id="909">
                        <href>http://maps.google.com/mapfiles/kml/pushpin/ylw-pushpin.png</href>
                    </Icon>
                </IconStyle>
            </Style>
            <Style id="912">
                <IconStyle id="913">
                    <color>ffff0000</color>
                    <colorMode>normal</colorMode>
                    <scale>1</scale>
                    <heading>0</heading>
                    <Icon id="914">
                        <href>http://maps.google.com/mapfiles/kml/pushpin/ylw-pushpin.png</href>
                    </Icon>
                </IconStyle>
            </Style>
            <Style id="917">
                <IconStyle id="918">
                    <color>ffff0000</color>
                    <colorMode>normal</colorMode>
                    <scale>1</scale>
                    <heading>0</heading>
                    <Icon id="919">
                        <href>http://maps.google.com/mapfiles/kml/pushpin/ylw-pushpin.png</href>
                    </Icon>
                </IconStyle>
            </Style>
            <Style id="922">
                <IconStyle id="923">
                    <color>ffff0000</color>
                    <colorMode>normal</colorMode>
                    <scale>1</scale>
                    <heading>0</heading>
                    <Icon id="924">
                        <href>http://maps.google.com/mapfiles/kml/pushpin/ylw-pushpin.png</href>
                    </Icon>
                </IconStyle>
            </Style>
            <Style id="927">
                <IconStyle id="928">
                    <color>ffff0000</color>
                    <colorMode>normal</colorMode>
                    <scale>1</scale>
                    <heading>0</heading>
                    <Icon id="929">
                        <href>http://maps.google.com/mapfiles/kml/pushpin/ylw-pushpin.png</href>
                    </Icon>
                </IconStyle>
            </Style>
            <Style id="932">
                <IconStyle id="933">
                    <color>ffff0000</color>
                    <colorMode>normal</colorMode>
                    <scale>1</scale>
                    <heading>0</heading>
                    <Icon id="934">
                        <href>http://maps.google.com/mapfiles/kml/pushpin/ylw-pushpin.png</href>
                    </Icon>
                </IconStyle>
            </Style>
            <Style id="937">
                <IconStyle id="938">
                    <color>ffff0000</color>
                    <colorMode>normal</colorMode>
                    <scale>1</scale>
                    <heading>0</heading>
                    <Icon id="939">
                        <href>http://maps.google.com/mapfiles/kml/pushpin/ylw-pushpin.png</href>
                    </Icon>
                </IconStyle>
            </Style>
            <Style id="942">
                <IconStyle id="943">
                    <color>ffff0000</color>
                    <colorMode>normal</colorMode>
                    <scale>1</scale>
                    <heading>0</heading>
                    <Icon id="944">
                        <href>http://maps.google.com/mapfiles/kml/pushpin/ylw-pushpin.png</href>
                    </Icon>
                </IconStyle>
            </Style>
            <Style id="947">
                <IconStyle id="948">
                    <color>ffff0000</color>
                    <colorMode>normal</colorMode>
                    <scale>1</scale>
                    <heading>0</heading>
                    <Icon id="949">
                        <href>http://maps.google.com/mapfiles/kml/pushpin/ylw-pushpin.png</href>
                    </Icon>
                </IconStyle>
            </Style>
            <Style id="952">
                <IconStyle id="953">
                    <color>ffff0000</color>
                    <colorMode>normal</colorMode>
                    <scale>1</scale>
                    <heading>0</heading>
                    <Icon id="954">
                        <href>http://maps.google.com/mapfiles/kml/pushpin/ylw-pushpin.png</href>
                    </Icon>
                </IconStyle>
            </Style>
            <Style id="957">
                <IconStyle id="958">
                    <color>ffff0000</color>
                    <colorMode>normal</colorMode>
                    <scale>1</scale>
                    <heading>0</heading>
                    <Icon id="959">
                        <href>http://maps.google.com/mapfiles/kml/pushpin/ylw-pushpin.png</href>
                    </Icon>
                </IconStyle>
            </Style>
            <Style id="962">
                <IconStyle id="963">
                    <color>ffff0000</color>
                    <colorMode>normal</colorMode>
                    <scale>1</scale>
                    <heading>0</heading>
                    <Icon id="964">
                        <href>http://maps.google.com/mapfiles/kml/pushpin/ylw-pushpin.png</href>
                    </Icon>
                </IconStyle>
            </Style>
            <Style id="967">
                <IconStyle id="968">
                    <color>ffff0000</color>
                    <colorMode>normal</colorMode>
                    <scale>1</scale>
                    <heading>0</heading>
                    <Icon id="969">
                        <href>http://maps.google.com/mapfiles/kml/pushpin/ylw-pushpin.png</href>
                    </Icon>
                </IconStyle>
            </Style>
            <Style id="972">
                <IconStyle id="973">
                    <color>ffff0000</color>
                    <colorMode>normal</colorMode>
                    <scale>1</scale>
                    <heading>0</heading>
                    <Icon id="974">
                        <href>http://maps.google.com/mapfiles/kml/pushpin/ylw-pushpin.png</href>
                    </Icon>
                </IconStyle>
            </Style>
            <Style id="977">
                <IconStyle id="978">
                    <color>ffff0000</color>
                    <colorMode>normal</colorMode>
                    <scale>1</scale>
                    <heading>0</heading>
                    <Icon id="979">
                        <href>http://maps.google.com/mapfiles/kml/pushpin/ylw-pushpin.png</href>
                    </Icon>
                </IconStyle>
            </Style>
            <Style id="982">
                <IconStyle id="983">
                    <color>ffff0000</color>
                    <colorMode>normal</colorMode>
                    <scale>1</scale>
                    <heading>0</heading>
                    <Icon id="984">
                        <href>http://maps.google.com/mapfiles/kml/pushpin/ylw-pushpin.png</href>
                    </Icon>
                </IconStyle>
            </Style>
            <Style id="987">
                <IconStyle id="988">
                    <color>ffff0000</color>
                    <colorMode>normal</colorMode>
                    <scale>1</scale>
                    <heading>0</heading>
                    <Icon id="989">
                        <href>http://maps.google.com/mapfiles/kml/pushpin/ylw-pushpin.png</href>
                    </Icon>
                </IconStyle>
            </Style>
            <Style id="992">
                <IconStyle id="993">
                    <color>ffff0000</color>
                    <colorMode>normal</colorMode>
                    <scale>1</scale>
                    <heading>0</heading>
                    <Icon id="994">
                        <href>http://maps.google.com/mapfiles/kml/pushpin/ylw-pushpin.png</href>
                    </Icon>
                </IconStyle>
            </Style>
            <Style id="997">
                <IconStyle id="998">
                    <color>ffff0000</color>
                    <colorMode>normal</colorMode>
                    <scale>1</scale>
                    <heading>0</heading>
                    <Icon id="999">
                        <href>http://maps.google.com/mapfiles/kml/pushpin/ylw-pushpin.png</href>
                    </Icon>
                </IconStyle>
            </Style>
            <Style id="1002">
                <IconStyle id="1003">
                    <color>ffff0000</color>
                    <colorMode>normal</colorMode>
                    <scale>1</scale>
                    <heading>0</heading>
                    <Icon id="1004">
                        <href>http://maps.google.com/mapfiles/kml/pushpin/ylw-pushpin.png</href>
                    </Icon>
                </IconStyle>
            </Style>
            <Style id="1007">
                <IconStyle id="1008">
                    <color>ffff0000</color>
                    <colorMode>normal</colorMode>
                    <scale>1</scale>
                    <heading>0</heading>
                    <Icon id="1009">
                        <href>http://maps.google.com/mapfiles/kml/pushpin/ylw-pushpin.png</href>
                    </Icon>
                </IconStyle>
            </Style>
            <Style id="1012">
                <IconStyle id="1013">
                    <color>ffff0000</color>
                    <colorMode>normal</colorMode>
                    <scale>1</scale>
                    <heading>0</heading>
                    <Icon id="1014">
                        <href>http://maps.google.com/mapfiles/kml/pushpin/ylw-pushpin.png</href>
                    </Icon>
                </IconStyle>
            </Style>
            <Style id="1017">
                <IconStyle id="1018">
                    <color>ffff0000</color>
                    <colorMode>normal</colorMode>
                    <scale>1</scale>
                    <heading>0</heading>
                    <Icon id="1019">
                        <href>http://maps.google.com/mapfiles/kml/pushpin/ylw-pushpin.png</href>
                    </Icon>
                </IconStyle>
            </Style>
            <Style id="1022">
                <IconStyle id="1023">
                    <color>ffff0000</color>
                    <colorMode>normal</colorMode>
                    <scale>1</scale>
                    <heading>0</heading>
                    <Icon id="1024">
                        <href>http://maps.google.com/mapfiles/kml/pushpin/ylw-pushpin.png</href>
                    </Icon>
                </IconStyle>
            </Style>
            <Style id="1027">
                <IconStyle id="1028">
                    <color>ffff0000</color>
                    <colorMode>normal</colorMode>
                    <scale>1</scale>
                    <heading>0</heading>
                    <Icon id="1029">
                        <href>http://maps.google.com/mapfiles/kml/pushpin/ylw-pushpin.png</href>
                    </Icon>
                </IconStyle>
            </Style>
            <Style id="1032">
                <IconStyle id="1033">
                    <color>ffff0000</color>
                    <colorMode>normal</colorMode>
                    <scale>1</scale>
                    <heading>0</heading>
                    <Icon id="1034">
                        <href>http://maps.google.com/mapfiles/kml/pushpin/ylw-pushpin.png</href>
                    </Icon>
                </IconStyle>
            </Style>
            <Style id="1037">
                <IconStyle id="1038">
                    <color>ffff0000</color>
                    <colorMode>normal</colorMode>
                    <scale>1</scale>
                    <heading>0</heading>
                    <Icon id="1039">
                        <href>http://maps.google.com/mapfiles/kml/pushpin/ylw-pushpin.png</href>
                    </Icon>
                </IconStyle>
            </Style>
            <Style id="1042">
                <IconStyle id="1043">
                    <color>ffff0000</color>
                    <colorMode>normal</colorMode>
                    <scale>1</scale>
                    <heading>0</heading>
                    <Icon id="1044">
                        <href>http://maps.google.com/mapfiles/kml/pushpin/ylw-pushpin.png</href>
                    </Icon>
                </IconStyle>
            </Style>
            <name>ZOILA ALBERTINA DE JESUS MORANTE CARRASCO</name>
            <Placemark id="881">
                <name>JOSE DANIEL CAMPOS ZAPATA</name>
                <description>MATEO PUMACAHUA  MZN. V3 LOTE 32.AA.HH SAN MARTIN
Veintiséis de Octubre
Veintiséis de Octubre
Piura
Perú</description>
                <styleUrl>#882</styleUrl>
                <Point id="880">
                    <coordinates>-80.6746497,-5.1832569,0.0</coordinates>
                </Point>
            </Placemark>
            <Placemark id="886">
                <name>MARIA DEL SOCORRO CASTRO YOVERA</name>
                <description>Calle Marticorena 136 aahh San Martín
Veintiséis de Octubre
Veintiséis de Octubre
Piura
Perú</description>
                <styleUrl>#887</styleUrl>
                <Point id="885">
                    <coordinates>-80.666963,-5.184965,0.0</coordinates>
                </Point>
            </Placemark>
            <Placemark id="891">
                <name>RAQUEL DEL PILAR MORE SOSA</name>
                <description>CA.V.GARCIA H10 20            
Veintiséis de Octubre
Veintiséis de Octubre
Piura
Perú</description>
                <styleUrl>#892</styleUrl>
                <Point id="890">
                    <coordinates>-80.6714403,-5.1864133,0.0</coordinates>
                </Point>
            </Placemark>
            <Placemark id="896">
                <name>JOSE GERARDO CHIRA RAMIREZ</name>
                <description>CALLE LOBOTOS MZN.H1LOTE 13 ASENTAMIENTO HUMANO NUEVA ESPERANZA SECTOR 1
Veintiséis de Octubre
Veintiséis de Octubre
Piura
Perú</description>
                <styleUrl>#897</styleUrl>
                <Point id="895">
                    <coordinates>-80.6617044,-5.1929408,0.0</coordinates>
                </Point>
            </Placemark>
            <Placemark id="901">
                <name>GILBERTO ALBERTO LLACSAHUANGA CUNYA</name>
                <description>GILBERTO ALBERTO LLACSAHUANGA CUNYA
AV.SAN MARTIN MZ B9 LTE.4 (112) AA.HH SAN MARTIN
Veintiséis de Octubre
Piura
Piura
Perú</description>
                <styleUrl>#902</styleUrl>
                <Point id="900">
                    <coordinates>-80.6658393,-5.1861207,0.0</coordinates>
                </Point>
            </Placemark>
            <Placemark id="906">
                <name>MILUSKA LISSET QUEZADA MERINO</name>
                <description>MZ B9 LT 9 A.H SN MARTIN      
Veintiséis de Octubre
Veintiséis de Octubre
Piura
Perú</description>
                <styleUrl>#907</styleUrl>
                <Point id="905">
                    <coordinates>-80.665838,-5.186146,0.0</coordinates>
                </Point>
            </Placemark>
            <Placemark id="911">
                <name>MARGOTH SUSANA GARCIA GALINDO</name>
                <description>MICAELA BASTIDAS MZ C-3 L-27 PIURA
Veintiséis de Octubre
Piura
Piura
Perú</description>
                <styleUrl>#912</styleUrl>
                <Point id="910">
                    <coordinates>-80.6743532,-5.1765374,0.0</coordinates>
                </Point>
            </Placemark>
            <Placemark id="916">
                <name>MARIELENA ROMAN HOLGUIN</name>
                <description>URB.PARQUES DE PIURA 2DA ETAPA LOCAL 01 AL COSTADO DE LA SRA. Noriega
Veintiséis de Octubre

Piura
Perú</description>
                <styleUrl>#917</styleUrl>
                <Point id="915">
                    <coordinates>-80.676621,-5.1815207,0.0</coordinates>
                </Point>
            </Placemark>
            <Placemark id="921">
                <name>YOHANY MARIE NORIEGA LLANOS</name>
                <description>BQ R N°303 TORRE R.COND.RES II
Veintiséis de Octubre
Piura
Piura
Perú</description>
                <styleUrl>#922</styleUrl>
                <Point id="920">
                    <coordinates>-80.6767626,-5.1814867,0.0</coordinates>
                </Point>
            </Placemark>
            <Placemark id="926">
                <name>RINA GABRIELA MARKY OTERO</name>
                <description>BQ.C 101 TORRE C.COND.RESD 2DA
Veintiséis de Octubre
Piura
Piura
Perú</description>
                <styleUrl>#927</styleUrl>
                <Point id="925">
                    <coordinates>-80.6768498,-5.1815026,0.0</coordinates>
                </Point>
            </Placemark>
            <Placemark id="931">
                <name>TRONCOS NUNEZ MARIA ANGELICA</name>
                <description>Tienda 01 LOS PARQUE DE Piura 1 ETAPA
Veintiséis de Octubre
Veintiséis de Octubre
Piura
Perú</description>
                <styleUrl>#932</styleUrl>
                <Point id="930">
                    <coordinates>-80.6778291,-5.1814238,0.0</coordinates>
                </Point>
            </Placemark>
            <Placemark id="936">
                <name>JULIA ANCAJIMA JUAREZ</name>
                <description>MZ.D14-20 AH SAN MARTIN       
Veintiséis de Octubre
Veintiséis de Octubre
Piura
Perú</description>
                <styleUrl>#937</styleUrl>
                <Point id="935">
                    <coordinates>-80.6695253,-5.1823922,0.0</coordinates>
                </Point>
            </Placemark>
            <Placemark id="941">
                <name>ELIZABETH JESUS MEZONES BARRIENTOS</name>
                <description>Mercado San Martín Puesto 27 Referencia al costado de la CHIFLERIA la divina misericordia de Dios
Veintiséis de Octubre
Veintiséis de Octubre
Piura
Perú</description>
                <styleUrl>#942</styleUrl>
                <Point id="940">
                    <coordinates>-80.6714235,-5.1845741,0.0</coordinates>
                </Point>
            </Placemark>
            <Placemark id="946">
                <name>ANTON OTILIA BANCAYAN DE</name>
                <description>MZ.T1 LT.5 SAN MARTIN         
Veintiséis de Octubre
Piura
Piura
Perú</description>
                <styleUrl>#947</styleUrl>
                <Point id="945">
                    <coordinates>-80.667367,-5.18414,0.0</coordinates>
                </Point>
            </Placemark>
            <Placemark id="951">
                <name>MAGDALENA CENTURION YARLEQUE</name>
                <description>MZ S-1 LT-3 SAN MARTIN PIURA
Veintiséis de Octubre
Piura
Piura
Perú</description>
                <styleUrl>#952</styleUrl>
                <Point id="950">
                    <coordinates>-80.6668646,-5.1835067,0.0</coordinates>
                </Point>
            </Placemark>
            <Placemark id="956">
                <name>CIRO LEONARDI BRUNO DIOSES</name>
                <description>AV EX CIRCUNVALACION MZ B8 LT6 SAN MARTIN 26 DE OCTUBRE-Piura
Veintiséis de Octubre
Veintiséis de Octubre
Piura
Perú</description>
                <styleUrl>#957</styleUrl>
                <Point id="955">
                    <coordinates>-80.6657401,-5.1879038,0.0</coordinates>
                </Point>
            </Placemark>
            <Placemark id="961">
                <name>GUERRERO DELFINA CARRASCO DE</name>
                <description>AV. CIRCUNVALACION 200 S. MARTIN
Veintiséis de Octubre
Piura
Piura
Perú</description>
                <styleUrl>#962</styleUrl>
                <Point id="960">
                    <coordinates>-80.6674176,-5.18871,0.0</coordinates>
                </Point>
            </Placemark>
            <Placemark id="966">
                <name>SILVIA ISABEL LESCANO MARQUEZ</name>
                <description>SILVIA ISABEL LESCANO MARQUEZ
CA.JOSE C. MARIATEGUI 521 SAN MARTIN - PIURA
Veintiséis de Octubre
Piura
Piura
Perú</description>
                <styleUrl>#967</styleUrl>
                <Point id="965">
                    <coordinates>-80.6689214,-5.1870892,0.0</coordinates>
                </Point>
            </Placemark>
            <Placemark id="971">
                <name>PERCY ULISES JIMENEZ ZETA</name>
                <description>PERCY ULISES JIMENEZ ZETA
PTO46 MERCADO SAN MARTIN - PIURA
Veintiséis de Octubre
Piura
Piura
Perú</description>
                <styleUrl>#972</styleUrl>
                <Point id="970">
                    <coordinates>-80.6715126,-5.1847782,0.0</coordinates>
                </Point>
            </Placemark>
            <Placemark id="976">
                <name>ORALIA ROBLEDO ABAD</name>
                <description>MZ A13 LT 24 AAHH SAN MARTIN  
Veintiséis de Octubre
Veintiséis de Octubre
Piura
Perú</description>
                <styleUrl>#977</styleUrl>
                <Point id="975">
                    <coordinates>-80.6731635,-5.1833678,0.0</coordinates>
                </Point>
            </Placemark>
            <Placemark id="981">
                <name>MILAGROS DEL SERNAQUE CHUQUIHUANGA</name>
                <description>INT MCDO SAN MARTIN PSTO 35-36 26 DE OCTUBRE
Veintiséis de Octubre
Piura
Piura
Perú</description>
                <styleUrl>#982</styleUrl>
                <Point id="980">
                    <coordinates>-80.6715639,-5.1847583,0.0</coordinates>
                </Point>
            </Placemark>
            <Placemark id="986">
                <name>MARIA HAYDEE CERVANTES VALLADOLID</name>
                <description>Mz E12 LTE 20 AA.HH SAN MARTIN
Veintiséis de Octubre
Veintiséis de Octubre
Piura
Perú</description>
                <styleUrl>#987</styleUrl>
                <Point id="985">
                    <coordinates>-80.6750101,-5.1847457,0.0</coordinates>
                </Point>
            </Placemark>
            <Placemark id="991">
                <name>CAMPOS MANCHAY MARIA REINEL</name>
                <description>MZ G LT 4 AA HH MARIA PARADO B
Veintiséis de Octubre
Veintiséis de Octubre
Piura
Perú</description>
                <styleUrl>#992</styleUrl>
                <Point id="990">
                    <coordinates>-80.6756426,-5.1844395,0.0</coordinates>
                </Point>
            </Placemark>
            <Placemark id="996">
                <name>ELIZABETH CAMPOVERDE SAAVEDRA</name>
                <description>MZN.C15 LOTE  19 CA.24 SET
Veintiséis de Octubre
Veintiséis de Octubre
Piura
Perú</description>
                <styleUrl>#997</styleUrl>
                <Point id="995">
                    <coordinates>-80.675408,-5.184273,0.0</coordinates>
                </Point>
            </Placemark>
            <Placemark id="1001">
                <name>MARIA TERESA SERQUEN OROZCO</name>
                <description>K15 - 8 AH SAN MARTIN         
Veintiséis de Octubre
Veintiséis de Octubre
Piura
Perú</description>
                <styleUrl>#1002</styleUrl>
                <Point id="1000">
                    <coordinates>-80.6756928,-5.1832935,0.0</coordinates>
                </Point>
            </Placemark>
            <Placemark id="1006">
                <name>MARCIA ALEIDA BANCAYAN SARANGO</name>
                <description>mz H15 LOTE 17 ASENTAMIENTO SAN MARTIN
Veintiséis de Octubre
Veintiséis de Octubre
Piura
Perú</description>
                <styleUrl>#1007</styleUrl>
                <Point id="1005">
                    <coordinates>-80.674402,-5.1819383,0.0</coordinates>
                </Point>
            </Placemark>
            <Placemark id="1011">
                <name>YESSICA VANESA TAPIA ANDRADE</name>
                <description>E1 LT 20 MICAELA BASTIDAS
Veintiséis de Octubre
Piura
Piura
Perú</description>
                <styleUrl>#1012</styleUrl>
                <Point id="1010">
                    <coordinates>-80.6739855,-5.1799443,0.0</coordinates>
                </Point>
            </Placemark>
            <Placemark id="1016">
                <name>MARIA IRENE SOTO CASTILLO</name>
                <description>E3 LOTE 2 A.H MICAELA BASTIDAS
Veintiséis de Octubre
Veintiséis de Octubre
Piura
Perú</description>
                <styleUrl>#1017</styleUrl>
                <Point id="1015">
                    <coordinates>-80.6747976,-5.17816,0.0</coordinates>
                </Point>
            </Placemark>
            <Placemark id="1021">
                <name>BALBINA MADRID DE SERRATO</name>
                <description>CA.MIGUEL CORREA MZ E3 LTE.3 MICAELA BASTIDAS
Veintiséis de Octubre
Piura
Piura
Perú</description>
                <styleUrl>#1022</styleUrl>
                <Point id="1020">
                    <coordinates>-80.674767,-5.178183,0.0</coordinates>
                </Point>
            </Placemark>
            <Placemark id="1026">
                <name>BERTHA GIRON VALLE</name>
                <description>Aahh Micaela bastidas MZ D3 lote 5 tercer sector
Veintiséis de Octubre
Veintiséis de Octubre
Piura
Perú</description>
                <styleUrl>#1027</styleUrl>
                <Point id="1025">
                    <coordinates>-80.6742538,-5.1770022,0.0</coordinates>
                </Point>
            </Placemark>
            <Placemark id="1031">
                <name>GLADYS MARIA CESPEDES DE MONTOYA</name>
                <description>Mz H3 lote 27
Veintiséis de Octubre
Veintiséis de Octubre
Piura
Perú</description>
                <styleUrl>#1032</styleUrl>
                <Point id="1030">
                    <coordinates>-80.6736496,-5.1772757,0.0</coordinates>
                </Point>
            </Placemark>
            <Placemark id="1036">
                <name>FABIAN MORE VIRGINIA AMELIA</name>
                <description>MZ A3 LOTE 6 AA.HH MICAELA BASTIDAS
Veintiséis de Octubre
Veintiséis de Octubre
Piura
Perú</description>
                <styleUrl>#1037</styleUrl>
                <Point id="1035">
                    <coordinates>-80.6728434,-5.1772315,0.0</coordinates>
                </Point>
            </Placemark>
            <Placemark id="1041">
                <name>YOLANDA TUME TUME</name>
                <description>Aahh Micaela bastidas MZ E3 lote 12 espaldas del colegio secundario
Veintiséis de Octubre
Veintiséis de Octubre
Piura
Perú</description>
                <styleUrl>#1042</styleUrl>
                <Point id="1040">
                    <coordinates>-80.674277,-5.1785041,0.0</coordinates>
                </Point>
            </Placemark>
        </Folder>
    </Document>
</kml>
