<?xml version="1.0" encoding="UTF-8"?>
<kml xmlns="http://www.opengis.net/kml/2.2" xmlns:gx="http://www.google.com/kml/ext/2.2">
    <Document id="2737">
        <Folder id="2738">
            <Style id="2741">
                <IconStyle id="2742">
                    <color>ff0000ff</color>
                    <colorMode>normal</colorMode>
                    <scale>1</scale>
                    <heading>0</heading>
                    <Icon id="2743">
                        <href>http://maps.google.com/mapfiles/kml/pushpin/ylw-pushpin.png</href>
                    </Icon>
                </IconStyle>
            </Style>
            <Style id="2746">
                <IconStyle id="2747">
                    <color>ff0000ff</color>
                    <colorMode>normal</colorMode>
                    <scale>1</scale>
                    <heading>0</heading>
                    <Icon id="2748">
                        <href>http://maps.google.com/mapfiles/kml/pushpin/ylw-pushpin.png</href>
                    </Icon>
                </IconStyle>
            </Style>
            <Style id="2751">
                <IconStyle id="2752">
                    <color>ff0000ff</color>
                    <colorMode>normal</colorMode>
                    <scale>1</scale>
                    <heading>0</heading>
                    <Icon id="2753">
                        <href>http://maps.google.com/mapfiles/kml/pushpin/ylw-pushpin.png</href>
                    </Icon>
                </IconStyle>
            </Style>
            <Style id="2756">
                <IconStyle id="2757">
                    <color>ff0000ff</color>
                    <colorMode>normal</colorMode>
                    <scale>1</scale>
                    <heading>0</heading>
                    <Icon id="2758">
                        <href>http://maps.google.com/mapfiles/kml/pushpin/ylw-pushpin.png</href>
                    </Icon>
                </IconStyle>
            </Style>
            <Style id="2761">
                <IconStyle id="2762">
                    <color>ff0000ff</color>
                    <colorMode>normal</colorMode>
                    <scale>1</scale>
                    <heading>0</heading>
                    <Icon id="2763">
                        <href>http://maps.google.com/mapfiles/kml/pushpin/ylw-pushpin.png</href>
                    </Icon>
                </IconStyle>
            </Style>
            <Style id="2766">
                <IconStyle id="2767">
                    <color>ff0000ff</color>
                    <colorMode>normal</colorMode>
                    <scale>1</scale>
                    <heading>0</heading>
                    <Icon id="2768">
                        <href>http://maps.google.com/mapfiles/kml/pushpin/ylw-pushpin.png</href>
                    </Icon>
                </IconStyle>
            </Style>
            <Style id="2771">
                <IconStyle id="2772">
                    <color>ff0000ff</color>
                    <colorMode>normal</colorMode>
                    <scale>1</scale>
                    <heading>0</heading>
                    <Icon id="2773">
                        <href>http://maps.google.com/mapfiles/kml/pushpin/ylw-pushpin.png</href>
                    </Icon>
                </IconStyle>
            </Style>
            <Style id="2776">
                <IconStyle id="2777">
                    <color>ff0000ff</color>
                    <colorMode>normal</colorMode>
                    <scale>1</scale>
                    <heading>0</heading>
                    <Icon id="2778">
                        <href>http://maps.google.com/mapfiles/kml/pushpin/ylw-pushpin.png</href>
                    </Icon>
                </IconStyle>
            </Style>
            <Style id="2781">
                <IconStyle id="2782">
                    <color>ff0000ff</color>
                    <colorMode>normal</colorMode>
                    <scale>1</scale>
                    <heading>0</heading>
                    <Icon id="2783">
                        <href>http://maps.google.com/mapfiles/kml/pushpin/ylw-pushpin.png</href>
                    </Icon>
                </IconStyle>
            </Style>
            <Style id="2786">
                <IconStyle id="2787">
                    <color>ff0000ff</color>
                    <colorMode>normal</colorMode>
                    <scale>1</scale>
                    <heading>0</heading>
                    <Icon id="2788">
                        <href>http://maps.google.com/mapfiles/kml/pushpin/ylw-pushpin.png</href>
                    </Icon>
                </IconStyle>
            </Style>
            <Style id="2791">
                <IconStyle id="2792">
                    <color>ff0000ff</color>
                    <colorMode>normal</colorMode>
                    <scale>1</scale>
                    <heading>0</heading>
                    <Icon id="2793">
                        <href>http://maps.google.com/mapfiles/kml/pushpin/ylw-pushpin.png</href>
                    </Icon>
                </IconStyle>
            </Style>
            <Style id="2796">
                <IconStyle id="2797">
                    <color>ff0000ff</color>
                    <colorMode>normal</colorMode>
                    <scale>1</scale>
                    <heading>0</heading>
                    <Icon id="2798">
                        <href>http://maps.google.com/mapfiles/kml/pushpin/ylw-pushpin.png</href>
                    </Icon>
                </IconStyle>
            </Style>
            <Style id="2801">
                <IconStyle id="2802">
                    <color>ff0000ff</color>
                    <colorMode>normal</colorMode>
                    <scale>1</scale>
                    <heading>0</heading>
                    <Icon id="2803">
                        <href>http://maps.google.com/mapfiles/kml/pushpin/ylw-pushpin.png</href>
                    </Icon>
                </IconStyle>
            </Style>
            <Style id="2806">
                <IconStyle id="2807">
                    <color>ff0000ff</color>
                    <colorMode>normal</colorMode>
                    <scale>1</scale>
                    <heading>0</heading>
                    <Icon id="2808">
                        <href>http://maps.google.com/mapfiles/kml/pushpin/ylw-pushpin.png</href>
                    </Icon>
                </IconStyle>
            </Style>
            <Style id="2811">
                <IconStyle id="2812">
                    <color>ff0000ff</color>
                    <colorMode>normal</colorMode>
                    <scale>1</scale>
                    <heading>0</heading>
                    <Icon id="2813">
                        <href>http://maps.google.com/mapfiles/kml/pushpin/ylw-pushpin.png</href>
                    </Icon>
                </IconStyle>
            </Style>
            <Style id="2816">
                <IconStyle id="2817">
                    <color>ff0000ff</color>
                    <colorMode>normal</colorMode>
                    <scale>1</scale>
                    <heading>0</heading>
                    <Icon id="2818">
                        <href>http://maps.google.com/mapfiles/kml/pushpin/ylw-pushpin.png</href>
                    </Icon>
                </IconStyle>
            </Style>
            <Style id="2821">
                <IconStyle id="2822">
                    <color>ff0000ff</color>
                    <colorMode>normal</colorMode>
                    <scale>1</scale>
                    <heading>0</heading>
                    <Icon id="2823">
                        <href>http://maps.google.com/mapfiles/kml/pushpin/ylw-pushpin.png</href>
                    </Icon>
                </IconStyle>
            </Style>
            <Style id="2826">
                <IconStyle id="2827">
                    <color>ff0000ff</color>
                    <colorMode>normal</colorMode>
                    <scale>1</scale>
                    <heading>0</heading>
                    <Icon id="2828">
                        <href>http://maps.google.com/mapfiles/kml/pushpin/ylw-pushpin.png</href>
                    </Icon>
                </IconStyle>
            </Style>
            <Style id="2831">
                <IconStyle id="2832">
                    <color>ff0000ff</color>
                    <colorMode>normal</colorMode>
                    <scale>1</scale>
                    <heading>0</heading>
                    <Icon id="2833">
                        <href>http://maps.google.com/mapfiles/kml/pushpin/ylw-pushpin.png</href>
                    </Icon>
                </IconStyle>
            </Style>
            <Style id="2836">
                <IconStyle id="2837">
                    <color>ff0000ff</color>
                    <colorMode>normal</colorMode>
                    <scale>1</scale>
                    <heading>0</heading>
                    <Icon id="2838">
                        <href>http://maps.google.com/mapfiles/kml/pushpin/ylw-pushpin.png</href>
                    </Icon>
                </IconStyle>
            </Style>
            <Style id="2841">
                <IconStyle id="2842">
                    <color>ff0000ff</color>
                    <colorMode>normal</colorMode>
                    <scale>1</scale>
                    <heading>0</heading>
                    <Icon id="2843">
                        <href>http://maps.google.com/mapfiles/kml/pushpin/ylw-pushpin.png</href>
                    </Icon>
                </IconStyle>
            </Style>
            <Style id="2846">
                <IconStyle id="2847">
                    <color>ff0000ff</color>
                    <colorMode>normal</colorMode>
                    <scale>1</scale>
                    <heading>0</heading>
                    <Icon id="2848">
                        <href>http://maps.google.com/mapfiles/kml/pushpin/ylw-pushpin.png</href>
                    </Icon>
                </IconStyle>
            </Style>
            <Style id="2851">
                <IconStyle id="2852">
                    <color>ff0000ff</color>
                    <colorMode>normal</colorMode>
                    <scale>1</scale>
                    <heading>0</heading>
                    <Icon id="2853">
                        <href>http://maps.google.com/mapfiles/kml/pushpin/ylw-pushpin.png</href>
                    </Icon>
                </IconStyle>
            </Style>
            <Style id="2856">
                <IconStyle id="2857">
                    <color>ff0000ff</color>
                    <colorMode>normal</colorMode>
                    <scale>1</scale>
                    <heading>0</heading>
                    <Icon id="2858">
                        <href>http://maps.google.com/mapfiles/kml/pushpin/ylw-pushpin.png</href>
                    </Icon>
                </IconStyle>
            </Style>
            <Style id="2861">
                <IconStyle id="2862">
                    <color>ff0000ff</color>
                    <colorMode>normal</colorMode>
                    <scale>1</scale>
                    <heading>0</heading>
                    <Icon id="2863">
                        <href>http://maps.google.com/mapfiles/kml/pushpin/ylw-pushpin.png</href>
                    </Icon>
                </IconStyle>
            </Style>
            <Style id="2866">
                <IconStyle id="2867">
                    <color>ff0000ff</color>
                    <colorMode>normal</colorMode>
                    <scale>1</scale>
                    <heading>0</heading>
                    <Icon id="2868">
                        <href>http://maps.google.com/mapfiles/kml/pushpin/ylw-pushpin.png</href>
                    </Icon>
                </IconStyle>
            </Style>
            <Style id="2871">
                <IconStyle id="2872">
                    <color>ff0000ff</color>
                    <colorMode>normal</colorMode>
                    <scale>1</scale>
                    <heading>0</heading>
                    <Icon id="2873">
                        <href>http://maps.google.com/mapfiles/kml/pushpin/ylw-pushpin.png</href>
                    </Icon>
                </IconStyle>
            </Style>
            <Style id="2876">
                <IconStyle id="2877">
                    <color>ff0000ff</color>
                    <colorMode>normal</colorMode>
                    <scale>1</scale>
                    <heading>0</heading>
                    <Icon id="2878">
                        <href>http://maps.google.com/mapfiles/kml/pushpin/ylw-pushpin.png</href>
                    </Icon>
                </IconStyle>
            </Style>
            <Style id="2881">
                <IconStyle id="2882">
                    <color>ff0000ff</color>
                    <colorMode>normal</colorMode>
                    <scale>1</scale>
                    <heading>0</heading>
                    <Icon id="2883">
                        <href>http://maps.google.com/mapfiles/kml/pushpin/ylw-pushpin.png</href>
                    </Icon>
                </IconStyle>
            </Style>
            <Style id="2886">
                <IconStyle id="2887">
                    <color>ff0000ff</color>
                    <colorMode>normal</colorMode>
                    <scale>1</scale>
                    <heading>0</heading>
                    <Icon id="2888">
                        <href>http://maps.google.com/mapfiles/kml/pushpin/ylw-pushpin.png</href>
                    </Icon>
                </IconStyle>
            </Style>
            <Style id="2891">
                <IconStyle id="2892">
                    <color>ff0000ff</color>
                    <colorMode>normal</colorMode>
                    <scale>1</scale>
                    <heading>0</heading>
                    <Icon id="2893">
                        <href>http://maps.google.com/mapfiles/kml/pushpin/ylw-pushpin.png</href>
                    </Icon>
                </IconStyle>
            </Style>
            <Style id="2896">
                <IconStyle id="2897">
                    <color>ff0000ff</color>
                    <colorMode>normal</colorMode>
                    <scale>1</scale>
                    <heading>0</heading>
                    <Icon id="2898">
                        <href>http://maps.google.com/mapfiles/kml/pushpin/ylw-pushpin.png</href>
                    </Icon>
                </IconStyle>
            </Style>
            <Style id="2901">
                <IconStyle id="2902">
                    <color>ff0000ff</color>
                    <colorMode>normal</colorMode>
                    <scale>1</scale>
                    <heading>0</heading>
                    <Icon id="2903">
                        <href>http://maps.google.com/mapfiles/kml/pushpin/ylw-pushpin.png</href>
                    </Icon>
                </IconStyle>
            </Style>
            <Style id="2906">
                <IconStyle id="2907">
                    <color>ff0000ff</color>
                    <colorMode>normal</colorMode>
                    <scale>1</scale>
                    <heading>0</heading>
                    <Icon id="2908">
                        <href>http://maps.google.com/mapfiles/kml/pushpin/ylw-pushpin.png</href>
                    </Icon>
                </IconStyle>
            </Style>
            <Style id="2911">
                <IconStyle id="2912">
                    <color>ff0000ff</color>
                    <colorMode>normal</colorMode>
                    <scale>1</scale>
                    <heading>0</heading>
                    <Icon id="2913">
                        <href>http://maps.google.com/mapfiles/kml/pushpin/ylw-pushpin.png</href>
                    </Icon>
                </IconStyle>
            </Style>
            <Style id="2916">
                <IconStyle id="2917">
                    <color>ff0000ff</color>
                    <colorMode>normal</colorMode>
                    <scale>1</scale>
                    <heading>0</heading>
                    <Icon id="2918">
                        <href>http://maps.google.com/mapfiles/kml/pushpin/ylw-pushpin.png</href>
                    </Icon>
                </IconStyle>
            </Style>
            <Style id="2921">
                <IconStyle id="2922">
                    <color>ff0000ff</color>
                    <colorMode>normal</colorMode>
                    <scale>1</scale>
                    <heading>0</heading>
                    <Icon id="2923">
                        <href>http://maps.google.com/mapfiles/kml/pushpin/ylw-pushpin.png</href>
                    </Icon>
                </IconStyle>
            </Style>
            <Style id="2926">
                <IconStyle id="2927">
                    <color>ff0000ff</color>
                    <colorMode>normal</colorMode>
                    <scale>1</scale>
                    <heading>0</heading>
                    <Icon id="2928">
                        <href>http://maps.google.com/mapfiles/kml/pushpin/ylw-pushpin.png</href>
                    </Icon>
                </IconStyle>
            </Style>
            <name>KATHERINE REBECA DE JESUS CARDOZA LEE</name>
            <Placemark id="2740">
                <name>CORDOVA CASTILLO MELVA MAGALY</name>
                <description>MERCADO CAPULLANAS PUESTO 137 Y PUESTO 138
Veintiséis de Octubre
Veintiséis de Octubre
Piura
Perú</description>
                <styleUrl>#2741</styleUrl>
                <Point id="2739">
                    <coordinates>-80.6698587,-5.1750302,0.0</coordinates>
                </Point>
            </Placemark>
            <Placemark id="2745">
                <name>MARIBEL LOPEZ VILELA</name>
                <description>MZ F LT 47 AA. HH NVO. PORVENIR
Piura
Piura
Piura
Perú</description>
                <styleUrl>#2746</styleUrl>
                <Point id="2744">
                    <coordinates>-80.6441883,-5.2076012,0.0</coordinates>
                </Point>
            </Placemark>
            <Placemark id="2750">
                <name>JOSE ALEX CUNYA CANGO</name>
                <description>MERCADO CAPULLANAS PUESTO 179
Veintiséis de Octubre
Veintiséis de Octubre
Piura
Perú</description>
                <styleUrl>#2751</styleUrl>
                <Point id="2749">
                    <coordinates>-80.6700528,-5.1753173,0.0</coordinates>
                </Point>
            </Placemark>
            <Placemark id="2755">
                <name>DENNER CHINCHAY SANTOS</name>
                <description>PUESTO N 72 / MERCADO CAPULLANAS
Veintiséis de Octubre
Veintiséis de Octubre
Piura
Perú</description>
                <styleUrl>#2756</styleUrl>
                <Point id="2754">
                    <coordinates>-80.6699588,-5.1753257,0.0</coordinates>
                </Point>
            </Placemark>
            <Placemark id="2760">
                <name>DENNER CHINCHAY SANTOS</name>
                <description>PUESTO N 72 / MERCADO CAPULLANAS
Veintiséis de Octubre
Veintiséis de Octubre
Piura
Perú</description>
                <styleUrl>#2761</styleUrl>
                <Point id="2759">
                    <coordinates>-80.6699588,-5.1753257,0.0</coordinates>
                </Point>
            </Placemark>
            <Placemark id="2765">
                <name>JAZMIN ESTELA GARCIA HUAMAN</name>
                <description>MERCADO CAPULLANAS PUESTO 13
Veintiséis de Octubre
Veintiséis de Octubre
Piura
Perú</description>
                <styleUrl>#2766</styleUrl>
                <Point id="2764">
                    <coordinates>-80.6710676,-5.1757973,0.0</coordinates>
                </Point>
            </Placemark>
            <Placemark id="2770">
                <name>DALILA HERNANDEZ GARCIA</name>
                <description>PUESTO 59 / MCDO CAPULLANAS
Veintiséis de Octubre
Veintiséis de Octubre
Piura
Perú</description>
                <styleUrl>#2771</styleUrl>
                <Point id="2769">
                    <coordinates>-80.6698921,-5.1756272,0.0</coordinates>
                </Point>
            </Placemark>
            <Placemark id="2775">
                <name>MARIA MERCEDES CASTRO YARLEQUE</name>
                <description>PUESTO 33 / MCDO CAPULLANAS
Veintiséis de Octubre
Veintiséis de Octubre
Piura
Perú</description>
                <styleUrl>#2776</styleUrl>
                <Point id="2774">
                    <coordinates>-80.6699976,-5.1756049,0.0</coordinates>
                </Point>
            </Placemark>
            <Placemark id="2780">
                <name>SANTOS SILVA YNGA</name>
                <description>MERCADO CAPULLANAS PUESTO 44
Veintiséis de Octubre
Veintiséis de Octubre
Piura
Perú</description>
                <styleUrl>#2781</styleUrl>
                <Point id="2779">
                    <coordinates>-80.6705743,-5.1754491,0.0</coordinates>
                </Point>
            </Placemark>
            <Placemark id="2785">
                <name>DINO MARCHENA CHINININ</name>
                <description>CAPULLANAS MAYORISTA PUESTO 12
Veintiséis de Octubre
Veintiséis de Octubre
Piura
Perú</description>
                <styleUrl>#2786</styleUrl>
                <Point id="2784">
                    <coordinates>-80.671115,-5.1758526,0.0</coordinates>
                </Point>
            </Placemark>
            <Placemark id="2790">
                <name>ROSA SEMINARIO RAMOS</name>
                <description>PUESTO 133 / INTERIOR CAPULLANAS
Veintiséis de Octubre
Veintiséis de Octubre
Piura
Perú</description>
                <styleUrl>#2791</styleUrl>
                <Point id="2789">
                    <coordinates>-80.6717536,-5.1760761,0.0</coordinates>
                </Point>
            </Placemark>
            <Placemark id="2795">
                <name>YUNIOR REYES ABAD</name>
                <description>PUESTO A- 105 / C -125 MCDO CAPULLANAS
Veintiséis de Octubre
Veintiséis de Octubre
Piura
Perú</description>
                <styleUrl>#2796</styleUrl>
                <Point id="2794">
                    <coordinates>-80.6714863,-5.1758542,0.0</coordinates>
                </Point>
            </Placemark>
            <Placemark id="2800">
                <name>LUZ MARIA DIOSES ARISMENDIZ</name>
                <description>A.H.ROMULO LEON MZ.B LT.38 PIU
Piura
Piura
Piura
Perú</description>
                <styleUrl>#2801</styleUrl>
                <Point id="2799">
                    <coordinates>-80.636301,-5.2011756,0.0</coordinates>
                </Point>
            </Placemark>
            <Placemark id="2805">
                <name>PETRONILA LEJABO PEÑA</name>
                <description>Mz B LTE 5 AA.HH VICTOR RAUL
Piura
Piura
Piura
Perú</description>
                <styleUrl>#2806</styleUrl>
                <Point id="2804">
                    <coordinates>-80.6378935,-5.2011621,0.0</coordinates>
                </Point>
            </Placemark>
            <Placemark id="2810">
                <name>ROSA ACOSTA VIDAURRE</name>
                <description>Mz J LTE.26-B AA.HH VICTOR RAUL
Piura
Piura
Piura
Perú</description>
                <styleUrl>#2811</styleUrl>
                <Point id="2809">
                    <coordinates>-80.6388034,-5.2026794,0.0</coordinates>
                </Point>
            </Placemark>
            <Placemark id="2815">
                <name>MARIA NOLE ROMERO</name>
                <description>Mz K LTE 15 AA.HH VICTOR RAUL
Piura
Piura
Piura
Perú</description>
                <styleUrl>#2816</styleUrl>
                <Point id="2814">
                    <coordinates>-80.6402611,-5.2025236,0.0</coordinates>
                </Point>
            </Placemark>
            <Placemark id="2820">
                <name>ORFELINDA HUAMAN VELASCO</name>
                <description>MZ C LT 20 LAGUNA AZUL        
Piura
Piura
Piura
Perú</description>
                <styleUrl>#2821</styleUrl>
                <Point id="2819">
                    <coordinates>-80.6404869,-5.2036186,0.0</coordinates>
                </Point>
            </Placemark>
            <Placemark id="2825">
                <name>DOLORES ECA VITE</name>
                <description>MZ E 17 LAGUNA AZUL           
Piura
Piura
Piura
Perú</description>
                <styleUrl>#2826</styleUrl>
                <Point id="2824">
                    <coordinates>-80.6386305,-5.2055969,0.0</coordinates>
                </Point>
            </Placemark>
            <Placemark id="2830">
                <name>ORFELINDA GONZA CHANTA</name>
                <description>MZ B lote 5 CHAVIN DE HUÁNTAR
Piura
Piura
Piura
Perú</description>
                <styleUrl>#2831</styleUrl>
                <Point id="2829">
                    <coordinates>-80.6409423,-5.2039512,0.0</coordinates>
                </Point>
            </Placemark>
            <Placemark id="2835">
                <name>ELMER HUAMAN JIMENEZ</name>
                <description>A.H.MANUEL ESCORZA MZ A LOTE 23
Piura
Piura
Piura
Perú</description>
                <styleUrl>#2836</styleUrl>
                <Point id="2834">
                    <coordinates>-80.6430734,-5.2039388,0.0</coordinates>
                </Point>
            </Placemark>
            <Placemark id="2840">
                <name>ALFREDO RAMIREZ LOPEZ</name>
                <description>MZ B LTE 59 M.SCORZA
Piura
Piura
Piura
Perú</description>
                <styleUrl>#2841</styleUrl>
                <Point id="2839">
                    <coordinates>-80.643447,-5.204284,0.0</coordinates>
                </Point>
            </Placemark>
            <Placemark id="2845">
                <name>HERLINDA GUERRERO VILLEGAS</name>
                <description>MZ.P LT.2 UP.LA VICTORIA      
Veintiséis de Octubre
Piura
Piura
Perú</description>
                <styleUrl>#2846</styleUrl>
                <Point id="2844">
                    <coordinates>-80.64424,-5.206651,0.0</coordinates>
                </Point>
            </Placemark>
            <Placemark id="2850">
                <name>NIDIA EVELYN REQUENA PINEDA</name>
                <description>J-03 UPIS LA VICTORIA PIURA   
Piura
Piura
Piura
Perú</description>
                <styleUrl>#2851</styleUrl>
                <Point id="2849">
                    <coordinates>-80.6430673,-5.2069659,0.0</coordinates>
                </Point>
            </Placemark>
            <Placemark id="2855">
                <name>FELICITA VILELA DOMINGUEZ</name>
                <description>H-12 AH LA VICTORIA  Piura    
Piura
Piura
Piura
Perú</description>
                <styleUrl>#2856</styleUrl>
                <Point id="2854">
                    <coordinates>-80.6435558,-5.2069047,0.0</coordinates>
                </Point>
            </Placemark>
            <Placemark id="2860">
                <name>FLORESMILA AGUST CHINCHAY RIMAYCUNA</name>
                <description>MZ F LT 43 AA. HH NVO. PORVENIR
Piura
Piura
Piura
Perú</description>
                <styleUrl>#2861</styleUrl>
                <Point id="2859">
                    <coordinates>-80.6446031,-5.2078531,0.0</coordinates>
                </Point>
            </Placemark>
            <Placemark id="2865">
                <name>MARIBEL LOPEZ VILELA</name>
                <description>MZ F LT 47 AA. HH NVO. PORVENIR
Piura
Piura
Piura
Perú</description>
                <styleUrl>#2866</styleUrl>
                <Point id="2864">
                    <coordinates>-80.6441883,-5.2076012,0.0</coordinates>
                </Point>
            </Placemark>
            <Placemark id="2870">
                <name>YENNY PAOLA CAMPOVERDE CARHUACHINCHAY</name>
                <description>A-02 ET 1 UPIS JUAN BOSCOPiura
Piura
Piura
Piura
Perú</description>
                <styleUrl>#2871</styleUrl>
                <Point id="2869">
                    <coordinates>-80.6448488,-5.2084429,0.0</coordinates>
                </Point>
            </Placemark>
            <Placemark id="2875">
                <name>JOSE GARCIA TORRES</name>
                <description>A-54 ET 1 UPIS JUAN BOSCOPiura
Piura
Piura
Piura
Perú</description>
                <styleUrl>#2876</styleUrl>
                <Point id="2874">
                    <coordinates>-80.6444195,-5.2088417,0.0</coordinates>
                </Point>
            </Placemark>
            <Placemark id="2880">
                <name>LEYSI MARIELA REYES CALLE</name>
                <description>JUAN BOSCO MZ C LT 30 Piura-Piura
Piura
Piura
Piura
Perú</description>
                <styleUrl>#2881</styleUrl>
                <Point id="2879">
                    <coordinates>-80.6438971,-5.2084633,0.0</coordinates>
                </Point>
            </Placemark>
            <Placemark id="2885">
                <name>LUZMILA MAZA SANTOS</name>
                <description>B-43 ET 1 UPIS JUAN BOSCOPiura
Piura
Piura
Piura
Perú</description>
                <styleUrl>#2886</styleUrl>
                <Point id="2884">
                    <coordinates>-80.6435376,-5.2088288,0.0</coordinates>
                </Point>
            </Placemark>
            <Placemark id="2890">
                <name>TERESA MAGDALENA JIMENEZ VITE</name>
                <description>JUAN BOSCO MZ C LOTE 47 / PRIMERA ETAPA
Piura
Piura
Piura
Perú</description>
                <styleUrl>#2891</styleUrl>
                <Point id="2889">
                    <coordinates>-80.643212,-5.2091858,0.0</coordinates>
                </Point>
            </Placemark>
            <Placemark id="2895">
                <name>MERCEDES TACURE UMBO</name>
                <description>A.H.ANDRES AVELINO CACERES B-1
Piura
Piura
Piura
Perú</description>
                <styleUrl>#2896</styleUrl>
                <Point id="2894">
                    <coordinates>-80.64235,-5.209565,0.0</coordinates>
                </Point>
            </Placemark>
            <Placemark id="2900">
                <name>HUERTAS BENITES VILMA AMONICA</name>
                <description>UP.LA VICTORIA MZ.S LT.24     
Piura
Piura
Piura
Perú</description>
                <styleUrl>#2901</styleUrl>
                <Point id="2899">
                    <coordinates>-80.64167,-5.209828,0.0</coordinates>
                </Point>
            </Placemark>
            <Placemark id="2905">
                <name>YOLANDA DEL SOCORRO SILUPU DE VILCHEZ</name>
                <description>MZ T LTE 11 ASOC. LA VICTORIA
Piura
Piura
Piura
Perú</description>
                <styleUrl>#2906</styleUrl>
                <Point id="2904">
                    <coordinates>-80.6410413,-5.2093677,0.0</coordinates>
                </Point>
            </Placemark>
            <Placemark id="2910">
                <name>ROSA ELVIRA DELGADO HERRERA</name>
                <description>Mz E LTE 13 ASOC. AVELINO CACERES (REF. Frente a San Juan Bosco)
Piura
Piura
Piura
Perú</description>
                <styleUrl>#2911</styleUrl>
                <Point id="2909">
                    <coordinates>-80.6423676,-5.211036,0.0</coordinates>
                </Point>
            </Placemark>
            <Placemark id="2915">
                <name>CURAY CAMPOS GENNY</name>
                <description>MZ D LT 8 APV ANDRES A CACERES
Piura
Piura
Piura
Perú</description>
                <styleUrl>#2916</styleUrl>
                <Point id="2914">
                    <coordinates>-80.642353,-5.210914,0.0</coordinates>
                </Point>
            </Placemark>
            <Placemark id="2920">
                <name>LEIVA EDITA ZURITA JULCA</name>
                <description>Mz F lote 5 Héroes del senepa
Veintiséis de Octubre
Veintiséis de Octubre
Piura
Perú</description>
                <styleUrl>#2921</styleUrl>
                <Point id="2919">
                    <coordinates>-80.638416,-5.206666,0.0</coordinates>
                </Point>
            </Placemark>
            <Placemark id="2925">
                <name>KAREN FAVIOLA HOLGUIN CORDOVA</name>
                <description>MZ F LT 13 AH HEROES DE CENEPA
Piura
Piura
Piura
Perú</description>
                <styleUrl>#2926</styleUrl>
                <Point id="2924">
                    <coordinates>-80.6386238,-5.2066229,0.0</coordinates>
                </Point>
            </Placemark>
        </Folder>
    </Document>
</kml>
