<?xml version="1.0" encoding="UTF-8"?>
<kml xmlns="http://www.opengis.net/kml/2.2" xmlns:gx="http://www.google.com/kml/ext/2.2">
    <Document id="1644">
        <Folder id="1645">
            <Style id="1648">
                <IconStyle id="1649">
                    <color>ff0000ff</color>
                    <colorMode>normal</colorMode>
                    <scale>1</scale>
                    <heading>0</heading>
                    <Icon id="1650">
                        <href>http://maps.google.com/mapfiles/kml/pushpin/ylw-pushpin.png</href>
                    </Icon>
                </IconStyle>
            </Style>
            <Style id="1653">
                <IconStyle id="1654">
                    <color>ff0000ff</color>
                    <colorMode>normal</colorMode>
                    <scale>1</scale>
                    <heading>0</heading>
                    <Icon id="1655">
                        <href>http://maps.google.com/mapfiles/kml/pushpin/ylw-pushpin.png</href>
                    </Icon>
                </IconStyle>
            </Style>
            <Style id="1658">
                <IconStyle id="1659">
                    <color>ff0000ff</color>
                    <colorMode>normal</colorMode>
                    <scale>1</scale>
                    <heading>0</heading>
                    <Icon id="1660">
                        <href>http://maps.google.com/mapfiles/kml/pushpin/ylw-pushpin.png</href>
                    </Icon>
                </IconStyle>
            </Style>
            <Style id="1663">
                <IconStyle id="1664">
                    <color>ff0000ff</color>
                    <colorMode>normal</colorMode>
                    <scale>1</scale>
                    <heading>0</heading>
                    <Icon id="1665">
                        <href>http://maps.google.com/mapfiles/kml/pushpin/ylw-pushpin.png</href>
                    </Icon>
                </IconStyle>
            </Style>
            <Style id="1668">
                <IconStyle id="1669">
                    <color>ff0000ff</color>
                    <colorMode>normal</colorMode>
                    <scale>1</scale>
                    <heading>0</heading>
                    <Icon id="1670">
                        <href>http://maps.google.com/mapfiles/kml/pushpin/ylw-pushpin.png</href>
                    </Icon>
                </IconStyle>
            </Style>
            <Style id="1673">
                <IconStyle id="1674">
                    <color>ff0000ff</color>
                    <colorMode>normal</colorMode>
                    <scale>1</scale>
                    <heading>0</heading>
                    <Icon id="1675">
                        <href>http://maps.google.com/mapfiles/kml/pushpin/ylw-pushpin.png</href>
                    </Icon>
                </IconStyle>
            </Style>
            <Style id="1678">
                <IconStyle id="1679">
                    <color>ff0000ff</color>
                    <colorMode>normal</colorMode>
                    <scale>1</scale>
                    <heading>0</heading>
                    <Icon id="1680">
                        <href>http://maps.google.com/mapfiles/kml/pushpin/ylw-pushpin.png</href>
                    </Icon>
                </IconStyle>
            </Style>
            <Style id="1683">
                <IconStyle id="1684">
                    <color>ff0000ff</color>
                    <colorMode>normal</colorMode>
                    <scale>1</scale>
                    <heading>0</heading>
                    <Icon id="1685">
                        <href>http://maps.google.com/mapfiles/kml/pushpin/ylw-pushpin.png</href>
                    </Icon>
                </IconStyle>
            </Style>
            <Style id="1688">
                <IconStyle id="1689">
                    <color>ff0000ff</color>
                    <colorMode>normal</colorMode>
                    <scale>1</scale>
                    <heading>0</heading>
                    <Icon id="1690">
                        <href>http://maps.google.com/mapfiles/kml/pushpin/ylw-pushpin.png</href>
                    </Icon>
                </IconStyle>
            </Style>
            <Style id="1693">
                <IconStyle id="1694">
                    <color>ff0000ff</color>
                    <colorMode>normal</colorMode>
                    <scale>1</scale>
                    <heading>0</heading>
                    <Icon id="1695">
                        <href>http://maps.google.com/mapfiles/kml/pushpin/ylw-pushpin.png</href>
                    </Icon>
                </IconStyle>
            </Style>
            <Style id="1698">
                <IconStyle id="1699">
                    <color>ff0000ff</color>
                    <colorMode>normal</colorMode>
                    <scale>1</scale>
                    <heading>0</heading>
                    <Icon id="1700">
                        <href>http://maps.google.com/mapfiles/kml/pushpin/ylw-pushpin.png</href>
                    </Icon>
                </IconStyle>
            </Style>
            <Style id="1703">
                <IconStyle id="1704">
                    <color>ff0000ff</color>
                    <colorMode>normal</colorMode>
                    <scale>1</scale>
                    <heading>0</heading>
                    <Icon id="1705">
                        <href>http://maps.google.com/mapfiles/kml/pushpin/ylw-pushpin.png</href>
                    </Icon>
                </IconStyle>
            </Style>
            <Style id="1708">
                <IconStyle id="1709">
                    <color>ff0000ff</color>
                    <colorMode>normal</colorMode>
                    <scale>1</scale>
                    <heading>0</heading>
                    <Icon id="1710">
                        <href>http://maps.google.com/mapfiles/kml/pushpin/ylw-pushpin.png</href>
                    </Icon>
                </IconStyle>
            </Style>
            <Style id="1713">
                <IconStyle id="1714">
                    <color>ff0000ff</color>
                    <colorMode>normal</colorMode>
                    <scale>1</scale>
                    <heading>0</heading>
                    <Icon id="1715">
                        <href>http://maps.google.com/mapfiles/kml/pushpin/ylw-pushpin.png</href>
                    </Icon>
                </IconStyle>
            </Style>
            <Style id="1718">
                <IconStyle id="1719">
                    <color>ff0000ff</color>
                    <colorMode>normal</colorMode>
                    <scale>1</scale>
                    <heading>0</heading>
                    <Icon id="1720">
                        <href>http://maps.google.com/mapfiles/kml/pushpin/ylw-pushpin.png</href>
                    </Icon>
                </IconStyle>
            </Style>
            <Style id="1723">
                <IconStyle id="1724">
                    <color>ff0000ff</color>
                    <colorMode>normal</colorMode>
                    <scale>1</scale>
                    <heading>0</heading>
                    <Icon id="1725">
                        <href>http://maps.google.com/mapfiles/kml/pushpin/ylw-pushpin.png</href>
                    </Icon>
                </IconStyle>
            </Style>
            <Style id="1728">
                <IconStyle id="1729">
                    <color>ff0000ff</color>
                    <colorMode>normal</colorMode>
                    <scale>1</scale>
                    <heading>0</heading>
                    <Icon id="1730">
                        <href>http://maps.google.com/mapfiles/kml/pushpin/ylw-pushpin.png</href>
                    </Icon>
                </IconStyle>
            </Style>
            <Style id="1733">
                <IconStyle id="1734">
                    <color>ff0000ff</color>
                    <colorMode>normal</colorMode>
                    <scale>1</scale>
                    <heading>0</heading>
                    <Icon id="1735">
                        <href>http://maps.google.com/mapfiles/kml/pushpin/ylw-pushpin.png</href>
                    </Icon>
                </IconStyle>
            </Style>
            <Style id="1738">
                <IconStyle id="1739">
                    <color>ff0000ff</color>
                    <colorMode>normal</colorMode>
                    <scale>1</scale>
                    <heading>0</heading>
                    <Icon id="1740">
                        <href>http://maps.google.com/mapfiles/kml/pushpin/ylw-pushpin.png</href>
                    </Icon>
                </IconStyle>
            </Style>
            <Style id="1743">
                <IconStyle id="1744">
                    <color>ff0000ff</color>
                    <colorMode>normal</colorMode>
                    <scale>1</scale>
                    <heading>0</heading>
                    <Icon id="1745">
                        <href>http://maps.google.com/mapfiles/kml/pushpin/ylw-pushpin.png</href>
                    </Icon>
                </IconStyle>
            </Style>
            <Style id="1748">
                <IconStyle id="1749">
                    <color>ff0000ff</color>
                    <colorMode>normal</colorMode>
                    <scale>1</scale>
                    <heading>0</heading>
                    <Icon id="1750">
                        <href>http://maps.google.com/mapfiles/kml/pushpin/ylw-pushpin.png</href>
                    </Icon>
                </IconStyle>
            </Style>
            <Style id="1753">
                <IconStyle id="1754">
                    <color>ff0000ff</color>
                    <colorMode>normal</colorMode>
                    <scale>1</scale>
                    <heading>0</heading>
                    <Icon id="1755">
                        <href>http://maps.google.com/mapfiles/kml/pushpin/ylw-pushpin.png</href>
                    </Icon>
                </IconStyle>
            </Style>
            <Style id="1758">
                <IconStyle id="1759">
                    <color>ff0000ff</color>
                    <colorMode>normal</colorMode>
                    <scale>1</scale>
                    <heading>0</heading>
                    <Icon id="1760">
                        <href>http://maps.google.com/mapfiles/kml/pushpin/ylw-pushpin.png</href>
                    </Icon>
                </IconStyle>
            </Style>
            <Style id="1763">
                <IconStyle id="1764">
                    <color>ff0000ff</color>
                    <colorMode>normal</colorMode>
                    <scale>1</scale>
                    <heading>0</heading>
                    <Icon id="1765">
                        <href>http://maps.google.com/mapfiles/kml/pushpin/ylw-pushpin.png</href>
                    </Icon>
                </IconStyle>
            </Style>
            <Style id="1768">
                <IconStyle id="1769">
                    <color>ff0000ff</color>
                    <colorMode>normal</colorMode>
                    <scale>1</scale>
                    <heading>0</heading>
                    <Icon id="1770">
                        <href>http://maps.google.com/mapfiles/kml/pushpin/ylw-pushpin.png</href>
                    </Icon>
                </IconStyle>
            </Style>
            <Style id="1773">
                <IconStyle id="1774">
                    <color>ff0000ff</color>
                    <colorMode>normal</colorMode>
                    <scale>1</scale>
                    <heading>0</heading>
                    <Icon id="1775">
                        <href>http://maps.google.com/mapfiles/kml/pushpin/ylw-pushpin.png</href>
                    </Icon>
                </IconStyle>
            </Style>
            <Style id="1778">
                <IconStyle id="1779">
                    <color>ff0000ff</color>
                    <colorMode>normal</colorMode>
                    <scale>1</scale>
                    <heading>0</heading>
                    <Icon id="1780">
                        <href>http://maps.google.com/mapfiles/kml/pushpin/ylw-pushpin.png</href>
                    </Icon>
                </IconStyle>
            </Style>
            <Style id="1783">
                <IconStyle id="1784">
                    <color>ff0000ff</color>
                    <colorMode>normal</colorMode>
                    <scale>1</scale>
                    <heading>0</heading>
                    <Icon id="1785">
                        <href>http://maps.google.com/mapfiles/kml/pushpin/ylw-pushpin.png</href>
                    </Icon>
                </IconStyle>
            </Style>
            <Style id="1788">
                <IconStyle id="1789">
                    <color>ff0000ff</color>
                    <colorMode>normal</colorMode>
                    <scale>1</scale>
                    <heading>0</heading>
                    <Icon id="1790">
                        <href>http://maps.google.com/mapfiles/kml/pushpin/ylw-pushpin.png</href>
                    </Icon>
                </IconStyle>
            </Style>
            <Style id="1793">
                <IconStyle id="1794">
                    <color>ff0000ff</color>
                    <colorMode>normal</colorMode>
                    <scale>1</scale>
                    <heading>0</heading>
                    <Icon id="1795">
                        <href>http://maps.google.com/mapfiles/kml/pushpin/ylw-pushpin.png</href>
                    </Icon>
                </IconStyle>
            </Style>
            <Style id="1798">
                <IconStyle id="1799">
                    <color>ff0000ff</color>
                    <colorMode>normal</colorMode>
                    <scale>1</scale>
                    <heading>0</heading>
                    <Icon id="1800">
                        <href>http://maps.google.com/mapfiles/kml/pushpin/ylw-pushpin.png</href>
                    </Icon>
                </IconStyle>
            </Style>
            <Style id="1803">
                <IconStyle id="1804">
                    <color>ff0000ff</color>
                    <colorMode>normal</colorMode>
                    <scale>1</scale>
                    <heading>0</heading>
                    <Icon id="1805">
                        <href>http://maps.google.com/mapfiles/kml/pushpin/ylw-pushpin.png</href>
                    </Icon>
                </IconStyle>
            </Style>
            <Style id="1808">
                <IconStyle id="1809">
                    <color>ff0000ff</color>
                    <colorMode>normal</colorMode>
                    <scale>1</scale>
                    <heading>0</heading>
                    <Icon id="1810">
                        <href>http://maps.google.com/mapfiles/kml/pushpin/ylw-pushpin.png</href>
                    </Icon>
                </IconStyle>
            </Style>
            <Style id="1813">
                <IconStyle id="1814">
                    <color>ff0000ff</color>
                    <colorMode>normal</colorMode>
                    <scale>1</scale>
                    <heading>0</heading>
                    <Icon id="1815">
                        <href>http://maps.google.com/mapfiles/kml/pushpin/ylw-pushpin.png</href>
                    </Icon>
                </IconStyle>
            </Style>
            <Style id="1818">
                <IconStyle id="1819">
                    <color>ff0000ff</color>
                    <colorMode>normal</colorMode>
                    <scale>1</scale>
                    <heading>0</heading>
                    <Icon id="1820">
                        <href>http://maps.google.com/mapfiles/kml/pushpin/ylw-pushpin.png</href>
                    </Icon>
                </IconStyle>
            </Style>
            <Style id="1823">
                <IconStyle id="1824">
                    <color>ff0000ff</color>
                    <colorMode>normal</colorMode>
                    <scale>1</scale>
                    <heading>0</heading>
                    <Icon id="1825">
                        <href>http://maps.google.com/mapfiles/kml/pushpin/ylw-pushpin.png</href>
                    </Icon>
                </IconStyle>
            </Style>
            <Style id="1828">
                <IconStyle id="1829">
                    <color>ff0000ff</color>
                    <colorMode>normal</colorMode>
                    <scale>1</scale>
                    <heading>0</heading>
                    <Icon id="1830">
                        <href>http://maps.google.com/mapfiles/kml/pushpin/ylw-pushpin.png</href>
                    </Icon>
                </IconStyle>
            </Style>
            <Style id="1833">
                <IconStyle id="1834">
                    <color>ff0000ff</color>
                    <colorMode>normal</colorMode>
                    <scale>1</scale>
                    <heading>0</heading>
                    <Icon id="1835">
                        <href>http://maps.google.com/mapfiles/kml/pushpin/ylw-pushpin.png</href>
                    </Icon>
                </IconStyle>
            </Style>
            <Style id="1838">
                <IconStyle id="1839">
                    <color>ff0000ff</color>
                    <colorMode>normal</colorMode>
                    <scale>1</scale>
                    <heading>0</heading>
                    <Icon id="1840">
                        <href>http://maps.google.com/mapfiles/kml/pushpin/ylw-pushpin.png</href>
                    </Icon>
                </IconStyle>
            </Style>
            <Style id="1843">
                <IconStyle id="1844">
                    <color>ff0000ff</color>
                    <colorMode>normal</colorMode>
                    <scale>1</scale>
                    <heading>0</heading>
                    <Icon id="1845">
                        <href>http://maps.google.com/mapfiles/kml/pushpin/ylw-pushpin.png</href>
                    </Icon>
                </IconStyle>
            </Style>
            <Style id="1848">
                <IconStyle id="1849">
                    <color>ff0000ff</color>
                    <colorMode>normal</colorMode>
                    <scale>1</scale>
                    <heading>0</heading>
                    <Icon id="1850">
                        <href>http://maps.google.com/mapfiles/kml/pushpin/ylw-pushpin.png</href>
                    </Icon>
                </IconStyle>
            </Style>
            <Style id="1853">
                <IconStyle id="1854">
                    <color>ff0000ff</color>
                    <colorMode>normal</colorMode>
                    <scale>1</scale>
                    <heading>0</heading>
                    <Icon id="1855">
                        <href>http://maps.google.com/mapfiles/kml/pushpin/ylw-pushpin.png</href>
                    </Icon>
                </IconStyle>
            </Style>
            <Style id="1858">
                <IconStyle id="1859">
                    <color>ff0000ff</color>
                    <colorMode>normal</colorMode>
                    <scale>1</scale>
                    <heading>0</heading>
                    <Icon id="1860">
                        <href>http://maps.google.com/mapfiles/kml/pushpin/ylw-pushpin.png</href>
                    </Icon>
                </IconStyle>
            </Style>
            <name>ANYI GLEIDY SALDAÑA ESPINOZA</name>
            <Placemark id="1647">
                <name>NIÑO GALLO MILAGROS DEL PILAR</name>
                <description>CALLE PISCO MZ D LOTE 17 AA.HH JORGE BASADRE
Piura
Piura
Piura
Perú</description>
                <styleUrl>#1648</styleUrl>
                <Point id="1646">
                    <coordinates>-80.6453819,-5.2036892,0.0</coordinates>
                </Point>
            </Placemark>
            <Placemark id="1652">
                <name>SEGUNDO PALACIOS ESPINOZA</name>
                <description>Calle Tacna 415 - 1
Castilla
Castilla
Piura
Perú</description>
                <styleUrl>#1653</styleUrl>
                <Point id="1651">
                    <coordinates>-80.6240069,-5.2015393,0.0</coordinates>
                </Point>
            </Placemark>
            <Placemark id="1657">
                <name>RAYMUNDO DE_ASTO ELSA MERCEDES</name>
                <description>AV.JUNIN 401                  
Castilla
Castilla
Piura
Perú</description>
                <styleUrl>#1658</styleUrl>
                <Point id="1656">
                    <coordinates>-80.623006,-5.200973,0.0</coordinates>
                </Point>
            </Placemark>
            <Placemark id="1662">
                <name>ZAIDA DEL PILAR BERRU ALZAMORA</name>
                <description>MERCADO CASTILLA PUESTO 233-234
Castilla
Castilla
Piura
Perú</description>
                <styleUrl>#1663</styleUrl>
                <Point id="1661">
                    <coordinates>-80.6226117,-5.199835,0.0</coordinates>
                </Point>
            </Placemark>
            <Placemark id="1667">
                <name>ZAIDA DEL PILAR BERRU ALZAMORA</name>
                <description>MERCADO CASTILLA PUESTO 233-234
Castilla
Castilla
Piura
Perú</description>
                <styleUrl>#1668</styleUrl>
                <Point id="1666">
                    <coordinates>-80.6226117,-5.199835,0.0</coordinates>
                </Point>
            </Placemark>
            <Placemark id="1672">
                <name>PAJUELO CUROTTO MIGUEL ANGEL</name>
                <description>CALLE SAN PEDRO 390 CRUCE CON JUNIN CASTILLA
Castilla
Castilla
Piura
Perú</description>
                <styleUrl>#1673</styleUrl>
                <Point id="1671">
                    <coordinates>-80.620087,-5.2017431,0.0</coordinates>
                </Point>
            </Placemark>
            <Placemark id="1677">
                <name>PAUCAR GARCIA LUIS ANGEL</name>
                <description>INT MCDO PUEST 238 CASTILLA   
Castilla
Castilla
Piura
Perú</description>
                <styleUrl>#1678</styleUrl>
                <Point id="1676">
                    <coordinates>-80.622955,-5.199542,0.0</coordinates>
                </Point>
            </Placemark>
            <Placemark id="1682">
                <name>PAUCAR GARCIA LUIS ANGEL</name>
                <description>INT MCDO PUEST 238 CASTILLA   
Castilla
Castilla
Piura
Perú</description>
                <styleUrl>#1683</styleUrl>
                <Point id="1681">
                    <coordinates>-80.622955,-5.199542,0.0</coordinates>
                </Point>
            </Placemark>
            <Placemark id="1687">
                <name>TINTA TAPIA ABEL</name>
                <description>CA.RAMON CASTILLA  138 CASTILLA
Castilla
Castilla
Piura
Perú</description>
                <styleUrl>#1688</styleUrl>
                <Point id="1686">
                    <coordinates>-80.6225804,-5.1976441,0.0</coordinates>
                </Point>
            </Placemark>
            <Placemark id="1692">
                <name>CARMEN ANTONIA DELGADO CASTILLO</name>
                <description>CARMEN ANTONIA DELGADO CASTILLO
CA. BUENOS AIRES 100 - CASTILLA
Castilla
Castilla
Piura
Perú</description>
                <styleUrl>#1693</styleUrl>
                <Point id="1691">
                    <coordinates>-80.6181632,-5.198924,0.0</coordinates>
                </Point>
            </Placemark>
            <Placemark id="1697">
                <name>ANTONY OSCAR APCHO VIERA</name>
                <description>ANTONY OSCAR APCHO VIERA
CA.AYACUCHO N537 - CASTILLA
Castilla

Piura
Perú</description>
                <styleUrl>#1698</styleUrl>
                <Point id="1696">
                    <coordinates>-80.6232616,-5.2036922,0.0</coordinates>
                </Point>
            </Placemark>
            <Placemark id="1702">
                <name>CANDELARIA RAMIREZ AQUINO</name>
                <description>CA.LOS ANGELES 111 -CASTILLA
Castilla
Castilla
Piura
Perú</description>
                <styleUrl>#1703</styleUrl>
                <Point id="1701">
                    <coordinates>-80.61718,-5.1993831,0.0</coordinates>
                </Point>
            </Placemark>
            <Placemark id="1707">
                <name>SUSANA MARGARITA VILCHEZ CARCAMO</name>
                <description>JR LAMBAYEQUE 705-1 CASTILLA Piura
Castilla
Castilla
Piura
Perú</description>
                <styleUrl>#1708</styleUrl>
                <Point id="1706">
                    <coordinates>-80.6173986,-5.1999797,0.0</coordinates>
                </Point>
            </Placemark>
            <Placemark id="1712">
                <name>ALEJOS CHAVEZ GLADYS</name>
                <description>CA.LOS ANGELES 312            
Castilla
Castilla
Piura
Perú</description>
                <styleUrl>#1713</styleUrl>
                <Point id="1711">
                    <coordinates>-80.61776,-5.2019,0.0</coordinates>
                </Point>
            </Placemark>
            <Placemark id="1717">
                <name>ROSAURA RUIZ JUAREZ</name>
                <description>CA.LOS ANGELES 303 CASTILLA
Castilla
Castilla
Piura
Perú</description>
                <styleUrl>#1718</styleUrl>
                <Point id="1716">
                    <coordinates>-80.6173949,-5.2014524,0.0</coordinates>
                </Point>
            </Placemark>
            <Placemark id="1722">
                <name>MELVA VICENTE GALLEGO</name>
                <description>MELVA VICENTE GALLEGO
BOLOGNESI 300 INT.01 - CASTILLA
Castilla
Castilla
Piura
Perú</description>
                <styleUrl>#1723</styleUrl>
                <Point id="1721">
                    <coordinates>-80.6185608,-5.2007698,0.0</coordinates>
                </Point>
            </Placemark>
            <Placemark id="1727">
                <name>ROJAS OJEDA ROSAS ROSARIO</name>
                <description>CA.BOLOGNESI 308              
Castilla
Castilla
Piura
Perú</description>
                <styleUrl>#1728</styleUrl>
                <Point id="1726">
                    <coordinates>-80.618947,-5.201785,0.0</coordinates>
                </Point>
            </Placemark>
            <Placemark id="1732">
                <name>CIGUEÑAS CALLE SOLEDAD</name>
                <description>JR.ICA 1185 CASTILLA          
Castilla
Castilla
Piura
Perú</description>
                <styleUrl>#1733</styleUrl>
                <Point id="1731">
                    <coordinates>-80.61925,-5.203838,0.0</coordinates>
                </Point>
            </Placemark>
            <Placemark id="1737">
                <name>ARISMENDIS SECLEN DORIS</name>
                <description>ANGELES  526 CASTILLA
Castilla
Castilla
Piura
Perú</description>
                <styleUrl>#1738</styleUrl>
                <Point id="1736">
                    <coordinates>-80.618491,-5.204029,0.0</coordinates>
                </Point>
            </Placemark>
            <Placemark id="1742">
                <name>FASSIO RAMOS YESSENIA LIZBETH</name>
                <description>CA.LOS ANGELES 617 CAST       
Castilla
Castilla
Piura
Perú</description>
                <styleUrl>#1743</styleUrl>
                <Point id="1741">
                    <coordinates>-80.61855,-5.204724,0.0</coordinates>
                </Point>
            </Placemark>
            <Placemark id="1747">
                <name>SHARON CONSUELO ORTIZ ARANDA</name>
                <description>AV. BOLOGNESI 601 CASTILLA
Castilla
Castilla
Piura
Perú</description>
                <styleUrl>#1748</styleUrl>
                <Point id="1746">
                    <coordinates>-80.619773,-5.2051943,0.0</coordinates>
                </Point>
            </Placemark>
            <Placemark id="1752">
                <name>VIOLETA CLAUDIO GALVEZ</name>
                <description>CAPAC YUPANQUI 203 TALARITA
Castilla

Piura
Perú</description>
                <styleUrl>#1753</styleUrl>
                <Point id="1751">
                    <coordinates>-80.619697,-5.207254,0.0</coordinates>
                </Point>
            </Placemark>
            <Placemark id="1757">
                <name>DURAND JUAREZ BEATRIZ .B.</name>
                <description>CA.MAYTA CAPAC 201 CASTILLA   
Castilla
Castilla
Piura
Perú</description>
                <styleUrl>#1758</styleUrl>
                <Point id="1756">
                    <coordinates>-80.620304,-5.20775,0.0</coordinates>
                </Point>
            </Placemark>
            <Placemark id="1762">
                <name>ZAPATA CALDERON SILVANA EVELYN</name>
                <description>MAYTA CAPAC 201 CASTILLA      
Castilla
Castilla
Piura
Perú</description>
                <styleUrl>#1763</styleUrl>
                <Point id="1761">
                    <coordinates>-80.620146,-5.207688,0.0</coordinates>
                </Point>
            </Placemark>
            <Placemark id="1767">
                <name>ALINA CHERO ANDRADE</name>
                <description>LOS MOCHICAS 700 TALARITA CASTILLA-Piura
Castilla
Castilla
Piura
Perú</description>
                <styleUrl>#1768</styleUrl>
                <Point id="1766">
                    <coordinates>-80.6191461,-5.2093627,0.0</coordinates>
                </Point>
            </Placemark>
            <Placemark id="1772">
                <name>MARIA MERCEDES FLORES MARTINEZ</name>
                <description>MARIA MERCEDES FLORES MARTINEZ
HUASCAR N 415 - TALARITA
Castilla
Piura
Piura
Perú</description>
                <styleUrl>#1773</styleUrl>
                <Point id="1771">
                    <coordinates>-80.61959,-5.2105483,0.0</coordinates>
                </Point>
            </Placemark>
            <Placemark id="1777">
                <name>ALAMEN DE GARCIA CARMEN</name>
                <description>SINCHI ROCA N  519 CASTILLA   
Castilla

Piura
Perú</description>
                <styleUrl>#1778</styleUrl>
                <Point id="1776">
                    <coordinates>-80.620499,-5.211381,0.0</coordinates>
                </Point>
            </Placemark>
            <Placemark id="1782">
                <name>MARLENY CHAVEZ LOPEZ</name>
                <description>CALLE JR AMARU INCA 303-2
Castilla
Castilla
Piura
Perú</description>
                <styleUrl>#1783</styleUrl>
                <Point id="1781">
                    <coordinates>-80.6222557,-5.2102225,0.0</coordinates>
                </Point>
            </Placemark>
            <Placemark id="1787">
                <name>RUBY EDITH MONDRAGON PANTA</name>
                <description>HUAYNA CAPAC 204
Castilla
Castilla
Piura
Perú</description>
                <styleUrl>#1788</styleUrl>
                <Point id="1786">
                    <coordinates>-80.6220389,-5.2080134,0.0</coordinates>
                </Point>
            </Placemark>
            <Placemark id="1792">
                <name>ANA MARIA PACHERRES RAMIREZ</name>
                <description>AV. GRAU 1018 1ER PISO - CASTILLA
Castilla
Castilla
Piura
Perú</description>
                <styleUrl>#1793</styleUrl>
                <Point id="1791">
                    <coordinates>-80.622957,-5.2082361,0.0</coordinates>
                </Point>
            </Placemark>
            <Placemark id="1797">
                <name>ANTON GONZALES KATY JANNET</name>
                <description>CA.AMAZONAS 851 CASTILLA      
Castilla
Castilla
Piura
Perú</description>
                <styleUrl>#1798</styleUrl>
                <Point id="1796">
                    <coordinates>-80.623166,-5.207493,0.0</coordinates>
                </Point>
            </Placemark>
            <Placemark id="1802">
                <name>MAZA PACHERRE KARIM JULIANA</name>
                <description>CA.AMAZONAS 900-2 CASTILLA    
Castilla
Castilla
Piura
Perú</description>
                <styleUrl>#1803</styleUrl>
                <Point id="1801">
                    <coordinates>-80.62346,-5.207498,0.0</coordinates>
                </Point>
            </Placemark>
            <Placemark id="1807">
                <name>CARLOS ALBERTO SAAVEDRA VENEGAS</name>
                <description>CA.CALLAO 902 CASTILLA        
Castilla
Castilla
Piura
Perú</description>
                <styleUrl>#1808</styleUrl>
                <Point id="1806">
                    <coordinates>-80.624301,-5.208999,0.0</coordinates>
                </Point>
            </Placemark>
            <Placemark id="1812">
                <name>POICON YARLEQUE FLORENCIA</name>
                <description>CA.CALLAO 883 CASTILLA        
Castilla
Castilla
Piura
Perú</description>
                <styleUrl>#1813</styleUrl>
                <Point id="1811">
                    <coordinates>-80.624032,-5.208713,0.0</coordinates>
                </Point>
            </Placemark>
            <Placemark id="1817">
                <name>MACHUCA TIARA ALEXANDRA ARMESTAR VARGAS</name>
                <description>Ca. CALLAO 814
Castilla
Castilla
Piura
Perú</description>
                <styleUrl>#1818</styleUrl>
                <Point id="1816">
                    <coordinates>-80.6231683,-5.205975,0.0</coordinates>
                </Point>
            </Placemark>
            <Placemark id="1822">
                <name>GRETA VERUSCHKA CRISANTO PULACHE</name>
                <description>GRETA VERUSCHKA CRISANTO PULACHE
CA.LIBERTAD 524 - CASTILLA
Castilla
Castilla
Piura
Perú</description>
                <styleUrl>#1823</styleUrl>
                <Point id="1821">
                    <coordinates>-80.6211802,-5.2032129,0.0</coordinates>
                </Point>
            </Placemark>
            <Placemark id="1827">
                <name>CHIROQUE MORE MARIBEL</name>
                <description>CA.AYACUCHO 534 CASTILLA      
Castilla
Castilla
Piura
Perú</description>
                <styleUrl>#1828</styleUrl>
                <Point id="1826">
                    <coordinates>-80.6233041,-5.2038357,0.0</coordinates>
                </Point>
            </Placemark>
            <Placemark id="1832">
                <name>JESSICA BERTHA GUERRERO VALDIVIEZO</name>
                <description>CALLE CUZCO 353 CASTILLO
Castilla
Castilla
Piura
Perú</description>
                <styleUrl>#1833</styleUrl>
                <Point id="1831">
                    <coordinates>-80.6237459,-5.2039114,0.0</coordinates>
                </Point>
            </Placemark>
            <Placemark id="1837">
                <name>LUIS ALBERTO ANCAJIMA MACALUPU</name>
                <description>CA.CUZCO 419                  
Castilla
Castilla
Piura
Perú</description>
                <styleUrl>#1838</styleUrl>
                <Point id="1836">
                    <coordinates>-80.623811,-5.204296,0.0</coordinates>
                </Point>
            </Placemark>
            <Placemark id="1842">
                <name>LUIS ALBERTO ANCAJIMA MACALUPU</name>
                <description>CA.CUZCO 419                  
Castilla
Castilla
Piura
Perú</description>
                <styleUrl>#1843</styleUrl>
                <Point id="1841">
                    <coordinates>-80.623811,-5.204296,0.0</coordinates>
                </Point>
            </Placemark>
            <Placemark id="1847">
                <name>LUIS ALBERTO ANCAJIMA MACALUPU</name>
                <description>CA.CUZCO 419                  
Castilla
Castilla
Piura
Perú</description>
                <styleUrl>#1848</styleUrl>
                <Point id="1846">
                    <coordinates>-80.623811,-5.204296,0.0</coordinates>
                </Point>
            </Placemark>
            <Placemark id="1852">
                <name>DURAN JUAREZ MIRIAN</name>
                <description>CA AYACUCHO 828 CASTILLA      
Castilla
Castilla
Piura
Perú</description>
                <styleUrl>#1853</styleUrl>
                <Point id="1851">
                    <coordinates>-80.625018,-5.208804,0.0</coordinates>
                </Point>
            </Placemark>
            <Placemark id="1857">
                <name>CESAR JESUS JUAREZ HUIMAN</name>
                <description>AV TACNA 730 - B CASTILLA
Castilla

Piura
Perú</description>
                <styleUrl>#1858</styleUrl>
                <Point id="1856">
                    <coordinates>-80.6249568,-5.2065679,0.0</coordinates>
                </Point>
            </Placemark>
        </Folder>
    </Document>
</kml>
