<?xml version="1.0" encoding="UTF-8"?>
<kml xmlns="http://www.opengis.net/kml/2.2" xmlns:gx="http://www.google.com/kml/ext/2.2">
    <Document id="837">
        <Folder id="838">
            <Style id="841">
                <IconStyle id="842">
                    <color>ff0000ff</color>
                    <colorMode>normal</colorMode>
                    <scale>1</scale>
                    <heading>0</heading>
                    <Icon id="843">
                        <href>http://maps.google.com/mapfiles/kml/pushpin/ylw-pushpin.png</href>
                    </Icon>
                </IconStyle>
            </Style>
            <Style id="846">
                <IconStyle id="847">
                    <color>ff0000ff</color>
                    <colorMode>normal</colorMode>
                    <scale>1</scale>
                    <heading>0</heading>
                    <Icon id="848">
                        <href>http://maps.google.com/mapfiles/kml/pushpin/ylw-pushpin.png</href>
                    </Icon>
                </IconStyle>
            </Style>
            <Style id="851">
                <IconStyle id="852">
                    <color>ff0000ff</color>
                    <colorMode>normal</colorMode>
                    <scale>1</scale>
                    <heading>0</heading>
                    <Icon id="853">
                        <href>http://maps.google.com/mapfiles/kml/pushpin/ylw-pushpin.png</href>
                    </Icon>
                </IconStyle>
            </Style>
            <Style id="856">
                <IconStyle id="857">
                    <color>ff0000ff</color>
                    <colorMode>normal</colorMode>
                    <scale>1</scale>
                    <heading>0</heading>
                    <Icon id="858">
                        <href>http://maps.google.com/mapfiles/kml/pushpin/ylw-pushpin.png</href>
                    </Icon>
                </IconStyle>
            </Style>
            <Style id="861">
                <IconStyle id="862">
                    <color>ff0000ff</color>
                    <colorMode>normal</colorMode>
                    <scale>1</scale>
                    <heading>0</heading>
                    <Icon id="863">
                        <href>http://maps.google.com/mapfiles/kml/pushpin/ylw-pushpin.png</href>
                    </Icon>
                </IconStyle>
            </Style>
            <Style id="866">
                <IconStyle id="867">
                    <color>ff0000ff</color>
                    <colorMode>normal</colorMode>
                    <scale>1</scale>
                    <heading>0</heading>
                    <Icon id="868">
                        <href>http://maps.google.com/mapfiles/kml/pushpin/ylw-pushpin.png</href>
                    </Icon>
                </IconStyle>
            </Style>
            <Style id="871">
                <IconStyle id="872">
                    <color>ff0000ff</color>
                    <colorMode>normal</colorMode>
                    <scale>1</scale>
                    <heading>0</heading>
                    <Icon id="873">
                        <href>http://maps.google.com/mapfiles/kml/pushpin/ylw-pushpin.png</href>
                    </Icon>
                </IconStyle>
            </Style>
            <Style id="876">
                <IconStyle id="877">
                    <color>ff0000ff</color>
                    <colorMode>normal</colorMode>
                    <scale>1</scale>
                    <heading>0</heading>
                    <Icon id="878">
                        <href>http://maps.google.com/mapfiles/kml/pushpin/ylw-pushpin.png</href>
                    </Icon>
                </IconStyle>
            </Style>
            <Style id="881">
                <IconStyle id="882">
                    <color>ff0000ff</color>
                    <colorMode>normal</colorMode>
                    <scale>1</scale>
                    <heading>0</heading>
                    <Icon id="883">
                        <href>http://maps.google.com/mapfiles/kml/pushpin/ylw-pushpin.png</href>
                    </Icon>
                </IconStyle>
            </Style>
            <Style id="886">
                <IconStyle id="887">
                    <color>ff0000ff</color>
                    <colorMode>normal</colorMode>
                    <scale>1</scale>
                    <heading>0</heading>
                    <Icon id="888">
                        <href>http://maps.google.com/mapfiles/kml/pushpin/ylw-pushpin.png</href>
                    </Icon>
                </IconStyle>
            </Style>
            <Style id="891">
                <IconStyle id="892">
                    <color>ff0000ff</color>
                    <colorMode>normal</colorMode>
                    <scale>1</scale>
                    <heading>0</heading>
                    <Icon id="893">
                        <href>http://maps.google.com/mapfiles/kml/pushpin/ylw-pushpin.png</href>
                    </Icon>
                </IconStyle>
            </Style>
            <Style id="896">
                <IconStyle id="897">
                    <color>ff0000ff</color>
                    <colorMode>normal</colorMode>
                    <scale>1</scale>
                    <heading>0</heading>
                    <Icon id="898">
                        <href>http://maps.google.com/mapfiles/kml/pushpin/ylw-pushpin.png</href>
                    </Icon>
                </IconStyle>
            </Style>
            <Style id="901">
                <IconStyle id="902">
                    <color>ff0000ff</color>
                    <colorMode>normal</colorMode>
                    <scale>1</scale>
                    <heading>0</heading>
                    <Icon id="903">
                        <href>http://maps.google.com/mapfiles/kml/pushpin/ylw-pushpin.png</href>
                    </Icon>
                </IconStyle>
            </Style>
            <name>KATHERINE REBECA DE JESUS CARDOZA LEE</name>
            <Placemark id="840">
                <name>LILIANA COBEÑAS MOROCHO</name>
                <description>MZ 35 PUESTO 2 / MERCADO Piura
Piura
Piura
Piura
Perú</description>
                <styleUrl>#841</styleUrl>
                <Point id="839">
                    <coordinates>-80.6339409,-5.18773,0.0</coordinates>
                </Point>
            </Placemark>
            <Placemark id="845">
                <name>DISTRIBUCIONES Y SERVICIOS CARRASCO VILLA S.A.C. - "DYSCAR V "S.A.C.</name>
                <description>DISTRIBUCIONES Y SERVICIOS CARRASCO VILLA S.A.C. - "DYSCAR V "S.A.C.
MZA. 208 LOTE 5A ZONA COMERCIAL MCDO - Piura
Piura
Piura
Piura
Perú</description>
                <styleUrl>#846</styleUrl>
                <Point id="844">
                    <coordinates>-80.6353169,-5.187958,0.0</coordinates>
                </Point>
            </Placemark>
            <Placemark id="850">
                <name>CESAR AUGUSTO VILLEGAS MARQUEZ</name>
                <description>MZ 35 PUESTO 8 / MERCADO DE Piura
Piura
Piura
Piura
Perú</description>
                <styleUrl>#851</styleUrl>
                <Point id="849">
                    <coordinates>-80.6338668,-5.1875545,0.0</coordinates>
                </Point>
            </Placemark>
            <Placemark id="855">
                <name>MARIA CORINA GONZALES PASACHE</name>
                <description>MZ 35 PUESTO 1/ MERCADO Piura
Piura
Piura
Piura
Perú</description>
                <styleUrl>#856</styleUrl>
                <Point id="854">
                    <coordinates>-80.633916,-5.1877389,0.0</coordinates>
                </Point>
            </Placemark>
            <Placemark id="860">
                <name>JACQUELINE COBEÑAS MOROCHO</name>
                <description>MZ 20 PUESTO 16 / ANX Piura
Piura
Piura
Piura
Perú</description>
                <styleUrl>#861</styleUrl>
                <Point id="859">
                    <coordinates>-80.6334793,-5.18767,0.0</coordinates>
                </Point>
            </Placemark>
            <Placemark id="865">
                <name>ABELINO HUAMAN CASTILLO</name>
                <description>MZ 12 PUESTO 16 / MERCADO ANEXO
Piura
Piura
Piura
Perú</description>
                <styleUrl>#866</styleUrl>
                <Point id="864">
                    <coordinates>-80.6339122,-5.1874218,0.0</coordinates>
                </Point>
            </Placemark>
            <Placemark id="870">
                <name>MEGA GOLOSINAS E.I.R.L.</name>
                <description>MEGA GOLOSINAS E.I.R.L.
JR. DOS MZA. 208 LOTE. 12 EXTERIOR MERCADO MODELO
Piura
200101Piura
Piura
Perú</description>
                <styleUrl>#871</styleUrl>
                <Point id="869">
                    <coordinates>-80.6348231,-5.1876358,0.0</coordinates>
                </Point>
            </Placemark>
            <Placemark id="875">
                <name>RAFAEL LIVIAPOMA JULCA</name>
                <description>PUESTO 43 / ANEXO MERCADO Piura
Piura
Piura
Piura
Perú</description>
                <styleUrl>#876</styleUrl>
                <Point id="874">
                    <coordinates>-80.6331423,-5.1873426,0.0</coordinates>
                </Point>
            </Placemark>
            <Placemark id="880">
                <name>GAOMEC EMPRESA INDIVIDUAL DE RESPONSABILIDAD LIMITADA</name>
                <description>GAOMEC EMPRESA INDIVIDUAL DE RESPONSABILIDAD LIMITADA
----SECCION 33 MANZANAS 234 MZA. 239 Z.I.  ANEXO MERCADO MODELO
Piura
Piura
Piura
Perú</description>
                <styleUrl>#881</styleUrl>
                <Point id="879">
                    <coordinates>-80.6340343,-5.1870778,0.0</coordinates>
                </Point>
            </Placemark>
            <Placemark id="885">
                <name>MARIA CORINA GONZALES PASACHE</name>
                <description>MZ 35 PUESTO 1/ MERCADO Piura
Piura
Piura
Piura
Perú</description>
                <styleUrl>#886</styleUrl>
                <Point id="884">
                    <coordinates>-80.633916,-5.1877389,0.0</coordinates>
                </Point>
            </Placemark>
            <Placemark id="890">
                <name>YANDRY PEREZ CRIOLLO</name>
                <description>MZ 13 PUESTO 14 Y 15 MERCADO MODELO
Piura
Piura
Piura
Perú</description>
                <styleUrl>#891</styleUrl>
                <Point id="889">
                    <coordinates>-80.6338216,-5.1873973,0.0</coordinates>
                </Point>
            </Placemark>
            <Placemark id="895">
                <name>CESAR AUGUSTO VILLEGAS MARQUEZ</name>
                <description>MZ 35 PUESTO 8 / MERCADO DE Piura
Piura
Piura
Piura
Perú</description>
                <styleUrl>#896</styleUrl>
                <Point id="894">
                    <coordinates>-80.6338668,-5.1875545,0.0</coordinates>
                </Point>
            </Placemark>
            <Placemark id="900">
                <name>HAYDEE GONZALES ROJAS</name>
                <description>Mercado anexo puesto 35-5 Piura
Piura

Piura
Perú</description>
                <styleUrl>#901</styleUrl>
                <Point id="899">
                    <coordinates>-80.633922,-5.187701,0.0</coordinates>
                </Point>
            </Placemark>
        </Folder>
        <Folder id="904">
            <Style id="907">
                <IconStyle id="908">
                    <color>ffff0000</color>
                    <colorMode>normal</colorMode>
                    <scale>1</scale>
                    <heading>0</heading>
                    <Icon id="909">
                        <href>http://maps.google.com/mapfiles/kml/pushpin/ylw-pushpin.png</href>
                    </Icon>
                </IconStyle>
            </Style>
            <Style id="912">
                <IconStyle id="913">
                    <color>ffff0000</color>
                    <colorMode>normal</colorMode>
                    <scale>1</scale>
                    <heading>0</heading>
                    <Icon id="914">
                        <href>http://maps.google.com/mapfiles/kml/pushpin/ylw-pushpin.png</href>
                    </Icon>
                </IconStyle>
            </Style>
            <Style id="917">
                <IconStyle id="918">
                    <color>ffff0000</color>
                    <colorMode>normal</colorMode>
                    <scale>1</scale>
                    <heading>0</heading>
                    <Icon id="919">
                        <href>http://maps.google.com/mapfiles/kml/pushpin/ylw-pushpin.png</href>
                    </Icon>
                </IconStyle>
            </Style>
            <Style id="922">
                <IconStyle id="923">
                    <color>ffff0000</color>
                    <colorMode>normal</colorMode>
                    <scale>1</scale>
                    <heading>0</heading>
                    <Icon id="924">
                        <href>http://maps.google.com/mapfiles/kml/pushpin/ylw-pushpin.png</href>
                    </Icon>
                </IconStyle>
            </Style>
            <Style id="927">
                <IconStyle id="928">
                    <color>ffff0000</color>
                    <colorMode>normal</colorMode>
                    <scale>1</scale>
                    <heading>0</heading>
                    <Icon id="929">
                        <href>http://maps.google.com/mapfiles/kml/pushpin/ylw-pushpin.png</href>
                    </Icon>
                </IconStyle>
            </Style>
            <Style id="932">
                <IconStyle id="933">
                    <color>ffff0000</color>
                    <colorMode>normal</colorMode>
                    <scale>1</scale>
                    <heading>0</heading>
                    <Icon id="934">
                        <href>http://maps.google.com/mapfiles/kml/pushpin/ylw-pushpin.png</href>
                    </Icon>
                </IconStyle>
            </Style>
            <Style id="937">
                <IconStyle id="938">
                    <color>ffff0000</color>
                    <colorMode>normal</colorMode>
                    <scale>1</scale>
                    <heading>0</heading>
                    <Icon id="939">
                        <href>http://maps.google.com/mapfiles/kml/pushpin/ylw-pushpin.png</href>
                    </Icon>
                </IconStyle>
            </Style>
            <Style id="942">
                <IconStyle id="943">
                    <color>ffff0000</color>
                    <colorMode>normal</colorMode>
                    <scale>1</scale>
                    <heading>0</heading>
                    <Icon id="944">
                        <href>http://maps.google.com/mapfiles/kml/pushpin/ylw-pushpin.png</href>
                    </Icon>
                </IconStyle>
            </Style>
            <Style id="947">
                <IconStyle id="948">
                    <color>ffff0000</color>
                    <colorMode>normal</colorMode>
                    <scale>1</scale>
                    <heading>0</heading>
                    <Icon id="949">
                        <href>http://maps.google.com/mapfiles/kml/pushpin/ylw-pushpin.png</href>
                    </Icon>
                </IconStyle>
            </Style>
            <Style id="952">
                <IconStyle id="953">
                    <color>ffff0000</color>
                    <colorMode>normal</colorMode>
                    <scale>1</scale>
                    <heading>0</heading>
                    <Icon id="954">
                        <href>http://maps.google.com/mapfiles/kml/pushpin/ylw-pushpin.png</href>
                    </Icon>
                </IconStyle>
            </Style>
            <Style id="957">
                <IconStyle id="958">
                    <color>ffff0000</color>
                    <colorMode>normal</colorMode>
                    <scale>1</scale>
                    <heading>0</heading>
                    <Icon id="959">
                        <href>http://maps.google.com/mapfiles/kml/pushpin/ylw-pushpin.png</href>
                    </Icon>
                </IconStyle>
            </Style>
            <Style id="962">
                <IconStyle id="963">
                    <color>ffff0000</color>
                    <colorMode>normal</colorMode>
                    <scale>1</scale>
                    <heading>0</heading>
                    <Icon id="964">
                        <href>http://maps.google.com/mapfiles/kml/pushpin/ylw-pushpin.png</href>
                    </Icon>
                </IconStyle>
            </Style>
            <Style id="967">
                <IconStyle id="968">
                    <color>ffff0000</color>
                    <colorMode>normal</colorMode>
                    <scale>1</scale>
                    <heading>0</heading>
                    <Icon id="969">
                        <href>http://maps.google.com/mapfiles/kml/pushpin/ylw-pushpin.png</href>
                    </Icon>
                </IconStyle>
            </Style>
            <Style id="972">
                <IconStyle id="973">
                    <color>ffff0000</color>
                    <colorMode>normal</colorMode>
                    <scale>1</scale>
                    <heading>0</heading>
                    <Icon id="974">
                        <href>http://maps.google.com/mapfiles/kml/pushpin/ylw-pushpin.png</href>
                    </Icon>
                </IconStyle>
            </Style>
            <Style id="977">
                <IconStyle id="978">
                    <color>ffff0000</color>
                    <colorMode>normal</colorMode>
                    <scale>1</scale>
                    <heading>0</heading>
                    <Icon id="979">
                        <href>http://maps.google.com/mapfiles/kml/pushpin/ylw-pushpin.png</href>
                    </Icon>
                </IconStyle>
            </Style>
            <Style id="982">
                <IconStyle id="983">
                    <color>ffff0000</color>
                    <colorMode>normal</colorMode>
                    <scale>1</scale>
                    <heading>0</heading>
                    <Icon id="984">
                        <href>http://maps.google.com/mapfiles/kml/pushpin/ylw-pushpin.png</href>
                    </Icon>
                </IconStyle>
            </Style>
            <Style id="987">
                <IconStyle id="988">
                    <color>ffff0000</color>
                    <colorMode>normal</colorMode>
                    <scale>1</scale>
                    <heading>0</heading>
                    <Icon id="989">
                        <href>http://maps.google.com/mapfiles/kml/pushpin/ylw-pushpin.png</href>
                    </Icon>
                </IconStyle>
            </Style>
            <Style id="992">
                <IconStyle id="993">
                    <color>ffff0000</color>
                    <colorMode>normal</colorMode>
                    <scale>1</scale>
                    <heading>0</heading>
                    <Icon id="994">
                        <href>http://maps.google.com/mapfiles/kml/pushpin/ylw-pushpin.png</href>
                    </Icon>
                </IconStyle>
            </Style>
            <Style id="997">
                <IconStyle id="998">
                    <color>ffff0000</color>
                    <colorMode>normal</colorMode>
                    <scale>1</scale>
                    <heading>0</heading>
                    <Icon id="999">
                        <href>http://maps.google.com/mapfiles/kml/pushpin/ylw-pushpin.png</href>
                    </Icon>
                </IconStyle>
            </Style>
            <Style id="1002">
                <IconStyle id="1003">
                    <color>ffff0000</color>
                    <colorMode>normal</colorMode>
                    <scale>1</scale>
                    <heading>0</heading>
                    <Icon id="1004">
                        <href>http://maps.google.com/mapfiles/kml/pushpin/ylw-pushpin.png</href>
                    </Icon>
                </IconStyle>
            </Style>
            <Style id="1007">
                <IconStyle id="1008">
                    <color>ffff0000</color>
                    <colorMode>normal</colorMode>
                    <scale>1</scale>
                    <heading>0</heading>
                    <Icon id="1009">
                        <href>http://maps.google.com/mapfiles/kml/pushpin/ylw-pushpin.png</href>
                    </Icon>
                </IconStyle>
            </Style>
            <Style id="1012">
                <IconStyle id="1013">
                    <color>ffff0000</color>
                    <colorMode>normal</colorMode>
                    <scale>1</scale>
                    <heading>0</heading>
                    <Icon id="1014">
                        <href>http://maps.google.com/mapfiles/kml/pushpin/ylw-pushpin.png</href>
                    </Icon>
                </IconStyle>
            </Style>
            <Style id="1017">
                <IconStyle id="1018">
                    <color>ffff0000</color>
                    <colorMode>normal</colorMode>
                    <scale>1</scale>
                    <heading>0</heading>
                    <Icon id="1019">
                        <href>http://maps.google.com/mapfiles/kml/pushpin/ylw-pushpin.png</href>
                    </Icon>
                </IconStyle>
            </Style>
            <Style id="1022">
                <IconStyle id="1023">
                    <color>ffff0000</color>
                    <colorMode>normal</colorMode>
                    <scale>1</scale>
                    <heading>0</heading>
                    <Icon id="1024">
                        <href>http://maps.google.com/mapfiles/kml/pushpin/ylw-pushpin.png</href>
                    </Icon>
                </IconStyle>
            </Style>
            <Style id="1027">
                <IconStyle id="1028">
                    <color>ffff0000</color>
                    <colorMode>normal</colorMode>
                    <scale>1</scale>
                    <heading>0</heading>
                    <Icon id="1029">
                        <href>http://maps.google.com/mapfiles/kml/pushpin/ylw-pushpin.png</href>
                    </Icon>
                </IconStyle>
            </Style>
            <Style id="1032">
                <IconStyle id="1033">
                    <color>ffff0000</color>
                    <colorMode>normal</colorMode>
                    <scale>1</scale>
                    <heading>0</heading>
                    <Icon id="1034">
                        <href>http://maps.google.com/mapfiles/kml/pushpin/ylw-pushpin.png</href>
                    </Icon>
                </IconStyle>
            </Style>
            <Style id="1037">
                <IconStyle id="1038">
                    <color>ffff0000</color>
                    <colorMode>normal</colorMode>
                    <scale>1</scale>
                    <heading>0</heading>
                    <Icon id="1039">
                        <href>http://maps.google.com/mapfiles/kml/pushpin/ylw-pushpin.png</href>
                    </Icon>
                </IconStyle>
            </Style>
            <Style id="1042">
                <IconStyle id="1043">
                    <color>ffff0000</color>
                    <colorMode>normal</colorMode>
                    <scale>1</scale>
                    <heading>0</heading>
                    <Icon id="1044">
                        <href>http://maps.google.com/mapfiles/kml/pushpin/ylw-pushpin.png</href>
                    </Icon>
                </IconStyle>
            </Style>
            <Style id="1047">
                <IconStyle id="1048">
                    <color>ffff0000</color>
                    <colorMode>normal</colorMode>
                    <scale>1</scale>
                    <heading>0</heading>
                    <Icon id="1049">
                        <href>http://maps.google.com/mapfiles/kml/pushpin/ylw-pushpin.png</href>
                    </Icon>
                </IconStyle>
            </Style>
            <Style id="1052">
                <IconStyle id="1053">
                    <color>ffff0000</color>
                    <colorMode>normal</colorMode>
                    <scale>1</scale>
                    <heading>0</heading>
                    <Icon id="1054">
                        <href>http://maps.google.com/mapfiles/kml/pushpin/ylw-pushpin.png</href>
                    </Icon>
                </IconStyle>
            </Style>
            <Style id="1057">
                <IconStyle id="1058">
                    <color>ffff0000</color>
                    <colorMode>normal</colorMode>
                    <scale>1</scale>
                    <heading>0</heading>
                    <Icon id="1059">
                        <href>http://maps.google.com/mapfiles/kml/pushpin/ylw-pushpin.png</href>
                    </Icon>
                </IconStyle>
            </Style>
            <Style id="1062">
                <IconStyle id="1063">
                    <color>ffff0000</color>
                    <colorMode>normal</colorMode>
                    <scale>1</scale>
                    <heading>0</heading>
                    <Icon id="1064">
                        <href>http://maps.google.com/mapfiles/kml/pushpin/ylw-pushpin.png</href>
                    </Icon>
                </IconStyle>
            </Style>
            <Style id="1067">
                <IconStyle id="1068">
                    <color>ffff0000</color>
                    <colorMode>normal</colorMode>
                    <scale>1</scale>
                    <heading>0</heading>
                    <Icon id="1069">
                        <href>http://maps.google.com/mapfiles/kml/pushpin/ylw-pushpin.png</href>
                    </Icon>
                </IconStyle>
            </Style>
            <name>MARTHA CAROLINA AVILA SOLANO</name>
            <Placemark id="906">
                <name>ABEL DANIEL PEREZ BONILLA</name>
                <description>JR la arena 1049 urbanización residencial ex petroleros
Piura
Piura
Piura
Perú</description>
                <styleUrl>#907</styleUrl>
                <Point id="905">
                    <coordinates>-80.6477755,-5.1862749,0.0</coordinates>
                </Point>
            </Placemark>
            <Placemark id="911">
                <name>SOFIA DEL PILAR JUAREZ GARCIA</name>
                <description>Jr. Abraham Valderomar A-118
Veintiséis de Octubre
Veintiséis de Octubre
Piura
Perú</description>
                <styleUrl>#912</styleUrl>
                <Point id="910">
                    <coordinates>-80.647168,-5.19172,0.0</coordinates>
                </Point>
            </Placemark>
            <Placemark id="916">
                <name>GUTIERREZ DE VILLARREAL CONSUELO A</name>
                <description>URB. LOS FICUS MZN G1 LT 16
Veintiséis de Octubre
Piura
Piura
Perú</description>
                <styleUrl>#917</styleUrl>
                <Point id="915">
                    <coordinates>-80.6559732,-5.1891656,0.0</coordinates>
                </Point>
            </Placemark>
            <Placemark id="921">
                <name>ABEL DANIEL PEREZ BONILLA</name>
                <description>JR la arena 1049 urbanización residencial ex petroleros
Piura
Piura
Piura
Perú</description>
                <styleUrl>#922</styleUrl>
                <Point id="920">
                    <coordinates>-80.6477755,-5.1862749,0.0</coordinates>
                </Point>
            </Placemark>
            <Placemark id="926">
                <name>WILMER PALACIOS PALACIOS</name>
                <description>MERCADO AAN JOSE PUESTO 00A EXTERIOR 1
Veintiséis de Octubre
Veintiséis de Octubre
Piura
Perú</description>
                <styleUrl>#927</styleUrl>
                <Point id="925">
                    <coordinates>-80.6451822,-5.1940526,0.0</coordinates>
                </Point>
            </Placemark>
            <Placemark id="931">
                <name>ROSA REYDELINDA RIJALVA AREVALO</name>
                <description>Mercado San José puesto 1-2
Veintiséis de Octubre
Veintiséis de Octubre
Piura
Perú</description>
                <styleUrl>#932</styleUrl>
                <Point id="930">
                    <coordinates>-80.6452429,-5.1938475,0.0</coordinates>
                </Point>
            </Placemark>
            <Placemark id="936">
                <name>LUCERO MONICA QUEVEDO RUFINO</name>
                <description>JR D 255 URB SAN JOSE mercado San José
Veintiséis de Octubre
Piura
Piura
Perú</description>
                <styleUrl>#937</styleUrl>
                <Point id="935">
                    <coordinates>-80.645321,-5.1934299,0.0</coordinates>
                </Point>
            </Placemark>
            <Placemark id="941">
                <name>GARCIA NEIRA OLINDA</name>
                <description>GARCIA NEIRA OLINDA
URB. MAGISTERIAL MZ A LT. 45
Piura
Piura
Piura
Perú</description>
                <styleUrl>#942</styleUrl>
                <Point id="940">
                    <coordinates>-80.6447159,-5.1902252,0.0</coordinates>
                </Point>
            </Placemark>
            <Placemark id="946">
                <name>ROSA DEL CARMEN ESCALANTE GUERRERO</name>
                <description>JR VILLAR 899 URB MAGISTERIAL 
Piura
Piura
Piura
Perú</description>
                <styleUrl>#947</styleUrl>
                <Point id="945">
                    <coordinates>-80.6469054,-5.1891147,0.0</coordinates>
                </Point>
            </Placemark>
            <Placemark id="951">
                <name>PAMELA SULLEY PANTA MERINO</name>
                <description>JR.TAMBOGRANDE N 880 ET.01    
Piura
Piura
Piura
Perú</description>
                <styleUrl>#952</styleUrl>
                <Point id="950">
                    <coordinates>-80.645647,-5.186832,0.0</coordinates>
                </Point>
            </Placemark>
            <Placemark id="956">
                <name>MARIA ISELLEA SARANGO OJEDA</name>
                <description>MARIA ISELLEA SARANGO OJEDA
JRSAN FRANCISCO 291 URB.BANCARIA.ET
Piura
Piura
Piura
Perú</description>
                <styleUrl>#957</styleUrl>
                <Point id="955">
                    <coordinates>-80.6460634,-5.1872791,0.0</coordinates>
                </Point>
            </Placemark>
            <Placemark id="961">
                <name>LILIANA CAROLA GARRIDO ARRUNATEGUI</name>
                <description>LILIANA CAROLA GARRIDO ARRUNATEGUI
AV. CESAR VALLEJO MZ G LT 28 URB. R
Piura
Piura
Piura
Perú</description>
                <styleUrl>#962</styleUrl>
                <Point id="960">
                    <coordinates>-80.6491673,-5.1853776,0.0</coordinates>
                </Point>
            </Placemark>
            <Placemark id="966">
                <name>CLAUDIA CATHERINE LINDO JIMENEZ</name>
                <description>JR.VILLAR MAZN. G LOTE 13 URB. RECIDENCIAL Piura
Piura
Piura
Piura
Perú</description>
                <styleUrl>#967</styleUrl>
                <Point id="965">
                    <coordinates>-80.648603,-5.1862703,0.0</coordinates>
                </Point>
            </Placemark>
            <Placemark id="971">
                <name>JHAIR ADOLFO AVILA SEMINARIO</name>
                <description>JR la arena #1037 ex petroleros
Piura
Piura
Piura
Perú</description>
                <styleUrl>#972</styleUrl>
                <Point id="970">
                    <coordinates>-80.6477626,-5.1864205,0.0</coordinates>
                </Point>
            </Placemark>
            <Placemark id="976">
                <name>ABEL DANIEL PEREZ BONILLA</name>
                <description>JR la arena 1049 urbanización residencial ex petroleros
Piura
Piura
Piura
Perú</description>
                <styleUrl>#977</styleUrl>
                <Point id="975">
                    <coordinates>-80.6477755,-5.1862749,0.0</coordinates>
                </Point>
            </Placemark>
            <Placemark id="981">
                <name>CALLE RIVERA CARLOS</name>
                <description>URB.RES.PIURA  MZ.F LT.33     
Piura

Piura
Perú</description>
                <styleUrl>#982</styleUrl>
                <Point id="980">
                    <coordinates>-80.648943,-5.187055,0.0</coordinates>
                </Point>
            </Placemark>
            <Placemark id="986">
                <name>LILIANA GABY INCIO GUEVARA</name>
                <description>URB.LAS MERCEDES MZ.K LT.1    
Piura
Piura
Piura
Perú</description>
                <styleUrl>#987</styleUrl>
                <Point id="985">
                    <coordinates>-80.6502185,-5.1861362,0.0</coordinates>
                </Point>
            </Placemark>
            <Placemark id="991">
                <name>MARIA ELENA SOTERO FLORES</name>
                <description>MZ K LT 11 - LA ALBORADA      
Piura
Piura
Piura
Perú</description>
                <styleUrl>#992</styleUrl>
                <Point id="990">
                    <coordinates>-80.6539276,-5.1855782,0.0</coordinates>
                </Point>
            </Placemark>
            <Placemark id="996">
                <name>MARY PAOLA LOPEZ ESCOBAR</name>
                <description>FICUS MZN.D LOTE 07
Veintiséis de Octubre
Veintiséis de Octubre
Piura
Perú</description>
                <styleUrl>#997</styleUrl>
                <Point id="995">
                    <coordinates>-80.654523,-5.188955,0.0</coordinates>
                </Point>
            </Placemark>
            <Placemark id="1001">
                <name>GUTIERREZ DE VILLARREAL CONSUELO A</name>
                <description>URB. LOS FICUS MZN G1 LT 16
Veintiséis de Octubre
Piura
Piura
Perú</description>
                <styleUrl>#1002</styleUrl>
                <Point id="1000">
                    <coordinates>-80.6559732,-5.1891656,0.0</coordinates>
                </Point>
            </Placemark>
            <Placemark id="1006">
                <name>CELIX LOAIZA RIVERA SANDOVAL</name>
                <description>URB.LOS FICUS MZ.A2 LT.4      
Veintiséis de Octubre
Veintiséis de Octubre
Piura
Perú</description>
                <styleUrl>#1007</styleUrl>
                <Point id="1005">
                    <coordinates>-80.6556465,-5.1894598,0.0</coordinates>
                </Point>
            </Placemark>
            <Placemark id="1011">
                <name>NARIS ISABEL ESCOBAR LAPO</name>
                <description>NARIS ISABEL ESCOBAR LAPO
AV. LOPEZ ALBUJAR MZ- B 2 LT- 2 LOSFICUS 2 ETP
Veintiséis de Octubre
Piura
Piura
Perú</description>
                <styleUrl>#1012</styleUrl>
                <Point id="1010">
                    <coordinates>-80.6551634,-5.1895817,0.0</coordinates>
                </Point>
            </Placemark>
            <Placemark id="1016">
                <name>JORGE EDUARDO TABOADA MARTINO</name>
                <description>JORGE EDUARDO TABOADA MARTINO
LOS FICUS II ETAPA MZ E2.LTE.17 - P
Veintiséis de Octubre
Piura
Piura
Perú</description>
                <styleUrl>#1017</styleUrl>
                <Point id="1015">
                    <coordinates>-80.6559106,-5.1915022,0.0</coordinates>
                </Point>
            </Placemark>
            <Placemark id="1021">
                <name>EVA LOURDES RUESTA POZO</name>
                <description>Ca. Castro pozo 280 Urb. Piura
Veintiséis de Octubre
Veintiséis de Octubre
Piura
Perú</description>
                <styleUrl>#1022</styleUrl>
                <Point id="1020">
                    <coordinates>-80.6532764,-5.1889907,0.0</coordinates>
                </Point>
            </Placemark>
            <Placemark id="1026">
                <name>JANIS VICTORIA CRUZ CORDOVA</name>
                <description>AV.CASTRO POZO 248 URB Piura  
Veintiséis de Octubre
Veintiséis de Octubre
Piura
Perú</description>
                <styleUrl>#1027</styleUrl>
                <Point id="1025">
                    <coordinates>-80.653262,-5.188723,0.0</coordinates>
                </Point>
            </Placemark>
            <Placemark id="1031">
                <name>GUIDO SADOT RUIZ BERECHE</name>
                <description>URB.PIURA 4 MZ.B1 LT.2        
Veintiséis de Octubre
Piura
Piura
Perú</description>
                <styleUrl>#1032</styleUrl>
                <Point id="1030">
                    <coordinates>-80.6533276,-5.1912895,0.0</coordinates>
                </Point>
            </Placemark>
            <Placemark id="1036">
                <name>MARTINA PANTA JUAREZ DE ARRIETA</name>
                <description>AV. CIRCUNVALACION LT.15 MZ H4 URB.PIURA 2DA ETP
Piura
Piura
Piura
Perú</description>
                <styleUrl>#1037</styleUrl>
                <Point id="1035">
                    <coordinates>-80.6501323,-5.1943986,0.0</coordinates>
                </Point>
            </Placemark>
            <Placemark id="1041">
                <name>WILLIAN OCTAVIO BLAS SANCHEZ</name>
                <description>CA. ONCE CDR. 6 NRO. 668 URB. SAN JOSE
Veintiséis de Octubre
Piura
Piura
Perú</description>
                <styleUrl>#1042</styleUrl>
                <Point id="1040">
                    <coordinates>-80.64766,-5.1916467,0.0</coordinates>
                </Point>
            </Placemark>
            <Placemark id="1046">
                <name>JAQUELINE TIMANA DEL CASTILLO</name>
                <description>URB SAN JOSE CA.1 NRO 160 LT 44
Veintiséis de Octubre
Veintiséis de Octubre
Piura
Perú</description>
                <styleUrl>#1047</styleUrl>
                <Point id="1045">
                    <coordinates>-80.6469981,-5.190698,0.0</coordinates>
                </Point>
            </Placemark>
            <Placemark id="1051">
                <name>AURORA TRONCOS ZAPATA</name>
                <description>Urbanización San José JR D 104
Veintiséis de Octubre
Veintiséis de Octubre
Piura
Perú</description>
                <styleUrl>#1052</styleUrl>
                <Point id="1050">
                    <coordinates>-80.6454371,-5.1915701,0.0</coordinates>
                </Point>
            </Placemark>
            <Placemark id="1056">
                <name>SANDRA ELIZABETH CASTILLO ANICETO</name>
                <description>URB.SAN JOSE MZ.K LT.52       
Veintiséis de Octubre
Piura
Piura
Perú</description>
                <styleUrl>#1057</styleUrl>
                <Point id="1055">
                    <coordinates>-80.6446577,-5.1918602,0.0</coordinates>
                </Point>
            </Placemark>
            <Placemark id="1061">
                <name>ROSA MARIA MEJIA DELGADO</name>
                <description>San José mz K lote 26(giron E 154)
Veintiséis de Octubre
Veintiséis de Octubre
Piura
Perú</description>
                <styleUrl>#1062</styleUrl>
                <Point id="1060">
                    <coordinates>-80.644374,-5.192648,0.0</coordinates>
                </Point>
            </Placemark>
            <Placemark id="1066">
                <name>CECILIA FLORES JAEN</name>
                <description>CECILIA FLORES JAEN
MZ K LT. 24 URB. SAN JOSE - PIURA
Veintiséis de Octubre
Piura
Piura
Perú</description>
                <styleUrl>#1067</styleUrl>
                <Point id="1065">
                    <coordinates>-80.6442943,-5.1925749,0.0</coordinates>
                </Point>
            </Placemark>
        </Folder>
    </Document>
</kml>
