<?xml version="1.0" encoding="UTF-8"?>
<kml xmlns="http://www.opengis.net/kml/2.2" xmlns:gx="http://www.google.com/kml/ext/2.2">
    <Document id="1288">
        <Folder id="1289">
            <Style id="1292">
                <IconStyle id="1293">
                    <color>ff0000ff</color>
                    <colorMode>normal</colorMode>
                    <scale>1</scale>
                    <heading>0</heading>
                    <Icon id="1294">
                        <href>http://maps.google.com/mapfiles/kml/pushpin/ylw-pushpin.png</href>
                    </Icon>
                </IconStyle>
            </Style>
            <Style id="1297">
                <IconStyle id="1298">
                    <color>ff0000ff</color>
                    <colorMode>normal</colorMode>
                    <scale>1</scale>
                    <heading>0</heading>
                    <Icon id="1299">
                        <href>http://maps.google.com/mapfiles/kml/pushpin/ylw-pushpin.png</href>
                    </Icon>
                </IconStyle>
            </Style>
            <Style id="1302">
                <IconStyle id="1303">
                    <color>ff0000ff</color>
                    <colorMode>normal</colorMode>
                    <scale>1</scale>
                    <heading>0</heading>
                    <Icon id="1304">
                        <href>http://maps.google.com/mapfiles/kml/pushpin/ylw-pushpin.png</href>
                    </Icon>
                </IconStyle>
            </Style>
            <Style id="1307">
                <IconStyle id="1308">
                    <color>ff0000ff</color>
                    <colorMode>normal</colorMode>
                    <scale>1</scale>
                    <heading>0</heading>
                    <Icon id="1309">
                        <href>http://maps.google.com/mapfiles/kml/pushpin/ylw-pushpin.png</href>
                    </Icon>
                </IconStyle>
            </Style>
            <Style id="1312">
                <IconStyle id="1313">
                    <color>ff0000ff</color>
                    <colorMode>normal</colorMode>
                    <scale>1</scale>
                    <heading>0</heading>
                    <Icon id="1314">
                        <href>http://maps.google.com/mapfiles/kml/pushpin/ylw-pushpin.png</href>
                    </Icon>
                </IconStyle>
            </Style>
            <Style id="1317">
                <IconStyle id="1318">
                    <color>ff0000ff</color>
                    <colorMode>normal</colorMode>
                    <scale>1</scale>
                    <heading>0</heading>
                    <Icon id="1319">
                        <href>http://maps.google.com/mapfiles/kml/pushpin/ylw-pushpin.png</href>
                    </Icon>
                </IconStyle>
            </Style>
            <Style id="1322">
                <IconStyle id="1323">
                    <color>ff0000ff</color>
                    <colorMode>normal</colorMode>
                    <scale>1</scale>
                    <heading>0</heading>
                    <Icon id="1324">
                        <href>http://maps.google.com/mapfiles/kml/pushpin/ylw-pushpin.png</href>
                    </Icon>
                </IconStyle>
            </Style>
            <Style id="1327">
                <IconStyle id="1328">
                    <color>ff0000ff</color>
                    <colorMode>normal</colorMode>
                    <scale>1</scale>
                    <heading>0</heading>
                    <Icon id="1329">
                        <href>http://maps.google.com/mapfiles/kml/pushpin/ylw-pushpin.png</href>
                    </Icon>
                </IconStyle>
            </Style>
            <Style id="1332">
                <IconStyle id="1333">
                    <color>ff0000ff</color>
                    <colorMode>normal</colorMode>
                    <scale>1</scale>
                    <heading>0</heading>
                    <Icon id="1334">
                        <href>http://maps.google.com/mapfiles/kml/pushpin/ylw-pushpin.png</href>
                    </Icon>
                </IconStyle>
            </Style>
            <Style id="1337">
                <IconStyle id="1338">
                    <color>ff0000ff</color>
                    <colorMode>normal</colorMode>
                    <scale>1</scale>
                    <heading>0</heading>
                    <Icon id="1339">
                        <href>http://maps.google.com/mapfiles/kml/pushpin/ylw-pushpin.png</href>
                    </Icon>
                </IconStyle>
            </Style>
            <Style id="1342">
                <IconStyle id="1343">
                    <color>ff0000ff</color>
                    <colorMode>normal</colorMode>
                    <scale>1</scale>
                    <heading>0</heading>
                    <Icon id="1344">
                        <href>http://maps.google.com/mapfiles/kml/pushpin/ylw-pushpin.png</href>
                    </Icon>
                </IconStyle>
            </Style>
            <Style id="1347">
                <IconStyle id="1348">
                    <color>ff0000ff</color>
                    <colorMode>normal</colorMode>
                    <scale>1</scale>
                    <heading>0</heading>
                    <Icon id="1349">
                        <href>http://maps.google.com/mapfiles/kml/pushpin/ylw-pushpin.png</href>
                    </Icon>
                </IconStyle>
            </Style>
            <Style id="1352">
                <IconStyle id="1353">
                    <color>ff0000ff</color>
                    <colorMode>normal</colorMode>
                    <scale>1</scale>
                    <heading>0</heading>
                    <Icon id="1354">
                        <href>http://maps.google.com/mapfiles/kml/pushpin/ylw-pushpin.png</href>
                    </Icon>
                </IconStyle>
            </Style>
            <Style id="1357">
                <IconStyle id="1358">
                    <color>ff0000ff</color>
                    <colorMode>normal</colorMode>
                    <scale>1</scale>
                    <heading>0</heading>
                    <Icon id="1359">
                        <href>http://maps.google.com/mapfiles/kml/pushpin/ylw-pushpin.png</href>
                    </Icon>
                </IconStyle>
            </Style>
            <Style id="1362">
                <IconStyle id="1363">
                    <color>ff0000ff</color>
                    <colorMode>normal</colorMode>
                    <scale>1</scale>
                    <heading>0</heading>
                    <Icon id="1364">
                        <href>http://maps.google.com/mapfiles/kml/pushpin/ylw-pushpin.png</href>
                    </Icon>
                </IconStyle>
            </Style>
            <Style id="1367">
                <IconStyle id="1368">
                    <color>ff0000ff</color>
                    <colorMode>normal</colorMode>
                    <scale>1</scale>
                    <heading>0</heading>
                    <Icon id="1369">
                        <href>http://maps.google.com/mapfiles/kml/pushpin/ylw-pushpin.png</href>
                    </Icon>
                </IconStyle>
            </Style>
            <Style id="1372">
                <IconStyle id="1373">
                    <color>ff0000ff</color>
                    <colorMode>normal</colorMode>
                    <scale>1</scale>
                    <heading>0</heading>
                    <Icon id="1374">
                        <href>http://maps.google.com/mapfiles/kml/pushpin/ylw-pushpin.png</href>
                    </Icon>
                </IconStyle>
            </Style>
            <Style id="1377">
                <IconStyle id="1378">
                    <color>ff0000ff</color>
                    <colorMode>normal</colorMode>
                    <scale>1</scale>
                    <heading>0</heading>
                    <Icon id="1379">
                        <href>http://maps.google.com/mapfiles/kml/pushpin/ylw-pushpin.png</href>
                    </Icon>
                </IconStyle>
            </Style>
            <Style id="1382">
                <IconStyle id="1383">
                    <color>ff0000ff</color>
                    <colorMode>normal</colorMode>
                    <scale>1</scale>
                    <heading>0</heading>
                    <Icon id="1384">
                        <href>http://maps.google.com/mapfiles/kml/pushpin/ylw-pushpin.png</href>
                    </Icon>
                </IconStyle>
            </Style>
            <Style id="1387">
                <IconStyle id="1388">
                    <color>ff0000ff</color>
                    <colorMode>normal</colorMode>
                    <scale>1</scale>
                    <heading>0</heading>
                    <Icon id="1389">
                        <href>http://maps.google.com/mapfiles/kml/pushpin/ylw-pushpin.png</href>
                    </Icon>
                </IconStyle>
            </Style>
            <name>KATHERINE REBECA DE JESUS CARDOZA LEE</name>
            <Placemark id="1291">
                <name>CORDOVA CASTILLO MELVA MAGALY</name>
                <description>MERCADO CAPULLANAS PUESTO 137 Y PUESTO 138
Veintiséis de Octubre
Veintiséis de Octubre
Piura
Perú</description>
                <styleUrl>#1292</styleUrl>
                <Point id="1290">
                    <coordinates>-80.6698587,-5.1750302,0.0</coordinates>
                </Point>
            </Placemark>
            <Placemark id="1296">
                <name>GOLOSINAS Y BEBIDAS FADI SOCIEDAD ANONIMA CERRADA</name>
                <description>MZA. A LOTE. 12 OTR.  MERCADO MAYORISTA LAS CAPULLANAS
Veintiséis de Octubre
Veintiséis de Octubre
Piura
Perú</description>
                <styleUrl>#1297</styleUrl>
                <Point id="1295">
                    <coordinates>-80.669706,-5.1755536,0.0</coordinates>
                </Point>
            </Placemark>
            <Placemark id="1301">
                <name>CORDOVA CASTILLO MELVA MAGALY</name>
                <description>MERCADO CAPULLANAS PUESTO 137 Y PUESTO 138
Veintiséis de Octubre
Veintiséis de Octubre
Piura
Perú</description>
                <styleUrl>#1302</styleUrl>
                <Point id="1300">
                    <coordinates>-80.6698587,-5.1750302,0.0</coordinates>
                </Point>
            </Placemark>
            <Placemark id="1306">
                <name>JUBINAL GAONA PATIÑO</name>
                <description>MERCADO ANEXO
Piura
Piura
Piura
Perú</description>
                <styleUrl>#1307</styleUrl>
                <Point id="1305">
                    <coordinates>-80.6339507,-5.187461,0.0</coordinates>
                </Point>
            </Placemark>
            <Placemark id="1311">
                <name>CHIFLERIA JIMENEZ S.A.C.</name>
                <description>PJ. SECTOR A - PUESTO 88 NRO. S-N OTR.  MDO. MIN. LAS CAPULLANAS
Veintiséis de Octubre
200101Veintiséis de Octubre
Piura
Perú</description>
                <styleUrl>#1312</styleUrl>
                <Point id="1310">
                    <coordinates>-80.6716787,-5.175926,0.0</coordinates>
                </Point>
            </Placemark>
            <Placemark id="1316">
                <name>JOSE ALEX CUNYA CANGO</name>
                <description>MERCADO CAPULLANAS PUESTO 179
Veintiséis de Octubre
Veintiséis de Octubre
Piura
Perú</description>
                <styleUrl>#1317</styleUrl>
                <Point id="1315">
                    <coordinates>-80.6700528,-5.1753173,0.0</coordinates>
                </Point>
            </Placemark>
            <Placemark id="1321">
                <name>CHIFLERIA JIMENEZ S.A.C.</name>
                <description>PJ. SECTOR A - PUESTO 88 NRO. S-N OTR.  MDO. MIN. LAS CAPULLANAS
Veintiséis de Octubre
200101Veintiséis de Octubre
Piura
Perú</description>
                <styleUrl>#1322</styleUrl>
                <Point id="1320">
                    <coordinates>-80.6716787,-5.175926,0.0</coordinates>
                </Point>
            </Placemark>
            <Placemark id="1326">
                <name>SANTOS SILVA YNGA</name>
                <description>MERCADO CAPULLANAS PUESTO 44
Veintiséis de Octubre
Veintiséis de Octubre
Piura
Perú</description>
                <styleUrl>#1327</styleUrl>
                <Point id="1325">
                    <coordinates>-80.6705743,-5.1754491,0.0</coordinates>
                </Point>
            </Placemark>
            <Placemark id="1331">
                <name>PRODUCT.PIURANOS MECHITA EIRL</name>
                <description>PRODUCT.PIURANOS MECHITA EIRL
PUESTO 36 MERCADO CAPULLANAS
Veintiséis de Octubre

Piura
Perú</description>
                <styleUrl>#1332</styleUrl>
                <Point id="1330">
                    <coordinates>-80.6699586,-5.1756069,0.0</coordinates>
                </Point>
            </Placemark>
            <Placemark id="1336">
                <name>MARIA MERCEDES CASTRO YARLEQUE</name>
                <description>PUESTO 33 / MCDO CAPULLANAS
Veintiséis de Octubre
Veintiséis de Octubre
Piura
Perú</description>
                <styleUrl>#1337</styleUrl>
                <Point id="1335">
                    <coordinates>-80.6699976,-5.1756049,0.0</coordinates>
                </Point>
            </Placemark>
            <Placemark id="1341">
                <name>DALILA HERNANDEZ GARCIA</name>
                <description>PUESTO 59 / MCDO CAPULLANAS
Veintiséis de Octubre
Veintiséis de Octubre
Piura
Perú</description>
                <styleUrl>#1342</styleUrl>
                <Point id="1340">
                    <coordinates>-80.6698921,-5.1756272,0.0</coordinates>
                </Point>
            </Placemark>
            <Placemark id="1346">
                <name>ROSA ELIZABETH NUÑEZ GARCIA</name>
                <description>PUESTO 17 / CAPULLANAS
Veintiséis de Octubre
Veintiséis de Octubre
Piura
Perú</description>
                <styleUrl>#1347</styleUrl>
                <Point id="1345">
                    <coordinates>-80.6710703,-5.1757997,0.0</coordinates>
                </Point>
            </Placemark>
            <Placemark id="1351">
                <name>DEISY ARROYO PARRILLA</name>
                <description>N8 SECTOR 4 /  MERCADO CAPULLANAS
Veintiséis de Octubre
Veintiséis de Octubre
Piura
Perú</description>
                <styleUrl>#1352</styleUrl>
                <Point id="1350">
                    <coordinates>-80.6712162,-5.1761675,0.0</coordinates>
                </Point>
            </Placemark>
            <Placemark id="1356">
                <name>JAZMIN ESTELA GARCIA HUAMAN</name>
                <description>MERCADO CAPULLANAS PUESTO 13
Veintiséis de Octubre
Veintiséis de Octubre
Piura
Perú</description>
                <styleUrl>#1357</styleUrl>
                <Point id="1355">
                    <coordinates>-80.6710676,-5.1757973,0.0</coordinates>
                </Point>
            </Placemark>
            <Placemark id="1361">
                <name>DINO MARCHENA CHINININ</name>
                <description>CAPULLANAS MAYORISTA PUESTO 12
Veintiséis de Octubre
Veintiséis de Octubre
Piura
Perú</description>
                <styleUrl>#1362</styleUrl>
                <Point id="1360">
                    <coordinates>-80.671115,-5.1758526,0.0</coordinates>
                </Point>
            </Placemark>
            <Placemark id="1366">
                <name>ROSA SEMINARIO RAMOS</name>
                <description>PUESTO 133 / INTERIOR CAPULLANAS
Veintiséis de Octubre
Veintiséis de Octubre
Piura
Perú</description>
                <styleUrl>#1367</styleUrl>
                <Point id="1365">
                    <coordinates>-80.6717536,-5.1760761,0.0</coordinates>
                </Point>
            </Placemark>
            <Placemark id="1371">
                <name>ROSA SEMINARIO RAMOS</name>
                <description>PUESTO 133 / INTERIOR CAPULLANAS
Veintiséis de Octubre
Veintiséis de Octubre
Piura
Perú</description>
                <styleUrl>#1372</styleUrl>
                <Point id="1370">
                    <coordinates>-80.6717536,-5.1760761,0.0</coordinates>
                </Point>
            </Placemark>
            <Placemark id="1376">
                <name>YONATAN REYES PAUCAR</name>
                <description>B - 101 / INTERIOR CAPULLANAS
Veintiséis de Octubre
Piura
Piura
Perú</description>
                <styleUrl>#1377</styleUrl>
                <Point id="1375">
                    <coordinates>-80.6716856,-5.1760225,0.0</coordinates>
                </Point>
            </Placemark>
            <Placemark id="1381">
                <name>YUNIOR REYES ABAD</name>
                <description>PUESTO A- 105 / C -125 MCDO CAPULLANAS
Veintiséis de Octubre
Veintiséis de Octubre
Piura
Perú</description>
                <styleUrl>#1382</styleUrl>
                <Point id="1380">
                    <coordinates>-80.6714863,-5.1758542,0.0</coordinates>
                </Point>
            </Placemark>
            <Placemark id="1386">
                <name>ROSA SEMINARIO RAMOS</name>
                <description>PUESTO 133 / INTERIOR CAPULLANAS
Veintiséis de Octubre
Veintiséis de Octubre
Piura
Perú</description>
                <styleUrl>#1387</styleUrl>
                <Point id="1385">
                    <coordinates>-80.6717536,-5.1760761,0.0</coordinates>
                </Point>
            </Placemark>
        </Folder>
    </Document>
</kml>
