<?xml version="1.0" encoding="UTF-8"?>
<kml xmlns="http://www.opengis.net/kml/2.2" xmlns:gx="http://www.google.com/kml/ext/2.2">
    <Document id="1401">
        <Folder id="1402">
            <Style id="1405">
                <IconStyle id="1406">
                    <color>ff0000ff</color>
                    <colorMode>normal</colorMode>
                    <scale>1</scale>
                    <heading>0</heading>
                    <Icon id="1407">
                        <href>http://maps.google.com/mapfiles/kml/pushpin/ylw-pushpin.png</href>
                    </Icon>
                </IconStyle>
            </Style>
            <Style id="1410">
                <IconStyle id="1411">
                    <color>ff0000ff</color>
                    <colorMode>normal</colorMode>
                    <scale>1</scale>
                    <heading>0</heading>
                    <Icon id="1412">
                        <href>http://maps.google.com/mapfiles/kml/pushpin/ylw-pushpin.png</href>
                    </Icon>
                </IconStyle>
            </Style>
            <Style id="1415">
                <IconStyle id="1416">
                    <color>ff0000ff</color>
                    <colorMode>normal</colorMode>
                    <scale>1</scale>
                    <heading>0</heading>
                    <Icon id="1417">
                        <href>http://maps.google.com/mapfiles/kml/pushpin/ylw-pushpin.png</href>
                    </Icon>
                </IconStyle>
            </Style>
            <Style id="1420">
                <IconStyle id="1421">
                    <color>ff0000ff</color>
                    <colorMode>normal</colorMode>
                    <scale>1</scale>
                    <heading>0</heading>
                    <Icon id="1422">
                        <href>http://maps.google.com/mapfiles/kml/pushpin/ylw-pushpin.png</href>
                    </Icon>
                </IconStyle>
            </Style>
            <Style id="1425">
                <IconStyle id="1426">
                    <color>ff0000ff</color>
                    <colorMode>normal</colorMode>
                    <scale>1</scale>
                    <heading>0</heading>
                    <Icon id="1427">
                        <href>http://maps.google.com/mapfiles/kml/pushpin/ylw-pushpin.png</href>
                    </Icon>
                </IconStyle>
            </Style>
            <Style id="1430">
                <IconStyle id="1431">
                    <color>ff0000ff</color>
                    <colorMode>normal</colorMode>
                    <scale>1</scale>
                    <heading>0</heading>
                    <Icon id="1432">
                        <href>http://maps.google.com/mapfiles/kml/pushpin/ylw-pushpin.png</href>
                    </Icon>
                </IconStyle>
            </Style>
            <Style id="1435">
                <IconStyle id="1436">
                    <color>ff0000ff</color>
                    <colorMode>normal</colorMode>
                    <scale>1</scale>
                    <heading>0</heading>
                    <Icon id="1437">
                        <href>http://maps.google.com/mapfiles/kml/pushpin/ylw-pushpin.png</href>
                    </Icon>
                </IconStyle>
            </Style>
            <Style id="1440">
                <IconStyle id="1441">
                    <color>ff0000ff</color>
                    <colorMode>normal</colorMode>
                    <scale>1</scale>
                    <heading>0</heading>
                    <Icon id="1442">
                        <href>http://maps.google.com/mapfiles/kml/pushpin/ylw-pushpin.png</href>
                    </Icon>
                </IconStyle>
            </Style>
            <Style id="1445">
                <IconStyle id="1446">
                    <color>ff0000ff</color>
                    <colorMode>normal</colorMode>
                    <scale>1</scale>
                    <heading>0</heading>
                    <Icon id="1447">
                        <href>http://maps.google.com/mapfiles/kml/pushpin/ylw-pushpin.png</href>
                    </Icon>
                </IconStyle>
            </Style>
            <Style id="1450">
                <IconStyle id="1451">
                    <color>ff0000ff</color>
                    <colorMode>normal</colorMode>
                    <scale>1</scale>
                    <heading>0</heading>
                    <Icon id="1452">
                        <href>http://maps.google.com/mapfiles/kml/pushpin/ylw-pushpin.png</href>
                    </Icon>
                </IconStyle>
            </Style>
            <Style id="1455">
                <IconStyle id="1456">
                    <color>ff0000ff</color>
                    <colorMode>normal</colorMode>
                    <scale>1</scale>
                    <heading>0</heading>
                    <Icon id="1457">
                        <href>http://maps.google.com/mapfiles/kml/pushpin/ylw-pushpin.png</href>
                    </Icon>
                </IconStyle>
            </Style>
            <Style id="1460">
                <IconStyle id="1461">
                    <color>ff0000ff</color>
                    <colorMode>normal</colorMode>
                    <scale>1</scale>
                    <heading>0</heading>
                    <Icon id="1462">
                        <href>http://maps.google.com/mapfiles/kml/pushpin/ylw-pushpin.png</href>
                    </Icon>
                </IconStyle>
            </Style>
            <Style id="1465">
                <IconStyle id="1466">
                    <color>ff0000ff</color>
                    <colorMode>normal</colorMode>
                    <scale>1</scale>
                    <heading>0</heading>
                    <Icon id="1467">
                        <href>http://maps.google.com/mapfiles/kml/pushpin/ylw-pushpin.png</href>
                    </Icon>
                </IconStyle>
            </Style>
            <Style id="1470">
                <IconStyle id="1471">
                    <color>ff0000ff</color>
                    <colorMode>normal</colorMode>
                    <scale>1</scale>
                    <heading>0</heading>
                    <Icon id="1472">
                        <href>http://maps.google.com/mapfiles/kml/pushpin/ylw-pushpin.png</href>
                    </Icon>
                </IconStyle>
            </Style>
            <Style id="1475">
                <IconStyle id="1476">
                    <color>ff0000ff</color>
                    <colorMode>normal</colorMode>
                    <scale>1</scale>
                    <heading>0</heading>
                    <Icon id="1477">
                        <href>http://maps.google.com/mapfiles/kml/pushpin/ylw-pushpin.png</href>
                    </Icon>
                </IconStyle>
            </Style>
            <Style id="1480">
                <IconStyle id="1481">
                    <color>ff0000ff</color>
                    <colorMode>normal</colorMode>
                    <scale>1</scale>
                    <heading>0</heading>
                    <Icon id="1482">
                        <href>http://maps.google.com/mapfiles/kml/pushpin/ylw-pushpin.png</href>
                    </Icon>
                </IconStyle>
            </Style>
            <Style id="1485">
                <IconStyle id="1486">
                    <color>ff0000ff</color>
                    <colorMode>normal</colorMode>
                    <scale>1</scale>
                    <heading>0</heading>
                    <Icon id="1487">
                        <href>http://maps.google.com/mapfiles/kml/pushpin/ylw-pushpin.png</href>
                    </Icon>
                </IconStyle>
            </Style>
            <Style id="1490">
                <IconStyle id="1491">
                    <color>ff0000ff</color>
                    <colorMode>normal</colorMode>
                    <scale>1</scale>
                    <heading>0</heading>
                    <Icon id="1492">
                        <href>http://maps.google.com/mapfiles/kml/pushpin/ylw-pushpin.png</href>
                    </Icon>
                </IconStyle>
            </Style>
            <Style id="1495">
                <IconStyle id="1496">
                    <color>ff0000ff</color>
                    <colorMode>normal</colorMode>
                    <scale>1</scale>
                    <heading>0</heading>
                    <Icon id="1497">
                        <href>http://maps.google.com/mapfiles/kml/pushpin/ylw-pushpin.png</href>
                    </Icon>
                </IconStyle>
            </Style>
            <Style id="1500">
                <IconStyle id="1501">
                    <color>ff0000ff</color>
                    <colorMode>normal</colorMode>
                    <scale>1</scale>
                    <heading>0</heading>
                    <Icon id="1502">
                        <href>http://maps.google.com/mapfiles/kml/pushpin/ylw-pushpin.png</href>
                    </Icon>
                </IconStyle>
            </Style>
            <Style id="1505">
                <IconStyle id="1506">
                    <color>ff0000ff</color>
                    <colorMode>normal</colorMode>
                    <scale>1</scale>
                    <heading>0</heading>
                    <Icon id="1507">
                        <href>http://maps.google.com/mapfiles/kml/pushpin/ylw-pushpin.png</href>
                    </Icon>
                </IconStyle>
            </Style>
            <Style id="1510">
                <IconStyle id="1511">
                    <color>ff0000ff</color>
                    <colorMode>normal</colorMode>
                    <scale>1</scale>
                    <heading>0</heading>
                    <Icon id="1512">
                        <href>http://maps.google.com/mapfiles/kml/pushpin/ylw-pushpin.png</href>
                    </Icon>
                </IconStyle>
            </Style>
            <Style id="1515">
                <IconStyle id="1516">
                    <color>ff0000ff</color>
                    <colorMode>normal</colorMode>
                    <scale>1</scale>
                    <heading>0</heading>
                    <Icon id="1517">
                        <href>http://maps.google.com/mapfiles/kml/pushpin/ylw-pushpin.png</href>
                    </Icon>
                </IconStyle>
            </Style>
            <Style id="1520">
                <IconStyle id="1521">
                    <color>ff0000ff</color>
                    <colorMode>normal</colorMode>
                    <scale>1</scale>
                    <heading>0</heading>
                    <Icon id="1522">
                        <href>http://maps.google.com/mapfiles/kml/pushpin/ylw-pushpin.png</href>
                    </Icon>
                </IconStyle>
            </Style>
            <Style id="1525">
                <IconStyle id="1526">
                    <color>ff0000ff</color>
                    <colorMode>normal</colorMode>
                    <scale>1</scale>
                    <heading>0</heading>
                    <Icon id="1527">
                        <href>http://maps.google.com/mapfiles/kml/pushpin/ylw-pushpin.png</href>
                    </Icon>
                </IconStyle>
            </Style>
            <Style id="1530">
                <IconStyle id="1531">
                    <color>ff0000ff</color>
                    <colorMode>normal</colorMode>
                    <scale>1</scale>
                    <heading>0</heading>
                    <Icon id="1532">
                        <href>http://maps.google.com/mapfiles/kml/pushpin/ylw-pushpin.png</href>
                    </Icon>
                </IconStyle>
            </Style>
            <name>BRAYAN ALEXANDER IPANAQUE CASTRO</name>
            <Placemark id="1404">
                <name>INVERSIONES SAMICOV EMPRESA INDIVIDUAL DE RESPONSABILIDAD LIMITADA - INVERSIONES SAMICOV E.I.R.L.</name>
                <description>INVERSIONES SAMICOV EMPRESA INDIVIDUAL DE RESPONSABILIDAD LIMITADA - INVERSIONES SAMICOV E.I.R.L.
MZA. B LOTE. 28 A.H.  VICENTE CHUNGA ALDANA SECHURA-SECHURA
Sechura
200801Sechura
Piura
Perú</description>
                <styleUrl>#1405</styleUrl>
                <Point id="1403">
                    <coordinates>-80.8186823,-5.5614338,0.0</coordinates>
                </Point>
            </Placemark>
            <Placemark id="1409">
                <name>ANGELICA SUSANA INGA CALDERON</name>
                <description>MZ H LOTE 5B AH JUA BAUTISTA - SECHURA
Sechura
Sechura
Piura
Perú</description>
                <styleUrl>#1410</styleUrl>
                <Point id="1408">
                    <coordinates>-80.8103886,-5.5571512,0.0</coordinates>
                </Point>
            </Placemark>
            <Placemark id="1414">
                <name>LOURDES AYALA MORALES</name>
                <description>AH LOS JARDINES MZ A LOT 11 SEGUNDA ESTAPA REF MADERERA LA UNIÓN
Sechura
Sechura
Piura
Perú</description>
                <styleUrl>#1415</styleUrl>
                <Point id="1413">
                    <coordinates>-80.807752,-5.5633131,0.0</coordinates>
                </Point>
            </Placemark>
            <Placemark id="1419">
                <name>MELISSA TUME PANTA</name>
                <description>AH LOS JARDINES MZ A LOT 18 SEGUNDA ETAPA REF MADERERA LA UNIÓN
Sechura
Sechura
Piura
Perú</description>
                <styleUrl>#1420</styleUrl>
                <Point id="1418">
                    <coordinates>-80.8071723,-5.563532,0.0</coordinates>
                </Point>
            </Placemark>
            <Placemark id="1424">
                <name>CORREA QUINTANA JUAN CARLOS</name>
                <description>AH LOS JARDINES MZ D LOT 11
Sechura
Sechura
Piura
Perú</description>
                <styleUrl>#1425</styleUrl>
                <Point id="1423">
                    <coordinates>-80.8087544,-5.5633938,0.0</coordinates>
                </Point>
            </Placemark>
            <Placemark id="1429">
                <name>JENNY MARGOT SANCHEZ CHAPILLIQUEN</name>
                <description>MZ F LOTE 8 A.H LOS JARDINES SECHUR
Sechura
Sechura
Piura
Perú</description>
                <styleUrl>#1430</styleUrl>
                <Point id="1428">
                    <coordinates>-80.8097183,-5.564854,0.0</coordinates>
                </Point>
            </Placemark>
            <Placemark id="1434">
                <name>MARIA CORINA QUEREVALU DE AYALA</name>
                <description>AAHH LOS JARDINES SEGUNDA ETAPA MZ E LOT 22
Sechura
Sechura
Piura
Perú</description>
                <styleUrl>#1435</styleUrl>
                <Point id="1433">
                    <coordinates>-80.80827,-5.56519,0.0</coordinates>
                </Point>
            </Placemark>
            <Placemark id="1439">
                <name>DEYSI GUERRERO HUAMAN</name>
                <description>AH.LOS JARDINES MZ-I LT-01
Sechura
Sechura
Piura
Perú</description>
                <styleUrl>#1440</styleUrl>
                <Point id="1438">
                    <coordinates>-80.8076652,-5.5656675,0.0</coordinates>
                </Point>
            </Placemark>
            <Placemark id="1444">
                <name>DEISY KARINA CHUMACERO SARANGO</name>
                <description>AH. LOS JARDINES MZ K LT 10 - SEGUNDA ETAPA SECHU
Sechura
Sechura
Piura
Perú</description>
                <styleUrl>#1445</styleUrl>
                <Point id="1443">
                    <coordinates>-80.8076192,-5.5664696,0.0</coordinates>
                </Point>
            </Placemark>
            <Placemark id="1449">
                <name>IRIS MABEL CHUNGA PARDO</name>
                <description>LOS JARDINES MZ L LT 5 SECHURA-SECHURA
Sechura
Sechura
Piura
Perú</description>
                <styleUrl>#1450</styleUrl>
                <Point id="1448">
                    <coordinates>-80.8072892,-5.5670597,0.0</coordinates>
                </Point>
            </Placemark>
            <Placemark id="1454">
                <name>ESDENY VANESSA TUME AMAYA</name>
                <description>LOS JARDINES II ETAPA MZ R LOTE 18-SECHURA-SECHURA
Sechura
Sechura
Piura
Perú</description>
                <styleUrl>#1455</styleUrl>
                <Point id="1453">
                    <coordinates>-80.8079234,-5.5674692,0.0</coordinates>
                </Point>
            </Placemark>
            <Placemark id="1459">
                <name>MARIELLA HERNA PURIZACA</name>
                <description>AAHH CIUDAD DEL PESCADOR MZ B LOT 5
Sechura
Sechura
Piura
Perú</description>
                <styleUrl>#1460</styleUrl>
                <Point id="1458">
                    <coordinates>-80.8096284,-5.5672874,0.0</coordinates>
                </Point>
            </Placemark>
            <Placemark id="1464">
                <name>MARINA ELIZABETH PINDAY MORALES</name>
                <description>AH.LA PERLA MZ E LT 5 SECHURA
Sechura
Sechura
Piura
Perú</description>
                <styleUrl>#1465</styleUrl>
                <Point id="1463">
                    <coordinates>-80.8108925,-5.5673644,0.0</coordinates>
                </Point>
            </Placemark>
            <Placemark id="1469">
                <name>NOELI ISAMAR TACURE MONTALBAN</name>
                <description>AV.VILLA CANADA MZ M LT 21 AH.LOS JARDINES-SECHURA
Sechura
Sechura
Piura
Perú</description>
                <styleUrl>#1470</styleUrl>
                <Point id="1468">
                    <coordinates>-80.8112576,-5.5671124,0.0</coordinates>
                </Point>
            </Placemark>
            <Placemark id="1474">
                <name>BERTHA IGNACIO AVILA</name>
                <description>A H. LOS JARDINES SUR ESTE MZ. A LT. 08 - SECHURA
Sechura
Sechura
Piura
Perú</description>
                <styleUrl>#1475</styleUrl>
                <Point id="1473">
                    <coordinates>-80.812268,-5.5673574,0.0</coordinates>
                </Point>
            </Placemark>
            <Placemark id="1479">
                <name>DIANA RUTH RUBIO HUERTAS</name>
                <description>MZ A LOTE 9 AH LA PERLA - SECHURA
Sechura
Sechura
Piura
Perú</description>
                <styleUrl>#1480</styleUrl>
                <Point id="1478">
                    <coordinates>-80.8120138,-5.5688399,0.0</coordinates>
                </Point>
            </Placemark>
            <Placemark id="1484">
                <name>CHERRE CLEMENCIA ECHE DE</name>
                <description>SANTA ROSA MZ A LOTE 6
Sechura
Sechura
Piura
Perú</description>
                <styleUrl>#1485</styleUrl>
                <Point id="1483">
                    <coordinates>-80.8109774,-5.5691138,0.0</coordinates>
                </Point>
            </Placemark>
            <Placemark id="1489">
                <name>BRYAM SAMIR PEREZ FIESTAS</name>
                <description>Ah SNTA ROSA S/N MZ D LOT 26
Sechura
Sechura
Piura
Perú</description>
                <styleUrl>#1490</styleUrl>
                <Point id="1488">
                    <coordinates>-80.8114277,-5.5694975,0.0</coordinates>
                </Point>
            </Placemark>
            <Placemark id="1494">
                <name>MIGUELINA MARQUEZ RAMIREZ</name>
                <description>NUEVO HORIZONTE MZ K LOT 7 -SECHURA-SECHURA
Sechura
Sechura
Piura
Perú</description>
                <styleUrl>#1495</styleUrl>
                <Point id="1493">
                    <coordinates>-80.8101867,-5.5724261,0.0</coordinates>
                </Point>
            </Placemark>
            <Placemark id="1499">
                <name>SHALY MARLENY FALCON LLOCLLA</name>
                <description>MZA. B LOTE. 12 A.H. NUEVO HORIZONTE - SECHURA
Sechura
Sechura
Piura
Perú</description>
                <styleUrl>#1500</styleUrl>
                <Point id="1498">
                    <coordinates>-80.8123446,-5.5694041,0.0</coordinates>
                </Point>
            </Placemark>
            <Placemark id="1504">
                <name>ESTELA JANET ECHE FIESTAS</name>
                <description>AH.NUEVO BAZAN MZ G LT 16 - SECHURA
Sechura
Sechura
Piura
Perú</description>
                <styleUrl>#1505</styleUrl>
                <Point id="1503">
                    <coordinates>-80.8127742,-5.5694177,0.0</coordinates>
                </Point>
            </Placemark>
            <Placemark id="1509">
                <name>MARIA AUGUSTA QUEREVALU FIESTAS</name>
                <description>AAHH NUEVO BAZAN MZ J LOT 21
Sechura
Sechura
Piura
Perú</description>
                <styleUrl>#1510</styleUrl>
                <Point id="1508">
                    <coordinates>-80.8127835,-5.5696017,0.0</coordinates>
                </Point>
            </Placemark>
            <Placemark id="1514">
                <name>INVERSIONES SAMICOV EMPRESA INDIVIDUAL DE RESPONSABILIDAD LIMITADA - INVERSIONES SAMICOV E.I.R.L.</name>
                <description>INVERSIONES SAMICOV EMPRESA INDIVIDUAL DE RESPONSABILIDAD LIMITADA - INVERSIONES SAMICOV E.I.R.L.
MZA. B LOTE. 28 A.H.  VICENTE CHUNGA ALDANA SECHURA-SECHURA
Sechura
200801Sechura
Piura
Perú</description>
                <styleUrl>#1515</styleUrl>
                <Point id="1513">
                    <coordinates>-80.8186823,-5.5614338,0.0</coordinates>
                </Point>
            </Placemark>
            <Placemark id="1519">
                <name>ROSA ELVIRA CHUNGA PURIZACA</name>
                <description>CA.LOPEZ MZ D LT 7 AH.NUEVO BAZAN-SECHURA
Sechura
Sechura
Piura
Perú</description>
                <styleUrl>#1520</styleUrl>
                <Point id="1518">
                    <coordinates>-80.8140994,-5.5699619,0.0</coordinates>
                </Point>
            </Placemark>
            <Placemark id="1524">
                <name>LEYDI DIANA RUMICHE DURAND</name>
                <description>AAHH. LOS ROSALES SN SECHURA
Sechura
Sechura
Piura
Perú</description>
                <styleUrl>#1525</styleUrl>
                <Point id="1523">
                    <coordinates>-80.8131374,-5.5712601,0.0</coordinates>
                </Point>
            </Placemark>
            <Placemark id="1529">
                <name>LUCINDA SIESQUEN BALDERA</name>
                <description>AH.NUEVO AMANAECER MZ-A LT-05
Sechura
Sechura
Piura
Perú</description>
                <styleUrl>#1530</styleUrl>
                <Point id="1528">
                    <coordinates>-80.8125086,-5.5716354,0.0</coordinates>
                </Point>
            </Placemark>
        </Folder>
        <Folder id="1533">
            <Style id="1536">
                <IconStyle id="1537">
                    <color>ffff0000</color>
                    <colorMode>normal</colorMode>
                    <scale>1</scale>
                    <heading>0</heading>
                    <Icon id="1538">
                        <href>http://maps.google.com/mapfiles/kml/pushpin/ylw-pushpin.png</href>
                    </Icon>
                </IconStyle>
            </Style>
            <Style id="1541">
                <IconStyle id="1542">
                    <color>ffff0000</color>
                    <colorMode>normal</colorMode>
                    <scale>1</scale>
                    <heading>0</heading>
                    <Icon id="1543">
                        <href>http://maps.google.com/mapfiles/kml/pushpin/ylw-pushpin.png</href>
                    </Icon>
                </IconStyle>
            </Style>
            <Style id="1546">
                <IconStyle id="1547">
                    <color>ffff0000</color>
                    <colorMode>normal</colorMode>
                    <scale>1</scale>
                    <heading>0</heading>
                    <Icon id="1548">
                        <href>http://maps.google.com/mapfiles/kml/pushpin/ylw-pushpin.png</href>
                    </Icon>
                </IconStyle>
            </Style>
            <Style id="1551">
                <IconStyle id="1552">
                    <color>ffff0000</color>
                    <colorMode>normal</colorMode>
                    <scale>1</scale>
                    <heading>0</heading>
                    <Icon id="1553">
                        <href>http://maps.google.com/mapfiles/kml/pushpin/ylw-pushpin.png</href>
                    </Icon>
                </IconStyle>
            </Style>
            <Style id="1556">
                <IconStyle id="1557">
                    <color>ffff0000</color>
                    <colorMode>normal</colorMode>
                    <scale>1</scale>
                    <heading>0</heading>
                    <Icon id="1558">
                        <href>http://maps.google.com/mapfiles/kml/pushpin/ylw-pushpin.png</href>
                    </Icon>
                </IconStyle>
            </Style>
            <Style id="1561">
                <IconStyle id="1562">
                    <color>ffff0000</color>
                    <colorMode>normal</colorMode>
                    <scale>1</scale>
                    <heading>0</heading>
                    <Icon id="1563">
                        <href>http://maps.google.com/mapfiles/kml/pushpin/ylw-pushpin.png</href>
                    </Icon>
                </IconStyle>
            </Style>
            <Style id="1566">
                <IconStyle id="1567">
                    <color>ffff0000</color>
                    <colorMode>normal</colorMode>
                    <scale>1</scale>
                    <heading>0</heading>
                    <Icon id="1568">
                        <href>http://maps.google.com/mapfiles/kml/pushpin/ylw-pushpin.png</href>
                    </Icon>
                </IconStyle>
            </Style>
            <Style id="1571">
                <IconStyle id="1572">
                    <color>ffff0000</color>
                    <colorMode>normal</colorMode>
                    <scale>1</scale>
                    <heading>0</heading>
                    <Icon id="1573">
                        <href>http://maps.google.com/mapfiles/kml/pushpin/ylw-pushpin.png</href>
                    </Icon>
                </IconStyle>
            </Style>
            <Style id="1576">
                <IconStyle id="1577">
                    <color>ffff0000</color>
                    <colorMode>normal</colorMode>
                    <scale>1</scale>
                    <heading>0</heading>
                    <Icon id="1578">
                        <href>http://maps.google.com/mapfiles/kml/pushpin/ylw-pushpin.png</href>
                    </Icon>
                </IconStyle>
            </Style>
            <Style id="1581">
                <IconStyle id="1582">
                    <color>ffff0000</color>
                    <colorMode>normal</colorMode>
                    <scale>1</scale>
                    <heading>0</heading>
                    <Icon id="1583">
                        <href>http://maps.google.com/mapfiles/kml/pushpin/ylw-pushpin.png</href>
                    </Icon>
                </IconStyle>
            </Style>
            <Style id="1586">
                <IconStyle id="1587">
                    <color>ffff0000</color>
                    <colorMode>normal</colorMode>
                    <scale>1</scale>
                    <heading>0</heading>
                    <Icon id="1588">
                        <href>http://maps.google.com/mapfiles/kml/pushpin/ylw-pushpin.png</href>
                    </Icon>
                </IconStyle>
            </Style>
            <Style id="1591">
                <IconStyle id="1592">
                    <color>ffff0000</color>
                    <colorMode>normal</colorMode>
                    <scale>1</scale>
                    <heading>0</heading>
                    <Icon id="1593">
                        <href>http://maps.google.com/mapfiles/kml/pushpin/ylw-pushpin.png</href>
                    </Icon>
                </IconStyle>
            </Style>
            <Style id="1596">
                <IconStyle id="1597">
                    <color>ffff0000</color>
                    <colorMode>normal</colorMode>
                    <scale>1</scale>
                    <heading>0</heading>
                    <Icon id="1598">
                        <href>http://maps.google.com/mapfiles/kml/pushpin/ylw-pushpin.png</href>
                    </Icon>
                </IconStyle>
            </Style>
            <Style id="1601">
                <IconStyle id="1602">
                    <color>ffff0000</color>
                    <colorMode>normal</colorMode>
                    <scale>1</scale>
                    <heading>0</heading>
                    <Icon id="1603">
                        <href>http://maps.google.com/mapfiles/kml/pushpin/ylw-pushpin.png</href>
                    </Icon>
                </IconStyle>
            </Style>
            <name>EDDINSON CECILIO DIOSES SAAVEDRA</name>
            <Placemark id="1535">
                <name>INOÑAN TUÑOQUE YULIANA</name>
                <description>MERCADO SECHURA PTO 55
Sechura
Piura
Piura
Perú</description>
                <styleUrl>#1536</styleUrl>
                <Point id="1534">
                    <coordinates>-80.8222241,-5.5531937,0.0</coordinates>
                </Point>
            </Placemark>
            <Placemark id="1540">
                <name>ELMER JESUS BANCES SIESQUEN</name>
                <description>PUESTO NRO 72 MERCADO
Sechura
Sechura
Piura
Perú</description>
                <styleUrl>#1541</styleUrl>
                <Point id="1539">
                    <coordinates>-80.8219847,-5.5533112,0.0</coordinates>
                </Point>
            </Placemark>
            <Placemark id="1545">
                <name>CARLOS ALBERTO MARTINEZ AMAYA</name>
                <description>Mercado sechura
Sechura
Sechura
Piura
Perú</description>
                <styleUrl>#1546</styleUrl>
                <Point id="1544">
                    <coordinates>-80.8218246,-5.5534272,0.0</coordinates>
                </Point>
            </Placemark>
            <Placemark id="1550">
                <name>SEGUNDO ANTERO SIESQUEN BALDERA</name>
                <description>INT. MCDO SECHURA-PIURA
Sechura
Sechura
Piura
Perú</description>
                <styleUrl>#1551</styleUrl>
                <Point id="1549">
                    <coordinates>-80.821973,-5.5533893,0.0</coordinates>
                </Point>
            </Placemark>
            <Placemark id="1555">
                <name>AURELIA CORDOVA CORDOVA</name>
                <description>Mercado anexo Puesto 12
Sechura
Sechura
Piura
Perú</description>
                <styleUrl>#1556</styleUrl>
                <Point id="1554">
                    <coordinates>-80.8218255,-5.554183,0.0</coordinates>
                </Point>
            </Placemark>
            <Placemark id="1560">
                <name>ELMER JESUS BANCES SIESQUEN</name>
                <description>PUESTO NRO 72 MERCADO
Sechura
Sechura
Piura
Perú</description>
                <styleUrl>#1561</styleUrl>
                <Point id="1559">
                    <coordinates>-80.8219847,-5.5533112,0.0</coordinates>
                </Point>
            </Placemark>
            <Placemark id="1565">
                <name>MILTON LIMA CASTILLO</name>
                <description>Mercado Puesto 41
Sechura
Sechura
Piura
Perú</description>
                <styleUrl>#1566</styleUrl>
                <Point id="1564">
                    <coordinates>-80.822345,-5.5537944,0.0</coordinates>
                </Point>
            </Placemark>
            <Placemark id="1570">
                <name>ROSA ELENA SALDARRIAGA PALACIOS</name>
                <description>Mercado sechura
Sechura
Sechura
Piura
Perú</description>
                <styleUrl>#1571</styleUrl>
                <Point id="1569">
                    <coordinates>-80.8220775,-5.5535841,0.0</coordinates>
                </Point>
            </Placemark>
            <Placemark id="1575">
                <name>CARLOS ALBERTO MARTINEZ AMAYA</name>
                <description>Mercado sechura
Sechura
Sechura
Piura
Perú</description>
                <styleUrl>#1576</styleUrl>
                <Point id="1574">
                    <coordinates>-80.8218246,-5.5534272,0.0</coordinates>
                </Point>
            </Placemark>
            <Placemark id="1580">
                <name>EDGARD JOHAN SUCLUPE SIESQUEN</name>
                <description>INT. MERCADO SECHURA-SECHURA
Sechura
Sechura
Piura
Perú</description>
                <styleUrl>#1581</styleUrl>
                <Point id="1579">
                    <coordinates>-80.8223337,-5.5536946,0.0</coordinates>
                </Point>
            </Placemark>
            <Placemark id="1585">
                <name>INOÑAN DE LA CRUZ JHAMIRA BERSAVE</name>
                <description>Mercado sechura
Sechura

Piura
Perú</description>
                <styleUrl>#1586</styleUrl>
                <Point id="1584">
                    <coordinates>-80.8219715,-5.5533813,0.0</coordinates>
                </Point>
            </Placemark>
            <Placemark id="1590">
                <name>SEGUNDO ANTERO SIESQUEN BALDERA</name>
                <description>INT. MCDO SECHURA-PIURA
Sechura
Sechura
Piura
Perú</description>
                <styleUrl>#1591</styleUrl>
                <Point id="1589">
                    <coordinates>-80.821973,-5.5533893,0.0</coordinates>
                </Point>
            </Placemark>
            <Placemark id="1595">
                <name>COSTANCIA PURIZACA DE OLIVAREZ</name>
                <description>CALLE SAN MARTÍN 112
Sechura
Sechura
Piura
Perú</description>
                <styleUrl>#1596</styleUrl>
                <Point id="1594">
                    <coordinates>-80.8224837,-5.553913,0.0</coordinates>
                </Point>
            </Placemark>
            <Placemark id="1600">
                <name>PEDRO MONTALVAN CORDOVA</name>
                <description>San Martín 1ra cuadra MERCADO
Sechura
Sechura
Piura
Perú</description>
                <styleUrl>#1601</styleUrl>
                <Point id="1599">
                    <coordinates>-80.8223733,-5.5537383,0.0</coordinates>
                </Point>
            </Placemark>
        </Folder>
        <Folder id="1604">
            <Style id="1607">
                <IconStyle id="1608">
                    <color>ff008000</color>
                    <colorMode>normal</colorMode>
                    <scale>1</scale>
                    <heading>0</heading>
                    <Icon id="1609">
                        <href>http://maps.google.com/mapfiles/kml/pushpin/ylw-pushpin.png</href>
                    </Icon>
                </IconStyle>
            </Style>
            <Style id="1612">
                <IconStyle id="1613">
                    <color>ff008000</color>
                    <colorMode>normal</colorMode>
                    <scale>1</scale>
                    <heading>0</heading>
                    <Icon id="1614">
                        <href>http://maps.google.com/mapfiles/kml/pushpin/ylw-pushpin.png</href>
                    </Icon>
                </IconStyle>
            </Style>
            <Style id="1617">
                <IconStyle id="1618">
                    <color>ff008000</color>
                    <colorMode>normal</colorMode>
                    <scale>1</scale>
                    <heading>0</heading>
                    <Icon id="1619">
                        <href>http://maps.google.com/mapfiles/kml/pushpin/ylw-pushpin.png</href>
                    </Icon>
                </IconStyle>
            </Style>
            <Style id="1622">
                <IconStyle id="1623">
                    <color>ff008000</color>
                    <colorMode>normal</colorMode>
                    <scale>1</scale>
                    <heading>0</heading>
                    <Icon id="1624">
                        <href>http://maps.google.com/mapfiles/kml/pushpin/ylw-pushpin.png</href>
                    </Icon>
                </IconStyle>
            </Style>
            <Style id="1627">
                <IconStyle id="1628">
                    <color>ff008000</color>
                    <colorMode>normal</colorMode>
                    <scale>1</scale>
                    <heading>0</heading>
                    <Icon id="1629">
                        <href>http://maps.google.com/mapfiles/kml/pushpin/ylw-pushpin.png</href>
                    </Icon>
                </IconStyle>
            </Style>
            <Style id="1632">
                <IconStyle id="1633">
                    <color>ff008000</color>
                    <colorMode>normal</colorMode>
                    <scale>1</scale>
                    <heading>0</heading>
                    <Icon id="1634">
                        <href>http://maps.google.com/mapfiles/kml/pushpin/ylw-pushpin.png</href>
                    </Icon>
                </IconStyle>
            </Style>
            <Style id="1637">
                <IconStyle id="1638">
                    <color>ff008000</color>
                    <colorMode>normal</colorMode>
                    <scale>1</scale>
                    <heading>0</heading>
                    <Icon id="1639">
                        <href>http://maps.google.com/mapfiles/kml/pushpin/ylw-pushpin.png</href>
                    </Icon>
                </IconStyle>
            </Style>
            <Style id="1642">
                <IconStyle id="1643">
                    <color>ff008000</color>
                    <colorMode>normal</colorMode>
                    <scale>1</scale>
                    <heading>0</heading>
                    <Icon id="1644">
                        <href>http://maps.google.com/mapfiles/kml/pushpin/ylw-pushpin.png</href>
                    </Icon>
                </IconStyle>
            </Style>
            <Style id="1647">
                <IconStyle id="1648">
                    <color>ff008000</color>
                    <colorMode>normal</colorMode>
                    <scale>1</scale>
                    <heading>0</heading>
                    <Icon id="1649">
                        <href>http://maps.google.com/mapfiles/kml/pushpin/ylw-pushpin.png</href>
                    </Icon>
                </IconStyle>
            </Style>
            <Style id="1652">
                <IconStyle id="1653">
                    <color>ff008000</color>
                    <colorMode>normal</colorMode>
                    <scale>1</scale>
                    <heading>0</heading>
                    <Icon id="1654">
                        <href>http://maps.google.com/mapfiles/kml/pushpin/ylw-pushpin.png</href>
                    </Icon>
                </IconStyle>
            </Style>
            <Style id="1657">
                <IconStyle id="1658">
                    <color>ff008000</color>
                    <colorMode>normal</colorMode>
                    <scale>1</scale>
                    <heading>0</heading>
                    <Icon id="1659">
                        <href>http://maps.google.com/mapfiles/kml/pushpin/ylw-pushpin.png</href>
                    </Icon>
                </IconStyle>
            </Style>
            <Style id="1662">
                <IconStyle id="1663">
                    <color>ff008000</color>
                    <colorMode>normal</colorMode>
                    <scale>1</scale>
                    <heading>0</heading>
                    <Icon id="1664">
                        <href>http://maps.google.com/mapfiles/kml/pushpin/ylw-pushpin.png</href>
                    </Icon>
                </IconStyle>
            </Style>
            <Style id="1667">
                <IconStyle id="1668">
                    <color>ff008000</color>
                    <colorMode>normal</colorMode>
                    <scale>1</scale>
                    <heading>0</heading>
                    <Icon id="1669">
                        <href>http://maps.google.com/mapfiles/kml/pushpin/ylw-pushpin.png</href>
                    </Icon>
                </IconStyle>
            </Style>
            <Style id="1672">
                <IconStyle id="1673">
                    <color>ff008000</color>
                    <colorMode>normal</colorMode>
                    <scale>1</scale>
                    <heading>0</heading>
                    <Icon id="1674">
                        <href>http://maps.google.com/mapfiles/kml/pushpin/ylw-pushpin.png</href>
                    </Icon>
                </IconStyle>
            </Style>
            <Style id="1677">
                <IconStyle id="1678">
                    <color>ff008000</color>
                    <colorMode>normal</colorMode>
                    <scale>1</scale>
                    <heading>0</heading>
                    <Icon id="1679">
                        <href>http://maps.google.com/mapfiles/kml/pushpin/ylw-pushpin.png</href>
                    </Icon>
                </IconStyle>
            </Style>
            <Style id="1682">
                <IconStyle id="1683">
                    <color>ff008000</color>
                    <colorMode>normal</colorMode>
                    <scale>1</scale>
                    <heading>0</heading>
                    <Icon id="1684">
                        <href>http://maps.google.com/mapfiles/kml/pushpin/ylw-pushpin.png</href>
                    </Icon>
                </IconStyle>
            </Style>
            <Style id="1687">
                <IconStyle id="1688">
                    <color>ff008000</color>
                    <colorMode>normal</colorMode>
                    <scale>1</scale>
                    <heading>0</heading>
                    <Icon id="1689">
                        <href>http://maps.google.com/mapfiles/kml/pushpin/ylw-pushpin.png</href>
                    </Icon>
                </IconStyle>
            </Style>
            <Style id="1692">
                <IconStyle id="1693">
                    <color>ff008000</color>
                    <colorMode>normal</colorMode>
                    <scale>1</scale>
                    <heading>0</heading>
                    <Icon id="1694">
                        <href>http://maps.google.com/mapfiles/kml/pushpin/ylw-pushpin.png</href>
                    </Icon>
                </IconStyle>
            </Style>
            <Style id="1697">
                <IconStyle id="1698">
                    <color>ff008000</color>
                    <colorMode>normal</colorMode>
                    <scale>1</scale>
                    <heading>0</heading>
                    <Icon id="1699">
                        <href>http://maps.google.com/mapfiles/kml/pushpin/ylw-pushpin.png</href>
                    </Icon>
                </IconStyle>
            </Style>
            <Style id="1702">
                <IconStyle id="1703">
                    <color>ff008000</color>
                    <colorMode>normal</colorMode>
                    <scale>1</scale>
                    <heading>0</heading>
                    <Icon id="1704">
                        <href>http://maps.google.com/mapfiles/kml/pushpin/ylw-pushpin.png</href>
                    </Icon>
                </IconStyle>
            </Style>
            <Style id="1707">
                <IconStyle id="1708">
                    <color>ff008000</color>
                    <colorMode>normal</colorMode>
                    <scale>1</scale>
                    <heading>0</heading>
                    <Icon id="1709">
                        <href>http://maps.google.com/mapfiles/kml/pushpin/ylw-pushpin.png</href>
                    </Icon>
                </IconStyle>
            </Style>
            <Style id="1712">
                <IconStyle id="1713">
                    <color>ff008000</color>
                    <colorMode>normal</colorMode>
                    <scale>1</scale>
                    <heading>0</heading>
                    <Icon id="1714">
                        <href>http://maps.google.com/mapfiles/kml/pushpin/ylw-pushpin.png</href>
                    </Icon>
                </IconStyle>
            </Style>
            <Style id="1717">
                <IconStyle id="1718">
                    <color>ff008000</color>
                    <colorMode>normal</colorMode>
                    <scale>1</scale>
                    <heading>0</heading>
                    <Icon id="1719">
                        <href>http://maps.google.com/mapfiles/kml/pushpin/ylw-pushpin.png</href>
                    </Icon>
                </IconStyle>
            </Style>
            <Style id="1722">
                <IconStyle id="1723">
                    <color>ff008000</color>
                    <colorMode>normal</colorMode>
                    <scale>1</scale>
                    <heading>0</heading>
                    <Icon id="1724">
                        <href>http://maps.google.com/mapfiles/kml/pushpin/ylw-pushpin.png</href>
                    </Icon>
                </IconStyle>
            </Style>
            <Style id="1727">
                <IconStyle id="1728">
                    <color>ff008000</color>
                    <colorMode>normal</colorMode>
                    <scale>1</scale>
                    <heading>0</heading>
                    <Icon id="1729">
                        <href>http://maps.google.com/mapfiles/kml/pushpin/ylw-pushpin.png</href>
                    </Icon>
                </IconStyle>
            </Style>
            <Style id="1732">
                <IconStyle id="1733">
                    <color>ff008000</color>
                    <colorMode>normal</colorMode>
                    <scale>1</scale>
                    <heading>0</heading>
                    <Icon id="1734">
                        <href>http://maps.google.com/mapfiles/kml/pushpin/ylw-pushpin.png</href>
                    </Icon>
                </IconStyle>
            </Style>
            <Style id="1737">
                <IconStyle id="1738">
                    <color>ff008000</color>
                    <colorMode>normal</colorMode>
                    <scale>1</scale>
                    <heading>0</heading>
                    <Icon id="1739">
                        <href>http://maps.google.com/mapfiles/kml/pushpin/ylw-pushpin.png</href>
                    </Icon>
                </IconStyle>
            </Style>
            <Style id="1742">
                <IconStyle id="1743">
                    <color>ff008000</color>
                    <colorMode>normal</colorMode>
                    <scale>1</scale>
                    <heading>0</heading>
                    <Icon id="1744">
                        <href>http://maps.google.com/mapfiles/kml/pushpin/ylw-pushpin.png</href>
                    </Icon>
                </IconStyle>
            </Style>
            <Style id="1747">
                <IconStyle id="1748">
                    <color>ff008000</color>
                    <colorMode>normal</colorMode>
                    <scale>1</scale>
                    <heading>0</heading>
                    <Icon id="1749">
                        <href>http://maps.google.com/mapfiles/kml/pushpin/ylw-pushpin.png</href>
                    </Icon>
                </IconStyle>
            </Style>
            <Style id="1752">
                <IconStyle id="1753">
                    <color>ff008000</color>
                    <colorMode>normal</colorMode>
                    <scale>1</scale>
                    <heading>0</heading>
                    <Icon id="1754">
                        <href>http://maps.google.com/mapfiles/kml/pushpin/ylw-pushpin.png</href>
                    </Icon>
                </IconStyle>
            </Style>
            <Style id="1757">
                <IconStyle id="1758">
                    <color>ff008000</color>
                    <colorMode>normal</colorMode>
                    <scale>1</scale>
                    <heading>0</heading>
                    <Icon id="1759">
                        <href>http://maps.google.com/mapfiles/kml/pushpin/ylw-pushpin.png</href>
                    </Icon>
                </IconStyle>
            </Style>
            <Style id="1762">
                <IconStyle id="1763">
                    <color>ff008000</color>
                    <colorMode>normal</colorMode>
                    <scale>1</scale>
                    <heading>0</heading>
                    <Icon id="1764">
                        <href>http://maps.google.com/mapfiles/kml/pushpin/ylw-pushpin.png</href>
                    </Icon>
                </IconStyle>
            </Style>
            <Style id="1767">
                <IconStyle id="1768">
                    <color>ff008000</color>
                    <colorMode>normal</colorMode>
                    <scale>1</scale>
                    <heading>0</heading>
                    <Icon id="1769">
                        <href>http://maps.google.com/mapfiles/kml/pushpin/ylw-pushpin.png</href>
                    </Icon>
                </IconStyle>
            </Style>
            <Style id="1772">
                <IconStyle id="1773">
                    <color>ff008000</color>
                    <colorMode>normal</colorMode>
                    <scale>1</scale>
                    <heading>0</heading>
                    <Icon id="1774">
                        <href>http://maps.google.com/mapfiles/kml/pushpin/ylw-pushpin.png</href>
                    </Icon>
                </IconStyle>
            </Style>
            <Style id="1777">
                <IconStyle id="1778">
                    <color>ff008000</color>
                    <colorMode>normal</colorMode>
                    <scale>1</scale>
                    <heading>0</heading>
                    <Icon id="1779">
                        <href>http://maps.google.com/mapfiles/kml/pushpin/ylw-pushpin.png</href>
                    </Icon>
                </IconStyle>
            </Style>
            <Style id="1782">
                <IconStyle id="1783">
                    <color>ff008000</color>
                    <colorMode>normal</colorMode>
                    <scale>1</scale>
                    <heading>0</heading>
                    <Icon id="1784">
                        <href>http://maps.google.com/mapfiles/kml/pushpin/ylw-pushpin.png</href>
                    </Icon>
                </IconStyle>
            </Style>
            <Style id="1787">
                <IconStyle id="1788">
                    <color>ff008000</color>
                    <colorMode>normal</colorMode>
                    <scale>1</scale>
                    <heading>0</heading>
                    <Icon id="1789">
                        <href>http://maps.google.com/mapfiles/kml/pushpin/ylw-pushpin.png</href>
                    </Icon>
                </IconStyle>
            </Style>
            <Style id="1792">
                <IconStyle id="1793">
                    <color>ff008000</color>
                    <colorMode>normal</colorMode>
                    <scale>1</scale>
                    <heading>0</heading>
                    <Icon id="1794">
                        <href>http://maps.google.com/mapfiles/kml/pushpin/ylw-pushpin.png</href>
                    </Icon>
                </IconStyle>
            </Style>
            <Style id="1797">
                <IconStyle id="1798">
                    <color>ff008000</color>
                    <colorMode>normal</colorMode>
                    <scale>1</scale>
                    <heading>0</heading>
                    <Icon id="1799">
                        <href>http://maps.google.com/mapfiles/kml/pushpin/ylw-pushpin.png</href>
                    </Icon>
                </IconStyle>
            </Style>
            <Style id="1802">
                <IconStyle id="1803">
                    <color>ff008000</color>
                    <colorMode>normal</colorMode>
                    <scale>1</scale>
                    <heading>0</heading>
                    <Icon id="1804">
                        <href>http://maps.google.com/mapfiles/kml/pushpin/ylw-pushpin.png</href>
                    </Icon>
                </IconStyle>
            </Style>
            <Style id="1807">
                <IconStyle id="1808">
                    <color>ff008000</color>
                    <colorMode>normal</colorMode>
                    <scale>1</scale>
                    <heading>0</heading>
                    <Icon id="1809">
                        <href>http://maps.google.com/mapfiles/kml/pushpin/ylw-pushpin.png</href>
                    </Icon>
                </IconStyle>
            </Style>
            <Style id="1812">
                <IconStyle id="1813">
                    <color>ff008000</color>
                    <colorMode>normal</colorMode>
                    <scale>1</scale>
                    <heading>0</heading>
                    <Icon id="1814">
                        <href>http://maps.google.com/mapfiles/kml/pushpin/ylw-pushpin.png</href>
                    </Icon>
                </IconStyle>
            </Style>
            <name>MANUEL ENRIQUE ZAPATA QUEVEDO</name>
            <Placemark id="1606">
                <name>MARGARITA VILCHEZ ZAPATA</name>
                <description>MARGARITA VILCHEZ ZAPATA
MZ. M LT.12 A.H. LA FLORIDA DE SECH
Sechura
Sechura
Piura
Perú</description>
                <styleUrl>#1607</styleUrl>
                <Point id="1605">
                    <coordinates>-80.8217025,-5.5657661,0.0</coordinates>
                </Point>
            </Placemark>
            <Placemark id="1611">
                <name>JHOVANY ZETA ZETA</name>
                <description>AAHH LA FLORIDA II ETAPA MZ H LT3 SECHURA-SECHURA
Sechura
Sechura
Piura
Perú</description>
                <styleUrl>#1612</styleUrl>
                <Point id="1610">
                    <coordinates>-80.817173,-5.563505,0.0</coordinates>
                </Point>
            </Placemark>
            <Placemark id="1616">
                <name>TUME TIMANA MARIA DEL PILAR</name>
                <description>MZ. D LT. 6 AAHH LOS TALLANES
Catacaos
Catacaos
Piura
Perú</description>
                <styleUrl>#1617</styleUrl>
                <Point id="1615">
                    <coordinates>-80.6737991,-5.2731799,0.0</coordinates>
                </Point>
            </Placemark>
            <Placemark id="1621">
                <name>ALICIA AURORA CHULLE FLORES</name>
                <description>AV BOLOGNESI 335 AH LUCAS CUTIVALU  CATACAOS
Catacaos

Piura
Perú</description>
                <styleUrl>#1622</styleUrl>
                <Point id="1620">
                    <coordinates>-80.6731799,-5.2703147,0.0</coordinates>
                </Point>
            </Placemark>
            <Placemark id="1626">
                <name>SANTOS CHIROQUE VILCHEZ</name>
                <description>AV GRAU 105  CURA MORI
Cura Mori
Piura
Piura
Perú</description>
                <styleUrl>#1627</styleUrl>
                <Point id="1625">
                    <coordinates>-80.6636925,-5.3183566,0.0</coordinates>
                </Point>
            </Placemark>
            <Placemark id="1631">
                <name>JESSICA DEL PILAR MORE SILUPU</name>
                <description>JR CHULUCANAS BR LOS ANGELES 408 CURAMORI-CATACAOS
Cura Mori
Piura
Piura
Perú</description>
                <styleUrl>#1632</styleUrl>
                <Point id="1630">
                    <coordinates>-80.663075,-5.3268375,0.0</coordinates>
                </Point>
            </Placemark>
            <Placemark id="1636">
                <name>LEILA MARIELA VILCHEZ VALVERDE</name>
                <description>CALLE CHULUCANAS 214 CURA MORI CATACAOS
Cura Mori
Piura
Piura
Perú</description>
                <styleUrl>#1637</styleUrl>
                <Point id="1635">
                    <coordinates>-80.6638903,-5.3266485,0.0</coordinates>
                </Point>
            </Placemark>
            <Placemark id="1641">
                <name>BETSABEE DEL CARMEN CRUZ DE SOSA</name>
                <description>JR.AREQUIPA S/NCURA MORI (FTE.COLEG
Cura Mori
Piura
Piura
Perú</description>
                <styleUrl>#1642</styleUrl>
                <Point id="1640">
                    <coordinates>-80.6645982,-5.3271238,0.0</coordinates>
                </Point>
            </Placemark>
            <Placemark id="1646">
                <name>MARIA ZAIDA ESPINOZA MORALES</name>
                <description>AH 26 DE NOVIEMBRE S/N  CALLE LOS JUBILADOS CURA MORI



Perú</description>
                <styleUrl>#1647</styleUrl>
                <Point id="1645">
                    <coordinates>-80.6665884,-5.3266216,0.0</coordinates>
                </Point>
            </Placemark>
            <Placemark id="1651">
                <name>JUANA MARIA PALACIOS DE CRUZ</name>
                <description>JR.GRAU NÂª903 CURA MORI
Cura Mori
Piura
Piura
Perú</description>
                <styleUrl>#1652</styleUrl>
                <Point id="1650">
                    <coordinates>-80.6651473,-5.3255838,0.0</coordinates>
                </Point>
            </Placemark>
            <Placemark id="1656">
                <name>ELIZABETH LOURDES COBEÑAS CRUZ</name>
                <description>ELIZABETH LOURDES COBEÑAS CRUZ
AV. GRAU 808 - CURAMORI
Cura Mori
Piura
Piura
Perú</description>
                <styleUrl>#1657</styleUrl>
                <Point id="1655">
                    <coordinates>-80.6651746,-5.3254305,0.0</coordinates>
                </Point>
            </Placemark>
            <Placemark id="1661">
                <name>WALTER MAZA CIELO</name>
                <description>WALTER MAZA CIELO
JR. PIURA 309 CURA MORI
Cura Mori
Piura
Piura
Perú</description>
                <styleUrl>#1662</styleUrl>
                <Point id="1660">
                    <coordinates>-80.6644239,-5.3250254,0.0</coordinates>
                </Point>
            </Placemark>
            <Placemark id="1666">
                <name>NERIDA ESTHER VALVERDE VILCHEZ</name>
                <description>ICA 511 MZ T LT 36
Cura Mori
Piura
Piura
Perú</description>
                <styleUrl>#1667</styleUrl>
                <Point id="1665">
                    <coordinates>-80.663948,-5.3230089,0.0</coordinates>
                </Point>
            </Placemark>
            <Placemark id="1671">
                <name>LUZ MERY ESPINOZA ZAPATA</name>
                <description>CALLEVSAN MARTIN M-S/L CURA MORI BARRIO MONTE VERDE
Cura Mori

Piura
Perú</description>
                <styleUrl>#1672</styleUrl>
                <Point id="1670">
                    <coordinates>-80.6590177,-5.3195756,0.0</coordinates>
                </Point>
            </Placemark>
            <Placemark id="1676">
                <name>IRMA SANDOVAL ZAPATA</name>
                <description>CALLE TACNA S/N AGRANEGRON ULLOA CURA MORI
Cura Mori
Piura
Piura
Perú</description>
                <styleUrl>#1677</styleUrl>
                <Point id="1675">
                    <coordinates>-80.6622022,-5.3195697,0.0</coordinates>
                </Point>
            </Placemark>
            <Placemark id="1681">
                <name>DIANA CAROLINA RAMOS VILCHEZ</name>
                <description>ATAHUALPA NÂ°190 ESQ.CON CA.ABRAHANNERI
Cura Mori
Piura
Piura
Perú</description>
                <styleUrl>#1682</styleUrl>
                <Point id="1680">
                    <coordinates>-80.6611066,-5.319522,0.0</coordinates>
                </Point>
            </Placemark>
            <Placemark id="1686">
                <name>MARIA ELENA PAZ MORE</name>
                <description>MARIA ELENA PAZ MORE
CA.ABRAHAM NERI 230 NVO.SANTA ROSACURA MORI
Cura Mori
Piura
Piura
Perú</description>
                <styleUrl>#1687</styleUrl>
                <Point id="1685">
                    <coordinates>-80.6616085,-5.3196928,0.0</coordinates>
                </Point>
            </Placemark>
            <Placemark id="1691">
                <name>JENNY MARGOT RAMOS MARCELO</name>
                <description>CA.ABRAHAN NERI 227 CURAMORI
Cura Mori
Piura
Piura
Perú</description>
                <styleUrl>#1692</styleUrl>
                <Point id="1690">
                    <coordinates>-80.6615704,-5.3195839,0.0</coordinates>
                </Point>
            </Placemark>
            <Placemark id="1696">
                <name>LUZ AMERICA TEZEN INGA</name>
                <description>CUSCO 121 MZ C LT 121
Cura Mori
Piura
Piura
Perú</description>
                <styleUrl>#1697</styleUrl>
                <Point id="1695">
                    <coordinates>-80.6628291,-5.3204638,0.0</coordinates>
                </Point>
            </Placemark>
            <Placemark id="1701">
                <name>KEVIN JOEL VILCHEZ FRIAS</name>
                <description>Av Grau Mz Ll Lote 12
Cura Mori
Piura
Piura
Perú</description>
                <styleUrl>#1702</styleUrl>
                <Point id="1700">
                    <coordinates>-80.6639731,-5.3213075,0.0</coordinates>
                </Point>
            </Placemark>
            <Placemark id="1706">
                <name>YULISSA SOFIA SANDOVAL RAMOS</name>
                <description>Mz lote 23 Cutivalu I etapa
Catacaos
Catacaos
Piura
Perú</description>
                <styleUrl>#1707</styleUrl>
                <Point id="1705">
                    <coordinates>-80.6732334,-5.2705231,0.0</coordinates>
                </Point>
            </Placemark>
            <Placemark id="1711">
                <name>JESUS WILFREDO PALACIOS CORREA</name>
                <description>CALLE SAN BORJA K LOT 16 CUTIVALU 2DA ETAPA
Catacaos
Catacaos
Piura
Perú</description>
                <styleUrl>#1712</styleUrl>
                <Point id="1710">
                    <coordinates>-80.6714618,-5.2720237,0.0</coordinates>
                </Point>
            </Placemark>
            <Placemark id="1716">
                <name>SOLVEY COBEÑAS LOZANO</name>
                <description>CA.GIRASOLES MZ.K LTE.1 II ETAPA CU
Catacaos
Catacaos
Piura
Perú</description>
                <styleUrl>#1717</styleUrl>
                <Point id="1715">
                    <coordinates>-80.6723984,-5.269623,0.0</coordinates>
                </Point>
            </Placemark>
            <Placemark id="1721">
                <name>MILAGROS DE JESUS AGUIRRE INGA</name>
                <description>AAHH LUCAS CUTIVALU MZ E LOT 12
Catacaos
Catacaos
Piura
Perú</description>
                <styleUrl>#1722</styleUrl>
                <Point id="1720">
                    <coordinates>-80.6698298,-5.2701674,0.0</coordinates>
                </Point>
            </Placemark>
            <Placemark id="1726">
                <name>SANDRA YOVERA VILCHES</name>
                <description>AH CRISTIAN REQUENA A-13
Catacaos

Piura
Perú</description>
                <styleUrl>#1727</styleUrl>
                <Point id="1725">
                    <coordinates>-80.669579,-5.270196,0.0</coordinates>
                </Point>
            </Placemark>
            <Placemark id="1731">
                <name>DALINDA MAZA HERNANDEZ</name>
                <description>AH CRISTIAN REQUENA D-15.CATACAOS
Catacaos

Piura
Perú</description>
                <styleUrl>#1732</styleUrl>
                <Point id="1730">
                    <coordinates>-80.669229,-5.270344,0.0</coordinates>
                </Point>
            </Placemark>
            <Placemark id="1736">
                <name>ALICIA MELANY SIESQUEN ADANAQUE</name>
                <description>CALLE ARROYO MIO AAHH CRISTIAN REQUENA MZ D LT 22
Catacaos

Piura
Perú</description>
                <styleUrl>#1737</styleUrl>
                <Point id="1735">
                    <coordinates>-80.668916,-5.270805,0.0</coordinates>
                </Point>
            </Placemark>
            <Placemark id="1741">
                <name>MARIA OJEDA MORALES</name>
                <description>CA ARROYO MIO MZ C LOT16 AH CUTIVALU
Catacaos
Catacaos
Piura
Perú</description>
                <styleUrl>#1742</styleUrl>
                <Point id="1740">
                    <coordinates>-80.6682351,-5.269016,0.0</coordinates>
                </Point>
            </Placemark>
            <Placemark id="1746">
                <name>GRECIA CAROLINA SILVA SILVA</name>
                <description>AAHH CRISTHIAN REQUENA NRO 1 MZ A LOT 1 INT 1
Catacaos
Catacaos
Piura
Perú</description>
                <styleUrl>#1747</styleUrl>
                <Point id="1745">
                    <coordinates>-80.6681619,-5.2690583,0.0</coordinates>
                </Point>
            </Placemark>
            <Placemark id="1751">
                <name>ROSA ELENA QUINTANA CASTILLO</name>
                <description>AVENIDA GRAU 1219 GRAU 1219
Cura Mori
Piura
Piura
Perú</description>
                <styleUrl>#1752</styleUrl>
                <Point id="1750">
                    <coordinates>-80.6662024,-5.3289208,0.0</coordinates>
                </Point>
            </Placemark>
            <Placemark id="1756">
                <name>JUSTA PASTORA FLORES RAMOS</name>
                <description>AH LUCAS CUTIVALU 104 CATACAOS
Catacaos

Piura
Perú</description>
                <styleUrl>#1757</styleUrl>
                <Point id="1755">
                    <coordinates>-80.670319,-5.268341,0.0</coordinates>
                </Point>
            </Placemark>
            <Placemark id="1761">
                <name>MARIA DOLORES SULLON VERA</name>
                <description>MARIA DOLORES SULLON VERA
CAL. A.A.CACERES NÂº108 A.H.LUCAS C
Catacaos

Piura
Perú</description>
                <styleUrl>#1762</styleUrl>
                <Point id="1760">
                    <coordinates>-80.6706994,-5.2682161,0.0</coordinates>
                </Point>
            </Placemark>
            <Placemark id="1766">
                <name>JESUS ANGEL JUAREZ VILCHEZ</name>
                <description>JIRON ATAHUALPA MZN-2 LOTE17 CURA MORI CATACAOS
Cura Mori
Piura
Piura
Perú</description>
                <styleUrl>#1767</styleUrl>
                <Point id="1765">
                    <coordinates>-80.6622469,-5.325095,0.0</coordinates>
                </Point>
            </Placemark>
            <Placemark id="1771">
                <name>YOLANDA CASTRO NIZAMA</name>
                <description>Av Juan Velasco Alvarado 137 cp pozo de los ramos
Cura Mori
Piura
Piura
Perú</description>
                <styleUrl>#1772</styleUrl>
                <Point id="1770">
                    <coordinates>-80.6630659,-5.3466946,0.0</coordinates>
                </Point>
            </Placemark>
            <Placemark id="1776">
                <name>ROSA DAYSI CORDOVA VIERA</name>
                <description>ANDRES AVELINO CACERES J LOT 18 LUCAS CUTIVALU 2DA ETAPA
Catacaos
Catacaos
Piura
Perú</description>
                <styleUrl>#1777</styleUrl>
                <Point id="1775">
                    <coordinates>-80.6716927,-5.2698848,0.0</coordinates>
                </Point>
            </Placemark>
            <Placemark id="1781">
                <name>LUZ ANGELICA IPANAQUE SOSA</name>
                <description>CA. ANDRES A.CACERES NÂ°311 AH.LUCAS CUTIVALU
Catacaos
Catacaos
Piura
Perú</description>
                <styleUrl>#1782</styleUrl>
                <Point id="1780">
                    <coordinates>-80.6719602,-5.2704345,0.0</coordinates>
                </Point>
            </Placemark>
            <Placemark id="1786">
                <name>CARRASCO FARFAN PIERINA</name>
                <description>AAHH TALLANES 2DA ETAPA MZ C LT 2
Catacaos

Piura
Perú</description>
                <styleUrl>#1787</styleUrl>
                <Point id="1785">
                    <coordinates>-80.673902,-5.2744896,0.0</coordinates>
                </Point>
            </Placemark>
            <Placemark id="1791">
                <name>EMMA LLACSAHUACHE RIVERA</name>
                <description>MZ C LOT 1 AH LOS TALLANES II ETAPA
Catacaos
Catacaos
Piura
Perú</description>
                <styleUrl>#1792</styleUrl>
                <Point id="1790">
                    <coordinates>-80.6738111,-5.274504,0.0</coordinates>
                </Point>
            </Placemark>
            <Placemark id="1796">
                <name>KATHERINE JANETH JIMENEZ BERNABE</name>
                <description>12 DE SETIEMBRE C-18 AH.TALLANES
Catacaos
Catacaos
Piura
Perú</description>
                <styleUrl>#1797</styleUrl>
                <Point id="1795">
                    <coordinates>-80.6737989,-5.2731894,0.0</coordinates>
                </Point>
            </Placemark>
            <Placemark id="1801">
                <name>TUME TIMANA MARIA DEL PILAR</name>
                <description>MZ. D LT. 6 AAHH LOS TALLANES
Catacaos
Catacaos
Piura
Perú</description>
                <styleUrl>#1802</styleUrl>
                <Point id="1800">
                    <coordinates>-80.6737991,-5.2731799,0.0</coordinates>
                </Point>
            </Placemark>
            <Placemark id="1806">
                <name>JULIA ROSA MASIAS MENDOZA</name>
                <description>Las palmeras del norte MZ J Lt 35
Catacaos

Piura
Perú</description>
                <styleUrl>#1807</styleUrl>
                <Point id="1805">
                    <coordinates>-80.6718609,-5.2689362,0.0</coordinates>
                </Point>
            </Placemark>
            <Placemark id="1811">
                <name>ROSALIA ESTRADA CARDOZA</name>
                <description>LAS PALMERAS LUCAS CUTIVALU II ETAPA 110 CATACOS-PIURA
Catacaos
Catacaos
Piura
Perú</description>
                <styleUrl>#1812</styleUrl>
                <Point id="1810">
                    <coordinates>-80.6712484,-5.2677744,0.0</coordinates>
                </Point>
            </Placemark>
        </Folder>
    </Document>
</kml>
