<?xml version="1.0" encoding="UTF-8"?>
<kml xmlns="http://www.opengis.net/kml/2.2" xmlns:gx="http://www.google.com/kml/ext/2.2">
    <Document id="1415">
        <Folder id="1416">
            <Style id="1419">
                <IconStyle id="1420">
                    <color>ff0000ff</color>
                    <colorMode>normal</colorMode>
                    <scale>1</scale>
                    <heading>0</heading>
                    <Icon id="1421">
                        <href>http://maps.google.com/mapfiles/kml/pushpin/ylw-pushpin.png</href>
                    </Icon>
                </IconStyle>
            </Style>
            <Style id="1424">
                <IconStyle id="1425">
                    <color>ff0000ff</color>
                    <colorMode>normal</colorMode>
                    <scale>1</scale>
                    <heading>0</heading>
                    <Icon id="1426">
                        <href>http://maps.google.com/mapfiles/kml/pushpin/ylw-pushpin.png</href>
                    </Icon>
                </IconStyle>
            </Style>
            <Style id="1429">
                <IconStyle id="1430">
                    <color>ff0000ff</color>
                    <colorMode>normal</colorMode>
                    <scale>1</scale>
                    <heading>0</heading>
                    <Icon id="1431">
                        <href>http://maps.google.com/mapfiles/kml/pushpin/ylw-pushpin.png</href>
                    </Icon>
                </IconStyle>
            </Style>
            <Style id="1434">
                <IconStyle id="1435">
                    <color>ff0000ff</color>
                    <colorMode>normal</colorMode>
                    <scale>1</scale>
                    <heading>0</heading>
                    <Icon id="1436">
                        <href>http://maps.google.com/mapfiles/kml/pushpin/ylw-pushpin.png</href>
                    </Icon>
                </IconStyle>
            </Style>
            <Style id="1439">
                <IconStyle id="1440">
                    <color>ff0000ff</color>
                    <colorMode>normal</colorMode>
                    <scale>1</scale>
                    <heading>0</heading>
                    <Icon id="1441">
                        <href>http://maps.google.com/mapfiles/kml/pushpin/ylw-pushpin.png</href>
                    </Icon>
                </IconStyle>
            </Style>
            <Style id="1444">
                <IconStyle id="1445">
                    <color>ff0000ff</color>
                    <colorMode>normal</colorMode>
                    <scale>1</scale>
                    <heading>0</heading>
                    <Icon id="1446">
                        <href>http://maps.google.com/mapfiles/kml/pushpin/ylw-pushpin.png</href>
                    </Icon>
                </IconStyle>
            </Style>
            <Style id="1449">
                <IconStyle id="1450">
                    <color>ff0000ff</color>
                    <colorMode>normal</colorMode>
                    <scale>1</scale>
                    <heading>0</heading>
                    <Icon id="1451">
                        <href>http://maps.google.com/mapfiles/kml/pushpin/ylw-pushpin.png</href>
                    </Icon>
                </IconStyle>
            </Style>
            <Style id="1454">
                <IconStyle id="1455">
                    <color>ff0000ff</color>
                    <colorMode>normal</colorMode>
                    <scale>1</scale>
                    <heading>0</heading>
                    <Icon id="1456">
                        <href>http://maps.google.com/mapfiles/kml/pushpin/ylw-pushpin.png</href>
                    </Icon>
                </IconStyle>
            </Style>
            <Style id="1459">
                <IconStyle id="1460">
                    <color>ff0000ff</color>
                    <colorMode>normal</colorMode>
                    <scale>1</scale>
                    <heading>0</heading>
                    <Icon id="1461">
                        <href>http://maps.google.com/mapfiles/kml/pushpin/ylw-pushpin.png</href>
                    </Icon>
                </IconStyle>
            </Style>
            <Style id="1464">
                <IconStyle id="1465">
                    <color>ff0000ff</color>
                    <colorMode>normal</colorMode>
                    <scale>1</scale>
                    <heading>0</heading>
                    <Icon id="1466">
                        <href>http://maps.google.com/mapfiles/kml/pushpin/ylw-pushpin.png</href>
                    </Icon>
                </IconStyle>
            </Style>
            <Style id="1469">
                <IconStyle id="1470">
                    <color>ff0000ff</color>
                    <colorMode>normal</colorMode>
                    <scale>1</scale>
                    <heading>0</heading>
                    <Icon id="1471">
                        <href>http://maps.google.com/mapfiles/kml/pushpin/ylw-pushpin.png</href>
                    </Icon>
                </IconStyle>
            </Style>
            <Style id="1474">
                <IconStyle id="1475">
                    <color>ff0000ff</color>
                    <colorMode>normal</colorMode>
                    <scale>1</scale>
                    <heading>0</heading>
                    <Icon id="1476">
                        <href>http://maps.google.com/mapfiles/kml/pushpin/ylw-pushpin.png</href>
                    </Icon>
                </IconStyle>
            </Style>
            <Style id="1479">
                <IconStyle id="1480">
                    <color>ff0000ff</color>
                    <colorMode>normal</colorMode>
                    <scale>1</scale>
                    <heading>0</heading>
                    <Icon id="1481">
                        <href>http://maps.google.com/mapfiles/kml/pushpin/ylw-pushpin.png</href>
                    </Icon>
                </IconStyle>
            </Style>
            <Style id="1484">
                <IconStyle id="1485">
                    <color>ff0000ff</color>
                    <colorMode>normal</colorMode>
                    <scale>1</scale>
                    <heading>0</heading>
                    <Icon id="1486">
                        <href>http://maps.google.com/mapfiles/kml/pushpin/ylw-pushpin.png</href>
                    </Icon>
                </IconStyle>
            </Style>
            <Style id="1489">
                <IconStyle id="1490">
                    <color>ff0000ff</color>
                    <colorMode>normal</colorMode>
                    <scale>1</scale>
                    <heading>0</heading>
                    <Icon id="1491">
                        <href>http://maps.google.com/mapfiles/kml/pushpin/ylw-pushpin.png</href>
                    </Icon>
                </IconStyle>
            </Style>
            <Style id="1494">
                <IconStyle id="1495">
                    <color>ff0000ff</color>
                    <colorMode>normal</colorMode>
                    <scale>1</scale>
                    <heading>0</heading>
                    <Icon id="1496">
                        <href>http://maps.google.com/mapfiles/kml/pushpin/ylw-pushpin.png</href>
                    </Icon>
                </IconStyle>
            </Style>
            <Style id="1499">
                <IconStyle id="1500">
                    <color>ff0000ff</color>
                    <colorMode>normal</colorMode>
                    <scale>1</scale>
                    <heading>0</heading>
                    <Icon id="1501">
                        <href>http://maps.google.com/mapfiles/kml/pushpin/ylw-pushpin.png</href>
                    </Icon>
                </IconStyle>
            </Style>
            <Style id="1504">
                <IconStyle id="1505">
                    <color>ff0000ff</color>
                    <colorMode>normal</colorMode>
                    <scale>1</scale>
                    <heading>0</heading>
                    <Icon id="1506">
                        <href>http://maps.google.com/mapfiles/kml/pushpin/ylw-pushpin.png</href>
                    </Icon>
                </IconStyle>
            </Style>
            <Style id="1509">
                <IconStyle id="1510">
                    <color>ff0000ff</color>
                    <colorMode>normal</colorMode>
                    <scale>1</scale>
                    <heading>0</heading>
                    <Icon id="1511">
                        <href>http://maps.google.com/mapfiles/kml/pushpin/ylw-pushpin.png</href>
                    </Icon>
                </IconStyle>
            </Style>
            <Style id="1514">
                <IconStyle id="1515">
                    <color>ff0000ff</color>
                    <colorMode>normal</colorMode>
                    <scale>1</scale>
                    <heading>0</heading>
                    <Icon id="1516">
                        <href>http://maps.google.com/mapfiles/kml/pushpin/ylw-pushpin.png</href>
                    </Icon>
                </IconStyle>
            </Style>
            <Style id="1519">
                <IconStyle id="1520">
                    <color>ff0000ff</color>
                    <colorMode>normal</colorMode>
                    <scale>1</scale>
                    <heading>0</heading>
                    <Icon id="1521">
                        <href>http://maps.google.com/mapfiles/kml/pushpin/ylw-pushpin.png</href>
                    </Icon>
                </IconStyle>
            </Style>
            <name>BRAYAN ALEXANDER IPANAQUE CASTRO</name>
            <Placemark id="1418">
                <name>BEST SKY S.R.L.</name>
                <description>BEST SKY S.R.L.
AV. CAYETANO HEREDIA MZA. A 1 LOTE. 08 OTR.  CERCADO
Catacaos
200105Piura
Piura
Perú</description>
                <styleUrl>#1419</styleUrl>
                <Point id="1417">
                    <coordinates>-80.6700281,-5.2635855,0.0</coordinates>
                </Point>
            </Placemark>
            <Placemark id="1423">
                <name>RAMOS ALAMO AYUMI MADELEINE</name>
                <description>RAMOS ALAMO AYUMI MADELEINE
JR. COMERCIO 600 CATACAOS
Catacaos
Catacaos
Piura
Perú</description>
                <styleUrl>#1424</styleUrl>
                <Point id="1422">
                    <coordinates>-80.676772,-5.266907,0.0</coordinates>
                </Point>
            </Placemark>
            <Placemark id="1428">
                <name>ANGELICA MARIA IPANAQUE YOVERA</name>
                <description>JR.PIURA 341- 329 CATACAOS
Catacaos
Catacaos
Piura
Perú</description>
                <styleUrl>#1429</styleUrl>
                <Point id="1427">
                    <coordinates>-80.6737762,-5.2623149,0.0</coordinates>
                </Point>
            </Placemark>
            <Placemark id="1433">
                <name>RAMOS ALAMO AYUMI MADELEINE</name>
                <description>RAMOS ALAMO AYUMI MADELEINE
JR. COMERCIO 600 CATACAOS
Catacaos
Catacaos
Piura
Perú</description>
                <styleUrl>#1434</styleUrl>
                <Point id="1432">
                    <coordinates>-80.676772,-5.266907,0.0</coordinates>
                </Point>
            </Placemark>
            <Placemark id="1438">
                <name>DIONISIA SOSA IPANAQUE</name>
                <description>JR.MARIANO DIAZ NÂ°419 AH.CARLOS MARIATEGUI CATACAO
Catacaos
Catacaos
Piura
Perú</description>
                <styleUrl>#1439</styleUrl>
                <Point id="1437">
                    <coordinates>-80.6710244,-5.2584973,0.0</coordinates>
                </Point>
            </Placemark>
            <Placemark id="1443">
                <name>MARIA ORFELINDA SANCHEZ LACHIRA</name>
                <description>MARIA ORFELINDA SANCHEZ LACHIRA
JR. PIURA NRO. 284 - CATACAOS
Catacaos
Catacaos
Piura
Perú</description>
                <styleUrl>#1444</styleUrl>
                <Point id="1442">
                    <coordinates>-80.6733511,-5.2612622,0.0</coordinates>
                </Point>
            </Placemark>
            <Placemark id="1448">
                <name>ANGELICA MARIA IPANAQUE YOVERA</name>
                <description>JR.PIURA 341- 329 CATACAOS
Catacaos
Catacaos
Piura
Perú</description>
                <styleUrl>#1449</styleUrl>
                <Point id="1447">
                    <coordinates>-80.6737762,-5.2623149,0.0</coordinates>
                </Point>
            </Placemark>
            <Placemark id="1453">
                <name>MIRIAM FANY AMAYA LA CHIRA</name>
                <description>JR. PIURA N°360-342 - CATACAOS
Catacaos
Catacaos
Piura
Perú</description>
                <styleUrl>#1454</styleUrl>
                <Point id="1452">
                    <coordinates>-80.6740089,-5.262534,0.0</coordinates>
                </Point>
            </Placemark>
            <Placemark id="1458">
                <name>BIKABE S.A.C.</name>
                <description>BIKABE S.A.C.
CALLE COMERCIO 224
Catacaos
200105Catacaos
Piura
Perú</description>
                <styleUrl>#1459</styleUrl>
                <Point id="1457">
                    <coordinates>-80.6756577,-5.2628678,0.0</coordinates>
                </Point>
            </Placemark>
            <Placemark id="1463">
                <name>GISELA FABIOLA PALACIOS LEON</name>
                <description>Zepita 283 frente el colegio jacobo crz villegas ex27
Catacaos
Catacaos
Piura
Perú</description>
                <styleUrl>#1464</styleUrl>
                <Point id="1462">
                    <coordinates>-80.6751358,-5.2626895,0.0</coordinates>
                </Point>
            </Placemark>
            <Placemark id="1468">
                <name>FREDDY ALEXANDER GUTIERREZ SULLON</name>
                <description>CALLE ALFONSO ANCAJIMA MZ A -16 AAHH JACOBO CRUZ
Catacaos
Catacaos
Piura
Perú</description>
                <styleUrl>#1469</styleUrl>
                <Point id="1467">
                    <coordinates>-80.6775632,-5.2637998,0.0</coordinates>
                </Point>
            </Placemark>
            <Placemark id="1473">
                <name>YANET MORALES HUIMAN</name>
                <description>Ampliación José Cayetano Heredia mz c lt 13
Catacaos
Catacaos
Piura
Perú</description>
                <styleUrl>#1474</styleUrl>
                <Point id="1472">
                    <coordinates>-80.6813167,-5.264135,0.0</coordinates>
                </Point>
            </Placemark>
            <Placemark id="1478">
                <name>DAVID ADRIAN PRIETO ANCAJIMA</name>
                <description>DAVID ADRIAN PRIETO ANCAJIMA
MZA. D LOTE. 02 A.H. JUAN DE MORI I
Catacaos
Catacaos
Piura
Perú</description>
                <styleUrl>#1479</styleUrl>
                <Point id="1477">
                    <coordinates>-80.6802002,-5.2659837,0.0</coordinates>
                </Point>
            </Placemark>
            <Placemark id="1483">
                <name>ITALO OSWALDO MARTINEZ ESPINOZA</name>
                <description>CA.TRES MZ C LT 5 AH.JUAN DE MORI 2
Catacaos
Catacaos
Piura
Perú</description>
                <styleUrl>#1484</styleUrl>
                <Point id="1482">
                    <coordinates>-80.6800883,-5.26555,0.0</coordinates>
                </Point>
            </Placemark>
            <Placemark id="1488">
                <name>CARLOS RAFAEL CASTILLO QUEZADA</name>
                <description>CA 3 LOT 9 AAHH JUAN DE MORI
Catacaos

Piura
Perú</description>
                <styleUrl>#1489</styleUrl>
                <Point id="1487">
                    <coordinates>-80.6794339,-5.2659298,0.0</coordinates>
                </Point>
            </Placemark>
            <Placemark id="1493">
                <name>JUAN MARTIN GUTIERREZ SULLON</name>
                <description>JUAN MARTIN GUTIERREZ SULLON
AV CAYETANO HEREDIA 630-B CATACAOS
Catacaos
Catacaos
Piura
Perú</description>
                <styleUrl>#1494</styleUrl>
                <Point id="1492">
                    <coordinates>-80.6752844,-5.2653962,0.0</coordinates>
                </Point>
            </Placemark>
            <Placemark id="1498">
                <name>BITIA RAQUEL SILUPU VEGA</name>
                <description>JR MARIANO DIAZ 1497 - CATACAOS
Catacaos
Catacaos
Piura
Perú</description>
                <styleUrl>#1499</styleUrl>
                <Point id="1497">
                    <coordinates>-80.6749151,-5.2684206,0.0</coordinates>
                </Point>
            </Placemark>
            <Placemark id="1503">
                <name>MILAGROS LORENA NAVARRO INGA</name>
                <description>JR. TUMBES NÂ°807 .-CATACAOS
Catacaos
Catacaos
Piura
Perú</description>
                <styleUrl>#1504</styleUrl>
                <Point id="1502">
                    <coordinates>-80.6740195,-5.2677571,0.0</coordinates>
                </Point>
            </Placemark>
            <Placemark id="1508">
                <name>JULISSA VANESSA LAZO BAUTISTA</name>
                <description>JR. MARIANO DIAZ NÂ°1320 C.P.-CATAC
Catacaos
Catacaos
Piura
Perú</description>
                <styleUrl>#1509</styleUrl>
                <Point id="1507">
                    <coordinates>-80.6746032,-5.2672532,0.0</coordinates>
                </Point>
            </Placemark>
            <Placemark id="1513">
                <name>ANGELA DEL SOCORRO COELLO ROQUE</name>
                <description>JR LORETO104 JR GRAU CATACAOS
Catacaos
Catacaos
Piura
Perú</description>
                <styleUrl>#1514</styleUrl>
                <Point id="1512">
                    <coordinates>-80.6741517,-5.2671533,0.0</coordinates>
                </Point>
            </Placemark>
            <Placemark id="1518">
                <name>ANGELICA PAZ DE RAMOS</name>
                <description>ANGELICA PAZ DE RAMOS
PLG. ALEJANDRO TABOADA 349 CERC.
Catacaos
Catacaos
Piura
Perú</description>
                <styleUrl>#1519</styleUrl>
                <Point id="1517">
                    <coordinates>-80.6730447,-5.2670194,0.0</coordinates>
                </Point>
            </Placemark>
        </Folder>
    </Document>
</kml>
