<?xml version="1.0" encoding="UTF-8"?>
<kml xmlns="http://www.opengis.net/kml/2.2" xmlns:gx="http://www.google.com/kml/ext/2.2">
    <Document id="942">
        <Folder id="943">
            <Style id="946">
                <IconStyle id="947">
                    <color>ff0000ff</color>
                    <colorMode>normal</colorMode>
                    <scale>1</scale>
                    <heading>0</heading>
                    <Icon id="948">
                        <href>http://maps.google.com/mapfiles/kml/pushpin/ylw-pushpin.png</href>
                    </Icon>
                </IconStyle>
            </Style>
            <Style id="951">
                <IconStyle id="952">
                    <color>ff0000ff</color>
                    <colorMode>normal</colorMode>
                    <scale>1</scale>
                    <heading>0</heading>
                    <Icon id="953">
                        <href>http://maps.google.com/mapfiles/kml/pushpin/ylw-pushpin.png</href>
                    </Icon>
                </IconStyle>
            </Style>
            <Style id="956">
                <IconStyle id="957">
                    <color>ff0000ff</color>
                    <colorMode>normal</colorMode>
                    <scale>1</scale>
                    <heading>0</heading>
                    <Icon id="958">
                        <href>http://maps.google.com/mapfiles/kml/pushpin/ylw-pushpin.png</href>
                    </Icon>
                </IconStyle>
            </Style>
            <Style id="961">
                <IconStyle id="962">
                    <color>ff0000ff</color>
                    <colorMode>normal</colorMode>
                    <scale>1</scale>
                    <heading>0</heading>
                    <Icon id="963">
                        <href>http://maps.google.com/mapfiles/kml/pushpin/ylw-pushpin.png</href>
                    </Icon>
                </IconStyle>
            </Style>
            <Style id="966">
                <IconStyle id="967">
                    <color>ff0000ff</color>
                    <colorMode>normal</colorMode>
                    <scale>1</scale>
                    <heading>0</heading>
                    <Icon id="968">
                        <href>http://maps.google.com/mapfiles/kml/pushpin/ylw-pushpin.png</href>
                    </Icon>
                </IconStyle>
            </Style>
            <Style id="971">
                <IconStyle id="972">
                    <color>ff0000ff</color>
                    <colorMode>normal</colorMode>
                    <scale>1</scale>
                    <heading>0</heading>
                    <Icon id="973">
                        <href>http://maps.google.com/mapfiles/kml/pushpin/ylw-pushpin.png</href>
                    </Icon>
                </IconStyle>
            </Style>
            <Style id="976">
                <IconStyle id="977">
                    <color>ff0000ff</color>
                    <colorMode>normal</colorMode>
                    <scale>1</scale>
                    <heading>0</heading>
                    <Icon id="978">
                        <href>http://maps.google.com/mapfiles/kml/pushpin/ylw-pushpin.png</href>
                    </Icon>
                </IconStyle>
            </Style>
            <Style id="981">
                <IconStyle id="982">
                    <color>ff0000ff</color>
                    <colorMode>normal</colorMode>
                    <scale>1</scale>
                    <heading>0</heading>
                    <Icon id="983">
                        <href>http://maps.google.com/mapfiles/kml/pushpin/ylw-pushpin.png</href>
                    </Icon>
                </IconStyle>
            </Style>
            <Style id="986">
                <IconStyle id="987">
                    <color>ff0000ff</color>
                    <colorMode>normal</colorMode>
                    <scale>1</scale>
                    <heading>0</heading>
                    <Icon id="988">
                        <href>http://maps.google.com/mapfiles/kml/pushpin/ylw-pushpin.png</href>
                    </Icon>
                </IconStyle>
            </Style>
            <Style id="991">
                <IconStyle id="992">
                    <color>ff0000ff</color>
                    <colorMode>normal</colorMode>
                    <scale>1</scale>
                    <heading>0</heading>
                    <Icon id="993">
                        <href>http://maps.google.com/mapfiles/kml/pushpin/ylw-pushpin.png</href>
                    </Icon>
                </IconStyle>
            </Style>
            <Style id="996">
                <IconStyle id="997">
                    <color>ff0000ff</color>
                    <colorMode>normal</colorMode>
                    <scale>1</scale>
                    <heading>0</heading>
                    <Icon id="998">
                        <href>http://maps.google.com/mapfiles/kml/pushpin/ylw-pushpin.png</href>
                    </Icon>
                </IconStyle>
            </Style>
            <Style id="1001">
                <IconStyle id="1002">
                    <color>ff0000ff</color>
                    <colorMode>normal</colorMode>
                    <scale>1</scale>
                    <heading>0</heading>
                    <Icon id="1003">
                        <href>http://maps.google.com/mapfiles/kml/pushpin/ylw-pushpin.png</href>
                    </Icon>
                </IconStyle>
            </Style>
            <Style id="1006">
                <IconStyle id="1007">
                    <color>ff0000ff</color>
                    <colorMode>normal</colorMode>
                    <scale>1</scale>
                    <heading>0</heading>
                    <Icon id="1008">
                        <href>http://maps.google.com/mapfiles/kml/pushpin/ylw-pushpin.png</href>
                    </Icon>
                </IconStyle>
            </Style>
            <Style id="1011">
                <IconStyle id="1012">
                    <color>ff0000ff</color>
                    <colorMode>normal</colorMode>
                    <scale>1</scale>
                    <heading>0</heading>
                    <Icon id="1013">
                        <href>http://maps.google.com/mapfiles/kml/pushpin/ylw-pushpin.png</href>
                    </Icon>
                </IconStyle>
            </Style>
            <Style id="1016">
                <IconStyle id="1017">
                    <color>ff0000ff</color>
                    <colorMode>normal</colorMode>
                    <scale>1</scale>
                    <heading>0</heading>
                    <Icon id="1018">
                        <href>http://maps.google.com/mapfiles/kml/pushpin/ylw-pushpin.png</href>
                    </Icon>
                </IconStyle>
            </Style>
            <Style id="1021">
                <IconStyle id="1022">
                    <color>ff0000ff</color>
                    <colorMode>normal</colorMode>
                    <scale>1</scale>
                    <heading>0</heading>
                    <Icon id="1023">
                        <href>http://maps.google.com/mapfiles/kml/pushpin/ylw-pushpin.png</href>
                    </Icon>
                </IconStyle>
            </Style>
            <Style id="1026">
                <IconStyle id="1027">
                    <color>ff0000ff</color>
                    <colorMode>normal</colorMode>
                    <scale>1</scale>
                    <heading>0</heading>
                    <Icon id="1028">
                        <href>http://maps.google.com/mapfiles/kml/pushpin/ylw-pushpin.png</href>
                    </Icon>
                </IconStyle>
            </Style>
            <Style id="1031">
                <IconStyle id="1032">
                    <color>ff0000ff</color>
                    <colorMode>normal</colorMode>
                    <scale>1</scale>
                    <heading>0</heading>
                    <Icon id="1033">
                        <href>http://maps.google.com/mapfiles/kml/pushpin/ylw-pushpin.png</href>
                    </Icon>
                </IconStyle>
            </Style>
            <Style id="1036">
                <IconStyle id="1037">
                    <color>ff0000ff</color>
                    <colorMode>normal</colorMode>
                    <scale>1</scale>
                    <heading>0</heading>
                    <Icon id="1038">
                        <href>http://maps.google.com/mapfiles/kml/pushpin/ylw-pushpin.png</href>
                    </Icon>
                </IconStyle>
            </Style>
            <Style id="1041">
                <IconStyle id="1042">
                    <color>ff0000ff</color>
                    <colorMode>normal</colorMode>
                    <scale>1</scale>
                    <heading>0</heading>
                    <Icon id="1043">
                        <href>http://maps.google.com/mapfiles/kml/pushpin/ylw-pushpin.png</href>
                    </Icon>
                </IconStyle>
            </Style>
            <Style id="1046">
                <IconStyle id="1047">
                    <color>ff0000ff</color>
                    <colorMode>normal</colorMode>
                    <scale>1</scale>
                    <heading>0</heading>
                    <Icon id="1048">
                        <href>http://maps.google.com/mapfiles/kml/pushpin/ylw-pushpin.png</href>
                    </Icon>
                </IconStyle>
            </Style>
            <Style id="1051">
                <IconStyle id="1052">
                    <color>ff0000ff</color>
                    <colorMode>normal</colorMode>
                    <scale>1</scale>
                    <heading>0</heading>
                    <Icon id="1053">
                        <href>http://maps.google.com/mapfiles/kml/pushpin/ylw-pushpin.png</href>
                    </Icon>
                </IconStyle>
            </Style>
            <Style id="1056">
                <IconStyle id="1057">
                    <color>ff0000ff</color>
                    <colorMode>normal</colorMode>
                    <scale>1</scale>
                    <heading>0</heading>
                    <Icon id="1058">
                        <href>http://maps.google.com/mapfiles/kml/pushpin/ylw-pushpin.png</href>
                    </Icon>
                </IconStyle>
            </Style>
            <Style id="1061">
                <IconStyle id="1062">
                    <color>ff0000ff</color>
                    <colorMode>normal</colorMode>
                    <scale>1</scale>
                    <heading>0</heading>
                    <Icon id="1063">
                        <href>http://maps.google.com/mapfiles/kml/pushpin/ylw-pushpin.png</href>
                    </Icon>
                </IconStyle>
            </Style>
            <Style id="1066">
                <IconStyle id="1067">
                    <color>ff0000ff</color>
                    <colorMode>normal</colorMode>
                    <scale>1</scale>
                    <heading>0</heading>
                    <Icon id="1068">
                        <href>http://maps.google.com/mapfiles/kml/pushpin/ylw-pushpin.png</href>
                    </Icon>
                </IconStyle>
            </Style>
            <Style id="1071">
                <IconStyle id="1072">
                    <color>ff0000ff</color>
                    <colorMode>normal</colorMode>
                    <scale>1</scale>
                    <heading>0</heading>
                    <Icon id="1073">
                        <href>http://maps.google.com/mapfiles/kml/pushpin/ylw-pushpin.png</href>
                    </Icon>
                </IconStyle>
            </Style>
            <Style id="1076">
                <IconStyle id="1077">
                    <color>ff0000ff</color>
                    <colorMode>normal</colorMode>
                    <scale>1</scale>
                    <heading>0</heading>
                    <Icon id="1078">
                        <href>http://maps.google.com/mapfiles/kml/pushpin/ylw-pushpin.png</href>
                    </Icon>
                </IconStyle>
            </Style>
            <Style id="1081">
                <IconStyle id="1082">
                    <color>ff0000ff</color>
                    <colorMode>normal</colorMode>
                    <scale>1</scale>
                    <heading>0</heading>
                    <Icon id="1083">
                        <href>http://maps.google.com/mapfiles/kml/pushpin/ylw-pushpin.png</href>
                    </Icon>
                </IconStyle>
            </Style>
            <Style id="1086">
                <IconStyle id="1087">
                    <color>ff0000ff</color>
                    <colorMode>normal</colorMode>
                    <scale>1</scale>
                    <heading>0</heading>
                    <Icon id="1088">
                        <href>http://maps.google.com/mapfiles/kml/pushpin/ylw-pushpin.png</href>
                    </Icon>
                </IconStyle>
            </Style>
            <Style id="1091">
                <IconStyle id="1092">
                    <color>ff0000ff</color>
                    <colorMode>normal</colorMode>
                    <scale>1</scale>
                    <heading>0</heading>
                    <Icon id="1093">
                        <href>http://maps.google.com/mapfiles/kml/pushpin/ylw-pushpin.png</href>
                    </Icon>
                </IconStyle>
            </Style>
            <Style id="1096">
                <IconStyle id="1097">
                    <color>ff0000ff</color>
                    <colorMode>normal</colorMode>
                    <scale>1</scale>
                    <heading>0</heading>
                    <Icon id="1098">
                        <href>http://maps.google.com/mapfiles/kml/pushpin/ylw-pushpin.png</href>
                    </Icon>
                </IconStyle>
            </Style>
            <Style id="1101">
                <IconStyle id="1102">
                    <color>ff0000ff</color>
                    <colorMode>normal</colorMode>
                    <scale>1</scale>
                    <heading>0</heading>
                    <Icon id="1103">
                        <href>http://maps.google.com/mapfiles/kml/pushpin/ylw-pushpin.png</href>
                    </Icon>
                </IconStyle>
            </Style>
            <Style id="1106">
                <IconStyle id="1107">
                    <color>ff0000ff</color>
                    <colorMode>normal</colorMode>
                    <scale>1</scale>
                    <heading>0</heading>
                    <Icon id="1108">
                        <href>http://maps.google.com/mapfiles/kml/pushpin/ylw-pushpin.png</href>
                    </Icon>
                </IconStyle>
            </Style>
            <Style id="1111">
                <IconStyle id="1112">
                    <color>ff0000ff</color>
                    <colorMode>normal</colorMode>
                    <scale>1</scale>
                    <heading>0</heading>
                    <Icon id="1113">
                        <href>http://maps.google.com/mapfiles/kml/pushpin/ylw-pushpin.png</href>
                    </Icon>
                </IconStyle>
            </Style>
            <Style id="1116">
                <IconStyle id="1117">
                    <color>ff0000ff</color>
                    <colorMode>normal</colorMode>
                    <scale>1</scale>
                    <heading>0</heading>
                    <Icon id="1118">
                        <href>http://maps.google.com/mapfiles/kml/pushpin/ylw-pushpin.png</href>
                    </Icon>
                </IconStyle>
            </Style>
            <Style id="1121">
                <IconStyle id="1122">
                    <color>ff0000ff</color>
                    <colorMode>normal</colorMode>
                    <scale>1</scale>
                    <heading>0</heading>
                    <Icon id="1123">
                        <href>http://maps.google.com/mapfiles/kml/pushpin/ylw-pushpin.png</href>
                    </Icon>
                </IconStyle>
            </Style>
            <Style id="1126">
                <IconStyle id="1127">
                    <color>ff0000ff</color>
                    <colorMode>normal</colorMode>
                    <scale>1</scale>
                    <heading>0</heading>
                    <Icon id="1128">
                        <href>http://maps.google.com/mapfiles/kml/pushpin/ylw-pushpin.png</href>
                    </Icon>
                </IconStyle>
            </Style>
            <Style id="1131">
                <IconStyle id="1132">
                    <color>ff0000ff</color>
                    <colorMode>normal</colorMode>
                    <scale>1</scale>
                    <heading>0</heading>
                    <Icon id="1133">
                        <href>http://maps.google.com/mapfiles/kml/pushpin/ylw-pushpin.png</href>
                    </Icon>
                </IconStyle>
            </Style>
            <Style id="1136">
                <IconStyle id="1137">
                    <color>ff0000ff</color>
                    <colorMode>normal</colorMode>
                    <scale>1</scale>
                    <heading>0</heading>
                    <Icon id="1138">
                        <href>http://maps.google.com/mapfiles/kml/pushpin/ylw-pushpin.png</href>
                    </Icon>
                </IconStyle>
            </Style>
            <Style id="1141">
                <IconStyle id="1142">
                    <color>ff0000ff</color>
                    <colorMode>normal</colorMode>
                    <scale>1</scale>
                    <heading>0</heading>
                    <Icon id="1143">
                        <href>http://maps.google.com/mapfiles/kml/pushpin/ylw-pushpin.png</href>
                    </Icon>
                </IconStyle>
            </Style>
            <Style id="1146">
                <IconStyle id="1147">
                    <color>ff0000ff</color>
                    <colorMode>normal</colorMode>
                    <scale>1</scale>
                    <heading>0</heading>
                    <Icon id="1148">
                        <href>http://maps.google.com/mapfiles/kml/pushpin/ylw-pushpin.png</href>
                    </Icon>
                </IconStyle>
            </Style>
            <Style id="1151">
                <IconStyle id="1152">
                    <color>ff0000ff</color>
                    <colorMode>normal</colorMode>
                    <scale>1</scale>
                    <heading>0</heading>
                    <Icon id="1153">
                        <href>http://maps.google.com/mapfiles/kml/pushpin/ylw-pushpin.png</href>
                    </Icon>
                </IconStyle>
            </Style>
            <Style id="1156">
                <IconStyle id="1157">
                    <color>ff0000ff</color>
                    <colorMode>normal</colorMode>
                    <scale>1</scale>
                    <heading>0</heading>
                    <Icon id="1158">
                        <href>http://maps.google.com/mapfiles/kml/pushpin/ylw-pushpin.png</href>
                    </Icon>
                </IconStyle>
            </Style>
            <Style id="1161">
                <IconStyle id="1162">
                    <color>ff0000ff</color>
                    <colorMode>normal</colorMode>
                    <scale>1</scale>
                    <heading>0</heading>
                    <Icon id="1163">
                        <href>http://maps.google.com/mapfiles/kml/pushpin/ylw-pushpin.png</href>
                    </Icon>
                </IconStyle>
            </Style>
            <Style id="1166">
                <IconStyle id="1167">
                    <color>ff0000ff</color>
                    <colorMode>normal</colorMode>
                    <scale>1</scale>
                    <heading>0</heading>
                    <Icon id="1168">
                        <href>http://maps.google.com/mapfiles/kml/pushpin/ylw-pushpin.png</href>
                    </Icon>
                </IconStyle>
            </Style>
            <Style id="1171">
                <IconStyle id="1172">
                    <color>ff0000ff</color>
                    <colorMode>normal</colorMode>
                    <scale>1</scale>
                    <heading>0</heading>
                    <Icon id="1173">
                        <href>http://maps.google.com/mapfiles/kml/pushpin/ylw-pushpin.png</href>
                    </Icon>
                </IconStyle>
            </Style>
            <Style id="1176">
                <IconStyle id="1177">
                    <color>ff0000ff</color>
                    <colorMode>normal</colorMode>
                    <scale>1</scale>
                    <heading>0</heading>
                    <Icon id="1178">
                        <href>http://maps.google.com/mapfiles/kml/pushpin/ylw-pushpin.png</href>
                    </Icon>
                </IconStyle>
            </Style>
            <Style id="1181">
                <IconStyle id="1182">
                    <color>ff0000ff</color>
                    <colorMode>normal</colorMode>
                    <scale>1</scale>
                    <heading>0</heading>
                    <Icon id="1183">
                        <href>http://maps.google.com/mapfiles/kml/pushpin/ylw-pushpin.png</href>
                    </Icon>
                </IconStyle>
            </Style>
            <Style id="1186">
                <IconStyle id="1187">
                    <color>ff0000ff</color>
                    <colorMode>normal</colorMode>
                    <scale>1</scale>
                    <heading>0</heading>
                    <Icon id="1188">
                        <href>http://maps.google.com/mapfiles/kml/pushpin/ylw-pushpin.png</href>
                    </Icon>
                </IconStyle>
            </Style>
            <Style id="1191">
                <IconStyle id="1192">
                    <color>ff0000ff</color>
                    <colorMode>normal</colorMode>
                    <scale>1</scale>
                    <heading>0</heading>
                    <Icon id="1193">
                        <href>http://maps.google.com/mapfiles/kml/pushpin/ylw-pushpin.png</href>
                    </Icon>
                </IconStyle>
            </Style>
            <Style id="1196">
                <IconStyle id="1197">
                    <color>ff0000ff</color>
                    <colorMode>normal</colorMode>
                    <scale>1</scale>
                    <heading>0</heading>
                    <Icon id="1198">
                        <href>http://maps.google.com/mapfiles/kml/pushpin/ylw-pushpin.png</href>
                    </Icon>
                </IconStyle>
            </Style>
            <Style id="1201">
                <IconStyle id="1202">
                    <color>ff0000ff</color>
                    <colorMode>normal</colorMode>
                    <scale>1</scale>
                    <heading>0</heading>
                    <Icon id="1203">
                        <href>http://maps.google.com/mapfiles/kml/pushpin/ylw-pushpin.png</href>
                    </Icon>
                </IconStyle>
            </Style>
            <Style id="1206">
                <IconStyle id="1207">
                    <color>ff0000ff</color>
                    <colorMode>normal</colorMode>
                    <scale>1</scale>
                    <heading>0</heading>
                    <Icon id="1208">
                        <href>http://maps.google.com/mapfiles/kml/pushpin/ylw-pushpin.png</href>
                    </Icon>
                </IconStyle>
            </Style>
            <Style id="1211">
                <IconStyle id="1212">
                    <color>ff0000ff</color>
                    <colorMode>normal</colorMode>
                    <scale>1</scale>
                    <heading>0</heading>
                    <Icon id="1213">
                        <href>http://maps.google.com/mapfiles/kml/pushpin/ylw-pushpin.png</href>
                    </Icon>
                </IconStyle>
            </Style>
            <Style id="1216">
                <IconStyle id="1217">
                    <color>ff0000ff</color>
                    <colorMode>normal</colorMode>
                    <scale>1</scale>
                    <heading>0</heading>
                    <Icon id="1218">
                        <href>http://maps.google.com/mapfiles/kml/pushpin/ylw-pushpin.png</href>
                    </Icon>
                </IconStyle>
            </Style>
            <Style id="1221">
                <IconStyle id="1222">
                    <color>ff0000ff</color>
                    <colorMode>normal</colorMode>
                    <scale>1</scale>
                    <heading>0</heading>
                    <Icon id="1223">
                        <href>http://maps.google.com/mapfiles/kml/pushpin/ylw-pushpin.png</href>
                    </Icon>
                </IconStyle>
            </Style>
            <Style id="1226">
                <IconStyle id="1227">
                    <color>ff0000ff</color>
                    <colorMode>normal</colorMode>
                    <scale>1</scale>
                    <heading>0</heading>
                    <Icon id="1228">
                        <href>http://maps.google.com/mapfiles/kml/pushpin/ylw-pushpin.png</href>
                    </Icon>
                </IconStyle>
            </Style>
            <Style id="1231">
                <IconStyle id="1232">
                    <color>ff0000ff</color>
                    <colorMode>normal</colorMode>
                    <scale>1</scale>
                    <heading>0</heading>
                    <Icon id="1233">
                        <href>http://maps.google.com/mapfiles/kml/pushpin/ylw-pushpin.png</href>
                    </Icon>
                </IconStyle>
            </Style>
            <Style id="1236">
                <IconStyle id="1237">
                    <color>ff0000ff</color>
                    <colorMode>normal</colorMode>
                    <scale>1</scale>
                    <heading>0</heading>
                    <Icon id="1238">
                        <href>http://maps.google.com/mapfiles/kml/pushpin/ylw-pushpin.png</href>
                    </Icon>
                </IconStyle>
            </Style>
            <Style id="1241">
                <IconStyle id="1242">
                    <color>ff0000ff</color>
                    <colorMode>normal</colorMode>
                    <scale>1</scale>
                    <heading>0</heading>
                    <Icon id="1243">
                        <href>http://maps.google.com/mapfiles/kml/pushpin/ylw-pushpin.png</href>
                    </Icon>
                </IconStyle>
            </Style>
            <Style id="1246">
                <IconStyle id="1247">
                    <color>ff0000ff</color>
                    <colorMode>normal</colorMode>
                    <scale>1</scale>
                    <heading>0</heading>
                    <Icon id="1248">
                        <href>http://maps.google.com/mapfiles/kml/pushpin/ylw-pushpin.png</href>
                    </Icon>
                </IconStyle>
            </Style>
            <name>BRAYAN ALEXANDER IPANAQUE CASTRO</name>
            <Placemark id="945">
                <name>INVERSIONES SAMICOV EMPRESA INDIVIDUAL DE RESPONSABILIDAD LIMITADA - INVERSIONES SAMICOV E.I.R.L.</name>
                <description>INVERSIONES SAMICOV EMPRESA INDIVIDUAL DE RESPONSABILIDAD LIMITADA - INVERSIONES SAMICOV E.I.R.L.
MZA. B LOTE. 28 A.H.  VICENTE CHUNGA ALDANA SECHURA-SECHURA
Sechura
200801Sechura
Piura
Perú</description>
                <styleUrl>#946</styleUrl>
                <Point id="944">
                    <coordinates>-80.8186823,-5.5614338,0.0</coordinates>
                </Point>
            </Placemark>
            <Placemark id="950">
                <name>FABIOLA LILIANA ECHE PUESCAS</name>
                <description>MZ. E LT. 14 SAN MARTIN - SECHURA
Sechura
Sechura
Piura
Perú</description>
                <styleUrl>#951</styleUrl>
                <Point id="949">
                    <coordinates>-80.8153032,-5.5631315,0.0</coordinates>
                </Point>
            </Placemark>
            <Placemark id="955">
                <name>ARACELLY EMPERATRIZ RUIZ NAMUCHE</name>
                <description>MZ. M LT. 25 AH. SAN MARTIN - SECHU
Sechura
Sechura
Piura
Perú</description>
                <styleUrl>#956</styleUrl>
                <Point id="954">
                    <coordinates>-80.818338,-5.561078,0.0</coordinates>
                </Point>
            </Placemark>
            <Placemark id="960">
                <name>MARIA DEL SOCORRO AMAYA GALAN</name>
                <description>AAHH LOS JARDINES MZ E LT 18 SECHURA-SECHURA
Sechura
Sechura
Piura
Perú</description>
                <styleUrl>#961</styleUrl>
                <Point id="959">
                    <coordinates>-80.8109136,-5.5638457,0.0</coordinates>
                </Point>
            </Placemark>
            <Placemark id="965">
                <name>ERIKA DEL ROSIO DE LA CRUZ ACOSTA</name>
                <description>AV.BRASIL MZ A LT 35 AH.LOS JARDINES - SECHURA
Sechura
Sechura
Piura
Perú</description>
                <styleUrl>#966</styleUrl>
                <Point id="964">
                    <coordinates>-80.8106182,-5.562446,0.0</coordinates>
                </Point>
            </Placemark>
            <Placemark id="970">
                <name>CYNTHIA LUCERO PAZO ECHE</name>
                <description>AAHH30 de agosto MZ A LOT 25
Sechura
Sechura
Piura
Perú</description>
                <styleUrl>#971</styleUrl>
                <Point id="969">
                    <coordinates>-80.8099221,-5.5624984,0.0</coordinates>
                </Point>
            </Placemark>
            <Placemark id="975">
                <name>JENNY MARGOT SANCHEZ CHAPILLIQUEN</name>
                <description>MZ F LOTE 8 A.H LOS JARDINES SECHUR
Sechura
Sechura
Piura
Perú</description>
                <styleUrl>#976</styleUrl>
                <Point id="974">
                    <coordinates>-80.8097183,-5.564854,0.0</coordinates>
                </Point>
            </Placemark>
            <Placemark id="980">
                <name>DEYSI GUERRERO HUAMAN</name>
                <description>AH.LOS JARDINES MZ-I LT-01
Sechura
Sechura
Piura
Perú</description>
                <styleUrl>#981</styleUrl>
                <Point id="979">
                    <coordinates>-80.8076652,-5.5656675,0.0</coordinates>
                </Point>
            </Placemark>
            <Placemark id="985">
                <name>DEISY KARINA CHUMACERO SARANGO</name>
                <description>AH. LOS JARDINES MZ K LT 10 - SEGUNDA ETAPA SECHU
Sechura
Sechura
Piura
Perú</description>
                <styleUrl>#986</styleUrl>
                <Point id="984">
                    <coordinates>-80.8076192,-5.5664696,0.0</coordinates>
                </Point>
            </Placemark>
            <Placemark id="990">
                <name>IRMA VEGAS ATARAMA</name>
                <description>AAHH Los Jardines 2sa etapa Mz Q lote 21
Sechura
Sechura
Piura
Perú</description>
                <styleUrl>#991</styleUrl>
                <Point id="989">
                    <coordinates>-80.80909,-5.56685,0.0</coordinates>
                </Point>
            </Placemark>
            <Placemark id="995">
                <name>NOELI ISAMAR TACURE MONTALBAN</name>
                <description>AV.VILLA CANADA MZ M LT 21 AH.LOS JARDINES-SECHURA
Sechura
Sechura
Piura
Perú</description>
                <styleUrl>#996</styleUrl>
                <Point id="994">
                    <coordinates>-80.8112576,-5.5671124,0.0</coordinates>
                </Point>
            </Placemark>
            <Placemark id="1000">
                <name>BERTHA IGNACIO AVILA</name>
                <description>A H. LOS JARDINES SUR ESTE MZ. A LT. 08 - SECHURA
Sechura
Sechura
Piura
Perú</description>
                <styleUrl>#1001</styleUrl>
                <Point id="999">
                    <coordinates>-80.812268,-5.5673574,0.0</coordinates>
                </Point>
            </Placemark>
            <Placemark id="1005">
                <name>DIANA RUTH RUBIO HUERTAS</name>
                <description>MZ A LOTE 9 AH LA PERLA - SECHURA
Sechura
Sechura
Piura
Perú</description>
                <styleUrl>#1006</styleUrl>
                <Point id="1004">
                    <coordinates>-80.8120138,-5.5688399,0.0</coordinates>
                </Point>
            </Placemark>
            <Placemark id="1010">
                <name>SHALY MARLENY FALCON LLOCLLA</name>
                <description>MZA. B LOTE. 12 A.H. NUEVO HORIZONTE - SECHURA
Sechura
Sechura
Piura
Perú</description>
                <styleUrl>#1011</styleUrl>
                <Point id="1009">
                    <coordinates>-80.8123446,-5.5694041,0.0</coordinates>
                </Point>
            </Placemark>
            <Placemark id="1015">
                <name>MIGUELINA MARQUEZ RAMIREZ</name>
                <description>NUEVO HORIZONTE MZ K LOT 7 -SECHURA-SECHURA
Sechura
Sechura
Piura
Perú</description>
                <styleUrl>#1016</styleUrl>
                <Point id="1014">
                    <coordinates>-80.8101867,-5.5724261,0.0</coordinates>
                </Point>
            </Placemark>
            <Placemark id="1020">
                <name>MAYRA MARILIN AYALA MORALES</name>
                <description>AMPLIACIÓN VILLA CANADA MZ A LOT 14
Sechura
Sechura
Piura
Perú</description>
                <styleUrl>#1021</styleUrl>
                <Point id="1019">
                    <coordinates>-80.8096777,-5.5715994,0.0</coordinates>
                </Point>
            </Placemark>
            <Placemark id="1025">
                <name>ESTELA JANET ECHE FIESTAS</name>
                <description>AH.NUEVO BAZAN MZ G LT 16 - SECHURA
Sechura
Sechura
Piura
Perú</description>
                <styleUrl>#1026</styleUrl>
                <Point id="1024">
                    <coordinates>-80.8127742,-5.5694177,0.0</coordinates>
                </Point>
            </Placemark>
            <Placemark id="1030">
                <name>MARIA AUGUSTA QUEREVALU FIESTAS</name>
                <description>AAHH NUEVO BAZAN MZ J LOT 21
Sechura
Sechura
Piura
Perú</description>
                <styleUrl>#1031</styleUrl>
                <Point id="1029">
                    <coordinates>-80.8127835,-5.5696017,0.0</coordinates>
                </Point>
            </Placemark>
            <Placemark id="1035">
                <name>ELSA AGURTO IPANAQUE</name>
                <description>AAHH NUEVO BAZAN MZ B LOT 5
Sechura
Sechura
Piura
Perú</description>
                <styleUrl>#1036</styleUrl>
                <Point id="1034">
                    <coordinates>-80.8137619,-5.5689362,0.0</coordinates>
                </Point>
            </Placemark>
            <Placemark id="1040">
                <name>JULIA ELENA VITE CHAPA</name>
                <description>AAHH.NVO.BAZAN MZ-I LT-10
Sechura
Sechura
Piura
Perú</description>
                <styleUrl>#1041</styleUrl>
                <Point id="1039">
                    <coordinates>-80.8131282,-5.5706496,0.0</coordinates>
                </Point>
            </Placemark>
            <Placemark id="1045">
                <name>LUCINDA SIESQUEN BALDERA</name>
                <description>AH.NUEVO AMANAECER MZ-A LT-05
Sechura
Sechura
Piura
Perú</description>
                <styleUrl>#1046</styleUrl>
                <Point id="1044">
                    <coordinates>-80.8125086,-5.5716354,0.0</coordinates>
                </Point>
            </Placemark>
            <Placemark id="1050">
                <name>LILIANA FLOR NORIEGA ROCHA</name>
                <description>AV BRASIL MZ 1 LOTE 63-LA FLORIDA 3ERA ETAPA-SECHURA-SECHURA
Sechura
Sechura
Piura
Perú</description>
                <styleUrl>#1051</styleUrl>
                <Point id="1049">
                    <coordinates>-80.816227,-5.56383,0.0</coordinates>
                </Point>
            </Placemark>
            <Placemark id="1055">
                <name>IVONNE MABEL MORALES PEÑA</name>
                <description>TERMINAL TERRESTRE PUESTO N° 7
Sechura
Sechura
Piura
Perú</description>
                <styleUrl>#1056</styleUrl>
                <Point id="1054">
                    <coordinates>-80.820884,-5.563122,0.0</coordinates>
                </Point>
            </Placemark>
            <Placemark id="1060">
                <name>ANALI VITE ALVAREZ</name>
                <description>Porvenir 285
Sechura
Sechura
Piura
Perú</description>
                <styleUrl>#1061</styleUrl>
                <Point id="1059">
                    <coordinates>-80.8213428,-5.5547903,0.0</coordinates>
                </Point>
            </Placemark>
            <Placemark id="1065">
                <name>EMMA ROSA MILLASAKY PALACIOS</name>
                <description>ALCANTARA NAVARRO 718 SECHURA
Sechura
Sechura
Piura
Perú</description>
                <styleUrl>#1066</styleUrl>
                <Point id="1064">
                    <coordinates>-80.8222378,-5.5563505,0.0</coordinates>
                </Point>
            </Placemark>
            <Placemark id="1070">
                <name>IRIS FILOMENA IMAN FIESTAS</name>
                <description>MZ. B - 46 AH. VICENTE CHUNGA ALDAN
Sechura
Sechura
Piura
Perú</description>
                <styleUrl>#1071</styleUrl>
                <Point id="1069">
                    <coordinates>-80.8169962,-5.5618614,0.0</coordinates>
                </Point>
            </Placemark>
            <Placemark id="1075">
                <name>VIRGINIA RUIZ PAIVA</name>
                <description>AAHH MICAELA BASTIDAS MZ E LT 10 SECHURA-SECHURA
Sechura
Sechura
Piura
Perú</description>
                <styleUrl>#1076</styleUrl>
                <Point id="1074">
                    <coordinates>-80.8166107,-5.5611477,0.0</coordinates>
                </Point>
            </Placemark>
            <Placemark id="1080">
                <name>CEFERINA LAUREANO FLORES DE ANTON</name>
                <description>A.H MICAELA BASTIDAS MZ B LOTE 7-SECHURA-SECHURA
Sechura
Sechura
Piura
Perú</description>
                <styleUrl>#1081</styleUrl>
                <Point id="1079">
                    <coordinates>-80.8150727,-5.5612234,0.0</coordinates>
                </Point>
            </Placemark>
            <Placemark id="1085">
                <name>PILAR PURIZACA COVEÑAS</name>
                <description>MZ.F2 LTE.3 II ETAPA M.BASTIDAS - SECHURA
Sechura
Sechura
Piura
Perú</description>
                <styleUrl>#1086</styleUrl>
                <Point id="1084">
                    <coordinates>-80.813075,-5.562328,0.0</coordinates>
                </Point>
            </Placemark>
            <Placemark id="1090">
                <name>DERIAN ELMER RUIZ CHUNGA</name>
                <description>AA.HH MICAELA BASTIDAS MZ E2 LT 28
Sechura
Sechura
Piura
Perú</description>
                <styleUrl>#1091</styleUrl>
                <Point id="1089">
                    <coordinates>-80.8133109,-5.5623441,0.0</coordinates>
                </Point>
            </Placemark>
            <Placemark id="1095">
                <name>JESUS CRUZ HUAMAN</name>
                <description>AH. NVA ESPERANZA MZ.D LT31 AV.RESTAURACION
Sechura
Sechura
Piura
Perú</description>
                <styleUrl>#1096</styleUrl>
                <Point id="1094">
                    <coordinates>-80.81177,-5.5617262,0.0</coordinates>
                </Point>
            </Placemark>
            <Placemark id="1100">
                <name>MARIA EUDELIA PAZO YAMUNAQUE</name>
                <description>MZ D LT 9 AH NUEVA ESPERANZA II REF CLINICA ESTAR BIEN
Sechura
Sechura
Piura
Perú</description>
                <styleUrl>#1101</styleUrl>
                <Point id="1099">
                    <coordinates>-80.8116973,-5.559195,0.0</coordinates>
                </Point>
            </Placemark>
            <Placemark id="1105">
                <name>ANGELICA SUSANA INGA CALDERON</name>
                <description>MZ H LOTE 5B AH JUA BAUTISTA - SECHURA
Sechura
Sechura
Piura
Perú</description>
                <styleUrl>#1106</styleUrl>
                <Point id="1104">
                    <coordinates>-80.8103886,-5.5571512,0.0</coordinates>
                </Point>
            </Placemark>
            <Placemark id="1110">
                <name>ROSA FIDELIA RUIZ ANTON</name>
                <description>NUEVA ESPERANZA 2DA ETAPA MZ J LT 26
Sechura
Sechura
Piura
Perú</description>
                <styleUrl>#1111</styleUrl>
                <Point id="1109">
                    <coordinates>-80.8118958,-5.5577346,0.0</coordinates>
                </Point>
            </Placemark>
            <Placemark id="1115">
                <name>OLINDA MARCHENA JIMENEZ</name>
                <description>MZ.E LTE.14 II ETAPA A.H.NUEVA ESPERANZA-SECHURA
Sechura
Sechura
Piura
Perú</description>
                <styleUrl>#1116</styleUrl>
                <Point id="1114">
                    <coordinates>-80.8120631,-5.5587689,0.0</coordinates>
                </Point>
            </Placemark>
            <Placemark id="1120">
                <name>FANNY DORIS RUMICHE TUME</name>
                <description>NVA ESPERANZA 2 ETAPA MZ M-9 SECHURA
Sechura
Sechura
Piura
Perú</description>
                <styleUrl>#1121</styleUrl>
                <Point id="1119">
                    <coordinates>-80.8126429,-5.5570625,0.0</coordinates>
                </Point>
            </Placemark>
            <Placemark id="1125">
                <name>MERCY QUIROGA AMAYA</name>
                <description>ZONA INDUSTRIAL 0304PQ.IN
Sechura
Sechura
Piura
Perú</description>
                <styleUrl>#1126</styleUrl>
                <Point id="1124">
                    <coordinates>-80.8172752,-5.5555981,0.0</coordinates>
                </Point>
            </Placemark>
            <Placemark id="1130">
                <name>QUIROGA BRIGUIDA VITE DE</name>
                <description>AV. BAYOBAR NÂ°300 - SECHURA REF FRENTE A TERRA MAR PLAZA
Sechura
Sechura
Piura
Perú</description>
                <styleUrl>#1131</styleUrl>
                <Point id="1129">
                    <coordinates>-80.8182283,-5.5553457,0.0</coordinates>
                </Point>
            </Placemark>
            <Placemark id="1135">
                <name>JUAN ALEXANDER ECHE FIESTAS</name>
                <description>CALLE POR VENIR 313-SECHURA-SECHURA
Sechura
Sechura
Piura
Perú</description>
                <styleUrl>#1136</styleUrl>
                <Point id="1134">
                    <coordinates>-80.8187081,-5.5557771,0.0</coordinates>
                </Point>
            </Placemark>
            <Placemark id="1140">
                <name>SANTOS CARMEN FIESTAS PERICHE</name>
                <description>TUPAC AMARU MZ M LOTE 18
Sechura
Sechura
Piura
Perú</description>
                <styleUrl>#1141</styleUrl>
                <Point id="1139">
                    <coordinates>-80.8186408,-5.5591814,0.0</coordinates>
                </Point>
            </Placemark>
            <Placemark id="1145">
                <name>DARIO MERINO ARIAS</name>
                <description>AV.RESTAURACION L-21 A.H.TUPAC AMAR
Sechura
Sechura
Piura
Perú</description>
                <styleUrl>#1146</styleUrl>
                <Point id="1144">
                    <coordinates>-80.819236,-5.5585906,0.0</coordinates>
                </Point>
            </Placemark>
            <Placemark id="1150">
                <name>ANA MELVA PAIVA PUESCAS</name>
                <description>CA GRAU CON CONTRALMIRANTE VILLAR 224 RF FRENTE A FARMAAHORRO
Sechura
Sechura
Piura
Perú</description>
                <styleUrl>#1151</styleUrl>
                <Point id="1149">
                    <coordinates>-80.8252928,-5.5552924,0.0</coordinates>
                </Point>
            </Placemark>
            <Placemark id="1155">
                <name>FLAMINGO SKY EMPRESA INDIVIDUAL DE RESPONSABILIDAD LIMITADA - FLAMINGO SKY E.I.R.L.</name>
                <description>FLAMINGO SKY EMPRESA INDIVIDUAL DE RESPONSABILIDAD LIMITADA - FLAMINGO SKY E.I.R.L.
SECHURA CENTRO
Sechura
Sechura
Piura
Perú</description>
                <styleUrl>#1156</styleUrl>
                <Point id="1154">
                    <coordinates>-80.8227967,-5.5553043,0.0</coordinates>
                </Point>
            </Placemark>
            <Placemark id="1160">
                <name>TUME PAZOS CARLOS ELIAS</name>
                <description>TUME PAZOS CARLOS ELIAS
LT 315 JOSE GALVEZ SECHURA-SECHURA
Sechura
Sechura
Piura
Perú</description>
                <styleUrl>#1161</styleUrl>
                <Point id="1159">
                    <coordinates>-80.8206631,-5.5553478,0.0</coordinates>
                </Point>
            </Placemark>
            <Placemark id="1165">
                <name>CINTYA MILAGROS ECHE POICON</name>
                <description>Calle Alcántara navarro 400 sechura-sechura
Sechura
Sechura
Piura
Perú</description>
                <styleUrl>#1166</styleUrl>
                <Point id="1164">
                    <coordinates>-80.820588,-5.556319,0.0</coordinates>
                </Point>
            </Placemark>
            <Placemark id="1170">
                <name>LUZ KARINA FIESTAS FIESTAS</name>
                <description>AV BAYOVAR ZONA INDUSTRIAL 213 SECHURA
Sechura
Sechura
Piura
Perú</description>
                <styleUrl>#1171</styleUrl>
                <Point id="1169">
                    <coordinates>-80.818393,-5.556319,0.0</coordinates>
                </Point>
            </Placemark>
            <Placemark id="1175">
                <name>MILAGROS PAIVA RUIZ</name>
                <description>CA.SAN MARTIN 444 - SECHURA
Sechura
Sechura
Piura
Perú</description>
                <styleUrl>#1176</styleUrl>
                <Point id="1174">
                    <coordinates>-80.8226152,-5.5569069,0.0</coordinates>
                </Point>
            </Placemark>
            <Placemark id="1180">
                <name>EMMA ROSA MILLASAKY PALACIOS</name>
                <description>ALCANTARA NAVARRO 718 SECHURA
Sechura
Sechura
Piura
Perú</description>
                <styleUrl>#1181</styleUrl>
                <Point id="1179">
                    <coordinates>-80.8222378,-5.5563505,0.0</coordinates>
                </Point>
            </Placemark>
            <Placemark id="1185">
                <name>FLAMINGO SKY EMPRESA INDIVIDUAL DE RESPONSABILIDAD LIMITADA - FLAMINGO SKY E.I.R.L.</name>
                <description>FLAMINGO SKY EMPRESA INDIVIDUAL DE RESPONSABILIDAD LIMITADA - FLAMINGO SKY E.I.R.L.
SECHURA CENTRO
Sechura
Sechura
Piura
Perú</description>
                <styleUrl>#1186</styleUrl>
                <Point id="1184">
                    <coordinates>-80.8227967,-5.5553043,0.0</coordinates>
                </Point>
            </Placemark>
            <Placemark id="1190">
                <name>INVERSIONES MI TOMASITA EIRL</name>
                <description>INVERSIONES MI TOMASITA EIRL
CAL.SUCRE NRO. 464 - SECHURA
Sechura
200801Sechura
Piura
Perú</description>
                <styleUrl>#1191</styleUrl>
                <Point id="1189">
                    <coordinates>-80.8229765,-5.5570267,0.0</coordinates>
                </Point>
            </Placemark>
            <Placemark id="1195">
                <name>REGINA MAXIMINA QUIROGA FIESTAS</name>
                <description>CA. ATAHUALPA NÂ°520 - SECHURA
Sechura
Sechura
Piura
Perú</description>
                <styleUrl>#1196</styleUrl>
                <Point id="1194">
                    <coordinates>-80.8232724,-5.5574571,0.0</coordinates>
                </Point>
            </Placemark>
            <Placemark id="1200">
                <name>LILIANA YENQUE QUEREVALU</name>
                <description>AV BAYOVAR MZ G LOT 15
Sechura

Piura
Perú</description>
                <styleUrl>#1201</styleUrl>
                <Point id="1199">
                    <coordinates>-80.8129164,-5.557239,0.0</coordinates>
                </Point>
            </Placemark>
            <Placemark id="1205">
                <name>MARIA BEDENA MARTINEZ SANCHEZ</name>
                <description>CALLE HUASCAR NÂª804 - SECHURA
Sechura
Sechura
Piura
Perú</description>
                <styleUrl>#1206</styleUrl>
                <Point id="1204">
                    <coordinates>-80.823507,-5.560058,0.0</coordinates>
                </Point>
            </Placemark>
            <Placemark id="1210">
                <name>CINTHYA JACKELINE CHAPILLIQUEN PAZO</name>
                <description>AV.LOS ALMENDROS MZ A LT 04 AH VICTOR RAUL - SECHU
Sechura
Sechura
Piura
Perú</description>
                <styleUrl>#1211</styleUrl>
                <Point id="1209">
                    <coordinates>-80.819705,-5.561209,0.0</coordinates>
                </Point>
            </Placemark>
            <Placemark id="1215">
                <name>JESUS PAZO DE FIESTAS</name>
                <description>2 DE MAYO 159 SECHURA-SECHURA
Sechura
Sechura
Piura
Perú</description>
                <styleUrl>#1216</styleUrl>
                <Point id="1214">
                    <coordinates>-80.8246775,-5.5573305,0.0</coordinates>
                </Point>
            </Placemark>
            <Placemark id="1220">
                <name>TEOFILA CRUZ RUMICHE PAZO</name>
                <description>CA DOS DE MAYO 108 SECHURA CENTRO
Sechura
Sechura
Piura
Perú</description>
                <styleUrl>#1221</styleUrl>
                <Point id="1219">
                    <coordinates>-80.8248495,-5.5574287,0.0</coordinates>
                </Point>
            </Placemark>
            <Placemark id="1225">
                <name>TEMPORA MARGARITA QUEREVALU RUMICHE</name>
                <description>CA CONTRALMIRANTE VILLAR 311
Sechura
Sechura
Piura
Perú</description>
                <styleUrl>#1226</styleUrl>
                <Point id="1224">
                    <coordinates>-80.8252641,-5.5553183,0.0</coordinates>
                </Point>
            </Placemark>
            <Placemark id="1230">
                <name>ANA MELVA PAIVA PUESCAS</name>
                <description>CA GRAU CON CONTRALMIRANTE VILLAR 224 RF FRENTE A FARMAAHORRO
Sechura
Sechura
Piura
Perú</description>
                <styleUrl>#1231</styleUrl>
                <Point id="1229">
                    <coordinates>-80.8252928,-5.5552924,0.0</coordinates>
                </Point>
            </Placemark>
            <Placemark id="1235">
                <name>ISIDRO DANIEL VITE QUIROGA</name>
                <description>CALLE POR VENIR SECHURA-SECHURA
Sechura
Sechura
Piura
Perú</description>
                <styleUrl>#1236</styleUrl>
                <Point id="1234">
                    <coordinates>-80.8205963,-5.5675142,0.0</coordinates>
                </Point>
            </Placemark>
            <Placemark id="1240">
                <name>FLOR MARIA TUME FIESTAS</name>
                <description>Eguiguren con incas 206
Sechura
Sechura
Piura
Perú</description>
                <styleUrl>#1241</styleUrl>
                <Point id="1239">
                    <coordinates>-80.8242148,-5.5542961,0.0</coordinates>
                </Point>
            </Placemark>
            <Placemark id="1245">
                <name>MARIBEL DEL PILAR JUAREZ MORAN</name>
                <description>CA HUASCAR 201 SECHURA CENTRO
Sechura
Sechura
Piura
Perú</description>
                <styleUrl>#1246</styleUrl>
                <Point id="1244">
                    <coordinates>-80.8237917,-5.5543113,0.0</coordinates>
                </Point>
            </Placemark>
        </Folder>
        <Folder id="1249">
            <Style id="1252">
                <IconStyle id="1253">
                    <color>ffff0000</color>
                    <colorMode>normal</colorMode>
                    <scale>1</scale>
                    <heading>0</heading>
                    <Icon id="1254">
                        <href>http://maps.google.com/mapfiles/kml/pushpin/ylw-pushpin.png</href>
                    </Icon>
                </IconStyle>
            </Style>
            <Style id="1257">
                <IconStyle id="1258">
                    <color>ffff0000</color>
                    <colorMode>normal</colorMode>
                    <scale>1</scale>
                    <heading>0</heading>
                    <Icon id="1259">
                        <href>http://maps.google.com/mapfiles/kml/pushpin/ylw-pushpin.png</href>
                    </Icon>
                </IconStyle>
            </Style>
            <Style id="1262">
                <IconStyle id="1263">
                    <color>ffff0000</color>
                    <colorMode>normal</colorMode>
                    <scale>1</scale>
                    <heading>0</heading>
                    <Icon id="1264">
                        <href>http://maps.google.com/mapfiles/kml/pushpin/ylw-pushpin.png</href>
                    </Icon>
                </IconStyle>
            </Style>
            <Style id="1267">
                <IconStyle id="1268">
                    <color>ffff0000</color>
                    <colorMode>normal</colorMode>
                    <scale>1</scale>
                    <heading>0</heading>
                    <Icon id="1269">
                        <href>http://maps.google.com/mapfiles/kml/pushpin/ylw-pushpin.png</href>
                    </Icon>
                </IconStyle>
            </Style>
            <Style id="1272">
                <IconStyle id="1273">
                    <color>ffff0000</color>
                    <colorMode>normal</colorMode>
                    <scale>1</scale>
                    <heading>0</heading>
                    <Icon id="1274">
                        <href>http://maps.google.com/mapfiles/kml/pushpin/ylw-pushpin.png</href>
                    </Icon>
                </IconStyle>
            </Style>
            <Style id="1277">
                <IconStyle id="1278">
                    <color>ffff0000</color>
                    <colorMode>normal</colorMode>
                    <scale>1</scale>
                    <heading>0</heading>
                    <Icon id="1279">
                        <href>http://maps.google.com/mapfiles/kml/pushpin/ylw-pushpin.png</href>
                    </Icon>
                </IconStyle>
            </Style>
            <Style id="1282">
                <IconStyle id="1283">
                    <color>ffff0000</color>
                    <colorMode>normal</colorMode>
                    <scale>1</scale>
                    <heading>0</heading>
                    <Icon id="1284">
                        <href>http://maps.google.com/mapfiles/kml/pushpin/ylw-pushpin.png</href>
                    </Icon>
                </IconStyle>
            </Style>
            <Style id="1287">
                <IconStyle id="1288">
                    <color>ffff0000</color>
                    <colorMode>normal</colorMode>
                    <scale>1</scale>
                    <heading>0</heading>
                    <Icon id="1289">
                        <href>http://maps.google.com/mapfiles/kml/pushpin/ylw-pushpin.png</href>
                    </Icon>
                </IconStyle>
            </Style>
            <Style id="1292">
                <IconStyle id="1293">
                    <color>ffff0000</color>
                    <colorMode>normal</colorMode>
                    <scale>1</scale>
                    <heading>0</heading>
                    <Icon id="1294">
                        <href>http://maps.google.com/mapfiles/kml/pushpin/ylw-pushpin.png</href>
                    </Icon>
                </IconStyle>
            </Style>
            <Style id="1297">
                <IconStyle id="1298">
                    <color>ffff0000</color>
                    <colorMode>normal</colorMode>
                    <scale>1</scale>
                    <heading>0</heading>
                    <Icon id="1299">
                        <href>http://maps.google.com/mapfiles/kml/pushpin/ylw-pushpin.png</href>
                    </Icon>
                </IconStyle>
            </Style>
            <Style id="1302">
                <IconStyle id="1303">
                    <color>ffff0000</color>
                    <colorMode>normal</colorMode>
                    <scale>1</scale>
                    <heading>0</heading>
                    <Icon id="1304">
                        <href>http://maps.google.com/mapfiles/kml/pushpin/ylw-pushpin.png</href>
                    </Icon>
                </IconStyle>
            </Style>
            <Style id="1307">
                <IconStyle id="1308">
                    <color>ffff0000</color>
                    <colorMode>normal</colorMode>
                    <scale>1</scale>
                    <heading>0</heading>
                    <Icon id="1309">
                        <href>http://maps.google.com/mapfiles/kml/pushpin/ylw-pushpin.png</href>
                    </Icon>
                </IconStyle>
            </Style>
            <Style id="1312">
                <IconStyle id="1313">
                    <color>ffff0000</color>
                    <colorMode>normal</colorMode>
                    <scale>1</scale>
                    <heading>0</heading>
                    <Icon id="1314">
                        <href>http://maps.google.com/mapfiles/kml/pushpin/ylw-pushpin.png</href>
                    </Icon>
                </IconStyle>
            </Style>
            <Style id="1317">
                <IconStyle id="1318">
                    <color>ffff0000</color>
                    <colorMode>normal</colorMode>
                    <scale>1</scale>
                    <heading>0</heading>
                    <Icon id="1319">
                        <href>http://maps.google.com/mapfiles/kml/pushpin/ylw-pushpin.png</href>
                    </Icon>
                </IconStyle>
            </Style>
            <Style id="1322">
                <IconStyle id="1323">
                    <color>ffff0000</color>
                    <colorMode>normal</colorMode>
                    <scale>1</scale>
                    <heading>0</heading>
                    <Icon id="1324">
                        <href>http://maps.google.com/mapfiles/kml/pushpin/ylw-pushpin.png</href>
                    </Icon>
                </IconStyle>
            </Style>
            <Style id="1327">
                <IconStyle id="1328">
                    <color>ffff0000</color>
                    <colorMode>normal</colorMode>
                    <scale>1</scale>
                    <heading>0</heading>
                    <Icon id="1329">
                        <href>http://maps.google.com/mapfiles/kml/pushpin/ylw-pushpin.png</href>
                    </Icon>
                </IconStyle>
            </Style>
            <Style id="1332">
                <IconStyle id="1333">
                    <color>ffff0000</color>
                    <colorMode>normal</colorMode>
                    <scale>1</scale>
                    <heading>0</heading>
                    <Icon id="1334">
                        <href>http://maps.google.com/mapfiles/kml/pushpin/ylw-pushpin.png</href>
                    </Icon>
                </IconStyle>
            </Style>
            <Style id="1337">
                <IconStyle id="1338">
                    <color>ffff0000</color>
                    <colorMode>normal</colorMode>
                    <scale>1</scale>
                    <heading>0</heading>
                    <Icon id="1339">
                        <href>http://maps.google.com/mapfiles/kml/pushpin/ylw-pushpin.png</href>
                    </Icon>
                </IconStyle>
            </Style>
            <Style id="1342">
                <IconStyle id="1343">
                    <color>ffff0000</color>
                    <colorMode>normal</colorMode>
                    <scale>1</scale>
                    <heading>0</heading>
                    <Icon id="1344">
                        <href>http://maps.google.com/mapfiles/kml/pushpin/ylw-pushpin.png</href>
                    </Icon>
                </IconStyle>
            </Style>
            <Style id="1347">
                <IconStyle id="1348">
                    <color>ffff0000</color>
                    <colorMode>normal</colorMode>
                    <scale>1</scale>
                    <heading>0</heading>
                    <Icon id="1349">
                        <href>http://maps.google.com/mapfiles/kml/pushpin/ylw-pushpin.png</href>
                    </Icon>
                </IconStyle>
            </Style>
            <Style id="1352">
                <IconStyle id="1353">
                    <color>ffff0000</color>
                    <colorMode>normal</colorMode>
                    <scale>1</scale>
                    <heading>0</heading>
                    <Icon id="1354">
                        <href>http://maps.google.com/mapfiles/kml/pushpin/ylw-pushpin.png</href>
                    </Icon>
                </IconStyle>
            </Style>
            <Style id="1357">
                <IconStyle id="1358">
                    <color>ffff0000</color>
                    <colorMode>normal</colorMode>
                    <scale>1</scale>
                    <heading>0</heading>
                    <Icon id="1359">
                        <href>http://maps.google.com/mapfiles/kml/pushpin/ylw-pushpin.png</href>
                    </Icon>
                </IconStyle>
            </Style>
            <Style id="1362">
                <IconStyle id="1363">
                    <color>ffff0000</color>
                    <colorMode>normal</colorMode>
                    <scale>1</scale>
                    <heading>0</heading>
                    <Icon id="1364">
                        <href>http://maps.google.com/mapfiles/kml/pushpin/ylw-pushpin.png</href>
                    </Icon>
                </IconStyle>
            </Style>
            <Style id="1367">
                <IconStyle id="1368">
                    <color>ffff0000</color>
                    <colorMode>normal</colorMode>
                    <scale>1</scale>
                    <heading>0</heading>
                    <Icon id="1369">
                        <href>http://maps.google.com/mapfiles/kml/pushpin/ylw-pushpin.png</href>
                    </Icon>
                </IconStyle>
            </Style>
            <Style id="1372">
                <IconStyle id="1373">
                    <color>ffff0000</color>
                    <colorMode>normal</colorMode>
                    <scale>1</scale>
                    <heading>0</heading>
                    <Icon id="1374">
                        <href>http://maps.google.com/mapfiles/kml/pushpin/ylw-pushpin.png</href>
                    </Icon>
                </IconStyle>
            </Style>
            <Style id="1377">
                <IconStyle id="1378">
                    <color>ffff0000</color>
                    <colorMode>normal</colorMode>
                    <scale>1</scale>
                    <heading>0</heading>
                    <Icon id="1379">
                        <href>http://maps.google.com/mapfiles/kml/pushpin/ylw-pushpin.png</href>
                    </Icon>
                </IconStyle>
            </Style>
            <Style id="1382">
                <IconStyle id="1383">
                    <color>ffff0000</color>
                    <colorMode>normal</colorMode>
                    <scale>1</scale>
                    <heading>0</heading>
                    <Icon id="1384">
                        <href>http://maps.google.com/mapfiles/kml/pushpin/ylw-pushpin.png</href>
                    </Icon>
                </IconStyle>
            </Style>
            <Style id="1387">
                <IconStyle id="1388">
                    <color>ffff0000</color>
                    <colorMode>normal</colorMode>
                    <scale>1</scale>
                    <heading>0</heading>
                    <Icon id="1389">
                        <href>http://maps.google.com/mapfiles/kml/pushpin/ylw-pushpin.png</href>
                    </Icon>
                </IconStyle>
            </Style>
            <Style id="1392">
                <IconStyle id="1393">
                    <color>ffff0000</color>
                    <colorMode>normal</colorMode>
                    <scale>1</scale>
                    <heading>0</heading>
                    <Icon id="1394">
                        <href>http://maps.google.com/mapfiles/kml/pushpin/ylw-pushpin.png</href>
                    </Icon>
                </IconStyle>
            </Style>
            <Style id="1397">
                <IconStyle id="1398">
                    <color>ffff0000</color>
                    <colorMode>normal</colorMode>
                    <scale>1</scale>
                    <heading>0</heading>
                    <Icon id="1399">
                        <href>http://maps.google.com/mapfiles/kml/pushpin/ylw-pushpin.png</href>
                    </Icon>
                </IconStyle>
            </Style>
            <Style id="1402">
                <IconStyle id="1403">
                    <color>ffff0000</color>
                    <colorMode>normal</colorMode>
                    <scale>1</scale>
                    <heading>0</heading>
                    <Icon id="1404">
                        <href>http://maps.google.com/mapfiles/kml/pushpin/ylw-pushpin.png</href>
                    </Icon>
                </IconStyle>
            </Style>
            <Style id="1407">
                <IconStyle id="1408">
                    <color>ffff0000</color>
                    <colorMode>normal</colorMode>
                    <scale>1</scale>
                    <heading>0</heading>
                    <Icon id="1409">
                        <href>http://maps.google.com/mapfiles/kml/pushpin/ylw-pushpin.png</href>
                    </Icon>
                </IconStyle>
            </Style>
            <Style id="1412">
                <IconStyle id="1413">
                    <color>ffff0000</color>
                    <colorMode>normal</colorMode>
                    <scale>1</scale>
                    <heading>0</heading>
                    <Icon id="1414">
                        <href>http://maps.google.com/mapfiles/kml/pushpin/ylw-pushpin.png</href>
                    </Icon>
                </IconStyle>
            </Style>
            <Style id="1417">
                <IconStyle id="1418">
                    <color>ffff0000</color>
                    <colorMode>normal</colorMode>
                    <scale>1</scale>
                    <heading>0</heading>
                    <Icon id="1419">
                        <href>http://maps.google.com/mapfiles/kml/pushpin/ylw-pushpin.png</href>
                    </Icon>
                </IconStyle>
            </Style>
            <Style id="1422">
                <IconStyle id="1423">
                    <color>ffff0000</color>
                    <colorMode>normal</colorMode>
                    <scale>1</scale>
                    <heading>0</heading>
                    <Icon id="1424">
                        <href>http://maps.google.com/mapfiles/kml/pushpin/ylw-pushpin.png</href>
                    </Icon>
                </IconStyle>
            </Style>
            <Style id="1427">
                <IconStyle id="1428">
                    <color>ffff0000</color>
                    <colorMode>normal</colorMode>
                    <scale>1</scale>
                    <heading>0</heading>
                    <Icon id="1429">
                        <href>http://maps.google.com/mapfiles/kml/pushpin/ylw-pushpin.png</href>
                    </Icon>
                </IconStyle>
            </Style>
            <Style id="1432">
                <IconStyle id="1433">
                    <color>ffff0000</color>
                    <colorMode>normal</colorMode>
                    <scale>1</scale>
                    <heading>0</heading>
                    <Icon id="1434">
                        <href>http://maps.google.com/mapfiles/kml/pushpin/ylw-pushpin.png</href>
                    </Icon>
                </IconStyle>
            </Style>
            <Style id="1437">
                <IconStyle id="1438">
                    <color>ffff0000</color>
                    <colorMode>normal</colorMode>
                    <scale>1</scale>
                    <heading>0</heading>
                    <Icon id="1439">
                        <href>http://maps.google.com/mapfiles/kml/pushpin/ylw-pushpin.png</href>
                    </Icon>
                </IconStyle>
            </Style>
            <Style id="1442">
                <IconStyle id="1443">
                    <color>ffff0000</color>
                    <colorMode>normal</colorMode>
                    <scale>1</scale>
                    <heading>0</heading>
                    <Icon id="1444">
                        <href>http://maps.google.com/mapfiles/kml/pushpin/ylw-pushpin.png</href>
                    </Icon>
                </IconStyle>
            </Style>
            <Style id="1447">
                <IconStyle id="1448">
                    <color>ffff0000</color>
                    <colorMode>normal</colorMode>
                    <scale>1</scale>
                    <heading>0</heading>
                    <Icon id="1449">
                        <href>http://maps.google.com/mapfiles/kml/pushpin/ylw-pushpin.png</href>
                    </Icon>
                </IconStyle>
            </Style>
            <Style id="1452">
                <IconStyle id="1453">
                    <color>ffff0000</color>
                    <colorMode>normal</colorMode>
                    <scale>1</scale>
                    <heading>0</heading>
                    <Icon id="1454">
                        <href>http://maps.google.com/mapfiles/kml/pushpin/ylw-pushpin.png</href>
                    </Icon>
                </IconStyle>
            </Style>
            <name>MANUEL ENRIQUE ZAPATA QUEVEDO</name>
            <Placemark id="1251">
                <name>SARA RAQUEL CURO FIESTAS</name>
                <description>AAhh chunga Aldana D 2 -23 Sechura
Sechura

Piura
Perú</description>
                <styleUrl>#1252</styleUrl>
                <Point id="1250">
                    <coordinates>-80.821894,-5.566572,0.0</coordinates>
                </Point>
            </Placemark>
            <Placemark id="1256">
                <name>MANRIQUE DURAND SARITA</name>
                <description>MDLLO VICENTE CHUNGA PSTO 24
Sechura

Piura
Perú</description>
                <styleUrl>#1257</styleUrl>
                <Point id="1255">
                    <coordinates>-80.825653,-5.56122,0.0</coordinates>
                </Point>
            </Placemark>
            <Placemark id="1261">
                <name>JESSICA MARLENY PAZO FIESTAS</name>
                <description>AH.CHUNGA ALDANA MZ P LT 01 - SECHU
Sechura
Sechura
Piura
Perú</description>
                <styleUrl>#1262</styleUrl>
                <Point id="1260">
                    <coordinates>-80.820341,-5.560434,0.0</coordinates>
                </Point>
            </Placemark>
            <Placemark id="1266">
                <name>ESPERANZA DORA PURIZACA ECHE</name>
                <description>AH.VICENTE CHUNGA ALDANA MZ-O LT-14
Sechura
Sechura
Piura
Perú</description>
                <styleUrl>#1267</styleUrl>
                <Point id="1265">
                    <coordinates>-80.820625,-5.565018,0.0</coordinates>
                </Point>
            </Placemark>
            <Placemark id="1271">
                <name>MARIA ANA JACINTO JACINTO</name>
                <description>Ch2-24 calle Vicente chunga aldana
Sechura
Sechura
Piura
Perú</description>
                <styleUrl>#1272</styleUrl>
                <Point id="1270">
                    <coordinates>-80.820789,-5.564378,0.0</coordinates>
                </Point>
            </Placemark>
            <Placemark id="1276">
                <name>JULIO ENRIQUE DEDIOS CHAPA</name>
                <description>JULIO ENRIQUE DEDIOS CHAPA
AA.HH. VICENTE CHUNGA ALDANA MZ E2
Sechura

Piura
Perú</description>
                <styleUrl>#1277</styleUrl>
                <Point id="1275">
                    <coordinates>-80.8234645,-5.5667367,0.0</coordinates>
                </Point>
            </Placemark>
            <Placemark id="1281">
                <name>MARIA MILAGROS PANTA DE JACINTO</name>
                <description>AAHH VICENTE CHUNGA ALDANA MZ K LT 17 SECHURA-SECHURA
Sechura

Piura
Perú</description>
                <styleUrl>#1282</styleUrl>
                <Point id="1280">
                    <coordinates>-80.8225864,-5.5670127,0.0</coordinates>
                </Point>
            </Placemark>
            <Placemark id="1286">
                <name>MARIA LUCINDA FIESTAS LALUPU</name>
                <description>I-28 nuevo chuyllachi frente a la compañía de bomberos
Sechura
Sechura
Piura
Perú</description>
                <styleUrl>#1287</styleUrl>
                <Point id="1285">
                    <coordinates>-80.824119,-5.569543,0.0</coordinates>
                </Point>
            </Placemark>
            <Placemark id="1291">
                <name>MELISSA ISABEL QUEREVALU VALDIVIEZO</name>
                <description>AAHH NUEVO CHUYILLACHI MZ C LOT 17
Sechura
Sechura
Piura
Perú</description>
                <styleUrl>#1292</styleUrl>
                <Point id="1290">
                    <coordinates>-80.827366,-5.562948,0.0</coordinates>
                </Point>
            </Placemark>
            <Placemark id="1296">
                <name>CARMEN ROSA SANCHEZ NIZAMA</name>
                <description>AH NUEVO CHUYLLACHY C-10
Sechura

Piura
Perú</description>
                <styleUrl>#1297</styleUrl>
                <Point id="1295">
                    <coordinates>-80.821463,-5.570667,0.0</coordinates>
                </Point>
            </Placemark>
            <Placemark id="1301">
                <name>LAURA VIOLETA ANTON CAPUÑAY</name>
                <description>MZ. Ñ LT.8 A.H. NUEVO CHULLIYACHI -
Sechura
Sechura
Piura
Perú</description>
                <styleUrl>#1302</styleUrl>
                <Point id="1300">
                    <coordinates>-80.820998,-5.571666,0.0</coordinates>
                </Point>
            </Placemark>
            <Placemark id="1306">
                <name>MARIA NARDA ECA PANTA</name>
                <description>A.H FLORIDA 3ETAPA MZ T LT 5 - SECHURA
Sechura
Sechura
Piura
Perú</description>
                <styleUrl>#1307</styleUrl>
                <Point id="1305">
                    <coordinates>-80.8194781,-5.5693573,0.0</coordinates>
                </Point>
            </Placemark>
            <Placemark id="1311">
                <name>JHOVANY MARIELA PANTA PANTA</name>
                <description>Aahh la florida mz t lt 6
Sechura
Sechura
Piura
Perú</description>
                <styleUrl>#1312</styleUrl>
                <Point id="1310">
                    <coordinates>-80.819265,-5.569786,0.0</coordinates>
                </Point>
            </Placemark>
            <Placemark id="1316">
                <name>MARIA SANTOS QUEREVALU RUMICHE</name>
                <description>AAHH florida MZ P -7 3ra etapa
Sechura

Piura
Perú</description>
                <styleUrl>#1317</styleUrl>
                <Point id="1315">
                    <coordinates>-80.817446,-5.570727,0.0</coordinates>
                </Point>
            </Placemark>
            <Placemark id="1321">
                <name>MARIA ESPERANZA CHUNGA CALDERON</name>
                <description>ASENTAMIENTO HUMANO LA FLORIDA MZ L
Sechura
Sechura
Piura
Perú</description>
                <styleUrl>#1322</styleUrl>
                <Point id="1320">
                    <coordinates>-80.818256,-5.572143,0.0</coordinates>
                </Point>
            </Placemark>
            <Placemark id="1326">
                <name>JHOVANY ZETA ZETA</name>
                <description>AAHH LA FLORIDA II ETAPA MZ H LT3 SECHURA-SECHURA
Sechura
Sechura
Piura
Perú</description>
                <styleUrl>#1327</styleUrl>
                <Point id="1325">
                    <coordinates>-80.817173,-5.563505,0.0</coordinates>
                </Point>
            </Placemark>
            <Placemark id="1331">
                <name>ROSAURA ANA MORE CHUNGA</name>
                <description>AH LA FLORIDA 2 ETAPA H-9
Sechura

Piura
Perú</description>
                <styleUrl>#1332</styleUrl>
                <Point id="1330">
                    <coordinates>-80.822124,-5.564016,0.0</coordinates>
                </Point>
            </Placemark>
            <Placemark id="1336">
                <name>LUCY NOEMI AMAYA AYALA</name>
                <description>AH LA FLORIDA MZ E LOT 6
Sechura
Sechura
Piura
Perú</description>
                <styleUrl>#1337</styleUrl>
                <Point id="1335">
                    <coordinates>-80.81601,-5.56814,0.0</coordinates>
                </Point>
            </Placemark>
            <Placemark id="1341">
                <name>CLEOFE MARIELA ROMERO OGOÑA</name>
                <description>A.H LA FLORIDA MZ E LT 8-SECHURA
Sechura
Sechura
Piura
Perú</description>
                <styleUrl>#1342</styleUrl>
                <Point id="1340">
                    <coordinates>-80.816719,-5.566185,0.0</coordinates>
                </Point>
            </Placemark>
            <Placemark id="1346">
                <name>TEOFILO PORFIRIO PINDAY FIESTAS</name>
                <description>AAHH LA FLORIDA MZ B LT 07
Sechura
Sechura
Piura
Perú</description>
                <styleUrl>#1347</styleUrl>
                <Point id="1345">
                    <coordinates>-80.82262,-5.564266,0.0</coordinates>
                </Point>
            </Placemark>
            <Placemark id="1351">
                <name>ANSELMA RUMICHE DE YMAN</name>
                <description>AAHH VICENTE CHUNGA ALDANA F-10  SECHURA-SECHURA
Sechura
Sechura
Piura
Perú</description>
                <styleUrl>#1352</styleUrl>
                <Point id="1350">
                    <coordinates>-80.818174,-5.56298,0.0</coordinates>
                </Point>
            </Placemark>
            <Placemark id="1356">
                <name>PAULA VIRGINIA VITE CASAS</name>
                <description>MZ-F LT-10 AH.VICENTE CHUNGA SECHUR
Sechura
Sechura
Piura
Perú</description>
                <styleUrl>#1357</styleUrl>
                <Point id="1355">
                    <coordinates>-80.823069,-5.566249,0.0</coordinates>
                </Point>
            </Placemark>
            <Placemark id="1361">
                <name>PAIVA QUEREVALU GREGORIA BERNARDA</name>
                <description>PAIVA QUEREVALU GREGORIA BERNARDA
AAHH VICENTE CHUNGA MZ N LOT 4
Sechura
Sechura
Piura
Perú</description>
                <styleUrl>#1362</styleUrl>
                <Point id="1360">
                    <coordinates>-80.8219048,-5.567509,0.0</coordinates>
                </Point>
            </Placemark>
            <Placemark id="1366">
                <name>CHANCAHUAÑA AGURTO GERALDINE</name>
                <description>CHUNGA ALDANA PUESTO 50
Sechura

Piura
Perú</description>
                <styleUrl>#1367</styleUrl>
                <Point id="1365">
                    <coordinates>-80.8232104,-5.5643007,0.0</coordinates>
                </Point>
            </Placemark>
            <Placemark id="1371">
                <name>CRISTIAN JAVIER ACOSTA CHAPOÑAN</name>
                <description>MCDILLO CHUNGA ALDANA PSTO 01 SECHU
Sechura
Sechura
Piura
Perú</description>
                <styleUrl>#1372</styleUrl>
                <Point id="1370">
                    <coordinates>-80.8206226,-5.5637187,0.0</coordinates>
                </Point>
            </Placemark>
            <Placemark id="1376">
                <name>MARIA VICTORIA ECHE QUEREVALU</name>
                <description>AHH VICTOR RAUL CALLE EUCALIPTOS MZ I LT 1 
Sechura
Sechura
Piura
Perú</description>
                <styleUrl>#1377</styleUrl>
                <Point id="1375">
                    <coordinates>-80.820573,-5.563382,0.0</coordinates>
                </Point>
            </Placemark>
            <Placemark id="1381">
                <name>ROSA VICTORIA PURIZACA PURIZACA</name>
                <description>AH LAS MERCEDES P-21 SECHURA
Sechura

Piura
Perú</description>
                <styleUrl>#1382</styleUrl>
                <Point id="1380">
                    <coordinates>-80.824833,-5.565533,0.0</coordinates>
                </Point>
            </Placemark>
            <Placemark id="1386">
                <name>ESTHER FLORES PRECIADO</name>
                <description>Virgen del Carmen B-2 SRCHURA
Sechura
Sechura
Piura
Perú</description>
                <styleUrl>#1387</styleUrl>
                <Point id="1385">
                    <coordinates>-80.827868,-5.5665557,0.0</coordinates>
                </Point>
            </Placemark>
            <Placemark id="1391">
                <name>MARIA PETRONILA CHAPOÑAN BALDERA</name>
                <description>
Sechura
Sechura
Piura
Perú</description>
                <styleUrl>#1392</styleUrl>
                <Point id="1390">
                    <coordinates>-80.8277225,-5.5648106,0.0</coordinates>
                </Point>
            </Placemark>
            <Placemark id="1396">
                <name>PURIZACA VITE SANTOS</name>
                <description>E-06 ET 2 AH VIRGEN DEL CARMEN
Sechura

Piura
Perú</description>
                <styleUrl>#1397</styleUrl>
                <Point id="1395">
                    <coordinates>-80.8276993,-5.5662721,0.0</coordinates>
                </Point>
            </Placemark>
            <Placemark id="1401">
                <name>BETTY MABEL ÑONTOL DE DELGADO</name>
                <description>MZ K LOTE 1 CRISTO REY - SECHURA
Sechura
Sechura
Piura
Perú</description>
                <styleUrl>#1402</styleUrl>
                <Point id="1400">
                    <coordinates>-80.816829,-5.566547,0.0</coordinates>
                </Point>
            </Placemark>
            <Placemark id="1406">
                <name>MELISSA CHANTA LABAN</name>
                <description>L 16 03 de enero
Sechura

Piura
Perú</description>
                <styleUrl>#1407</styleUrl>
                <Point id="1405">
                    <coordinates>-80.820403,-5.560905,0.0</coordinates>
                </Point>
            </Placemark>
            <Placemark id="1411">
                <name>MILKO YVAN NAVARRO OJEDA</name>
                <description>CRISTO REY MZ E LOTE 12
Sechura
Sechura
Piura
Perú</description>
                <styleUrl>#1412</styleUrl>
                <Point id="1410">
                    <coordinates>-80.819368,-5.564337,0.0</coordinates>
                </Point>
            </Placemark>
            <Placemark id="1416">
                <name>MIRIAM JANET RIVAS PACHECO</name>
                <description>AH CRISTO REY B-23 SECHURA
Sechura

Piura
Perú</description>
                <styleUrl>#1417</styleUrl>
                <Point id="1415">
                    <coordinates>-80.8267966,-5.5653873,0.0</coordinates>
                </Point>
            </Placemark>
            <Placemark id="1421">
                <name>MARGARITA FIESTAS DE TUME</name>
                <description>AH CRISTO REY A-10 SECHURA
Sechura

Piura
Perú</description>
                <styleUrl>#1422</styleUrl>
                <Point id="1420">
                    <coordinates>-80.819554,-5.564848,0.0</coordinates>
                </Point>
            </Placemark>
            <Placemark id="1426">
                <name>SOCORRO DEL MILAGRO MECHATO YOVERA</name>
                <description>Aahh 3 de Enero B -11 SECHURA
Sechura

Piura
Perú</description>
                <styleUrl>#1427</styleUrl>
                <Point id="1425">
                    <coordinates>-80.826346,-5.561464,0.0</coordinates>
                </Point>
            </Placemark>
            <Placemark id="1431">
                <name>JOSE JEANKERLY YARLEQUE ROSAS</name>
                <description>JOSE JEANKERLY YARLEQUE ROSAS
JR LOS LAURELES C-8 AH VÍCTOR RAUL
Sechura

Piura
Perú</description>
                <styleUrl>#1432</styleUrl>
                <Point id="1430">
                    <coordinates>-80.8213329,-5.5709683,0.0</coordinates>
                </Point>
            </Placemark>
            <Placemark id="1436">
                <name>MARITZA PURIZACA FIESTAS</name>
                <description>AH.VICTOR RAUL.CA.LOS ALMENDROS MZ-B LT-11
Sechura
Sechura
Piura
Perú</description>
                <styleUrl>#1437</styleUrl>
                <Point id="1435">
                    <coordinates>-80.816918,-5.569341,0.0</coordinates>
                </Point>
            </Placemark>
            <Placemark id="1441">
                <name>MARIA DEL SOCORRO PURIZACA CURO</name>
                <description>Calle san Martin 822
Sechura
Sechura
Piura
Perú</description>
                <styleUrl>#1442</styleUrl>
                <Point id="1440">
                    <coordinates>-80.816654,-5.569643,0.0</coordinates>
                </Point>
            </Placemark>
            <Placemark id="1446">
                <name>ROSARIO DEL MILAGRO FIESTAS PAZO</name>
                <description>Calle san Martin 818
Sechura
Sechura
Piura
Perú</description>
                <styleUrl>#1447</styleUrl>
                <Point id="1445">
                    <coordinates>-80.82164,-5.561105,0.0</coordinates>
                </Point>
            </Placemark>
            <Placemark id="1451">
                <name>MARKET 360 S.R.L.</name>
                <description>MARKET 360 S.R.L.
A.H. TUPAC AMARU MZ P LT 25 SECHURA
Sechura
200801Sechura
Piura
Perú</description>
                <styleUrl>#1452</styleUrl>
                <Point id="1450">
                    <coordinates>-80.8171198,-5.5674163,0.0</coordinates>
                </Point>
            </Placemark>
        </Folder>
    </Document>
</kml>
