<?xml version="1.0" encoding="UTF-8"?>
<kml xmlns="http://www.opengis.net/kml/2.2" xmlns:gx="http://www.google.com/kml/ext/2.2">
    <Document id="746">
        <Folder id="747">
            <Style id="750">
                <IconStyle id="751">
                    <color>ff0000ff</color>
                    <colorMode>normal</colorMode>
                    <scale>1</scale>
                    <heading>0</heading>
                    <Icon id="752">
                        <href>http://maps.google.com/mapfiles/kml/pushpin/ylw-pushpin.png</href>
                    </Icon>
                </IconStyle>
            </Style>
            <Style id="755">
                <IconStyle id="756">
                    <color>ff0000ff</color>
                    <colorMode>normal</colorMode>
                    <scale>1</scale>
                    <heading>0</heading>
                    <Icon id="757">
                        <href>http://maps.google.com/mapfiles/kml/pushpin/ylw-pushpin.png</href>
                    </Icon>
                </IconStyle>
            </Style>
            <Style id="760">
                <IconStyle id="761">
                    <color>ff0000ff</color>
                    <colorMode>normal</colorMode>
                    <scale>1</scale>
                    <heading>0</heading>
                    <Icon id="762">
                        <href>http://maps.google.com/mapfiles/kml/pushpin/ylw-pushpin.png</href>
                    </Icon>
                </IconStyle>
            </Style>
            <Style id="765">
                <IconStyle id="766">
                    <color>ff0000ff</color>
                    <colorMode>normal</colorMode>
                    <scale>1</scale>
                    <heading>0</heading>
                    <Icon id="767">
                        <href>http://maps.google.com/mapfiles/kml/pushpin/ylw-pushpin.png</href>
                    </Icon>
                </IconStyle>
            </Style>
            <Style id="770">
                <IconStyle id="771">
                    <color>ff0000ff</color>
                    <colorMode>normal</colorMode>
                    <scale>1</scale>
                    <heading>0</heading>
                    <Icon id="772">
                        <href>http://maps.google.com/mapfiles/kml/pushpin/ylw-pushpin.png</href>
                    </Icon>
                </IconStyle>
            </Style>
            <Style id="775">
                <IconStyle id="776">
                    <color>ff0000ff</color>
                    <colorMode>normal</colorMode>
                    <scale>1</scale>
                    <heading>0</heading>
                    <Icon id="777">
                        <href>http://maps.google.com/mapfiles/kml/pushpin/ylw-pushpin.png</href>
                    </Icon>
                </IconStyle>
            </Style>
            <Style id="780">
                <IconStyle id="781">
                    <color>ff0000ff</color>
                    <colorMode>normal</colorMode>
                    <scale>1</scale>
                    <heading>0</heading>
                    <Icon id="782">
                        <href>http://maps.google.com/mapfiles/kml/pushpin/ylw-pushpin.png</href>
                    </Icon>
                </IconStyle>
            </Style>
            <Style id="785">
                <IconStyle id="786">
                    <color>ff0000ff</color>
                    <colorMode>normal</colorMode>
                    <scale>1</scale>
                    <heading>0</heading>
                    <Icon id="787">
                        <href>http://maps.google.com/mapfiles/kml/pushpin/ylw-pushpin.png</href>
                    </Icon>
                </IconStyle>
            </Style>
            <Style id="790">
                <IconStyle id="791">
                    <color>ff0000ff</color>
                    <colorMode>normal</colorMode>
                    <scale>1</scale>
                    <heading>0</heading>
                    <Icon id="792">
                        <href>http://maps.google.com/mapfiles/kml/pushpin/ylw-pushpin.png</href>
                    </Icon>
                </IconStyle>
            </Style>
            <Style id="795">
                <IconStyle id="796">
                    <color>ff0000ff</color>
                    <colorMode>normal</colorMode>
                    <scale>1</scale>
                    <heading>0</heading>
                    <Icon id="797">
                        <href>http://maps.google.com/mapfiles/kml/pushpin/ylw-pushpin.png</href>
                    </Icon>
                </IconStyle>
            </Style>
            <Style id="800">
                <IconStyle id="801">
                    <color>ff0000ff</color>
                    <colorMode>normal</colorMode>
                    <scale>1</scale>
                    <heading>0</heading>
                    <Icon id="802">
                        <href>http://maps.google.com/mapfiles/kml/pushpin/ylw-pushpin.png</href>
                    </Icon>
                </IconStyle>
            </Style>
            <Style id="805">
                <IconStyle id="806">
                    <color>ff0000ff</color>
                    <colorMode>normal</colorMode>
                    <scale>1</scale>
                    <heading>0</heading>
                    <Icon id="807">
                        <href>http://maps.google.com/mapfiles/kml/pushpin/ylw-pushpin.png</href>
                    </Icon>
                </IconStyle>
            </Style>
            <Style id="810">
                <IconStyle id="811">
                    <color>ff0000ff</color>
                    <colorMode>normal</colorMode>
                    <scale>1</scale>
                    <heading>0</heading>
                    <Icon id="812">
                        <href>http://maps.google.com/mapfiles/kml/pushpin/ylw-pushpin.png</href>
                    </Icon>
                </IconStyle>
            </Style>
            <Style id="815">
                <IconStyle id="816">
                    <color>ff0000ff</color>
                    <colorMode>normal</colorMode>
                    <scale>1</scale>
                    <heading>0</heading>
                    <Icon id="817">
                        <href>http://maps.google.com/mapfiles/kml/pushpin/ylw-pushpin.png</href>
                    </Icon>
                </IconStyle>
            </Style>
            <Style id="820">
                <IconStyle id="821">
                    <color>ff0000ff</color>
                    <colorMode>normal</colorMode>
                    <scale>1</scale>
                    <heading>0</heading>
                    <Icon id="822">
                        <href>http://maps.google.com/mapfiles/kml/pushpin/ylw-pushpin.png</href>
                    </Icon>
                </IconStyle>
            </Style>
            <Style id="825">
                <IconStyle id="826">
                    <color>ff0000ff</color>
                    <colorMode>normal</colorMode>
                    <scale>1</scale>
                    <heading>0</heading>
                    <Icon id="827">
                        <href>http://maps.google.com/mapfiles/kml/pushpin/ylw-pushpin.png</href>
                    </Icon>
                </IconStyle>
            </Style>
            <Style id="830">
                <IconStyle id="831">
                    <color>ff0000ff</color>
                    <colorMode>normal</colorMode>
                    <scale>1</scale>
                    <heading>0</heading>
                    <Icon id="832">
                        <href>http://maps.google.com/mapfiles/kml/pushpin/ylw-pushpin.png</href>
                    </Icon>
                </IconStyle>
            </Style>
            <Style id="835">
                <IconStyle id="836">
                    <color>ff0000ff</color>
                    <colorMode>normal</colorMode>
                    <scale>1</scale>
                    <heading>0</heading>
                    <Icon id="837">
                        <href>http://maps.google.com/mapfiles/kml/pushpin/ylw-pushpin.png</href>
                    </Icon>
                </IconStyle>
            </Style>
            <Style id="840">
                <IconStyle id="841">
                    <color>ff0000ff</color>
                    <colorMode>normal</colorMode>
                    <scale>1</scale>
                    <heading>0</heading>
                    <Icon id="842">
                        <href>http://maps.google.com/mapfiles/kml/pushpin/ylw-pushpin.png</href>
                    </Icon>
                </IconStyle>
            </Style>
            <Style id="845">
                <IconStyle id="846">
                    <color>ff0000ff</color>
                    <colorMode>normal</colorMode>
                    <scale>1</scale>
                    <heading>0</heading>
                    <Icon id="847">
                        <href>http://maps.google.com/mapfiles/kml/pushpin/ylw-pushpin.png</href>
                    </Icon>
                </IconStyle>
            </Style>
            <Style id="850">
                <IconStyle id="851">
                    <color>ff0000ff</color>
                    <colorMode>normal</colorMode>
                    <scale>1</scale>
                    <heading>0</heading>
                    <Icon id="852">
                        <href>http://maps.google.com/mapfiles/kml/pushpin/ylw-pushpin.png</href>
                    </Icon>
                </IconStyle>
            </Style>
            <Style id="855">
                <IconStyle id="856">
                    <color>ff0000ff</color>
                    <colorMode>normal</colorMode>
                    <scale>1</scale>
                    <heading>0</heading>
                    <Icon id="857">
                        <href>http://maps.google.com/mapfiles/kml/pushpin/ylw-pushpin.png</href>
                    </Icon>
                </IconStyle>
            </Style>
            <Style id="860">
                <IconStyle id="861">
                    <color>ff0000ff</color>
                    <colorMode>normal</colorMode>
                    <scale>1</scale>
                    <heading>0</heading>
                    <Icon id="862">
                        <href>http://maps.google.com/mapfiles/kml/pushpin/ylw-pushpin.png</href>
                    </Icon>
                </IconStyle>
            </Style>
            <Style id="865">
                <IconStyle id="866">
                    <color>ff0000ff</color>
                    <colorMode>normal</colorMode>
                    <scale>1</scale>
                    <heading>0</heading>
                    <Icon id="867">
                        <href>http://maps.google.com/mapfiles/kml/pushpin/ylw-pushpin.png</href>
                    </Icon>
                </IconStyle>
            </Style>
            <Style id="870">
                <IconStyle id="871">
                    <color>ff0000ff</color>
                    <colorMode>normal</colorMode>
                    <scale>1</scale>
                    <heading>0</heading>
                    <Icon id="872">
                        <href>http://maps.google.com/mapfiles/kml/pushpin/ylw-pushpin.png</href>
                    </Icon>
                </IconStyle>
            </Style>
            <Style id="875">
                <IconStyle id="876">
                    <color>ff0000ff</color>
                    <colorMode>normal</colorMode>
                    <scale>1</scale>
                    <heading>0</heading>
                    <Icon id="877">
                        <href>http://maps.google.com/mapfiles/kml/pushpin/ylw-pushpin.png</href>
                    </Icon>
                </IconStyle>
            </Style>
            <Style id="880">
                <IconStyle id="881">
                    <color>ff0000ff</color>
                    <colorMode>normal</colorMode>
                    <scale>1</scale>
                    <heading>0</heading>
                    <Icon id="882">
                        <href>http://maps.google.com/mapfiles/kml/pushpin/ylw-pushpin.png</href>
                    </Icon>
                </IconStyle>
            </Style>
            <Style id="885">
                <IconStyle id="886">
                    <color>ff0000ff</color>
                    <colorMode>normal</colorMode>
                    <scale>1</scale>
                    <heading>0</heading>
                    <Icon id="887">
                        <href>http://maps.google.com/mapfiles/kml/pushpin/ylw-pushpin.png</href>
                    </Icon>
                </IconStyle>
            </Style>
            <Style id="890">
                <IconStyle id="891">
                    <color>ff0000ff</color>
                    <colorMode>normal</colorMode>
                    <scale>1</scale>
                    <heading>0</heading>
                    <Icon id="892">
                        <href>http://maps.google.com/mapfiles/kml/pushpin/ylw-pushpin.png</href>
                    </Icon>
                </IconStyle>
            </Style>
            <Style id="895">
                <IconStyle id="896">
                    <color>ff0000ff</color>
                    <colorMode>normal</colorMode>
                    <scale>1</scale>
                    <heading>0</heading>
                    <Icon id="897">
                        <href>http://maps.google.com/mapfiles/kml/pushpin/ylw-pushpin.png</href>
                    </Icon>
                </IconStyle>
            </Style>
            <Style id="900">
                <IconStyle id="901">
                    <color>ff0000ff</color>
                    <colorMode>normal</colorMode>
                    <scale>1</scale>
                    <heading>0</heading>
                    <Icon id="902">
                        <href>http://maps.google.com/mapfiles/kml/pushpin/ylw-pushpin.png</href>
                    </Icon>
                </IconStyle>
            </Style>
            <Style id="905">
                <IconStyle id="906">
                    <color>ff0000ff</color>
                    <colorMode>normal</colorMode>
                    <scale>1</scale>
                    <heading>0</heading>
                    <Icon id="907">
                        <href>http://maps.google.com/mapfiles/kml/pushpin/ylw-pushpin.png</href>
                    </Icon>
                </IconStyle>
            </Style>
            <Style id="910">
                <IconStyle id="911">
                    <color>ff0000ff</color>
                    <colorMode>normal</colorMode>
                    <scale>1</scale>
                    <heading>0</heading>
                    <Icon id="912">
                        <href>http://maps.google.com/mapfiles/kml/pushpin/ylw-pushpin.png</href>
                    </Icon>
                </IconStyle>
            </Style>
            <Style id="915">
                <IconStyle id="916">
                    <color>ff0000ff</color>
                    <colorMode>normal</colorMode>
                    <scale>1</scale>
                    <heading>0</heading>
                    <Icon id="917">
                        <href>http://maps.google.com/mapfiles/kml/pushpin/ylw-pushpin.png</href>
                    </Icon>
                </IconStyle>
            </Style>
            <Style id="920">
                <IconStyle id="921">
                    <color>ff0000ff</color>
                    <colorMode>normal</colorMode>
                    <scale>1</scale>
                    <heading>0</heading>
                    <Icon id="922">
                        <href>http://maps.google.com/mapfiles/kml/pushpin/ylw-pushpin.png</href>
                    </Icon>
                </IconStyle>
            </Style>
            <Style id="925">
                <IconStyle id="926">
                    <color>ff0000ff</color>
                    <colorMode>normal</colorMode>
                    <scale>1</scale>
                    <heading>0</heading>
                    <Icon id="927">
                        <href>http://maps.google.com/mapfiles/kml/pushpin/ylw-pushpin.png</href>
                    </Icon>
                </IconStyle>
            </Style>
            <Style id="930">
                <IconStyle id="931">
                    <color>ff0000ff</color>
                    <colorMode>normal</colorMode>
                    <scale>1</scale>
                    <heading>0</heading>
                    <Icon id="932">
                        <href>http://maps.google.com/mapfiles/kml/pushpin/ylw-pushpin.png</href>
                    </Icon>
                </IconStyle>
            </Style>
            <Style id="935">
                <IconStyle id="936">
                    <color>ff0000ff</color>
                    <colorMode>normal</colorMode>
                    <scale>1</scale>
                    <heading>0</heading>
                    <Icon id="937">
                        <href>http://maps.google.com/mapfiles/kml/pushpin/ylw-pushpin.png</href>
                    </Icon>
                </IconStyle>
            </Style>
            <Style id="940">
                <IconStyle id="941">
                    <color>ff0000ff</color>
                    <colorMode>normal</colorMode>
                    <scale>1</scale>
                    <heading>0</heading>
                    <Icon id="942">
                        <href>http://maps.google.com/mapfiles/kml/pushpin/ylw-pushpin.png</href>
                    </Icon>
                </IconStyle>
            </Style>
            <name>BRAYAN ALEXANDER IPANAQUE CASTRO</name>
            <Placemark id="749">
                <name>ROSA ELVIRA RUIZ CHUNGA</name>
                <description>LOS PORTALES MZ G LOTE 14-SECHURA-SECHURA
Sechura
Sechura
Piura
Perú</description>
                <styleUrl>#750</styleUrl>
                <Point id="748">
                    <coordinates>-80.816391,-5.578824,0.0</coordinates>
                </Point>
            </Placemark>
            <Placemark id="754">
                <name>NANCY ESTELA PERICHE PANTA</name>
                <description>AHH LOS PORTALES MZ 10 LOT 1
Sechura

Piura
Perú</description>
                <styleUrl>#755</styleUrl>
                <Point id="753">
                    <coordinates>-80.816263,-5.579373,0.0</coordinates>
                </Point>
            </Placemark>
            <Placemark id="759">
                <name>MARIA PILAR PERICHE PANTA</name>
                <description>AAHH LOS PORTALES MZ 9 LOT 6
Sechura

Piura
Perú</description>
                <styleUrl>#760</styleUrl>
                <Point id="758">
                    <coordinates>-80.816552,-5.579463,0.0</coordinates>
                </Point>
            </Placemark>
            <Placemark id="764">
                <name>DIANA RUTH RUBIO HUERTAS</name>
                <description>MZ A LOTE 9 AH LA PERLA - SECHURA
Sechura
Sechura
Piura
Perú</description>
                <styleUrl>#765</styleUrl>
                <Point id="763">
                    <coordinates>-80.8120138,-5.5688399,0.0</coordinates>
                </Point>
            </Placemark>
            <Placemark id="769">
                <name>TERRAMAR PLAZA E.I.R.L.</name>
                <description>TERRAMAR PLAZA E.I.R.L.
AV. GRAU 1202 CENTRO SECHURA
Sechura
200801Sechura
Piura
Perú</description>
                <styleUrl>#770</styleUrl>
                <Point id="768">
                    <coordinates>-80.8161924,-5.5662313,0.0</coordinates>
                </Point>
            </Placemark>
            <Placemark id="774">
                <name>INVERSIONES SAMICOV EMPRESA INDIVIDUAL DE RESPONSABILIDAD LIMITADA - INVERSIONES SAMICOV E.I.R.L.</name>
                <description>INVERSIONES SAMICOV EMPRESA INDIVIDUAL DE RESPONSABILIDAD LIMITADA - INVERSIONES SAMICOV E.I.R.L.
MZA. B LOTE. 28 A.H.  VICENTE CHUNGA ALDANA SECHURA-SECHURA
Sechura
200801Sechura
Piura
Perú</description>
                <styleUrl>#775</styleUrl>
                <Point id="773">
                    <coordinates>-80.8186823,-5.5614338,0.0</coordinates>
                </Point>
            </Placemark>
            <Placemark id="779">
                <name>IVONNE MABEL MORALES PEÑA</name>
                <description>TERMINAL TERRESTRE PUESTO N° 7
Sechura
Sechura
Piura
Perú</description>
                <styleUrl>#780</styleUrl>
                <Point id="778">
                    <coordinates>-80.820884,-5.563122,0.0</coordinates>
                </Point>
            </Placemark>
            <Placemark id="784">
                <name>FABIOLA LILIANA ECHE PUESCAS</name>
                <description>MZ. E LT. 14 SAN MARTIN - SECHURA
Sechura
Sechura
Piura
Perú</description>
                <styleUrl>#785</styleUrl>
                <Point id="783">
                    <coordinates>-80.8153032,-5.5631315,0.0</coordinates>
                </Point>
            </Placemark>
            <Placemark id="789">
                <name>EDITH MARLENE FIESTAS ECHE</name>
                <description>A.H SAN MARTIN MZ N LT 12 - SECHURA
Sechura
Sechura
Piura
Perú</description>
                <styleUrl>#790</styleUrl>
                <Point id="788">
                    <coordinates>-80.8103799,-5.5571481,0.0</coordinates>
                </Point>
            </Placemark>
            <Placemark id="794">
                <name>MARIA DEL SOCORRO AMAYA GALAN</name>
                <description>AAHH LOS JARDINES MZ E LT 18 SECHURA-SECHURA
Sechura
Sechura
Piura
Perú</description>
                <styleUrl>#795</styleUrl>
                <Point id="793">
                    <coordinates>-80.8109136,-5.5638457,0.0</coordinates>
                </Point>
            </Placemark>
            <Placemark id="799">
                <name>ERIKA DEL ROSIO DE LA CRUZ ACOSTA</name>
                <description>AV.BRASIL MZ A LT 35 AH.LOS JARDINES - SECHURA
Sechura
Sechura
Piura
Perú</description>
                <styleUrl>#800</styleUrl>
                <Point id="798">
                    <coordinates>-80.8106182,-5.562446,0.0</coordinates>
                </Point>
            </Placemark>
            <Placemark id="804">
                <name>CYNTHIA LUCERO PAZO ECHE</name>
                <description>AAHH30 de agosto MZ A LOT 25
Sechura
Sechura
Piura
Perú</description>
                <styleUrl>#805</styleUrl>
                <Point id="803">
                    <coordinates>-80.8099221,-5.5624984,0.0</coordinates>
                </Point>
            </Placemark>
            <Placemark id="809">
                <name>MELISSA TUME PANTA</name>
                <description>AH LOS JARDINES MZ A LOT 18 SEGUNDA ETAPA REF MADERERA LA UNIÓN
Sechura
Sechura
Piura
Perú</description>
                <styleUrl>#810</styleUrl>
                <Point id="808">
                    <coordinates>-80.8071723,-5.563532,0.0</coordinates>
                </Point>
            </Placemark>
            <Placemark id="814">
                <name>ROSA MARIA MORALES TUME</name>
                <description>AH LOS JARDINES ETAPA II MZ A LOT 27
Sechura
Sechura
Piura
Perú</description>
                <styleUrl>#815</styleUrl>
                <Point id="813">
                    <coordinates>-80.8075729,-5.5639641,0.0</coordinates>
                </Point>
            </Placemark>
            <Placemark id="819">
                <name>CORREA QUINTANA JUAN CARLOS</name>
                <description>AH LOS JARDINES MZ D LOT 11
Sechura
Sechura
Piura
Perú</description>
                <styleUrl>#820</styleUrl>
                <Point id="818">
                    <coordinates>-80.8087544,-5.5633938,0.0</coordinates>
                </Point>
            </Placemark>
            <Placemark id="824">
                <name>JENNY MARGOT SANCHEZ CHAPILLIQUEN</name>
                <description>MZ F LOTE 8 A.H LOS JARDINES SECHUR
Sechura
Sechura
Piura
Perú</description>
                <styleUrl>#825</styleUrl>
                <Point id="823">
                    <coordinates>-80.8097183,-5.564854,0.0</coordinates>
                </Point>
            </Placemark>
            <Placemark id="829">
                <name>MARIA CORINA QUEREVALU DE AYALA</name>
                <description>AAHH LOS JARDINES SEGUNDA ETAPA MZ E LOT 22
Sechura
Sechura
Piura
Perú</description>
                <styleUrl>#830</styleUrl>
                <Point id="828">
                    <coordinates>-80.80827,-5.56519,0.0</coordinates>
                </Point>
            </Placemark>
            <Placemark id="834">
                <name>JANEE MERINO ABAD</name>
                <description>AH.LOS JARDINES MZ I LT 3 2 ETP SECHURA
Sechura
Sechura
Piura
Perú</description>
                <styleUrl>#835</styleUrl>
                <Point id="833">
                    <coordinates>-80.8075146,-5.5658435,0.0</coordinates>
                </Point>
            </Placemark>
            <Placemark id="839">
                <name>DEYSI GUERRERO HUAMAN</name>
                <description>AH.LOS JARDINES MZ-I LT-01
Sechura
Sechura
Piura
Perú</description>
                <styleUrl>#840</styleUrl>
                <Point id="838">
                    <coordinates>-80.8076652,-5.5656675,0.0</coordinates>
                </Point>
            </Placemark>
            <Placemark id="844">
                <name>DEISY KARINA CHUMACERO SARANGO</name>
                <description>AH. LOS JARDINES MZ K LT 10 - SEGUNDA ETAPA SECHU
Sechura
Sechura
Piura
Perú</description>
                <styleUrl>#845</styleUrl>
                <Point id="843">
                    <coordinates>-80.8076192,-5.5664696,0.0</coordinates>
                </Point>
            </Placemark>
            <Placemark id="849">
                <name>ESDENY VANESSA TUME AMAYA</name>
                <description>LOS JARDINES II ETAPA MZ R LOTE 18-SECHURA-SECHURA
Sechura
Sechura
Piura
Perú</description>
                <styleUrl>#850</styleUrl>
                <Point id="848">
                    <coordinates>-80.8079234,-5.5674692,0.0</coordinates>
                </Point>
            </Placemark>
            <Placemark id="854">
                <name>JOSEFINA JANET FIESTAS TEMOCHE</name>
                <description>AH LOS JARDINES SEGUNDA ETAPA MZ R LOT 23
Sechura
Sechura
Piura
Perú</description>
                <styleUrl>#855</styleUrl>
                <Point id="853">
                    <coordinates>-80.8082086,-5.5677997,0.0</coordinates>
                </Point>
            </Placemark>
            <Placemark id="859">
                <name>NOELI ISAMAR TACURE MONTALBAN</name>
                <description>AV.VILLA CANADA MZ M LT 21 AH.LOS JARDINES-SECHURA
Sechura
Sechura
Piura
Perú</description>
                <styleUrl>#860</styleUrl>
                <Point id="858">
                    <coordinates>-80.8112576,-5.5671124,0.0</coordinates>
                </Point>
            </Placemark>
            <Placemark id="864">
                <name>BERTHA IGNACIO AVILA</name>
                <description>A H. LOS JARDINES SUR ESTE MZ. A LT. 08 - SECHURA
Sechura
Sechura
Piura
Perú</description>
                <styleUrl>#865</styleUrl>
                <Point id="863">
                    <coordinates>-80.812268,-5.5673574,0.0</coordinates>
                </Point>
            </Placemark>
            <Placemark id="869">
                <name>CHERRE CLEMENCIA ECHE DE</name>
                <description>SANTA ROSA MZ A LOTE 6
Sechura
Sechura
Piura
Perú</description>
                <styleUrl>#870</styleUrl>
                <Point id="868">
                    <coordinates>-80.8109774,-5.5691138,0.0</coordinates>
                </Point>
            </Placemark>
            <Placemark id="874">
                <name>BRYAM SAMIR PEREZ FIESTAS</name>
                <description>Ah SNTA ROSA S/N MZ D LOT 26
Sechura
Sechura
Piura
Perú</description>
                <styleUrl>#875</styleUrl>
                <Point id="873">
                    <coordinates>-80.8114277,-5.5694975,0.0</coordinates>
                </Point>
            </Placemark>
            <Placemark id="879">
                <name>TERRAMAR PLAZA E.I.R.L.</name>
                <description>TERRAMAR PLAZA E.I.R.L.
AV. GRAU 1202 CENTRO SECHURA
Sechura
200801Sechura
Piura
Perú</description>
                <styleUrl>#880</styleUrl>
                <Point id="878">
                    <coordinates>-80.8161924,-5.5662313,0.0</coordinates>
                </Point>
            </Placemark>
            <Placemark id="884">
                <name>JULIA ELENA VITE CHAPA</name>
                <description>AAHH.NVO.BAZAN MZ-I LT-10
Sechura
Sechura
Piura
Perú</description>
                <styleUrl>#885</styleUrl>
                <Point id="883">
                    <coordinates>-80.8131282,-5.5706496,0.0</coordinates>
                </Point>
            </Placemark>
            <Placemark id="889">
                <name>ANGELICA SUSANA INGA CALDERON</name>
                <description>MZ H LOTE 5B AH JUA BAUTISTA - SECHURA
Sechura
Sechura
Piura
Perú</description>
                <styleUrl>#890</styleUrl>
                <Point id="888">
                    <coordinates>-80.8103886,-5.5571512,0.0</coordinates>
                </Point>
            </Placemark>
            <Placemark id="894">
                <name>MIGUELINA MARQUEZ RAMIREZ</name>
                <description>NUEVO HORIZONTE MZ K LOT 7 -SECHURA-SECHURA
Sechura
Sechura
Piura
Perú</description>
                <styleUrl>#895</styleUrl>
                <Point id="893">
                    <coordinates>-80.8101867,-5.5724261,0.0</coordinates>
                </Point>
            </Placemark>
            <Placemark id="899">
                <name>MAYRA MARILIN AYALA MORALES</name>
                <description>AMPLIACIÓN VILLA CANADA MZ A LOT 14
Sechura
Sechura
Piura
Perú</description>
                <styleUrl>#900</styleUrl>
                <Point id="898">
                    <coordinates>-80.8096777,-5.5715994,0.0</coordinates>
                </Point>
            </Placemark>
            <Placemark id="904">
                <name>ESTELA JANET ECHE FIESTAS</name>
                <description>AH.NUEVO BAZAN MZ G LT 16 - SECHURA
Sechura
Sechura
Piura
Perú</description>
                <styleUrl>#905</styleUrl>
                <Point id="903">
                    <coordinates>-80.8127742,-5.5694177,0.0</coordinates>
                </Point>
            </Placemark>
            <Placemark id="909">
                <name>MARIA AUGUSTA QUEREVALU FIESTAS</name>
                <description>AAHH NUEVO BAZAN MZ J LOT 21
Sechura
Sechura
Piura
Perú</description>
                <styleUrl>#910</styleUrl>
                <Point id="908">
                    <coordinates>-80.8127835,-5.5696017,0.0</coordinates>
                </Point>
            </Placemark>
            <Placemark id="914">
                <name>ROSA ELVIRA CHUNGA PURIZACA</name>
                <description>CA.LOPEZ MZ D LT 7 AH.NUEVO BAZAN-SECHURA
Sechura
Sechura
Piura
Perú</description>
                <styleUrl>#915</styleUrl>
                <Point id="913">
                    <coordinates>-80.8140994,-5.5699619,0.0</coordinates>
                </Point>
            </Placemark>
            <Placemark id="919">
                <name>LEYDI DIANA RUMICHE DURAND</name>
                <description>AAHH. LOS ROSALES SN SECHURA
Sechura
Sechura
Piura
Perú</description>
                <styleUrl>#920</styleUrl>
                <Point id="918">
                    <coordinates>-80.8131374,-5.5712601,0.0</coordinates>
                </Point>
            </Placemark>
            <Placemark id="924">
                <name>LUCINDA SIESQUEN BALDERA</name>
                <description>AH.NUEVO AMANAECER MZ-A LT-05
Sechura
Sechura
Piura
Perú</description>
                <styleUrl>#925</styleUrl>
                <Point id="923">
                    <coordinates>-80.8125086,-5.5716354,0.0</coordinates>
                </Point>
            </Placemark>
            <Placemark id="929">
                <name>LILIANA FLOR NORIEGA ROCHA</name>
                <description>AV BRASIL MZ 1 LOTE 63-LA FLORIDA 3ERA ETAPA-SECHURA-SECHURA
Sechura
Sechura
Piura
Perú</description>
                <styleUrl>#930</styleUrl>
                <Point id="928">
                    <coordinates>-80.816227,-5.56383,0.0</coordinates>
                </Point>
            </Placemark>
            <Placemark id="934">
                <name>JULIA CURO DE ANTON</name>
                <description>A.H SAN MARTIN MZ B LOTE 2-SECHURA-SECHURA
Sechura
Sechura
Piura
Perú</description>
                <styleUrl>#935</styleUrl>
                <Point id="933">
                    <coordinates>-80.816351,-5.562676,0.0</coordinates>
                </Point>
            </Placemark>
            <Placemark id="939">
                <name>INVERSIONES SAMICOV EMPRESA INDIVIDUAL DE RESPONSABILIDAD LIMITADA - INVERSIONES SAMICOV E.I.R.L.</name>
                <description>INVERSIONES SAMICOV EMPRESA INDIVIDUAL DE RESPONSABILIDAD LIMITADA - INVERSIONES SAMICOV E.I.R.L.
MZA. B LOTE. 28 A.H.  VICENTE CHUNGA ALDANA SECHURA-SECHURA
Sechura
200801Sechura
Piura
Perú</description>
                <styleUrl>#940</styleUrl>
                <Point id="938">
                    <coordinates>-80.8186823,-5.5614338,0.0</coordinates>
                </Point>
            </Placemark>
        </Folder>
        <Folder id="943">
            <Style id="946">
                <IconStyle id="947">
                    <color>ffff0000</color>
                    <colorMode>normal</colorMode>
                    <scale>1</scale>
                    <heading>0</heading>
                    <Icon id="948">
                        <href>http://maps.google.com/mapfiles/kml/pushpin/ylw-pushpin.png</href>
                    </Icon>
                </IconStyle>
            </Style>
            <Style id="951">
                <IconStyle id="952">
                    <color>ffff0000</color>
                    <colorMode>normal</colorMode>
                    <scale>1</scale>
                    <heading>0</heading>
                    <Icon id="953">
                        <href>http://maps.google.com/mapfiles/kml/pushpin/ylw-pushpin.png</href>
                    </Icon>
                </IconStyle>
            </Style>
            <Style id="956">
                <IconStyle id="957">
                    <color>ffff0000</color>
                    <colorMode>normal</colorMode>
                    <scale>1</scale>
                    <heading>0</heading>
                    <Icon id="958">
                        <href>http://maps.google.com/mapfiles/kml/pushpin/ylw-pushpin.png</href>
                    </Icon>
                </IconStyle>
            </Style>
            <Style id="961">
                <IconStyle id="962">
                    <color>ffff0000</color>
                    <colorMode>normal</colorMode>
                    <scale>1</scale>
                    <heading>0</heading>
                    <Icon id="963">
                        <href>http://maps.google.com/mapfiles/kml/pushpin/ylw-pushpin.png</href>
                    </Icon>
                </IconStyle>
            </Style>
            <Style id="966">
                <IconStyle id="967">
                    <color>ffff0000</color>
                    <colorMode>normal</colorMode>
                    <scale>1</scale>
                    <heading>0</heading>
                    <Icon id="968">
                        <href>http://maps.google.com/mapfiles/kml/pushpin/ylw-pushpin.png</href>
                    </Icon>
                </IconStyle>
            </Style>
            <Style id="971">
                <IconStyle id="972">
                    <color>ffff0000</color>
                    <colorMode>normal</colorMode>
                    <scale>1</scale>
                    <heading>0</heading>
                    <Icon id="973">
                        <href>http://maps.google.com/mapfiles/kml/pushpin/ylw-pushpin.png</href>
                    </Icon>
                </IconStyle>
            </Style>
            <Style id="976">
                <IconStyle id="977">
                    <color>ffff0000</color>
                    <colorMode>normal</colorMode>
                    <scale>1</scale>
                    <heading>0</heading>
                    <Icon id="978">
                        <href>http://maps.google.com/mapfiles/kml/pushpin/ylw-pushpin.png</href>
                    </Icon>
                </IconStyle>
            </Style>
            <Style id="981">
                <IconStyle id="982">
                    <color>ffff0000</color>
                    <colorMode>normal</colorMode>
                    <scale>1</scale>
                    <heading>0</heading>
                    <Icon id="983">
                        <href>http://maps.google.com/mapfiles/kml/pushpin/ylw-pushpin.png</href>
                    </Icon>
                </IconStyle>
            </Style>
            <Style id="986">
                <IconStyle id="987">
                    <color>ffff0000</color>
                    <colorMode>normal</colorMode>
                    <scale>1</scale>
                    <heading>0</heading>
                    <Icon id="988">
                        <href>http://maps.google.com/mapfiles/kml/pushpin/ylw-pushpin.png</href>
                    </Icon>
                </IconStyle>
            </Style>
            <Style id="991">
                <IconStyle id="992">
                    <color>ffff0000</color>
                    <colorMode>normal</colorMode>
                    <scale>1</scale>
                    <heading>0</heading>
                    <Icon id="993">
                        <href>http://maps.google.com/mapfiles/kml/pushpin/ylw-pushpin.png</href>
                    </Icon>
                </IconStyle>
            </Style>
            <Style id="996">
                <IconStyle id="997">
                    <color>ffff0000</color>
                    <colorMode>normal</colorMode>
                    <scale>1</scale>
                    <heading>0</heading>
                    <Icon id="998">
                        <href>http://maps.google.com/mapfiles/kml/pushpin/ylw-pushpin.png</href>
                    </Icon>
                </IconStyle>
            </Style>
            <Style id="1001">
                <IconStyle id="1002">
                    <color>ffff0000</color>
                    <colorMode>normal</colorMode>
                    <scale>1</scale>
                    <heading>0</heading>
                    <Icon id="1003">
                        <href>http://maps.google.com/mapfiles/kml/pushpin/ylw-pushpin.png</href>
                    </Icon>
                </IconStyle>
            </Style>
            <Style id="1006">
                <IconStyle id="1007">
                    <color>ffff0000</color>
                    <colorMode>normal</colorMode>
                    <scale>1</scale>
                    <heading>0</heading>
                    <Icon id="1008">
                        <href>http://maps.google.com/mapfiles/kml/pushpin/ylw-pushpin.png</href>
                    </Icon>
                </IconStyle>
            </Style>
            <Style id="1011">
                <IconStyle id="1012">
                    <color>ffff0000</color>
                    <colorMode>normal</colorMode>
                    <scale>1</scale>
                    <heading>0</heading>
                    <Icon id="1013">
                        <href>http://maps.google.com/mapfiles/kml/pushpin/ylw-pushpin.png</href>
                    </Icon>
                </IconStyle>
            </Style>
            <Style id="1016">
                <IconStyle id="1017">
                    <color>ffff0000</color>
                    <colorMode>normal</colorMode>
                    <scale>1</scale>
                    <heading>0</heading>
                    <Icon id="1018">
                        <href>http://maps.google.com/mapfiles/kml/pushpin/ylw-pushpin.png</href>
                    </Icon>
                </IconStyle>
            </Style>
            <Style id="1021">
                <IconStyle id="1022">
                    <color>ffff0000</color>
                    <colorMode>normal</colorMode>
                    <scale>1</scale>
                    <heading>0</heading>
                    <Icon id="1023">
                        <href>http://maps.google.com/mapfiles/kml/pushpin/ylw-pushpin.png</href>
                    </Icon>
                </IconStyle>
            </Style>
            <Style id="1026">
                <IconStyle id="1027">
                    <color>ffff0000</color>
                    <colorMode>normal</colorMode>
                    <scale>1</scale>
                    <heading>0</heading>
                    <Icon id="1028">
                        <href>http://maps.google.com/mapfiles/kml/pushpin/ylw-pushpin.png</href>
                    </Icon>
                </IconStyle>
            </Style>
            <Style id="1031">
                <IconStyle id="1032">
                    <color>ffff0000</color>
                    <colorMode>normal</colorMode>
                    <scale>1</scale>
                    <heading>0</heading>
                    <Icon id="1033">
                        <href>http://maps.google.com/mapfiles/kml/pushpin/ylw-pushpin.png</href>
                    </Icon>
                </IconStyle>
            </Style>
            <Style id="1036">
                <IconStyle id="1037">
                    <color>ffff0000</color>
                    <colorMode>normal</colorMode>
                    <scale>1</scale>
                    <heading>0</heading>
                    <Icon id="1038">
                        <href>http://maps.google.com/mapfiles/kml/pushpin/ylw-pushpin.png</href>
                    </Icon>
                </IconStyle>
            </Style>
            <Style id="1041">
                <IconStyle id="1042">
                    <color>ffff0000</color>
                    <colorMode>normal</colorMode>
                    <scale>1</scale>
                    <heading>0</heading>
                    <Icon id="1043">
                        <href>http://maps.google.com/mapfiles/kml/pushpin/ylw-pushpin.png</href>
                    </Icon>
                </IconStyle>
            </Style>
            <Style id="1046">
                <IconStyle id="1047">
                    <color>ffff0000</color>
                    <colorMode>normal</colorMode>
                    <scale>1</scale>
                    <heading>0</heading>
                    <Icon id="1048">
                        <href>http://maps.google.com/mapfiles/kml/pushpin/ylw-pushpin.png</href>
                    </Icon>
                </IconStyle>
            </Style>
            <name>EDDINSON CECILIO DIOSES SAAVEDRA</name>
            <Placemark id="945">
                <name>SEGUNDO MATEO SANDOVAL LLAUCE</name>
                <description>CESAR PINGLO 206
Sechura

Piura
Perú</description>
                <styleUrl>#946</styleUrl>
                <Point id="944">
                    <coordinates>-80.8217595,-5.5544453,0.0</coordinates>
                </Point>
            </Placemark>
            <Placemark id="950">
                <name>SEGUNDO MATEO SANDOVAL LLAUCE</name>
                <description>CESAR PINGLO 206
Sechura

Piura
Perú</description>
                <styleUrl>#951</styleUrl>
                <Point id="949">
                    <coordinates>-80.8217595,-5.5544453,0.0</coordinates>
                </Point>
            </Placemark>
            <Placemark id="955">
                <name>INOÑAN TUÑOQUE YULIANA</name>
                <description>MERCADO SECHURA PTO 55
Sechura
Piura
Piura
Perú</description>
                <styleUrl>#956</styleUrl>
                <Point id="954">
                    <coordinates>-80.8222241,-5.5531937,0.0</coordinates>
                </Point>
            </Placemark>
            <Placemark id="960">
                <name>CARLOS ALBERTO MARTINEZ AMAYA</name>
                <description>Mercado sechura
Sechura
Sechura
Piura
Perú</description>
                <styleUrl>#961</styleUrl>
                <Point id="959">
                    <coordinates>-80.8218246,-5.5534272,0.0</coordinates>
                </Point>
            </Placemark>
            <Placemark id="965">
                <name>MOISES ISAIAS AREVALO ANCAJIMA</name>
                <description>Mercado sechura
Sechura
Sechura
Piura
Perú</description>
                <styleUrl>#966</styleUrl>
                <Point id="964">
                    <coordinates>-80.8218516,-5.5533228,0.0</coordinates>
                </Point>
            </Placemark>
            <Placemark id="970">
                <name>SEGUNDO ANTERO SIESQUEN BALDERA</name>
                <description>INT. MCDO SECHURA-PIURA
Sechura
Sechura
Piura
Perú</description>
                <styleUrl>#971</styleUrl>
                <Point id="969">
                    <coordinates>-80.821973,-5.5533893,0.0</coordinates>
                </Point>
            </Placemark>
            <Placemark id="975">
                <name>MILTON LIMA CASTILLO</name>
                <description>Mercado Puesto 41
Sechura
Sechura
Piura
Perú</description>
                <styleUrl>#976</styleUrl>
                <Point id="974">
                    <coordinates>-80.822345,-5.5537944,0.0</coordinates>
                </Point>
            </Placemark>
            <Placemark id="980">
                <name>PEDRO MONTALVAN CORDOVA</name>
                <description>San Martín 1ra cuadra MERCADO
Sechura
Sechura
Piura
Perú</description>
                <styleUrl>#981</styleUrl>
                <Point id="979">
                    <coordinates>-80.8223733,-5.5537383,0.0</coordinates>
                </Point>
            </Placemark>
            <Placemark id="985">
                <name>ELMER JESUS BANCES SIESQUEN</name>
                <description>PUESTO NRO 72 MERCADO
Sechura
Sechura
Piura
Perú</description>
                <styleUrl>#986</styleUrl>
                <Point id="984">
                    <coordinates>-80.8219847,-5.5533112,0.0</coordinates>
                </Point>
            </Placemark>
            <Placemark id="990">
                <name>CARLOS ALBERTO MARTINEZ AMAYA</name>
                <description>Mercado sechura
Sechura
Sechura
Piura
Perú</description>
                <styleUrl>#991</styleUrl>
                <Point id="989">
                    <coordinates>-80.8218246,-5.5534272,0.0</coordinates>
                </Point>
            </Placemark>
            <Placemark id="995">
                <name>MOISES ISAIAS AREVALO ANCAJIMA</name>
                <description>Mercado sechura
Sechura
Sechura
Piura
Perú</description>
                <styleUrl>#996</styleUrl>
                <Point id="994">
                    <coordinates>-80.8218516,-5.5533228,0.0</coordinates>
                </Point>
            </Placemark>
            <Placemark id="1000">
                <name>ROSA ELENA SALDARRIAGA PALACIOS</name>
                <description>Mercado sechura
Sechura
Sechura
Piura
Perú</description>
                <styleUrl>#1001</styleUrl>
                <Point id="999">
                    <coordinates>-80.8220775,-5.5535841,0.0</coordinates>
                </Point>
            </Placemark>
            <Placemark id="1005">
                <name>AURELIA CORDOVA CORDOVA</name>
                <description>Mercado anexo Puesto 12
Sechura
Sechura
Piura
Perú</description>
                <styleUrl>#1006</styleUrl>
                <Point id="1004">
                    <coordinates>-80.8218255,-5.554183,0.0</coordinates>
                </Point>
            </Placemark>
            <Placemark id="1010">
                <name>ESTRELLA MARIALIZ QUEREVALU ECHE</name>
                <description>Cesar Pinglo 117
Sechura
Sechura
Piura
Perú</description>
                <styleUrl>#1011</styleUrl>
                <Point id="1009">
                    <coordinates>-80.8217996,-5.5537566,0.0</coordinates>
                </Point>
            </Placemark>
            <Placemark id="1015">
                <name>EDGARD JOHAN SUCLUPE SIESQUEN</name>
                <description>INT. MERCADO SECHURA-SECHURA
Sechura
Sechura
Piura
Perú</description>
                <styleUrl>#1016</styleUrl>
                <Point id="1014">
                    <coordinates>-80.8223337,-5.5536946,0.0</coordinates>
                </Point>
            </Placemark>
            <Placemark id="1020">
                <name>INOÑAN DE LA CRUZ JHAMIRA BERSAVE</name>
                <description>Mercado sechura
Sechura

Piura
Perú</description>
                <styleUrl>#1021</styleUrl>
                <Point id="1019">
                    <coordinates>-80.8219715,-5.5533813,0.0</coordinates>
                </Point>
            </Placemark>
            <Placemark id="1025">
                <name>SEGUNDO ANTERO SIESQUEN BALDERA</name>
                <description>INT. MCDO SECHURA-PIURA
Sechura
Sechura
Piura
Perú</description>
                <styleUrl>#1026</styleUrl>
                <Point id="1024">
                    <coordinates>-80.821973,-5.5533893,0.0</coordinates>
                </Point>
            </Placemark>
            <Placemark id="1030">
                <name>MANUELA MORALES CRUZ</name>
                <description>PUESTO 33 MERCADO SECHURA PLATAFORMA 2
Sechura
Sechura
Piura
Perú</description>
                <styleUrl>#1031</styleUrl>
                <Point id="1029">
                    <coordinates>-80.8222847,-5.5537737,0.0</coordinates>
                </Point>
            </Placemark>
            <Placemark id="1035">
                <name>MILTON LIMA CASTILLO</name>
                <description>Mercado Puesto 41
Sechura
Sechura
Piura
Perú</description>
                <styleUrl>#1036</styleUrl>
                <Point id="1034">
                    <coordinates>-80.822345,-5.5537944,0.0</coordinates>
                </Point>
            </Placemark>
            <Placemark id="1040">
                <name>COSTANCIA PURIZACA DE OLIVAREZ</name>
                <description>CALLE SAN MARTÍN 112
Sechura
Sechura
Piura
Perú</description>
                <styleUrl>#1041</styleUrl>
                <Point id="1039">
                    <coordinates>-80.8224837,-5.553913,0.0</coordinates>
                </Point>
            </Placemark>
            <Placemark id="1045">
                <name>PEDRO MONTALVAN CORDOVA</name>
                <description>San Martín 1ra cuadra MERCADO
Sechura
Sechura
Piura
Perú</description>
                <styleUrl>#1046</styleUrl>
                <Point id="1044">
                    <coordinates>-80.8223733,-5.5537383,0.0</coordinates>
                </Point>
            </Placemark>
        </Folder>
    </Document>
</kml>
