<?xml version="1.0" encoding="UTF-8"?>
<kml xmlns="http://www.opengis.net/kml/2.2" xmlns:gx="http://www.google.com/kml/ext/2.2">
    <Document id="817">
        <Folder id="818">
            <Style id="821">
                <IconStyle id="822">
                    <color>ff0000ff</color>
                    <colorMode>normal</colorMode>
                    <scale>1</scale>
                    <heading>0</heading>
                    <Icon id="823">
                        <href>http://maps.google.com/mapfiles/kml/pushpin/ylw-pushpin.png</href>
                    </Icon>
                </IconStyle>
            </Style>
            <Style id="826">
                <IconStyle id="827">
                    <color>ff0000ff</color>
                    <colorMode>normal</colorMode>
                    <scale>1</scale>
                    <heading>0</heading>
                    <Icon id="828">
                        <href>http://maps.google.com/mapfiles/kml/pushpin/ylw-pushpin.png</href>
                    </Icon>
                </IconStyle>
            </Style>
            <Style id="831">
                <IconStyle id="832">
                    <color>ff0000ff</color>
                    <colorMode>normal</colorMode>
                    <scale>1</scale>
                    <heading>0</heading>
                    <Icon id="833">
                        <href>http://maps.google.com/mapfiles/kml/pushpin/ylw-pushpin.png</href>
                    </Icon>
                </IconStyle>
            </Style>
            <Style id="836">
                <IconStyle id="837">
                    <color>ff0000ff</color>
                    <colorMode>normal</colorMode>
                    <scale>1</scale>
                    <heading>0</heading>
                    <Icon id="838">
                        <href>http://maps.google.com/mapfiles/kml/pushpin/ylw-pushpin.png</href>
                    </Icon>
                </IconStyle>
            </Style>
            <Style id="841">
                <IconStyle id="842">
                    <color>ff0000ff</color>
                    <colorMode>normal</colorMode>
                    <scale>1</scale>
                    <heading>0</heading>
                    <Icon id="843">
                        <href>http://maps.google.com/mapfiles/kml/pushpin/ylw-pushpin.png</href>
                    </Icon>
                </IconStyle>
            </Style>
            <Style id="846">
                <IconStyle id="847">
                    <color>ff0000ff</color>
                    <colorMode>normal</colorMode>
                    <scale>1</scale>
                    <heading>0</heading>
                    <Icon id="848">
                        <href>http://maps.google.com/mapfiles/kml/pushpin/ylw-pushpin.png</href>
                    </Icon>
                </IconStyle>
            </Style>
            <Style id="851">
                <IconStyle id="852">
                    <color>ff0000ff</color>
                    <colorMode>normal</colorMode>
                    <scale>1</scale>
                    <heading>0</heading>
                    <Icon id="853">
                        <href>http://maps.google.com/mapfiles/kml/pushpin/ylw-pushpin.png</href>
                    </Icon>
                </IconStyle>
            </Style>
            <Style id="856">
                <IconStyle id="857">
                    <color>ff0000ff</color>
                    <colorMode>normal</colorMode>
                    <scale>1</scale>
                    <heading>0</heading>
                    <Icon id="858">
                        <href>http://maps.google.com/mapfiles/kml/pushpin/ylw-pushpin.png</href>
                    </Icon>
                </IconStyle>
            </Style>
            <Style id="861">
                <IconStyle id="862">
                    <color>ff0000ff</color>
                    <colorMode>normal</colorMode>
                    <scale>1</scale>
                    <heading>0</heading>
                    <Icon id="863">
                        <href>http://maps.google.com/mapfiles/kml/pushpin/ylw-pushpin.png</href>
                    </Icon>
                </IconStyle>
            </Style>
            <Style id="866">
                <IconStyle id="867">
                    <color>ff0000ff</color>
                    <colorMode>normal</colorMode>
                    <scale>1</scale>
                    <heading>0</heading>
                    <Icon id="868">
                        <href>http://maps.google.com/mapfiles/kml/pushpin/ylw-pushpin.png</href>
                    </Icon>
                </IconStyle>
            </Style>
            <Style id="871">
                <IconStyle id="872">
                    <color>ff0000ff</color>
                    <colorMode>normal</colorMode>
                    <scale>1</scale>
                    <heading>0</heading>
                    <Icon id="873">
                        <href>http://maps.google.com/mapfiles/kml/pushpin/ylw-pushpin.png</href>
                    </Icon>
                </IconStyle>
            </Style>
            <Style id="876">
                <IconStyle id="877">
                    <color>ff0000ff</color>
                    <colorMode>normal</colorMode>
                    <scale>1</scale>
                    <heading>0</heading>
                    <Icon id="878">
                        <href>http://maps.google.com/mapfiles/kml/pushpin/ylw-pushpin.png</href>
                    </Icon>
                </IconStyle>
            </Style>
            <Style id="881">
                <IconStyle id="882">
                    <color>ff0000ff</color>
                    <colorMode>normal</colorMode>
                    <scale>1</scale>
                    <heading>0</heading>
                    <Icon id="883">
                        <href>http://maps.google.com/mapfiles/kml/pushpin/ylw-pushpin.png</href>
                    </Icon>
                </IconStyle>
            </Style>
            <Style id="886">
                <IconStyle id="887">
                    <color>ff0000ff</color>
                    <colorMode>normal</colorMode>
                    <scale>1</scale>
                    <heading>0</heading>
                    <Icon id="888">
                        <href>http://maps.google.com/mapfiles/kml/pushpin/ylw-pushpin.png</href>
                    </Icon>
                </IconStyle>
            </Style>
            <Style id="891">
                <IconStyle id="892">
                    <color>ff0000ff</color>
                    <colorMode>normal</colorMode>
                    <scale>1</scale>
                    <heading>0</heading>
                    <Icon id="893">
                        <href>http://maps.google.com/mapfiles/kml/pushpin/ylw-pushpin.png</href>
                    </Icon>
                </IconStyle>
            </Style>
            <Style id="896">
                <IconStyle id="897">
                    <color>ff0000ff</color>
                    <colorMode>normal</colorMode>
                    <scale>1</scale>
                    <heading>0</heading>
                    <Icon id="898">
                        <href>http://maps.google.com/mapfiles/kml/pushpin/ylw-pushpin.png</href>
                    </Icon>
                </IconStyle>
            </Style>
            <Style id="901">
                <IconStyle id="902">
                    <color>ff0000ff</color>
                    <colorMode>normal</colorMode>
                    <scale>1</scale>
                    <heading>0</heading>
                    <Icon id="903">
                        <href>http://maps.google.com/mapfiles/kml/pushpin/ylw-pushpin.png</href>
                    </Icon>
                </IconStyle>
            </Style>
            <Style id="906">
                <IconStyle id="907">
                    <color>ff0000ff</color>
                    <colorMode>normal</colorMode>
                    <scale>1</scale>
                    <heading>0</heading>
                    <Icon id="908">
                        <href>http://maps.google.com/mapfiles/kml/pushpin/ylw-pushpin.png</href>
                    </Icon>
                </IconStyle>
            </Style>
            <Style id="911">
                <IconStyle id="912">
                    <color>ff0000ff</color>
                    <colorMode>normal</colorMode>
                    <scale>1</scale>
                    <heading>0</heading>
                    <Icon id="913">
                        <href>http://maps.google.com/mapfiles/kml/pushpin/ylw-pushpin.png</href>
                    </Icon>
                </IconStyle>
            </Style>
            <Style id="916">
                <IconStyle id="917">
                    <color>ff0000ff</color>
                    <colorMode>normal</colorMode>
                    <scale>1</scale>
                    <heading>0</heading>
                    <Icon id="918">
                        <href>http://maps.google.com/mapfiles/kml/pushpin/ylw-pushpin.png</href>
                    </Icon>
                </IconStyle>
            </Style>
            <Style id="921">
                <IconStyle id="922">
                    <color>ff0000ff</color>
                    <colorMode>normal</colorMode>
                    <scale>1</scale>
                    <heading>0</heading>
                    <Icon id="923">
                        <href>http://maps.google.com/mapfiles/kml/pushpin/ylw-pushpin.png</href>
                    </Icon>
                </IconStyle>
            </Style>
            <Style id="926">
                <IconStyle id="927">
                    <color>ff0000ff</color>
                    <colorMode>normal</colorMode>
                    <scale>1</scale>
                    <heading>0</heading>
                    <Icon id="928">
                        <href>http://maps.google.com/mapfiles/kml/pushpin/ylw-pushpin.png</href>
                    </Icon>
                </IconStyle>
            </Style>
            <Style id="931">
                <IconStyle id="932">
                    <color>ff0000ff</color>
                    <colorMode>normal</colorMode>
                    <scale>1</scale>
                    <heading>0</heading>
                    <Icon id="933">
                        <href>http://maps.google.com/mapfiles/kml/pushpin/ylw-pushpin.png</href>
                    </Icon>
                </IconStyle>
            </Style>
            <Style id="936">
                <IconStyle id="937">
                    <color>ff0000ff</color>
                    <colorMode>normal</colorMode>
                    <scale>1</scale>
                    <heading>0</heading>
                    <Icon id="938">
                        <href>http://maps.google.com/mapfiles/kml/pushpin/ylw-pushpin.png</href>
                    </Icon>
                </IconStyle>
            </Style>
            <Style id="941">
                <IconStyle id="942">
                    <color>ff0000ff</color>
                    <colorMode>normal</colorMode>
                    <scale>1</scale>
                    <heading>0</heading>
                    <Icon id="943">
                        <href>http://maps.google.com/mapfiles/kml/pushpin/ylw-pushpin.png</href>
                    </Icon>
                </IconStyle>
            </Style>
            <Style id="946">
                <IconStyle id="947">
                    <color>ff0000ff</color>
                    <colorMode>normal</colorMode>
                    <scale>1</scale>
                    <heading>0</heading>
                    <Icon id="948">
                        <href>http://maps.google.com/mapfiles/kml/pushpin/ylw-pushpin.png</href>
                    </Icon>
                </IconStyle>
            </Style>
            <Style id="951">
                <IconStyle id="952">
                    <color>ff0000ff</color>
                    <colorMode>normal</colorMode>
                    <scale>1</scale>
                    <heading>0</heading>
                    <Icon id="953">
                        <href>http://maps.google.com/mapfiles/kml/pushpin/ylw-pushpin.png</href>
                    </Icon>
                </IconStyle>
            </Style>
            <Style id="956">
                <IconStyle id="957">
                    <color>ff0000ff</color>
                    <colorMode>normal</colorMode>
                    <scale>1</scale>
                    <heading>0</heading>
                    <Icon id="958">
                        <href>http://maps.google.com/mapfiles/kml/pushpin/ylw-pushpin.png</href>
                    </Icon>
                </IconStyle>
            </Style>
            <Style id="961">
                <IconStyle id="962">
                    <color>ff0000ff</color>
                    <colorMode>normal</colorMode>
                    <scale>1</scale>
                    <heading>0</heading>
                    <Icon id="963">
                        <href>http://maps.google.com/mapfiles/kml/pushpin/ylw-pushpin.png</href>
                    </Icon>
                </IconStyle>
            </Style>
            <Style id="966">
                <IconStyle id="967">
                    <color>ff0000ff</color>
                    <colorMode>normal</colorMode>
                    <scale>1</scale>
                    <heading>0</heading>
                    <Icon id="968">
                        <href>http://maps.google.com/mapfiles/kml/pushpin/ylw-pushpin.png</href>
                    </Icon>
                </IconStyle>
            </Style>
            <Style id="971">
                <IconStyle id="972">
                    <color>ff0000ff</color>
                    <colorMode>normal</colorMode>
                    <scale>1</scale>
                    <heading>0</heading>
                    <Icon id="973">
                        <href>http://maps.google.com/mapfiles/kml/pushpin/ylw-pushpin.png</href>
                    </Icon>
                </IconStyle>
            </Style>
            <Style id="976">
                <IconStyle id="977">
                    <color>ff0000ff</color>
                    <colorMode>normal</colorMode>
                    <scale>1</scale>
                    <heading>0</heading>
                    <Icon id="978">
                        <href>http://maps.google.com/mapfiles/kml/pushpin/ylw-pushpin.png</href>
                    </Icon>
                </IconStyle>
            </Style>
            <Style id="981">
                <IconStyle id="982">
                    <color>ff0000ff</color>
                    <colorMode>normal</colorMode>
                    <scale>1</scale>
                    <heading>0</heading>
                    <Icon id="983">
                        <href>http://maps.google.com/mapfiles/kml/pushpin/ylw-pushpin.png</href>
                    </Icon>
                </IconStyle>
            </Style>
            <Style id="986">
                <IconStyle id="987">
                    <color>ff0000ff</color>
                    <colorMode>normal</colorMode>
                    <scale>1</scale>
                    <heading>0</heading>
                    <Icon id="988">
                        <href>http://maps.google.com/mapfiles/kml/pushpin/ylw-pushpin.png</href>
                    </Icon>
                </IconStyle>
            </Style>
            <Style id="991">
                <IconStyle id="992">
                    <color>ff0000ff</color>
                    <colorMode>normal</colorMode>
                    <scale>1</scale>
                    <heading>0</heading>
                    <Icon id="993">
                        <href>http://maps.google.com/mapfiles/kml/pushpin/ylw-pushpin.png</href>
                    </Icon>
                </IconStyle>
            </Style>
            <Style id="996">
                <IconStyle id="997">
                    <color>ff0000ff</color>
                    <colorMode>normal</colorMode>
                    <scale>1</scale>
                    <heading>0</heading>
                    <Icon id="998">
                        <href>http://maps.google.com/mapfiles/kml/pushpin/ylw-pushpin.png</href>
                    </Icon>
                </IconStyle>
            </Style>
            <Style id="1001">
                <IconStyle id="1002">
                    <color>ff0000ff</color>
                    <colorMode>normal</colorMode>
                    <scale>1</scale>
                    <heading>0</heading>
                    <Icon id="1003">
                        <href>http://maps.google.com/mapfiles/kml/pushpin/ylw-pushpin.png</href>
                    </Icon>
                </IconStyle>
            </Style>
            <Style id="1006">
                <IconStyle id="1007">
                    <color>ff0000ff</color>
                    <colorMode>normal</colorMode>
                    <scale>1</scale>
                    <heading>0</heading>
                    <Icon id="1008">
                        <href>http://maps.google.com/mapfiles/kml/pushpin/ylw-pushpin.png</href>
                    </Icon>
                </IconStyle>
            </Style>
            <Style id="1011">
                <IconStyle id="1012">
                    <color>ff0000ff</color>
                    <colorMode>normal</colorMode>
                    <scale>1</scale>
                    <heading>0</heading>
                    <Icon id="1013">
                        <href>http://maps.google.com/mapfiles/kml/pushpin/ylw-pushpin.png</href>
                    </Icon>
                </IconStyle>
            </Style>
            <name>BRAYAN ALEXANDER IPANAQUE CASTRO</name>
            <Placemark id="820">
                <name>DERIAN ELMER RUIZ CHUNGA</name>
                <description>AA.HH MICAELA BASTIDAS MZ E2 LT 28
Sechura
Sechura
Piura
Perú</description>
                <styleUrl>#821</styleUrl>
                <Point id="819">
                    <coordinates>-80.8133109,-5.5623441,0.0</coordinates>
                </Point>
            </Placemark>
            <Placemark id="825">
                <name>HECTOR OSWALDO REYES ZAPATA</name>
                <description>AV EGUIGUREN 1006 CERCADO SECHURA
Sechura
Sechura
Piura
Perú</description>
                <styleUrl>#826</styleUrl>
                <Point id="824">
                    <coordinates>-80.8193615,-5.5534304,0.0</coordinates>
                </Point>
            </Placemark>
            <Placemark id="830">
                <name>CINTYA MILAGROS ECHE POICON</name>
                <description>Calle Alcántara navarro 400 sechura-sechura
Sechura
Sechura
Piura
Perú</description>
                <styleUrl>#831</styleUrl>
                <Point id="829">
                    <coordinates>-80.820588,-5.556319,0.0</coordinates>
                </Point>
            </Placemark>
            <Placemark id="835">
                <name>BAYONA MELGAR ANGELA YOMIRA</name>
                <description>BAYONA MELGAR ANGELA YOMIRA
CA RESTAURACIÓN CON CESAR PINGLO
Sechura
Sechura
Piura
Perú</description>
                <styleUrl>#836</styleUrl>
                <Point id="834">
                    <coordinates>-80.8215787,-5.5587905,0.0</coordinates>
                </Point>
            </Placemark>
            <Placemark id="840">
                <name>CRUZ MARIA PAIVA CHUNGA</name>
                <description>(AV VÍCTOR TEMOCHE MZ A LOT 3-1
Sechura
Sechura
Piura
Perú</description>
                <styleUrl>#841</styleUrl>
                <Point id="839">
                    <coordinates>-80.8163631,-5.5627024,0.0</coordinates>
                </Point>
            </Placemark>
            <Placemark id="845">
                <name>RAMONA MARIA TUME DE LARREA</name>
                <description>MICAELA BASTIDAS I ETAPA MZ D LT 8
Sechura
Sechura
Piura
Perú</description>
                <styleUrl>#846</styleUrl>
                <Point id="844">
                    <coordinates>-80.8169639,-5.5606837,0.0</coordinates>
                </Point>
            </Placemark>
            <Placemark id="850">
                <name>VIRGINIA RUIZ PAIVA</name>
                <description>AAHH MICAELA BASTIDAS MZ E LT 10 SECHURA-SECHURA
Sechura
Sechura
Piura
Perú</description>
                <styleUrl>#851</styleUrl>
                <Point id="849">
                    <coordinates>-80.8166107,-5.5611477,0.0</coordinates>
                </Point>
            </Placemark>
            <Placemark id="855">
                <name>CEFERINA LAUREANO FLORES DE ANTON</name>
                <description>A.H MICAELA BASTIDAS MZ B LOTE 7-SECHURA-SECHURA
Sechura
Sechura
Piura
Perú</description>
                <styleUrl>#856</styleUrl>
                <Point id="854">
                    <coordinates>-80.8150727,-5.5612234,0.0</coordinates>
                </Point>
            </Placemark>
            <Placemark id="860">
                <name>MARIA TORRES LESCANO</name>
                <description>MZ-E LT-13 MICAELA ETP-2 SECHURA
Sechura
Sechura
Piura
Perú</description>
                <styleUrl>#861</styleUrl>
                <Point id="859">
                    <coordinates>-80.8133623,-5.5614387,0.0</coordinates>
                </Point>
            </Placemark>
            <Placemark id="865">
                <name>DERIAN ELMER RUIZ CHUNGA</name>
                <description>AA.HH MICAELA BASTIDAS MZ E2 LT 28
Sechura
Sechura
Piura
Perú</description>
                <styleUrl>#866</styleUrl>
                <Point id="864">
                    <coordinates>-80.8133109,-5.5623441,0.0</coordinates>
                </Point>
            </Placemark>
            <Placemark id="870">
                <name>MARGARITA DEL MILAGRO FIESTAS MORAN</name>
                <description>AAHH MICAELA BASTIDAS MZ G2 LOT 17
Sechura
Sechura
Piura
Perú</description>
                <styleUrl>#871</styleUrl>
                <Point id="869">
                    <coordinates>-80.81192,-5.562069,0.0</coordinates>
                </Point>
            </Placemark>
            <Placemark id="875">
                <name>JESUS CRUZ HUAMAN</name>
                <description>AH. NVA ESPERANZA MZ.D LT31 AV.RESTAURACION
Sechura
Sechura
Piura
Perú</description>
                <styleUrl>#876</styleUrl>
                <Point id="874">
                    <coordinates>-80.81177,-5.5617262,0.0</coordinates>
                </Point>
            </Placemark>
            <Placemark id="880">
                <name>ANALI VITE ALVAREZ</name>
                <description>Porvenir 285
Sechura
Sechura
Piura
Perú</description>
                <styleUrl>#881</styleUrl>
                <Point id="879">
                    <coordinates>-80.8213428,-5.5547903,0.0</coordinates>
                </Point>
            </Placemark>
            <Placemark id="885">
                <name>OLINDA MARCHENA JIMENEZ</name>
                <description>MZ.E LTE.14 II ETAPA A.H.NUEVA ESPERANZA-SECHURA
Sechura
Sechura
Piura
Perú</description>
                <styleUrl>#886</styleUrl>
                <Point id="884">
                    <coordinates>-80.8120631,-5.5587689,0.0</coordinates>
                </Point>
            </Placemark>
            <Placemark id="890">
                <name>VANESSA DEL CARMEN CHUNGA CHUDAN</name>
                <description>AH NUEV ESPERANZA MZ F LT 15
Sechura

Piura
Perú</description>
                <styleUrl>#891</styleUrl>
                <Point id="889">
                    <coordinates>-80.8217729,-5.5542149,0.0</coordinates>
                </Point>
            </Placemark>
            <Placemark id="895">
                <name>SERAFIN AMAYA CHUNGA</name>
                <description>ZONA INDUSTRIAL CALLE 3 N° 309
Sechura
Sechura
Piura
Perú</description>
                <styleUrl>#896</styleUrl>
                <Point id="894">
                    <coordinates>-80.8171943,-5.5555871,0.0</coordinates>
                </Point>
            </Placemark>
            <Placemark id="900">
                <name>QUIROGA BRIGUIDA VITE DE</name>
                <description>AV. BAYOBAR NÂ°300 - SECHURA REF FRENTE A TERRA MAR PLAZA
Sechura
Sechura
Piura
Perú</description>
                <styleUrl>#901</styleUrl>
                <Point id="899">
                    <coordinates>-80.8182283,-5.5553457,0.0</coordinates>
                </Point>
            </Placemark>
            <Placemark id="905">
                <name>ECHE ZAPATA DARWIN MARLON</name>
                <description>ECHE ZAPATA DARWIN MARLON
CA SAN MARTIN 562  REF FRENTE A LA PLAZA DE ARMAS
Sechura

Piura
Perú</description>
                <styleUrl>#906</styleUrl>
                <Point id="904">
                    <coordinates>-80.8225583,-5.5578587,0.0</coordinates>
                </Point>
            </Placemark>
            <Placemark id="910">
                <name>HECTOR OSWALDO REYES ZAPATA</name>
                <description>AV EGUIGUREN 1006 CERCADO SECHURA
Sechura
Sechura
Piura
Perú</description>
                <styleUrl>#911</styleUrl>
                <Point id="909">
                    <coordinates>-80.8193615,-5.5534304,0.0</coordinates>
                </Point>
            </Placemark>
            <Placemark id="915">
                <name>PAULINA PETRONILA QUIROGA GALAN</name>
                <description>CA.SAN MIGUEL NÂ°302 - SECHURA
Sechura
Sechura
Piura
Perú</description>
                <styleUrl>#916</styleUrl>
                <Point id="914">
                    <coordinates>-80.8193434,-5.5551402,0.0</coordinates>
                </Point>
            </Placemark>
            <Placemark id="920">
                <name>DARIO MERINO ARIAS</name>
                <description>AV.RESTAURACION L-21 A.H.TUPAC AMAR
Sechura
Sechura
Piura
Perú</description>
                <styleUrl>#921</styleUrl>
                <Point id="919">
                    <coordinates>-80.819236,-5.5585906,0.0</coordinates>
                </Point>
            </Placemark>
            <Placemark id="925">
                <name>TUME PAZOS CARLOS ELIAS</name>
                <description>TUME PAZOS CARLOS ELIAS
LT 315 JOSE GALVEZ SECHURA-SECHURA
Sechura
Sechura
Piura
Perú</description>
                <styleUrl>#926</styleUrl>
                <Point id="924">
                    <coordinates>-80.8206631,-5.5553478,0.0</coordinates>
                </Point>
            </Placemark>
            <Placemark id="930">
                <name>CINTYA MILAGROS ECHE POICON</name>
                <description>Calle Alcántara navarro 400 sechura-sechura
Sechura
Sechura
Piura
Perú</description>
                <styleUrl>#931</styleUrl>
                <Point id="929">
                    <coordinates>-80.820588,-5.556319,0.0</coordinates>
                </Point>
            </Placemark>
            <Placemark id="935">
                <name>EMMA ROSA MILLASAKY PALACIOS</name>
                <description>ALCANTARA NAVARRO 718 SECHURA
Sechura
Sechura
Piura
Perú</description>
                <styleUrl>#936</styleUrl>
                <Point id="934">
                    <coordinates>-80.8222378,-5.5563505,0.0</coordinates>
                </Point>
            </Placemark>
            <Placemark id="940">
                <name>MIRIAM ARACELY POICON PANTA</name>
                <description>CA. SAN MARTIN 796 - SECHURA
Sechura
Sechura
Piura
Perú</description>
                <styleUrl>#941</styleUrl>
                <Point id="939">
                    <coordinates>-80.8224666,-5.5603616,0.0</coordinates>
                </Point>
            </Placemark>
            <Placemark id="945">
                <name>SANTOS SECUNDINA PUESCAS FIESTAS</name>
                <description>CA BOLIVAR 718 CERCADO DE SECHURA
Sechura
Sechura
Piura
Perú</description>
                <styleUrl>#946</styleUrl>
                <Point id="944">
                    <coordinates>-80.8222504,-5.5595577,0.0</coordinates>
                </Point>
            </Placemark>
            <Placemark id="950">
                <name>BAYONA MELGAR ANGELA YOMIRA</name>
                <description>BAYONA MELGAR ANGELA YOMIRA
CA RESTAURACIÓN CON CESAR PINGLO
Sechura
Sechura
Piura
Perú</description>
                <styleUrl>#951</styleUrl>
                <Point id="949">
                    <coordinates>-80.8215787,-5.5587905,0.0</coordinates>
                </Point>
            </Placemark>
            <Placemark id="955">
                <name>MILAGROS PAIVA RUIZ</name>
                <description>CA.SAN MARTIN 444 - SECHURA
Sechura
Sechura
Piura
Perú</description>
                <styleUrl>#956</styleUrl>
                <Point id="954">
                    <coordinates>-80.8226152,-5.5569069,0.0</coordinates>
                </Point>
            </Placemark>
            <Placemark id="960">
                <name>FLAMINGO SKY EMPRESA INDIVIDUAL DE RESPONSABILIDAD LIMITADA - FLAMINGO SKY E.I.R.L.</name>
                <description>FLAMINGO SKY EMPRESA INDIVIDUAL DE RESPONSABILIDAD LIMITADA - FLAMINGO SKY E.I.R.L.
SECHURA CENTRO
Sechura
Sechura
Piura
Perú</description>
                <styleUrl>#961</styleUrl>
                <Point id="959">
                    <coordinates>-80.8227967,-5.5553043,0.0</coordinates>
                </Point>
            </Placemark>
            <Placemark id="965">
                <name>MARIA BERTILA ZEÑA VENTURA</name>
                <description>CAL.SUCRE NRO. 312 CENT. SECHURA
Sechura
Sechura
Piura
Perú</description>
                <styleUrl>#966</styleUrl>
                <Point id="964">
                    <coordinates>-80.8230862,-5.5556156,0.0</coordinates>
                </Point>
            </Placemark>
            <Placemark id="970">
                <name>INVERSIONES MI TOMASITA EIRL</name>
                <description>INVERSIONES MI TOMASITA EIRL
CAL.SUCRE NRO. 464 - SECHURA
Sechura
200801Sechura
Piura
Perú</description>
                <styleUrl>#971</styleUrl>
                <Point id="969">
                    <coordinates>-80.8229765,-5.5570267,0.0</coordinates>
                </Point>
            </Placemark>
            <Placemark id="975">
                <name>ANDREA AMAYA FIESTAS</name>
                <description>ATAHUALPA 569 SECHURA-SECHURA
Sechura
Sechura
Piura
Perú</description>
                <styleUrl>#976</styleUrl>
                <Point id="974">
                    <coordinates>-80.8233815,-5.5579241,0.0</coordinates>
                </Point>
            </Placemark>
            <Placemark id="980">
                <name>COMERCIAL SEÑOR DE LOS MILAGROS I EMPRESA INDIVIDUAL DE RESPONSABILIDAD LIMITADA - SEÑOR DE LOS MILA</name>
                <description>CAL.ATAHUALPA NRO. 698
Sechura
200801Sechura
Piura
Perú</description>
                <styleUrl>#981</styleUrl>
                <Point id="979">
                    <coordinates>-80.8233653,-5.558859,0.0</coordinates>
                </Point>
            </Placemark>
            <Placemark id="985">
                <name>MARIA GLADYS CHUNGA ANTON</name>
                <description>CA. ATAHUALPA NÂ°804 - SECHURA
Sechura
Sechura
Piura
Perú</description>
                <styleUrl>#986</styleUrl>
                <Point id="984">
                    <coordinates>-80.8232189,-5.5601032,0.0</coordinates>
                </Point>
            </Placemark>
            <Placemark id="990">
                <name>LILIANA YENQUE QUEREVALU</name>
                <description>AV BAYOVAR MZ G LOT 15
Sechura

Piura
Perú</description>
                <styleUrl>#991</styleUrl>
                <Point id="989">
                    <coordinates>-80.8129164,-5.557239,0.0</coordinates>
                </Point>
            </Placemark>
            <Placemark id="995">
                <name>CINTHYA JACKELINE CHAPILLIQUEN PAZO</name>
                <description>AV.LOS ALMENDROS MZ A LT 04 AH VICTOR RAUL - SECHU
Sechura
Sechura
Piura
Perú</description>
                <styleUrl>#996</styleUrl>
                <Point id="994">
                    <coordinates>-80.819705,-5.561209,0.0</coordinates>
                </Point>
            </Placemark>
            <Placemark id="1000">
                <name>TEMPORA MARGARITA QUEREVALU RUMICHE</name>
                <description>CA CONTRALMIRANTE VILLAR 311
Sechura
Sechura
Piura
Perú</description>
                <styleUrl>#1001</styleUrl>
                <Point id="999">
                    <coordinates>-80.8252641,-5.5553183,0.0</coordinates>
                </Point>
            </Placemark>
            <Placemark id="1005">
                <name>ISIDRO DANIEL VITE QUIROGA</name>
                <description>CALLE POR VENIR SECHURA-SECHURA
Sechura
Sechura
Piura
Perú</description>
                <styleUrl>#1006</styleUrl>
                <Point id="1004">
                    <coordinates>-80.8205963,-5.5675142,0.0</coordinates>
                </Point>
            </Placemark>
            <Placemark id="1010">
                <name>FLOR MARIA TUME FIESTAS</name>
                <description>Eguiguren con incas 206
Sechura
Sechura
Piura
Perú</description>
                <styleUrl>#1011</styleUrl>
                <Point id="1009">
                    <coordinates>-80.8242148,-5.5542961,0.0</coordinates>
                </Point>
            </Placemark>
        </Folder>
        <Folder id="1014">
            <Style id="1017">
                <IconStyle id="1018">
                    <color>ffff0000</color>
                    <colorMode>normal</colorMode>
                    <scale>1</scale>
                    <heading>0</heading>
                    <Icon id="1019">
                        <href>http://maps.google.com/mapfiles/kml/pushpin/ylw-pushpin.png</href>
                    </Icon>
                </IconStyle>
            </Style>
            <Style id="1022">
                <IconStyle id="1023">
                    <color>ffff0000</color>
                    <colorMode>normal</colorMode>
                    <scale>1</scale>
                    <heading>0</heading>
                    <Icon id="1024">
                        <href>http://maps.google.com/mapfiles/kml/pushpin/ylw-pushpin.png</href>
                    </Icon>
                </IconStyle>
            </Style>
            <Style id="1027">
                <IconStyle id="1028">
                    <color>ffff0000</color>
                    <colorMode>normal</colorMode>
                    <scale>1</scale>
                    <heading>0</heading>
                    <Icon id="1029">
                        <href>http://maps.google.com/mapfiles/kml/pushpin/ylw-pushpin.png</href>
                    </Icon>
                </IconStyle>
            </Style>
            <Style id="1032">
                <IconStyle id="1033">
                    <color>ffff0000</color>
                    <colorMode>normal</colorMode>
                    <scale>1</scale>
                    <heading>0</heading>
                    <Icon id="1034">
                        <href>http://maps.google.com/mapfiles/kml/pushpin/ylw-pushpin.png</href>
                    </Icon>
                </IconStyle>
            </Style>
            <Style id="1037">
                <IconStyle id="1038">
                    <color>ffff0000</color>
                    <colorMode>normal</colorMode>
                    <scale>1</scale>
                    <heading>0</heading>
                    <Icon id="1039">
                        <href>http://maps.google.com/mapfiles/kml/pushpin/ylw-pushpin.png</href>
                    </Icon>
                </IconStyle>
            </Style>
            <Style id="1042">
                <IconStyle id="1043">
                    <color>ffff0000</color>
                    <colorMode>normal</colorMode>
                    <scale>1</scale>
                    <heading>0</heading>
                    <Icon id="1044">
                        <href>http://maps.google.com/mapfiles/kml/pushpin/ylw-pushpin.png</href>
                    </Icon>
                </IconStyle>
            </Style>
            <Style id="1047">
                <IconStyle id="1048">
                    <color>ffff0000</color>
                    <colorMode>normal</colorMode>
                    <scale>1</scale>
                    <heading>0</heading>
                    <Icon id="1049">
                        <href>http://maps.google.com/mapfiles/kml/pushpin/ylw-pushpin.png</href>
                    </Icon>
                </IconStyle>
            </Style>
            <Style id="1052">
                <IconStyle id="1053">
                    <color>ffff0000</color>
                    <colorMode>normal</colorMode>
                    <scale>1</scale>
                    <heading>0</heading>
                    <Icon id="1054">
                        <href>http://maps.google.com/mapfiles/kml/pushpin/ylw-pushpin.png</href>
                    </Icon>
                </IconStyle>
            </Style>
            <Style id="1057">
                <IconStyle id="1058">
                    <color>ffff0000</color>
                    <colorMode>normal</colorMode>
                    <scale>1</scale>
                    <heading>0</heading>
                    <Icon id="1059">
                        <href>http://maps.google.com/mapfiles/kml/pushpin/ylw-pushpin.png</href>
                    </Icon>
                </IconStyle>
            </Style>
            <Style id="1062">
                <IconStyle id="1063">
                    <color>ffff0000</color>
                    <colorMode>normal</colorMode>
                    <scale>1</scale>
                    <heading>0</heading>
                    <Icon id="1064">
                        <href>http://maps.google.com/mapfiles/kml/pushpin/ylw-pushpin.png</href>
                    </Icon>
                </IconStyle>
            </Style>
            <Style id="1067">
                <IconStyle id="1068">
                    <color>ffff0000</color>
                    <colorMode>normal</colorMode>
                    <scale>1</scale>
                    <heading>0</heading>
                    <Icon id="1069">
                        <href>http://maps.google.com/mapfiles/kml/pushpin/ylw-pushpin.png</href>
                    </Icon>
                </IconStyle>
            </Style>
            <Style id="1072">
                <IconStyle id="1073">
                    <color>ffff0000</color>
                    <colorMode>normal</colorMode>
                    <scale>1</scale>
                    <heading>0</heading>
                    <Icon id="1074">
                        <href>http://maps.google.com/mapfiles/kml/pushpin/ylw-pushpin.png</href>
                    </Icon>
                </IconStyle>
            </Style>
            <Style id="1077">
                <IconStyle id="1078">
                    <color>ffff0000</color>
                    <colorMode>normal</colorMode>
                    <scale>1</scale>
                    <heading>0</heading>
                    <Icon id="1079">
                        <href>http://maps.google.com/mapfiles/kml/pushpin/ylw-pushpin.png</href>
                    </Icon>
                </IconStyle>
            </Style>
            <Style id="1082">
                <IconStyle id="1083">
                    <color>ffff0000</color>
                    <colorMode>normal</colorMode>
                    <scale>1</scale>
                    <heading>0</heading>
                    <Icon id="1084">
                        <href>http://maps.google.com/mapfiles/kml/pushpin/ylw-pushpin.png</href>
                    </Icon>
                </IconStyle>
            </Style>
            <Style id="1087">
                <IconStyle id="1088">
                    <color>ffff0000</color>
                    <colorMode>normal</colorMode>
                    <scale>1</scale>
                    <heading>0</heading>
                    <Icon id="1089">
                        <href>http://maps.google.com/mapfiles/kml/pushpin/ylw-pushpin.png</href>
                    </Icon>
                </IconStyle>
            </Style>
            <Style id="1092">
                <IconStyle id="1093">
                    <color>ffff0000</color>
                    <colorMode>normal</colorMode>
                    <scale>1</scale>
                    <heading>0</heading>
                    <Icon id="1094">
                        <href>http://maps.google.com/mapfiles/kml/pushpin/ylw-pushpin.png</href>
                    </Icon>
                </IconStyle>
            </Style>
            <Style id="1097">
                <IconStyle id="1098">
                    <color>ffff0000</color>
                    <colorMode>normal</colorMode>
                    <scale>1</scale>
                    <heading>0</heading>
                    <Icon id="1099">
                        <href>http://maps.google.com/mapfiles/kml/pushpin/ylw-pushpin.png</href>
                    </Icon>
                </IconStyle>
            </Style>
            <Style id="1102">
                <IconStyle id="1103">
                    <color>ffff0000</color>
                    <colorMode>normal</colorMode>
                    <scale>1</scale>
                    <heading>0</heading>
                    <Icon id="1104">
                        <href>http://maps.google.com/mapfiles/kml/pushpin/ylw-pushpin.png</href>
                    </Icon>
                </IconStyle>
            </Style>
            <Style id="1107">
                <IconStyle id="1108">
                    <color>ffff0000</color>
                    <colorMode>normal</colorMode>
                    <scale>1</scale>
                    <heading>0</heading>
                    <Icon id="1109">
                        <href>http://maps.google.com/mapfiles/kml/pushpin/ylw-pushpin.png</href>
                    </Icon>
                </IconStyle>
            </Style>
            <Style id="1112">
                <IconStyle id="1113">
                    <color>ffff0000</color>
                    <colorMode>normal</colorMode>
                    <scale>1</scale>
                    <heading>0</heading>
                    <Icon id="1114">
                        <href>http://maps.google.com/mapfiles/kml/pushpin/ylw-pushpin.png</href>
                    </Icon>
                </IconStyle>
            </Style>
            <Style id="1117">
                <IconStyle id="1118">
                    <color>ffff0000</color>
                    <colorMode>normal</colorMode>
                    <scale>1</scale>
                    <heading>0</heading>
                    <Icon id="1119">
                        <href>http://maps.google.com/mapfiles/kml/pushpin/ylw-pushpin.png</href>
                    </Icon>
                </IconStyle>
            </Style>
            <Style id="1122">
                <IconStyle id="1123">
                    <color>ffff0000</color>
                    <colorMode>normal</colorMode>
                    <scale>1</scale>
                    <heading>0</heading>
                    <Icon id="1124">
                        <href>http://maps.google.com/mapfiles/kml/pushpin/ylw-pushpin.png</href>
                    </Icon>
                </IconStyle>
            </Style>
            <Style id="1127">
                <IconStyle id="1128">
                    <color>ffff0000</color>
                    <colorMode>normal</colorMode>
                    <scale>1</scale>
                    <heading>0</heading>
                    <Icon id="1129">
                        <href>http://maps.google.com/mapfiles/kml/pushpin/ylw-pushpin.png</href>
                    </Icon>
                </IconStyle>
            </Style>
            <Style id="1132">
                <IconStyle id="1133">
                    <color>ffff0000</color>
                    <colorMode>normal</colorMode>
                    <scale>1</scale>
                    <heading>0</heading>
                    <Icon id="1134">
                        <href>http://maps.google.com/mapfiles/kml/pushpin/ylw-pushpin.png</href>
                    </Icon>
                </IconStyle>
            </Style>
            <Style id="1137">
                <IconStyle id="1138">
                    <color>ffff0000</color>
                    <colorMode>normal</colorMode>
                    <scale>1</scale>
                    <heading>0</heading>
                    <Icon id="1139">
                        <href>http://maps.google.com/mapfiles/kml/pushpin/ylw-pushpin.png</href>
                    </Icon>
                </IconStyle>
            </Style>
            <Style id="1142">
                <IconStyle id="1143">
                    <color>ffff0000</color>
                    <colorMode>normal</colorMode>
                    <scale>1</scale>
                    <heading>0</heading>
                    <Icon id="1144">
                        <href>http://maps.google.com/mapfiles/kml/pushpin/ylw-pushpin.png</href>
                    </Icon>
                </IconStyle>
            </Style>
            <Style id="1147">
                <IconStyle id="1148">
                    <color>ffff0000</color>
                    <colorMode>normal</colorMode>
                    <scale>1</scale>
                    <heading>0</heading>
                    <Icon id="1149">
                        <href>http://maps.google.com/mapfiles/kml/pushpin/ylw-pushpin.png</href>
                    </Icon>
                </IconStyle>
            </Style>
            <Style id="1152">
                <IconStyle id="1153">
                    <color>ffff0000</color>
                    <colorMode>normal</colorMode>
                    <scale>1</scale>
                    <heading>0</heading>
                    <Icon id="1154">
                        <href>http://maps.google.com/mapfiles/kml/pushpin/ylw-pushpin.png</href>
                    </Icon>
                </IconStyle>
            </Style>
            <Style id="1157">
                <IconStyle id="1158">
                    <color>ffff0000</color>
                    <colorMode>normal</colorMode>
                    <scale>1</scale>
                    <heading>0</heading>
                    <Icon id="1159">
                        <href>http://maps.google.com/mapfiles/kml/pushpin/ylw-pushpin.png</href>
                    </Icon>
                </IconStyle>
            </Style>
            <Style id="1162">
                <IconStyle id="1163">
                    <color>ffff0000</color>
                    <colorMode>normal</colorMode>
                    <scale>1</scale>
                    <heading>0</heading>
                    <Icon id="1164">
                        <href>http://maps.google.com/mapfiles/kml/pushpin/ylw-pushpin.png</href>
                    </Icon>
                </IconStyle>
            </Style>
            <Style id="1167">
                <IconStyle id="1168">
                    <color>ffff0000</color>
                    <colorMode>normal</colorMode>
                    <scale>1</scale>
                    <heading>0</heading>
                    <Icon id="1169">
                        <href>http://maps.google.com/mapfiles/kml/pushpin/ylw-pushpin.png</href>
                    </Icon>
                </IconStyle>
            </Style>
            <Style id="1172">
                <IconStyle id="1173">
                    <color>ffff0000</color>
                    <colorMode>normal</colorMode>
                    <scale>1</scale>
                    <heading>0</heading>
                    <Icon id="1174">
                        <href>http://maps.google.com/mapfiles/kml/pushpin/ylw-pushpin.png</href>
                    </Icon>
                </IconStyle>
            </Style>
            <Style id="1177">
                <IconStyle id="1178">
                    <color>ffff0000</color>
                    <colorMode>normal</colorMode>
                    <scale>1</scale>
                    <heading>0</heading>
                    <Icon id="1179">
                        <href>http://maps.google.com/mapfiles/kml/pushpin/ylw-pushpin.png</href>
                    </Icon>
                </IconStyle>
            </Style>
            <Style id="1182">
                <IconStyle id="1183">
                    <color>ffff0000</color>
                    <colorMode>normal</colorMode>
                    <scale>1</scale>
                    <heading>0</heading>
                    <Icon id="1184">
                        <href>http://maps.google.com/mapfiles/kml/pushpin/ylw-pushpin.png</href>
                    </Icon>
                </IconStyle>
            </Style>
            <Style id="1187">
                <IconStyle id="1188">
                    <color>ffff0000</color>
                    <colorMode>normal</colorMode>
                    <scale>1</scale>
                    <heading>0</heading>
                    <Icon id="1189">
                        <href>http://maps.google.com/mapfiles/kml/pushpin/ylw-pushpin.png</href>
                    </Icon>
                </IconStyle>
            </Style>
            <Style id="1192">
                <IconStyle id="1193">
                    <color>ffff0000</color>
                    <colorMode>normal</colorMode>
                    <scale>1</scale>
                    <heading>0</heading>
                    <Icon id="1194">
                        <href>http://maps.google.com/mapfiles/kml/pushpin/ylw-pushpin.png</href>
                    </Icon>
                </IconStyle>
            </Style>
            <Style id="1197">
                <IconStyle id="1198">
                    <color>ffff0000</color>
                    <colorMode>normal</colorMode>
                    <scale>1</scale>
                    <heading>0</heading>
                    <Icon id="1199">
                        <href>http://maps.google.com/mapfiles/kml/pushpin/ylw-pushpin.png</href>
                    </Icon>
                </IconStyle>
            </Style>
            <Style id="1202">
                <IconStyle id="1203">
                    <color>ffff0000</color>
                    <colorMode>normal</colorMode>
                    <scale>1</scale>
                    <heading>0</heading>
                    <Icon id="1204">
                        <href>http://maps.google.com/mapfiles/kml/pushpin/ylw-pushpin.png</href>
                    </Icon>
                </IconStyle>
            </Style>
            <Style id="1207">
                <IconStyle id="1208">
                    <color>ffff0000</color>
                    <colorMode>normal</colorMode>
                    <scale>1</scale>
                    <heading>0</heading>
                    <Icon id="1209">
                        <href>http://maps.google.com/mapfiles/kml/pushpin/ylw-pushpin.png</href>
                    </Icon>
                </IconStyle>
            </Style>
            <Style id="1212">
                <IconStyle id="1213">
                    <color>ffff0000</color>
                    <colorMode>normal</colorMode>
                    <scale>1</scale>
                    <heading>0</heading>
                    <Icon id="1214">
                        <href>http://maps.google.com/mapfiles/kml/pushpin/ylw-pushpin.png</href>
                    </Icon>
                </IconStyle>
            </Style>
            <name>MANUEL ENRIQUE ZAPATA QUEVEDO</name>
            <Placemark id="1016">
                <name>CHANCAHUAÑA AGURTO GERALDINE</name>
                <description>CHUNGA ALDANA PUESTO 50
Sechura

Piura
Perú</description>
                <styleUrl>#1017</styleUrl>
                <Point id="1015">
                    <coordinates>-80.8232104,-5.5643007,0.0</coordinates>
                </Point>
            </Placemark>
            <Placemark id="1021">
                <name>ROXANA MARIBEL ANTON LORO</name>
                <description>AV SAN MARTIN A-8
Sechura
Sechura
Piura
Perú</description>
                <styleUrl>#1022</styleUrl>
                <Point id="1020">
                    <coordinates>-80.8158282,-5.5639813,0.0</coordinates>
                </Point>
            </Placemark>
            <Placemark id="1026">
                <name>YOVANNY KARINA PAZO FIESTAS</name>
                <description>MZ B LT 2 AH.VICENTE CHUNGA ALDANA
Sechura
Sechura
Piura
Perú</description>
                <styleUrl>#1027</styleUrl>
                <Point id="1025">
                    <coordinates>-80.824745,-5.562056,0.0</coordinates>
                </Point>
            </Placemark>
            <Placemark id="1031">
                <name>MARGARITA FIESTAS DE TUME</name>
                <description>AH CRISTO REY A-10 SECHURA
Sechura

Piura
Perú</description>
                <styleUrl>#1032</styleUrl>
                <Point id="1030">
                    <coordinates>-80.819554,-5.564848,0.0</coordinates>
                </Point>
            </Placemark>
            <Placemark id="1036">
                <name>MARIA ANA JACINTO JACINTO</name>
                <description>Ch2-24 calle Vicente chunga aldana
Sechura
Sechura
Piura
Perú</description>
                <styleUrl>#1037</styleUrl>
                <Point id="1035">
                    <coordinates>-80.820789,-5.564378,0.0</coordinates>
                </Point>
            </Placemark>
            <Placemark id="1041">
                <name>PATRICIA MAGALY ANTON FIESTAS</name>
                <description>AAHH NUEVO CHUYILLACHE MZ B LT 10
Sechura
Sechura
Piura
Perú</description>
                <styleUrl>#1042</styleUrl>
                <Point id="1040">
                    <coordinates>-80.824982,-5.56252,0.0</coordinates>
                </Point>
            </Placemark>
            <Placemark id="1046">
                <name>MELISSA ISABEL QUEREVALU VALDIVIEZO</name>
                <description>AAHH NUEVO CHUYILLACHI MZ C LOT 17
Sechura
Sechura
Piura
Perú</description>
                <styleUrl>#1047</styleUrl>
                <Point id="1045">
                    <coordinates>-80.827366,-5.562948,0.0</coordinates>
                </Point>
            </Placemark>
            <Placemark id="1051">
                <name>HILDA MAGALI PERICHE GALAN</name>
                <description>AAHH CHULTAYACHI D-23 SECHURA-SECHURA
Sechura
Sechura
Piura
Perú</description>
                <styleUrl>#1052</styleUrl>
                <Point id="1050">
                    <coordinates>-80.8211615,-5.570982,0.0</coordinates>
                </Point>
            </Placemark>
            <Placemark id="1056">
                <name>LAURA VIOLETA ANTON CAPUÑAY</name>
                <description>MZ. Ñ LT.8 A.H. NUEVO CHULLIYACHI -
Sechura
Sechura
Piura
Perú</description>
                <styleUrl>#1057</styleUrl>
                <Point id="1055">
                    <coordinates>-80.820998,-5.571666,0.0</coordinates>
                </Point>
            </Placemark>
            <Placemark id="1061">
                <name>MARIA SANTOS QUEREVALU RUMICHE</name>
                <description>AAHH florida MZ P -7 3ra etapa
Sechura

Piura
Perú</description>
                <styleUrl>#1062</styleUrl>
                <Point id="1060">
                    <coordinates>-80.817446,-5.570727,0.0</coordinates>
                </Point>
            </Placemark>
            <Placemark id="1066">
                <name>JHOVANY MARIELA PANTA PANTA</name>
                <description>Aahh la florida mz t lt 6
Sechura
Sechura
Piura
Perú</description>
                <styleUrl>#1067</styleUrl>
                <Point id="1065">
                    <coordinates>-80.819265,-5.569786,0.0</coordinates>
                </Point>
            </Placemark>
            <Placemark id="1071">
                <name>MARIA NARDA ECA PANTA</name>
                <description>A.H FLORIDA 3ETAPA MZ T LT 5 - SECHURA
Sechura
Sechura
Piura
Perú</description>
                <styleUrl>#1072</styleUrl>
                <Point id="1070">
                    <coordinates>-80.8194781,-5.5693573,0.0</coordinates>
                </Point>
            </Placemark>
            <Placemark id="1076">
                <name>MARGARITA VILCHEZ ZAPATA</name>
                <description>MARGARITA VILCHEZ ZAPATA
MZ. M LT.12 A.H. LA FLORIDA DE SECH
Sechura
Sechura
Piura
Perú</description>
                <styleUrl>#1077</styleUrl>
                <Point id="1075">
                    <coordinates>-80.8217025,-5.5657661,0.0</coordinates>
                </Point>
            </Placemark>
            <Placemark id="1081">
                <name>YOVANNY KARINA PAZO FIESTAS</name>
                <description>MZ B LT 2 AH.VICENTE CHUNGA ALDANA
Sechura
Sechura
Piura
Perú</description>
                <styleUrl>#1082</styleUrl>
                <Point id="1080">
                    <coordinates>-80.824745,-5.562056,0.0</coordinates>
                </Point>
            </Placemark>
            <Placemark id="1086">
                <name>PAMELA MAYULLY PANTA JACINTO</name>
                <description>VICENTE CHUNGA ALDANA MZ B2 LT
Sechura
Sechura
Piura
Perú</description>
                <styleUrl>#1087</styleUrl>
                <Point id="1085">
                    <coordinates>-80.820061,-5.561469,0.0</coordinates>
                </Point>
            </Placemark>
            <Placemark id="1091">
                <name>ROSAURA ANA MORE CHUNGA</name>
                <description>AH LA FLORIDA 2 ETAPA H-9
Sechura

Piura
Perú</description>
                <styleUrl>#1092</styleUrl>
                <Point id="1090">
                    <coordinates>-80.822124,-5.564016,0.0</coordinates>
                </Point>
            </Placemark>
            <Placemark id="1096">
                <name>ANSELMA RUMICHE DE YMAN</name>
                <description>AAHH VICENTE CHUNGA ALDANA F-10  SECHURA-SECHURA
Sechura
Sechura
Piura
Perú</description>
                <styleUrl>#1097</styleUrl>
                <Point id="1095">
                    <coordinates>-80.818174,-5.56298,0.0</coordinates>
                </Point>
            </Placemark>
            <Placemark id="1101">
                <name>MILKO YVAN NAVARRO OJEDA</name>
                <description>CRISTO REY MZ E LOTE 12
Sechura
Sechura
Piura
Perú</description>
                <styleUrl>#1102</styleUrl>
                <Point id="1100">
                    <coordinates>-80.819368,-5.564337,0.0</coordinates>
                </Point>
            </Placemark>
            <Placemark id="1106">
                <name>PAIVA QUEREVALU GREGORIA BERNARDA</name>
                <description>PAIVA QUEREVALU GREGORIA BERNARDA
AAHH VICENTE CHUNGA MZ N LOT 4
Sechura
Sechura
Piura
Perú</description>
                <styleUrl>#1107</styleUrl>
                <Point id="1105">
                    <coordinates>-80.8219048,-5.567509,0.0</coordinates>
                </Point>
            </Placemark>
            <Placemark id="1111">
                <name>JESUS ORLANDO CHUNGA RUIZ</name>
                <description>MERCADILLO VICENTE CHUNGA ALDANA PUESTO N° 47 EXTERIOR
Sechura
Sechura
Piura
Perú</description>
                <styleUrl>#1112</styleUrl>
                <Point id="1110">
                    <coordinates>-80.8206747,-5.5638262,0.0</coordinates>
                </Point>
            </Placemark>
            <Placemark id="1116">
                <name>BRIGIDA VERIDIANA FIESTAS DE PAZO</name>
                <description>MERCADILLO VICENTE CHUNGA ALDANA PUESTO N° 3
Sechura

Piura
Perú</description>
                <styleUrl>#1117</styleUrl>
                <Point id="1115">
                    <coordinates>-80.820556,-5.563396,0.0</coordinates>
                </Point>
            </Placemark>
            <Placemark id="1121">
                <name>CRISTIAN JAVIER ACOSTA CHAPOÑAN</name>
                <description>MCDILLO CHUNGA ALDANA PSTO 01 SECHU
Sechura
Sechura
Piura
Perú</description>
                <styleUrl>#1122</styleUrl>
                <Point id="1120">
                    <coordinates>-80.8206226,-5.5637187,0.0</coordinates>
                </Point>
            </Placemark>
            <Placemark id="1126">
                <name>ROSA VICTORIA PURIZACA PURIZACA</name>
                <description>AH LAS MERCEDES P-21 SECHURA
Sechura

Piura
Perú</description>
                <styleUrl>#1127</styleUrl>
                <Point id="1125">
                    <coordinates>-80.824833,-5.565533,0.0</coordinates>
                </Point>
            </Placemark>
            <Placemark id="1131">
                <name>LUZ ESTRELLA VITE QUEREVALU</name>
                <description>AH 3 ENERO 2 ETAPA P-11 SECHURA
Sechura
Sechura
Piura
Perú</description>
                <styleUrl>#1132</styleUrl>
                <Point id="1130">
                    <coordinates>-80.8179464,-5.5685381,0.0</coordinates>
                </Point>
            </Placemark>
            <Placemark id="1136">
                <name>ESTHER FLORES PRECIADO</name>
                <description>Virgen del Carmen B-2 SRCHURA
Sechura
Sechura
Piura
Perú</description>
                <styleUrl>#1137</styleUrl>
                <Point id="1135">
                    <coordinates>-80.827868,-5.5665557,0.0</coordinates>
                </Point>
            </Placemark>
            <Placemark id="1141">
                <name>MARIA PETRONILA CHAPOÑAN BALDERA</name>
                <description>
Sechura
Sechura
Piura
Perú</description>
                <styleUrl>#1142</styleUrl>
                <Point id="1140">
                    <coordinates>-80.8277225,-5.5648106,0.0</coordinates>
                </Point>
            </Placemark>
            <Placemark id="1146">
                <name>ANGELA JUAREZ TORRES</name>
                <description>AH VIRGEN DEL CARMEN 1ETAPA A-4  SECHURA



Perú</description>
                <styleUrl>#1147</styleUrl>
                <Point id="1145">
                    <coordinates>-80.8267595,-5.5658647,0.0</coordinates>
                </Point>
            </Placemark>
            <Placemark id="1151">
                <name>MELISSA CHANTA LABAN</name>
                <description>L 16 03 de enero
Sechura

Piura
Perú</description>
                <styleUrl>#1152</styleUrl>
                <Point id="1150">
                    <coordinates>-80.820403,-5.560905,0.0</coordinates>
                </Point>
            </Placemark>
            <Placemark id="1156">
                <name>MARGARITA FIESTAS DE TUME</name>
                <description>AH CRISTO REY A-10 SECHURA
Sechura

Piura
Perú</description>
                <styleUrl>#1157</styleUrl>
                <Point id="1155">
                    <coordinates>-80.819554,-5.564848,0.0</coordinates>
                </Point>
            </Placemark>
            <Placemark id="1161">
                <name>ROSA ANGELICA ZETA CHAPA</name>
                <description>AH.VICTOR RAUL MZ C2 LT 23 CA.LOS ALGARROBOS SECHU
Sechura
Sechura
Piura
Perú</description>
                <styleUrl>#1162</styleUrl>
                <Point id="1160">
                    <coordinates>-80.8240822,-5.5625829,0.0</coordinates>
                </Point>
            </Placemark>
            <Placemark id="1166">
                <name>JUANA GALAN AMAYA DE PANTA</name>
                <description>MZ E2 LT 1 VICTOR RAUL CALLE LOS COCOS-SECHURA-SECHURA
Sechura
Sechura
Piura
Perú</description>
                <styleUrl>#1167</styleUrl>
                <Point id="1165">
                    <coordinates>-80.821099,-5.568399,0.0</coordinates>
                </Point>
            </Placemark>
            <Placemark id="1171">
                <name>MILAGROS FIESTAS PANTA</name>
                <description>AH 3 ENERO V-23 3ETAPA SECHURA



Perú</description>
                <styleUrl>#1172</styleUrl>
                <Point id="1170">
                    <coordinates>-80.8279614,-5.5621683,0.0</coordinates>
                </Point>
            </Placemark>
            <Placemark id="1176">
                <name>MARIA MARTHA PAZO QUEREVALU</name>
                <description>AH 3 ENERO H-1
Sechura

Piura
Perú</description>
                <styleUrl>#1177</styleUrl>
                <Point id="1175">
                    <coordinates>-80.827123,-5.562018,0.0</coordinates>
                </Point>
            </Placemark>
            <Placemark id="1181">
                <name>ROSA MARIA BAUTISTA NAMUCHE</name>
                <description>AH 3 ENERO 2ETAPA B LT 26 - SECHURA
Sechura
Sechura
Piura
Perú</description>
                <styleUrl>#1182</styleUrl>
                <Point id="1180">
                    <coordinates>-80.773252,-5.4060003,0.0</coordinates>
                </Point>
            </Placemark>
            <Placemark id="1186">
                <name>MARIA JOVANY DE LA CRUZ BALDERA</name>
                <description>MZ C2 LT 6 AH.3 DE ENERO - SECHURA
Sechura
Sechura
Piura
Perú</description>
                <styleUrl>#1187</styleUrl>
                <Point id="1185">
                    <coordinates>-80.825899,-5.564122,0.0</coordinates>
                </Point>
            </Placemark>
            <Placemark id="1191">
                <name>JUDITH MARGARITA PUESCAS GALAN</name>
                <description>MZ Q LT 5 AAHH.TUPAC AMA'- SECHU
Sechura

Piura
Perú</description>
                <styleUrl>#1192</styleUrl>
                <Point id="1190">
                    <coordinates>-80.819863,-5.561811,0.0</coordinates>
                </Point>
            </Placemark>
            <Placemark id="1196">
                <name>JOSE JEANKERLY YARLEQUE ROSAS</name>
                <description>JOSE JEANKERLY YARLEQUE ROSAS
JR LOS LAURELES C-8 AH VÍCTOR RAUL
Sechura

Piura
Perú</description>
                <styleUrl>#1197</styleUrl>
                <Point id="1195">
                    <coordinates>-80.8213329,-5.5709683,0.0</coordinates>
                </Point>
            </Placemark>
            <Placemark id="1201">
                <name>MARIA DEL SOCORRO PURIZACA CURO</name>
                <description>Calle san Martin 822
Sechura
Sechura
Piura
Perú</description>
                <styleUrl>#1202</styleUrl>
                <Point id="1200">
                    <coordinates>-80.816654,-5.569643,0.0</coordinates>
                </Point>
            </Placemark>
            <Placemark id="1206">
                <name>MARKET 360 S.R.L.</name>
                <description>MARKET 360 S.R.L.
A.H. TUPAC AMARU MZ P LT 25 SECHURA
Sechura
200801Sechura
Piura
Perú</description>
                <styleUrl>#1207</styleUrl>
                <Point id="1205">
                    <coordinates>-80.8171198,-5.5674163,0.0</coordinates>
                </Point>
            </Placemark>
            <Placemark id="1211">
                <name>AYALA DE ANTON MARIA ELENA</name>
                <description>PSJ.T AMARU MZ.T LT.23
Sechura

Piura
Perú</description>
                <styleUrl>#1212</styleUrl>
                <Point id="1210">
                    <coordinates>-80.820705,-5.564316,0.0</coordinates>
                </Point>
            </Placemark>
        </Folder>
    </Document>
</kml>
