<?xml version="1.0" encoding="UTF-8"?>
<kml xmlns="http://www.opengis.net/kml/2.2" xmlns:gx="http://www.google.com/kml/ext/2.2">
    <Document id="2045">
        <Folder id="2046">
            <Style id="2049">
                <IconStyle id="2050">
                    <color>ff0000ff</color>
                    <colorMode>normal</colorMode>
                    <scale>1</scale>
                    <heading>0</heading>
                    <Icon id="2051">
                        <href>http://maps.google.com/mapfiles/kml/pushpin/ylw-pushpin.png</href>
                    </Icon>
                </IconStyle>
            </Style>
            <Style id="2054">
                <IconStyle id="2055">
                    <color>ff0000ff</color>
                    <colorMode>normal</colorMode>
                    <scale>1</scale>
                    <heading>0</heading>
                    <Icon id="2056">
                        <href>http://maps.google.com/mapfiles/kml/pushpin/ylw-pushpin.png</href>
                    </Icon>
                </IconStyle>
            </Style>
            <Style id="2059">
                <IconStyle id="2060">
                    <color>ff0000ff</color>
                    <colorMode>normal</colorMode>
                    <scale>1</scale>
                    <heading>0</heading>
                    <Icon id="2061">
                        <href>http://maps.google.com/mapfiles/kml/pushpin/ylw-pushpin.png</href>
                    </Icon>
                </IconStyle>
            </Style>
            <Style id="2064">
                <IconStyle id="2065">
                    <color>ff0000ff</color>
                    <colorMode>normal</colorMode>
                    <scale>1</scale>
                    <heading>0</heading>
                    <Icon id="2066">
                        <href>http://maps.google.com/mapfiles/kml/pushpin/ylw-pushpin.png</href>
                    </Icon>
                </IconStyle>
            </Style>
            <Style id="2069">
                <IconStyle id="2070">
                    <color>ff0000ff</color>
                    <colorMode>normal</colorMode>
                    <scale>1</scale>
                    <heading>0</heading>
                    <Icon id="2071">
                        <href>http://maps.google.com/mapfiles/kml/pushpin/ylw-pushpin.png</href>
                    </Icon>
                </IconStyle>
            </Style>
            <Style id="2074">
                <IconStyle id="2075">
                    <color>ff0000ff</color>
                    <colorMode>normal</colorMode>
                    <scale>1</scale>
                    <heading>0</heading>
                    <Icon id="2076">
                        <href>http://maps.google.com/mapfiles/kml/pushpin/ylw-pushpin.png</href>
                    </Icon>
                </IconStyle>
            </Style>
            <Style id="2079">
                <IconStyle id="2080">
                    <color>ff0000ff</color>
                    <colorMode>normal</colorMode>
                    <scale>1</scale>
                    <heading>0</heading>
                    <Icon id="2081">
                        <href>http://maps.google.com/mapfiles/kml/pushpin/ylw-pushpin.png</href>
                    </Icon>
                </IconStyle>
            </Style>
            <Style id="2084">
                <IconStyle id="2085">
                    <color>ff0000ff</color>
                    <colorMode>normal</colorMode>
                    <scale>1</scale>
                    <heading>0</heading>
                    <Icon id="2086">
                        <href>http://maps.google.com/mapfiles/kml/pushpin/ylw-pushpin.png</href>
                    </Icon>
                </IconStyle>
            </Style>
            <Style id="2089">
                <IconStyle id="2090">
                    <color>ff0000ff</color>
                    <colorMode>normal</colorMode>
                    <scale>1</scale>
                    <heading>0</heading>
                    <Icon id="2091">
                        <href>http://maps.google.com/mapfiles/kml/pushpin/ylw-pushpin.png</href>
                    </Icon>
                </IconStyle>
            </Style>
            <Style id="2094">
                <IconStyle id="2095">
                    <color>ff0000ff</color>
                    <colorMode>normal</colorMode>
                    <scale>1</scale>
                    <heading>0</heading>
                    <Icon id="2096">
                        <href>http://maps.google.com/mapfiles/kml/pushpin/ylw-pushpin.png</href>
                    </Icon>
                </IconStyle>
            </Style>
            <Style id="2099">
                <IconStyle id="2100">
                    <color>ff0000ff</color>
                    <colorMode>normal</colorMode>
                    <scale>1</scale>
                    <heading>0</heading>
                    <Icon id="2101">
                        <href>http://maps.google.com/mapfiles/kml/pushpin/ylw-pushpin.png</href>
                    </Icon>
                </IconStyle>
            </Style>
            <Style id="2104">
                <IconStyle id="2105">
                    <color>ff0000ff</color>
                    <colorMode>normal</colorMode>
                    <scale>1</scale>
                    <heading>0</heading>
                    <Icon id="2106">
                        <href>http://maps.google.com/mapfiles/kml/pushpin/ylw-pushpin.png</href>
                    </Icon>
                </IconStyle>
            </Style>
            <Style id="2109">
                <IconStyle id="2110">
                    <color>ff0000ff</color>
                    <colorMode>normal</colorMode>
                    <scale>1</scale>
                    <heading>0</heading>
                    <Icon id="2111">
                        <href>http://maps.google.com/mapfiles/kml/pushpin/ylw-pushpin.png</href>
                    </Icon>
                </IconStyle>
            </Style>
            <Style id="2114">
                <IconStyle id="2115">
                    <color>ff0000ff</color>
                    <colorMode>normal</colorMode>
                    <scale>1</scale>
                    <heading>0</heading>
                    <Icon id="2116">
                        <href>http://maps.google.com/mapfiles/kml/pushpin/ylw-pushpin.png</href>
                    </Icon>
                </IconStyle>
            </Style>
            <Style id="2119">
                <IconStyle id="2120">
                    <color>ff0000ff</color>
                    <colorMode>normal</colorMode>
                    <scale>1</scale>
                    <heading>0</heading>
                    <Icon id="2121">
                        <href>http://maps.google.com/mapfiles/kml/pushpin/ylw-pushpin.png</href>
                    </Icon>
                </IconStyle>
            </Style>
            <Style id="2124">
                <IconStyle id="2125">
                    <color>ff0000ff</color>
                    <colorMode>normal</colorMode>
                    <scale>1</scale>
                    <heading>0</heading>
                    <Icon id="2126">
                        <href>http://maps.google.com/mapfiles/kml/pushpin/ylw-pushpin.png</href>
                    </Icon>
                </IconStyle>
            </Style>
            <name>EDDINSON CECILIO DIOSES SAAVEDRA</name>
            <Placemark id="2048">
                <name>AURELIA CORDOVA CORDOVA</name>
                <description>Mercado anexo Puesto 12
Sechura
Sechura
Piura
Perú</description>
                <styleUrl>#2049</styleUrl>
                <Point id="2047">
                    <coordinates>-80.8218255,-5.554183,0.0</coordinates>
                </Point>
            </Placemark>
            <Placemark id="2053">
                <name>JOSUE DAVID SERNAQUE INGA</name>
                <description>CLL.higuren/San Martín pto.62 Mercado de Sechura
Sechura

Piura
Perú</description>
                <styleUrl>#2054</styleUrl>
                <Point id="2052">
                    <coordinates>-80.822237,-5.554026,0.0</coordinates>
                </Point>
            </Placemark>
            <Placemark id="2058">
                <name>JOSUE DAVID SERNAQUE INGA</name>
                <description>CLL.higuren/San Martín pto.62 Mercado de Sechura
Sechura

Piura
Perú</description>
                <styleUrl>#2059</styleUrl>
                <Point id="2057">
                    <coordinates>-80.822237,-5.554026,0.0</coordinates>
                </Point>
            </Placemark>
            <Placemark id="2063">
                <name>ELMER JESUS BANCES SIESQUEN</name>
                <description>PUESTO NRO 72 MERCADO
Sechura
Sechura
Piura
Perú</description>
                <styleUrl>#2064</styleUrl>
                <Point id="2062">
                    <coordinates>-80.8219847,-5.5533112,0.0</coordinates>
                </Point>
            </Placemark>
            <Placemark id="2068">
                <name>ESTRELLA MARIALIZ QUEREVALU ECHE</name>
                <description>Cesar Pinglo 117
Sechura
Sechura
Piura
Perú</description>
                <styleUrl>#2069</styleUrl>
                <Point id="2067">
                    <coordinates>-80.8217996,-5.5537566,0.0</coordinates>
                </Point>
            </Placemark>
            <Placemark id="2073">
                <name>CARLOS ALBERTO MARTINEZ AMAYA</name>
                <description>Mercado sechura
Sechura
Sechura
Piura
Perú</description>
                <styleUrl>#2074</styleUrl>
                <Point id="2072">
                    <coordinates>-80.8218246,-5.5534272,0.0</coordinates>
                </Point>
            </Placemark>
            <Placemark id="2078">
                <name>CARLOS ALBERTO MARTINEZ AMAYA</name>
                <description>Mercado sechura
Sechura
Sechura
Piura
Perú</description>
                <styleUrl>#2079</styleUrl>
                <Point id="2077">
                    <coordinates>-80.8218246,-5.5534272,0.0</coordinates>
                </Point>
            </Placemark>
            <Placemark id="2083">
                <name>INOÑAN DE LA CRUZ JHAMIRA BERSAVE</name>
                <description>Mercado sechura
Sechura

Piura
Perú</description>
                <styleUrl>#2084</styleUrl>
                <Point id="2082">
                    <coordinates>-80.8219715,-5.5533813,0.0</coordinates>
                </Point>
            </Placemark>
            <Placemark id="2088">
                <name>ROSA ELENA SALDARRIAGA PALACIOS</name>
                <description>Mercado sechura
Sechura
Sechura
Piura
Perú</description>
                <styleUrl>#2089</styleUrl>
                <Point id="2087">
                    <coordinates>-80.8220775,-5.5535841,0.0</coordinates>
                </Point>
            </Placemark>
            <Placemark id="2093">
                <name>EDGARD JOHAN SUCLUPE SIESQUEN</name>
                <description>INT. MERCADO SECHURA-SECHURA
Sechura
Sechura
Piura
Perú</description>
                <styleUrl>#2094</styleUrl>
                <Point id="2092">
                    <coordinates>-80.8223337,-5.5536946,0.0</coordinates>
                </Point>
            </Placemark>
            <Placemark id="2098">
                <name>INOÑAN DE LA CRUZ JHAMIRA BERSAVE</name>
                <description>Mercado sechura
Sechura

Piura
Perú</description>
                <styleUrl>#2099</styleUrl>
                <Point id="2097">
                    <coordinates>-80.8219715,-5.5533813,0.0</coordinates>
                </Point>
            </Placemark>
            <Placemark id="2103">
                <name>MILTON LIMA CASTILLO</name>
                <description>Mercado Puesto 41
Sechura
Sechura
Piura
Perú</description>
                <styleUrl>#2104</styleUrl>
                <Point id="2102">
                    <coordinates>-80.822345,-5.5537944,0.0</coordinates>
                </Point>
            </Placemark>
            <Placemark id="2108">
                <name>MILTON LIMA CASTILLO</name>
                <description>Mercado Puesto 41
Sechura
Sechura
Piura
Perú</description>
                <styleUrl>#2109</styleUrl>
                <Point id="2107">
                    <coordinates>-80.822345,-5.5537944,0.0</coordinates>
                </Point>
            </Placemark>
            <Placemark id="2113">
                <name>COSTANCIA PURIZACA DE OLIVAREZ</name>
                <description>CALLE SAN MARTÍN 112
Sechura
Sechura
Piura
Perú</description>
                <styleUrl>#2114</styleUrl>
                <Point id="2112">
                    <coordinates>-80.8224837,-5.553913,0.0</coordinates>
                </Point>
            </Placemark>
            <Placemark id="2118">
                <name>PEDRO MONTALVAN CORDOVA</name>
                <description>San Martín 1ra cuadra MERCADO
Sechura
Sechura
Piura
Perú</description>
                <styleUrl>#2119</styleUrl>
                <Point id="2117">
                    <coordinates>-80.8223733,-5.5537383,0.0</coordinates>
                </Point>
            </Placemark>
            <Placemark id="2123">
                <name>JULISSA VANESSA LAZO BAUTISTA</name>
                <description>JR. MARIANO DIAZ NÂ°1320 C.P.-CATAC
Catacaos
Catacaos
Piura
Perú</description>
                <styleUrl>#2124</styleUrl>
                <Point id="2122">
                    <coordinates>-80.6746032,-5.2672532,0.0</coordinates>
                </Point>
            </Placemark>
        </Folder>
    </Document>
</kml>
