<?xml version="1.0" encoding="UTF-8"?>
<kml xmlns="http://www.opengis.net/kml/2.2" xmlns:gx="http://www.google.com/kml/ext/2.2">
    <Document id="1103">
        <Folder id="1104">
            <Style id="1107">
                <IconStyle id="1108">
                    <color>ff0000ff</color>
                    <colorMode>normal</colorMode>
                    <scale>1</scale>
                    <heading>0</heading>
                    <Icon id="1109">
                        <href>http://maps.google.com/mapfiles/kml/pushpin/ylw-pushpin.png</href>
                    </Icon>
                </IconStyle>
            </Style>
            <Style id="1112">
                <IconStyle id="1113">
                    <color>ff0000ff</color>
                    <colorMode>normal</colorMode>
                    <scale>1</scale>
                    <heading>0</heading>
                    <Icon id="1114">
                        <href>http://maps.google.com/mapfiles/kml/pushpin/ylw-pushpin.png</href>
                    </Icon>
                </IconStyle>
            </Style>
            <Style id="1117">
                <IconStyle id="1118">
                    <color>ff0000ff</color>
                    <colorMode>normal</colorMode>
                    <scale>1</scale>
                    <heading>0</heading>
                    <Icon id="1119">
                        <href>http://maps.google.com/mapfiles/kml/pushpin/ylw-pushpin.png</href>
                    </Icon>
                </IconStyle>
            </Style>
            <Style id="1122">
                <IconStyle id="1123">
                    <color>ff0000ff</color>
                    <colorMode>normal</colorMode>
                    <scale>1</scale>
                    <heading>0</heading>
                    <Icon id="1124">
                        <href>http://maps.google.com/mapfiles/kml/pushpin/ylw-pushpin.png</href>
                    </Icon>
                </IconStyle>
            </Style>
            <Style id="1127">
                <IconStyle id="1128">
                    <color>ff0000ff</color>
                    <colorMode>normal</colorMode>
                    <scale>1</scale>
                    <heading>0</heading>
                    <Icon id="1129">
                        <href>http://maps.google.com/mapfiles/kml/pushpin/ylw-pushpin.png</href>
                    </Icon>
                </IconStyle>
            </Style>
            <Style id="1132">
                <IconStyle id="1133">
                    <color>ff0000ff</color>
                    <colorMode>normal</colorMode>
                    <scale>1</scale>
                    <heading>0</heading>
                    <Icon id="1134">
                        <href>http://maps.google.com/mapfiles/kml/pushpin/ylw-pushpin.png</href>
                    </Icon>
                </IconStyle>
            </Style>
            <Style id="1137">
                <IconStyle id="1138">
                    <color>ff0000ff</color>
                    <colorMode>normal</colorMode>
                    <scale>1</scale>
                    <heading>0</heading>
                    <Icon id="1139">
                        <href>http://maps.google.com/mapfiles/kml/pushpin/ylw-pushpin.png</href>
                    </Icon>
                </IconStyle>
            </Style>
            <Style id="1142">
                <IconStyle id="1143">
                    <color>ff0000ff</color>
                    <colorMode>normal</colorMode>
                    <scale>1</scale>
                    <heading>0</heading>
                    <Icon id="1144">
                        <href>http://maps.google.com/mapfiles/kml/pushpin/ylw-pushpin.png</href>
                    </Icon>
                </IconStyle>
            </Style>
            <Style id="1147">
                <IconStyle id="1148">
                    <color>ff0000ff</color>
                    <colorMode>normal</colorMode>
                    <scale>1</scale>
                    <heading>0</heading>
                    <Icon id="1149">
                        <href>http://maps.google.com/mapfiles/kml/pushpin/ylw-pushpin.png</href>
                    </Icon>
                </IconStyle>
            </Style>
            <Style id="1152">
                <IconStyle id="1153">
                    <color>ff0000ff</color>
                    <colorMode>normal</colorMode>
                    <scale>1</scale>
                    <heading>0</heading>
                    <Icon id="1154">
                        <href>http://maps.google.com/mapfiles/kml/pushpin/ylw-pushpin.png</href>
                    </Icon>
                </IconStyle>
            </Style>
            <Style id="1157">
                <IconStyle id="1158">
                    <color>ff0000ff</color>
                    <colorMode>normal</colorMode>
                    <scale>1</scale>
                    <heading>0</heading>
                    <Icon id="1159">
                        <href>http://maps.google.com/mapfiles/kml/pushpin/ylw-pushpin.png</href>
                    </Icon>
                </IconStyle>
            </Style>
            <Style id="1162">
                <IconStyle id="1163">
                    <color>ff0000ff</color>
                    <colorMode>normal</colorMode>
                    <scale>1</scale>
                    <heading>0</heading>
                    <Icon id="1164">
                        <href>http://maps.google.com/mapfiles/kml/pushpin/ylw-pushpin.png</href>
                    </Icon>
                </IconStyle>
            </Style>
            <Style id="1167">
                <IconStyle id="1168">
                    <color>ff0000ff</color>
                    <colorMode>normal</colorMode>
                    <scale>1</scale>
                    <heading>0</heading>
                    <Icon id="1169">
                        <href>http://maps.google.com/mapfiles/kml/pushpin/ylw-pushpin.png</href>
                    </Icon>
                </IconStyle>
            </Style>
            <Style id="1172">
                <IconStyle id="1173">
                    <color>ff0000ff</color>
                    <colorMode>normal</colorMode>
                    <scale>1</scale>
                    <heading>0</heading>
                    <Icon id="1174">
                        <href>http://maps.google.com/mapfiles/kml/pushpin/ylw-pushpin.png</href>
                    </Icon>
                </IconStyle>
            </Style>
            <Style id="1177">
                <IconStyle id="1178">
                    <color>ff0000ff</color>
                    <colorMode>normal</colorMode>
                    <scale>1</scale>
                    <heading>0</heading>
                    <Icon id="1179">
                        <href>http://maps.google.com/mapfiles/kml/pushpin/ylw-pushpin.png</href>
                    </Icon>
                </IconStyle>
            </Style>
            <Style id="1182">
                <IconStyle id="1183">
                    <color>ff0000ff</color>
                    <colorMode>normal</colorMode>
                    <scale>1</scale>
                    <heading>0</heading>
                    <Icon id="1184">
                        <href>http://maps.google.com/mapfiles/kml/pushpin/ylw-pushpin.png</href>
                    </Icon>
                </IconStyle>
            </Style>
            <Style id="1187">
                <IconStyle id="1188">
                    <color>ff0000ff</color>
                    <colorMode>normal</colorMode>
                    <scale>1</scale>
                    <heading>0</heading>
                    <Icon id="1189">
                        <href>http://maps.google.com/mapfiles/kml/pushpin/ylw-pushpin.png</href>
                    </Icon>
                </IconStyle>
            </Style>
            <Style id="1192">
                <IconStyle id="1193">
                    <color>ff0000ff</color>
                    <colorMode>normal</colorMode>
                    <scale>1</scale>
                    <heading>0</heading>
                    <Icon id="1194">
                        <href>http://maps.google.com/mapfiles/kml/pushpin/ylw-pushpin.png</href>
                    </Icon>
                </IconStyle>
            </Style>
            <Style id="1197">
                <IconStyle id="1198">
                    <color>ff0000ff</color>
                    <colorMode>normal</colorMode>
                    <scale>1</scale>
                    <heading>0</heading>
                    <Icon id="1199">
                        <href>http://maps.google.com/mapfiles/kml/pushpin/ylw-pushpin.png</href>
                    </Icon>
                </IconStyle>
            </Style>
            <Style id="1202">
                <IconStyle id="1203">
                    <color>ff0000ff</color>
                    <colorMode>normal</colorMode>
                    <scale>1</scale>
                    <heading>0</heading>
                    <Icon id="1204">
                        <href>http://maps.google.com/mapfiles/kml/pushpin/ylw-pushpin.png</href>
                    </Icon>
                </IconStyle>
            </Style>
            <Style id="1207">
                <IconStyle id="1208">
                    <color>ff0000ff</color>
                    <colorMode>normal</colorMode>
                    <scale>1</scale>
                    <heading>0</heading>
                    <Icon id="1209">
                        <href>http://maps.google.com/mapfiles/kml/pushpin/ylw-pushpin.png</href>
                    </Icon>
                </IconStyle>
            </Style>
            <Style id="1212">
                <IconStyle id="1213">
                    <color>ff0000ff</color>
                    <colorMode>normal</colorMode>
                    <scale>1</scale>
                    <heading>0</heading>
                    <Icon id="1214">
                        <href>http://maps.google.com/mapfiles/kml/pushpin/ylw-pushpin.png</href>
                    </Icon>
                </IconStyle>
            </Style>
            <Style id="1217">
                <IconStyle id="1218">
                    <color>ff0000ff</color>
                    <colorMode>normal</colorMode>
                    <scale>1</scale>
                    <heading>0</heading>
                    <Icon id="1219">
                        <href>http://maps.google.com/mapfiles/kml/pushpin/ylw-pushpin.png</href>
                    </Icon>
                </IconStyle>
            </Style>
            <name>CRISTHIAN ALEXANDER ALVARADO GONZALES</name>
            <Placemark id="1106">
                <name>BRUNO MONTERO JAMPIER</name>
                <description>Av. PANAMERICANA CRUCE LA PEÑITA
Tambogrande
Tambogrande
Piura
Perú</description>
                <styleUrl>#1107</styleUrl>
                <Point id="1105">
                    <coordinates>-80.5336666,-4.9294747,0.0</coordinates>
                </Point>
            </Placemark>
            <Placemark id="1111">
                <name>IMAN YOVERA FAUSTA</name>
                <description>CARR.TAMBOGRANDE S/N
Sullana
Sullana
Piura
Perú</description>
                <styleUrl>#1112</styleUrl>
                <Point id="1110">
                    <coordinates>-80.6415644,-4.9194238,0.0</coordinates>
                </Point>
            </Placemark>
            <Placemark id="1116">
                <name>CORDOVA ABAD MARLO</name>
                <description>CARR.SULLANA /TAMBO GRANDE S/N
Sullana
Sullana
Piura
Perú</description>
                <styleUrl>#1117</styleUrl>
                <Point id="1115">
                    <coordinates>-80.6366291,-4.9195703,0.0</coordinates>
                </Point>
            </Placemark>
            <Placemark id="1121">
                <name>LUCY ESTER IMAN YOVERA</name>
                <description>Carretera Sullana tambo grande valle hermoso kilometro 13
Tambogrande
Tambogrande
Piura
Perú</description>
                <styleUrl>#1122</styleUrl>
                <Point id="1120">
                    <coordinates>-80.5837526,-4.9339665,0.0</coordinates>
                </Point>
            </Placemark>
            <Placemark id="1126">
                <name>DEISY PAOLA REYES NAVARRO</name>
                <description>CA.LUCHADORES.S/N
Tambogrande
Tambogrande
Piura
Perú</description>
                <styleUrl>#1127</styleUrl>
                <Point id="1125">
                    <coordinates>-80.530254,-4.927936,0.0</coordinates>
                </Point>
            </Placemark>
            <Placemark id="1131">
                <name>ALBIRENA DE PULACHE ROSA DEL PILAR</name>
                <description>ALBIRENA DE PULACHE ROSA DEL PILAR
CASERIO PEDREGAL 150
Tambogrande
Tambogrande
Piura
Perú</description>
                <styleUrl>#1132</styleUrl>
                <Point id="1130">
                    <coordinates>-80.3957543,-4.88686,0.0</coordinates>
                </Point>
            </Placemark>
            <Placemark id="1136">
                <name>ELSA SULLON CEDANO</name>
                <description>CALLE TAHUANTINSUYO 92
Tambogrande
Tambogrande
Piura
Perú</description>
                <styleUrl>#1137</styleUrl>
                <Point id="1135">
                    <coordinates>-80.4346077,-4.8824467,0.0</coordinates>
                </Point>
            </Placemark>
            <Placemark id="1141">
                <name>MIRTHA GIRON ABRAMONTE DE OJEDA</name>
                <description>PEDREGAL X 61SULLANA-SULLANA
Tambogrande
Tambogrande
Piura
Perú</description>
                <styleUrl>#1142</styleUrl>
                <Point id="1140">
                    <coordinates>-80.3854381,-4.8833587,0.0</coordinates>
                </Point>
            </Placemark>
            <Placemark id="1146">
                <name>MAGALY YOVERA MACALUPU</name>
                <description>CASERIO SINCHI ROCA JR AMAUTA Q-18SULLANA-SULLANA
Tambogrande
Tambogrande
Piura
Perú</description>
                <styleUrl>#1147</styleUrl>
                <Point id="1145">
                    <coordinates>-80.4330828,-4.8838897,0.0</coordinates>
                </Point>
            </Placemark>
            <Placemark id="1151">
                <name>ELSA SULLON CEDANO</name>
                <description>CALLE TAHUANTINSUYO 92
Tambogrande
Tambogrande
Piura
Perú</description>
                <styleUrl>#1152</styleUrl>
                <Point id="1150">
                    <coordinates>-80.4346077,-4.8824467,0.0</coordinates>
                </Point>
            </Placemark>
            <Placemark id="1156">
                <name>FELICIA GIRON ALAMA</name>
                <description>FELICIA GIRON ALAMA
CASERIO SINCHI ROCA MZ X LT 58
Tambogrande
Tambogrande
Piura
Perú</description>
                <styleUrl>#1157</styleUrl>
                <Point id="1155">
                    <coordinates>-80.4367217,-4.8828904,0.0</coordinates>
                </Point>
            </Placemark>
            <Placemark id="1161">
                <name>ALBIRENA DE PULACHE ROSA DEL PILAR</name>
                <description>ALBIRENA DE PULACHE ROSA DEL PILAR
CASERIO PEDREGAL 150
Tambogrande
Tambogrande
Piura
Perú</description>
                <styleUrl>#1162</styleUrl>
                <Point id="1160">
                    <coordinates>-80.3957543,-4.88686,0.0</coordinates>
                </Point>
            </Placemark>
            <Placemark id="1166">
                <name>CLAUDINA VELIZ VDA DE ACARO</name>
                <description>CLAUDINA VELIZ VDA DE ACARO
SV VALLE DE LOS INCAS 1049
Tambogrande
Tambogrande
Piura
Perú</description>
                <styleUrl>#1167</styleUrl>
                <Point id="1165">
                    <coordinates>-80.4365061,-4.8832327,0.0</coordinates>
                </Point>
            </Placemark>
            <Placemark id="1171">
                <name>YOLANDA CORDOVA OJEDA</name>
                <description>YOLANDA CORDOVA OJEDA
CASERIO CHICA ALTA SN
Tambogrande

Piura
Perú</description>
                <styleUrl>#1172</styleUrl>
                <Point id="1170">
                    <coordinates>-80.4137213,-4.8911555,0.0</coordinates>
                </Point>
            </Placemark>
            <Placemark id="1176">
                <name>CALLE LOPEZ IRMA</name>
                <description>ENTRADA EX MANCO INCA
Tambogrande
Tambogrande
Piura
Perú</description>
                <styleUrl>#1177</styleUrl>
                <Point id="1175">
                    <coordinates>-80.4433151,-4.8801825,0.0</coordinates>
                </Point>
            </Placemark>
            <Placemark id="1181">
                <name>MARIA ERLINDA YESQUEN SERNAQUE</name>
                <description>CASERIO MANCO INCA ENTRADA PRINCIPAL
Tambogrande
Tambogrande
Piura
Perú</description>
                <styleUrl>#1182</styleUrl>
                <Point id="1180">
                    <coordinates>-80.4434396,-4.8811684,0.0</coordinates>
                </Point>
            </Placemark>
            <Placemark id="1186">
                <name>IRIS ESTEFANY VIERA NAVARRO</name>
                <description>EL SALTO CENTRO POBLADO S/N SULLANA-SULLANA
Tambogrande
Tambogrande
Piura
Perú</description>
                <styleUrl>#1187</styleUrl>
                <Point id="1185">
                    <coordinates>-80.5129528,-4.9172186,0.0</coordinates>
                </Point>
            </Placemark>
            <Placemark id="1191">
                <name>MARIA ESTHER CARREÑO VIERA</name>
                <description>LUCHADORES SOCIAL S/N SULLANA-SULLANA
Sullana
Sullana
Piura
Perú</description>
                <styleUrl>#1192</styleUrl>
                <Point id="1190">
                    <coordinates>-80.528054,-4.9264347,0.0</coordinates>
                </Point>
            </Placemark>
            <Placemark id="1196">
                <name>FILOMENA SILVA CHERO</name>
                <description>Caserío luchadores sociales SN carretera tambogrande
Tambogrande

Piura
Perú</description>
                <styleUrl>#1197</styleUrl>
                <Point id="1195">
                    <coordinates>-80.528366,-4.925715,0.0</coordinates>
                </Point>
            </Placemark>
            <Placemark id="1201">
                <name>KATHERINE YULISSA RIVAS CHERO</name>
                <description>Luchadores sociales (frente a la cancha deportiva)


Piura
Perú</description>
                <styleUrl>#1202</styleUrl>
                <Point id="1200">
                    <coordinates>-80.528833,-4.9259519,0.0</coordinates>
                </Point>
            </Placemark>
            <Placemark id="1206">
                <name>ELISBETH ARACELY GOÑI DOMINGUEZ</name>
                <description>ELISBETH ARACELY GOÑI DOMINGUEZ
PEDREGAL CHICO
Tambogrande
Tambogrande
Piura
Perú</description>
                <styleUrl>#1207</styleUrl>
                <Point id="1205">
                    <coordinates>-80.5328515,-4.9290401,0.0</coordinates>
                </Point>
            </Placemark>
            <Placemark id="1211">
                <name>GUILLERMO PULACHE QUISPE</name>
                <description>VILLA LA PEÑITA S/N-SULLANA-SULLANA
Tambogrande
Tambogrande
Piura
Perú</description>
                <styleUrl>#1212</styleUrl>
                <Point id="1210">
                    <coordinates>-80.5275262,-4.9423057,0.0</coordinates>
                </Point>
            </Placemark>
            <Placemark id="1216">
                <name>BLANCA JULISSA PULACHE AQUINO</name>
                <description>Avenida progreso sector el porvenir centro poblado la peñita
Tambogrande
Tambogrande
Piura
Perú</description>
                <styleUrl>#1217</styleUrl>
                <Point id="1215">
                    <coordinates>-80.5272488,-4.939785,0.0</coordinates>
                </Point>
            </Placemark>
        </Folder>
        <Folder id="1220">
            <Style id="1223">
                <IconStyle id="1224">
                    <color>ffff0000</color>
                    <colorMode>normal</colorMode>
                    <scale>1</scale>
                    <heading>0</heading>
                    <Icon id="1225">
                        <href>http://maps.google.com/mapfiles/kml/pushpin/ylw-pushpin.png</href>
                    </Icon>
                </IconStyle>
            </Style>
            <Style id="1228">
                <IconStyle id="1229">
                    <color>ffff0000</color>
                    <colorMode>normal</colorMode>
                    <scale>1</scale>
                    <heading>0</heading>
                    <Icon id="1230">
                        <href>http://maps.google.com/mapfiles/kml/pushpin/ylw-pushpin.png</href>
                    </Icon>
                </IconStyle>
            </Style>
            <Style id="1233">
                <IconStyle id="1234">
                    <color>ffff0000</color>
                    <colorMode>normal</colorMode>
                    <scale>1</scale>
                    <heading>0</heading>
                    <Icon id="1235">
                        <href>http://maps.google.com/mapfiles/kml/pushpin/ylw-pushpin.png</href>
                    </Icon>
                </IconStyle>
            </Style>
            <Style id="1238">
                <IconStyle id="1239">
                    <color>ffff0000</color>
                    <colorMode>normal</colorMode>
                    <scale>1</scale>
                    <heading>0</heading>
                    <Icon id="1240">
                        <href>http://maps.google.com/mapfiles/kml/pushpin/ylw-pushpin.png</href>
                    </Icon>
                </IconStyle>
            </Style>
            <Style id="1243">
                <IconStyle id="1244">
                    <color>ffff0000</color>
                    <colorMode>normal</colorMode>
                    <scale>1</scale>
                    <heading>0</heading>
                    <Icon id="1245">
                        <href>http://maps.google.com/mapfiles/kml/pushpin/ylw-pushpin.png</href>
                    </Icon>
                </IconStyle>
            </Style>
            <Style id="1248">
                <IconStyle id="1249">
                    <color>ffff0000</color>
                    <colorMode>normal</colorMode>
                    <scale>1</scale>
                    <heading>0</heading>
                    <Icon id="1250">
                        <href>http://maps.google.com/mapfiles/kml/pushpin/ylw-pushpin.png</href>
                    </Icon>
                </IconStyle>
            </Style>
            <Style id="1253">
                <IconStyle id="1254">
                    <color>ffff0000</color>
                    <colorMode>normal</colorMode>
                    <scale>1</scale>
                    <heading>0</heading>
                    <Icon id="1255">
                        <href>http://maps.google.com/mapfiles/kml/pushpin/ylw-pushpin.png</href>
                    </Icon>
                </IconStyle>
            </Style>
            <Style id="1258">
                <IconStyle id="1259">
                    <color>ffff0000</color>
                    <colorMode>normal</colorMode>
                    <scale>1</scale>
                    <heading>0</heading>
                    <Icon id="1260">
                        <href>http://maps.google.com/mapfiles/kml/pushpin/ylw-pushpin.png</href>
                    </Icon>
                </IconStyle>
            </Style>
            <Style id="1263">
                <IconStyle id="1264">
                    <color>ffff0000</color>
                    <colorMode>normal</colorMode>
                    <scale>1</scale>
                    <heading>0</heading>
                    <Icon id="1265">
                        <href>http://maps.google.com/mapfiles/kml/pushpin/ylw-pushpin.png</href>
                    </Icon>
                </IconStyle>
            </Style>
            <Style id="1268">
                <IconStyle id="1269">
                    <color>ffff0000</color>
                    <colorMode>normal</colorMode>
                    <scale>1</scale>
                    <heading>0</heading>
                    <Icon id="1270">
                        <href>http://maps.google.com/mapfiles/kml/pushpin/ylw-pushpin.png</href>
                    </Icon>
                </IconStyle>
            </Style>
            <Style id="1273">
                <IconStyle id="1274">
                    <color>ffff0000</color>
                    <colorMode>normal</colorMode>
                    <scale>1</scale>
                    <heading>0</heading>
                    <Icon id="1275">
                        <href>http://maps.google.com/mapfiles/kml/pushpin/ylw-pushpin.png</href>
                    </Icon>
                </IconStyle>
            </Style>
            <Style id="1278">
                <IconStyle id="1279">
                    <color>ffff0000</color>
                    <colorMode>normal</colorMode>
                    <scale>1</scale>
                    <heading>0</heading>
                    <Icon id="1280">
                        <href>http://maps.google.com/mapfiles/kml/pushpin/ylw-pushpin.png</href>
                    </Icon>
                </IconStyle>
            </Style>
            <Style id="1283">
                <IconStyle id="1284">
                    <color>ffff0000</color>
                    <colorMode>normal</colorMode>
                    <scale>1</scale>
                    <heading>0</heading>
                    <Icon id="1285">
                        <href>http://maps.google.com/mapfiles/kml/pushpin/ylw-pushpin.png</href>
                    </Icon>
                </IconStyle>
            </Style>
            <Style id="1288">
                <IconStyle id="1289">
                    <color>ffff0000</color>
                    <colorMode>normal</colorMode>
                    <scale>1</scale>
                    <heading>0</heading>
                    <Icon id="1290">
                        <href>http://maps.google.com/mapfiles/kml/pushpin/ylw-pushpin.png</href>
                    </Icon>
                </IconStyle>
            </Style>
            <Style id="1293">
                <IconStyle id="1294">
                    <color>ffff0000</color>
                    <colorMode>normal</colorMode>
                    <scale>1</scale>
                    <heading>0</heading>
                    <Icon id="1295">
                        <href>http://maps.google.com/mapfiles/kml/pushpin/ylw-pushpin.png</href>
                    </Icon>
                </IconStyle>
            </Style>
            <Style id="1298">
                <IconStyle id="1299">
                    <color>ffff0000</color>
                    <colorMode>normal</colorMode>
                    <scale>1</scale>
                    <heading>0</heading>
                    <Icon id="1300">
                        <href>http://maps.google.com/mapfiles/kml/pushpin/ylw-pushpin.png</href>
                    </Icon>
                </IconStyle>
            </Style>
            <Style id="1303">
                <IconStyle id="1304">
                    <color>ffff0000</color>
                    <colorMode>normal</colorMode>
                    <scale>1</scale>
                    <heading>0</heading>
                    <Icon id="1305">
                        <href>http://maps.google.com/mapfiles/kml/pushpin/ylw-pushpin.png</href>
                    </Icon>
                </IconStyle>
            </Style>
            <Style id="1308">
                <IconStyle id="1309">
                    <color>ffff0000</color>
                    <colorMode>normal</colorMode>
                    <scale>1</scale>
                    <heading>0</heading>
                    <Icon id="1310">
                        <href>http://maps.google.com/mapfiles/kml/pushpin/ylw-pushpin.png</href>
                    </Icon>
                </IconStyle>
            </Style>
            <Style id="1313">
                <IconStyle id="1314">
                    <color>ffff0000</color>
                    <colorMode>normal</colorMode>
                    <scale>1</scale>
                    <heading>0</heading>
                    <Icon id="1315">
                        <href>http://maps.google.com/mapfiles/kml/pushpin/ylw-pushpin.png</href>
                    </Icon>
                </IconStyle>
            </Style>
            <Style id="1318">
                <IconStyle id="1319">
                    <color>ffff0000</color>
                    <colorMode>normal</colorMode>
                    <scale>1</scale>
                    <heading>0</heading>
                    <Icon id="1320">
                        <href>http://maps.google.com/mapfiles/kml/pushpin/ylw-pushpin.png</href>
                    </Icon>
                </IconStyle>
            </Style>
            <Style id="1323">
                <IconStyle id="1324">
                    <color>ffff0000</color>
                    <colorMode>normal</colorMode>
                    <scale>1</scale>
                    <heading>0</heading>
                    <Icon id="1325">
                        <href>http://maps.google.com/mapfiles/kml/pushpin/ylw-pushpin.png</href>
                    </Icon>
                </IconStyle>
            </Style>
            <Style id="1328">
                <IconStyle id="1329">
                    <color>ffff0000</color>
                    <colorMode>normal</colorMode>
                    <scale>1</scale>
                    <heading>0</heading>
                    <Icon id="1330">
                        <href>http://maps.google.com/mapfiles/kml/pushpin/ylw-pushpin.png</href>
                    </Icon>
                </IconStyle>
            </Style>
            <Style id="1333">
                <IconStyle id="1334">
                    <color>ffff0000</color>
                    <colorMode>normal</colorMode>
                    <scale>1</scale>
                    <heading>0</heading>
                    <Icon id="1335">
                        <href>http://maps.google.com/mapfiles/kml/pushpin/ylw-pushpin.png</href>
                    </Icon>
                </IconStyle>
            </Style>
            <Style id="1338">
                <IconStyle id="1339">
                    <color>ffff0000</color>
                    <colorMode>normal</colorMode>
                    <scale>1</scale>
                    <heading>0</heading>
                    <Icon id="1340">
                        <href>http://maps.google.com/mapfiles/kml/pushpin/ylw-pushpin.png</href>
                    </Icon>
                </IconStyle>
            </Style>
            <Style id="1343">
                <IconStyle id="1344">
                    <color>ffff0000</color>
                    <colorMode>normal</colorMode>
                    <scale>1</scale>
                    <heading>0</heading>
                    <Icon id="1345">
                        <href>http://maps.google.com/mapfiles/kml/pushpin/ylw-pushpin.png</href>
                    </Icon>
                </IconStyle>
            </Style>
            <Style id="1348">
                <IconStyle id="1349">
                    <color>ffff0000</color>
                    <colorMode>normal</colorMode>
                    <scale>1</scale>
                    <heading>0</heading>
                    <Icon id="1350">
                        <href>http://maps.google.com/mapfiles/kml/pushpin/ylw-pushpin.png</href>
                    </Icon>
                </IconStyle>
            </Style>
            <Style id="1353">
                <IconStyle id="1354">
                    <color>ffff0000</color>
                    <colorMode>normal</colorMode>
                    <scale>1</scale>
                    <heading>0</heading>
                    <Icon id="1355">
                        <href>http://maps.google.com/mapfiles/kml/pushpin/ylw-pushpin.png</href>
                    </Icon>
                </IconStyle>
            </Style>
            <Style id="1358">
                <IconStyle id="1359">
                    <color>ffff0000</color>
                    <colorMode>normal</colorMode>
                    <scale>1</scale>
                    <heading>0</heading>
                    <Icon id="1360">
                        <href>http://maps.google.com/mapfiles/kml/pushpin/ylw-pushpin.png</href>
                    </Icon>
                </IconStyle>
            </Style>
            <Style id="1363">
                <IconStyle id="1364">
                    <color>ffff0000</color>
                    <colorMode>normal</colorMode>
                    <scale>1</scale>
                    <heading>0</heading>
                    <Icon id="1365">
                        <href>http://maps.google.com/mapfiles/kml/pushpin/ylw-pushpin.png</href>
                    </Icon>
                </IconStyle>
            </Style>
            <Style id="1368">
                <IconStyle id="1369">
                    <color>ffff0000</color>
                    <colorMode>normal</colorMode>
                    <scale>1</scale>
                    <heading>0</heading>
                    <Icon id="1370">
                        <href>http://maps.google.com/mapfiles/kml/pushpin/ylw-pushpin.png</href>
                    </Icon>
                </IconStyle>
            </Style>
            <Style id="1373">
                <IconStyle id="1374">
                    <color>ffff0000</color>
                    <colorMode>normal</colorMode>
                    <scale>1</scale>
                    <heading>0</heading>
                    <Icon id="1375">
                        <href>http://maps.google.com/mapfiles/kml/pushpin/ylw-pushpin.png</href>
                    </Icon>
                </IconStyle>
            </Style>
            <Style id="1378">
                <IconStyle id="1379">
                    <color>ffff0000</color>
                    <colorMode>normal</colorMode>
                    <scale>1</scale>
                    <heading>0</heading>
                    <Icon id="1380">
                        <href>http://maps.google.com/mapfiles/kml/pushpin/ylw-pushpin.png</href>
                    </Icon>
                </IconStyle>
            </Style>
            <Style id="1383">
                <IconStyle id="1384">
                    <color>ffff0000</color>
                    <colorMode>normal</colorMode>
                    <scale>1</scale>
                    <heading>0</heading>
                    <Icon id="1385">
                        <href>http://maps.google.com/mapfiles/kml/pushpin/ylw-pushpin.png</href>
                    </Icon>
                </IconStyle>
            </Style>
            <Style id="1388">
                <IconStyle id="1389">
                    <color>ffff0000</color>
                    <colorMode>normal</colorMode>
                    <scale>1</scale>
                    <heading>0</heading>
                    <Icon id="1390">
                        <href>http://maps.google.com/mapfiles/kml/pushpin/ylw-pushpin.png</href>
                    </Icon>
                </IconStyle>
            </Style>
            <Style id="1393">
                <IconStyle id="1394">
                    <color>ffff0000</color>
                    <colorMode>normal</colorMode>
                    <scale>1</scale>
                    <heading>0</heading>
                    <Icon id="1395">
                        <href>http://maps.google.com/mapfiles/kml/pushpin/ylw-pushpin.png</href>
                    </Icon>
                </IconStyle>
            </Style>
            <Style id="1398">
                <IconStyle id="1399">
                    <color>ffff0000</color>
                    <colorMode>normal</colorMode>
                    <scale>1</scale>
                    <heading>0</heading>
                    <Icon id="1400">
                        <href>http://maps.google.com/mapfiles/kml/pushpin/ylw-pushpin.png</href>
                    </Icon>
                </IconStyle>
            </Style>
            <Style id="1403">
                <IconStyle id="1404">
                    <color>ffff0000</color>
                    <colorMode>normal</colorMode>
                    <scale>1</scale>
                    <heading>0</heading>
                    <Icon id="1405">
                        <href>http://maps.google.com/mapfiles/kml/pushpin/ylw-pushpin.png</href>
                    </Icon>
                </IconStyle>
            </Style>
            <Style id="1408">
                <IconStyle id="1409">
                    <color>ffff0000</color>
                    <colorMode>normal</colorMode>
                    <scale>1</scale>
                    <heading>0</heading>
                    <Icon id="1410">
                        <href>http://maps.google.com/mapfiles/kml/pushpin/ylw-pushpin.png</href>
                    </Icon>
                </IconStyle>
            </Style>
            <name>JACIEL MOGOLLON ALVARADO</name>
            <Placemark id="1222">
                <name>ALEJANDRO ROBINSO RODRIGUEZ SOBRINO</name>
                <description>ALEJANDRO ROBINSO RODRIGUEZ SOBRINO
MZ N INT.01 LT. 29 URB. RAMIRO PRIALE - SULLANA
Sullana
Sullana
Piura
Perú</description>
                <styleUrl>#1223</styleUrl>
                <Point id="1221">
                    <coordinates>-80.7092633,-4.9041493,0.0</coordinates>
                </Point>
            </Placemark>
            <Placemark id="1227">
                <name>VASQUEZ REYES YESSICA PATRICIA</name>
                <description>VASQUEZ REYES YESSICA PATRICIA
MZA. DLOTE 01 PARQUE INDUSTRIAL ( EX TERMINAL PESQUERO ) PIURA - SULLANA 
Sullana
-Sullana
Piura
Perú</description>
                <styleUrl>#1228</styleUrl>
                <Point id="1226">
                    <coordinates>-80.678827,-4.9152949,0.0</coordinates>
                </Point>
            </Placemark>
            <Placemark id="1232">
                <name>VASQUEZ REYES YESSICA PATRICIA</name>
                <description>VASQUEZ REYES YESSICA PATRICIA
MZA. DLOTE 01 PARQUE INDUSTRIAL ( EX TERMINAL PESQUERO ) PIURA - SULLANA 
Sullana
-Sullana
Piura
Perú</description>
                <styleUrl>#1233</styleUrl>
                <Point id="1231">
                    <coordinates>-80.678827,-4.9152949,0.0</coordinates>
                </Point>
            </Placemark>
            <Placemark id="1237">
                <name>JOSE PORFIRIO ANDRADE ESPINOZA</name>
                <description>Calle Bernardo alcedo 250
Sullana
Sullana
Piura
Perú</description>
                <styleUrl>#1238</styleUrl>
                <Point id="1236">
                    <coordinates>-80.6831591,-4.8920828,0.0</coordinates>
                </Point>
            </Placemark>
            <Placemark id="1242">
                <name>JOSE PORFIRIO ANDRADE ESPINOZA</name>
                <description>Calle Bernardo alcedo 250
Sullana
Sullana
Piura
Perú</description>
                <styleUrl>#1243</styleUrl>
                <Point id="1241">
                    <coordinates>-80.6831591,-4.8920828,0.0</coordinates>
                </Point>
            </Placemark>
            <Placemark id="1247">
                <name>MARIA YSABEL JIMENEZ CALVA</name>
                <description>MARIA YSABEL JIMENEZ CALVA
SELECCIONAR UP VILLA PERU CANADA MZTLT 37
Sullana
Sullana
Piura
Perú</description>
                <styleUrl>#1248</styleUrl>
                <Point id="1246">
                    <coordinates>-80.7273671,-4.9089274,0.0</coordinates>
                </Point>
            </Placemark>
            <Placemark id="1252">
                <name>VALDIVIEZO SAAVEDRA LEONELA</name>
                <description>CA LA VICTORIA MZ H LT 19 V.PE
Sullana
Sullana
Piura
Perú</description>
                <styleUrl>#1253</styleUrl>
                <Point id="1251">
                    <coordinates>-80.7279009,-4.9079769,0.0</coordinates>
                </Point>
            </Placemark>
            <Placemark id="1257">
                <name>CRISTINA LORO PUESCAS</name>
                <description>Nuevo Perú Canadá J lote 30
Sullana
Sullana
Piura
Perú</description>
                <styleUrl>#1258</styleUrl>
                <Point id="1256">
                    <coordinates>-80.7296662,-4.907197,0.0</coordinates>
                </Point>
            </Placemark>
            <Placemark id="1262">
                <name>ARCELIA BALLADARES SILUPU</name>
                <description>Avenida Martínez de compañon lt4/ nuevo sullana
Sullana
Sullana
Piura
Perú</description>
                <styleUrl>#1263</styleUrl>
                <Point id="1261">
                    <coordinates>-80.7301407,-4.9065003,0.0</coordinates>
                </Point>
            </Placemark>
            <Placemark id="1267">
                <name>FLORES CRUZ BAUDELIA</name>
                <description>MZA.C8 SCTR C PSJ 25
Sullana
Sullana
Piura
Perú</description>
                <styleUrl>#1268</styleUrl>
                <Point id="1266">
                    <coordinates>-80.726873,-4.910749,0.0</coordinates>
                </Point>
            </Placemark>
            <Placemark id="1272">
                <name>VILELA CASTILLO ESTHER</name>
                <description>AV TANGARARA MZ Ñ LT 40 NVO HO
Sullana
Sullana
Piura
Perú</description>
                <styleUrl>#1273</styleUrl>
                <Point id="1271">
                    <coordinates>-80.7239654,-4.9155591,0.0</coordinates>
                </Point>
            </Placemark>
            <Placemark id="1277">
                <name>ROSA ELADIA OROZCO CORDOVA</name>
                <description>Calle Av Carlos Augusto Salaverry mz N lote 23 fronteriza
Miguel Checa
Miguel Checa
Piura
Perú</description>
                <styleUrl>#1278</styleUrl>
                <Point id="1276">
                    <coordinates>-80.7303073,-4.9188014,0.0</coordinates>
                </Point>
            </Placemark>
            <Placemark id="1282">
                <name>MARIA SULEMA MUÑOZ MEZONES</name>
                <description>Maria Auxiliadora MZ C lt 24 - asociación señor de milagros
Sullana
Sullana
Piura
Perú</description>
                <styleUrl>#1283</styleUrl>
                <Point id="1281">
                    <coordinates>-80.7208118,-4.9151656,0.0</coordinates>
                </Point>
            </Placemark>
            <Placemark id="1287">
                <name>PAULA QUINDE RONDOY</name>
                <description>Calle Alfonso Romero nuevo Sullana
Sullana
Sullana
Piura
Perú</description>
                <styleUrl>#1288</styleUrl>
                <Point id="1286">
                    <coordinates>-80.7216827,-4.9138266,0.0</coordinates>
                </Point>
            </Placemark>
            <Placemark id="1292">
                <name>ANA KELINNA ZAPATA CAMPOS</name>
                <description>ANA KELINNA ZAPATA CAMPOS
PJ.SANTA ROSA MZ.O LT.01 APV.V.DE LAS MERCEDES
Sullana
Sullana
Piura
Perú</description>
                <styleUrl>#1293</styleUrl>
                <Point id="1291">
                    <coordinates>-80.7180156,-4.9037883,0.0</coordinates>
                </Point>
            </Placemark>
            <Placemark id="1297">
                <name>ELIA RIVERA GIRON</name>
                <description>MZ B, lote 17 sector este nuevo Sullana
Sullana
Sullana
Piura
Perú</description>
                <styleUrl>#1298</styleUrl>
                <Point id="1296">
                    <coordinates>-80.7258781,-4.9078433,0.0</coordinates>
                </Point>
            </Placemark>
            <Placemark id="1302">
                <name>FILOMENO ALVITES DEZA</name>
                <description>PSJE 11 MZ. B LT. 23 NVA SULLANA
Sullana
Sullana
Piura
Perú</description>
                <styleUrl>#1303</styleUrl>
                <Point id="1301">
                    <coordinates>-80.7212315,-4.9089936,0.0</coordinates>
                </Point>
            </Placemark>
            <Placemark id="1307">
                <name>REYNA ISABEL CASILLA TICONA</name>
                <description>PJE.10 MZ D LTE.13 SECTOR D NVO. SU,
Sullana
Sullana
Piura
Perú</description>
                <styleUrl>#1308</styleUrl>
                <Point id="1306">
                    <coordinates>-80.7212182,-4.908815,0.0</coordinates>
                </Point>
            </Placemark>
            <Placemark id="1312">
                <name>MESONES OVIEDO SONIA ISABEL</name>
                <description>A.H.NVA.ESPERANZA MZ.LL-19
Sullana
Sullana
Piura
Perú</description>
                <styleUrl>#1313</styleUrl>
                <Point id="1311">
                    <coordinates>-80.720431,-4.906884,0.0</coordinates>
                </Point>
            </Placemark>
            <Placemark id="1317">
                <name>MERCEDES EXIOMARA ALAMA GUTIERREZ</name>
                <description>MERCEDES EXIOMARA ALAMA GUTIERREZ
MZ.R LT.08 URB.POPULAR NUEVA ESPERA
Sullana
Sullana
Piura
Perú</description>
                <styleUrl>#1318</styleUrl>
                <Point id="1316">
                    <coordinates>-80.7172067,-4.9092375,0.0</coordinates>
                </Point>
            </Placemark>
            <Placemark id="1322">
                <name>JUAN RICARDO PEÑA CASTILLO</name>
                <description>Calle Tamaris MZ N LT 44 Nueva Esperanza
Sullana
Sullana
Piura
Perú</description>
                <styleUrl>#1323</styleUrl>
                <Point id="1321">
                    <coordinates>-80.7163119,-4.9101019,0.0</coordinates>
                </Point>
            </Placemark>
            <Placemark id="1327">
                <name>JIMENEZ ALBERCA YOLANDA</name>
                <description>CA.BELLO HORIZONTE MZ.L LT.4
Sullana
Sullana
Piura
Perú</description>
                <styleUrl>#1328</styleUrl>
                <Point id="1326">
                    <coordinates>-80.7147951,-4.9078935,0.0</coordinates>
                </Point>
            </Placemark>
            <Placemark id="1332">
                <name>RUIZ CANOVA MARIA PETRONILA</name>
                <description>URB.VIDENITA MZ.H-SN SULLA.
Sullana
Sullana
Piura
Perú</description>
                <styleUrl>#1333</styleUrl>
                <Point id="1331">
                    <coordinates>-80.7156816,-4.9053543,0.0</coordinates>
                </Point>
            </Placemark>
            <Placemark id="1337">
                <name>MATILDE CORTEZ ROBLEDO</name>
                <description>MATILDE CORTEZ ROBLEDO
H.DEL CENEPA H-7.TRANS LOS JAZMINES-SULLANA
Sullana
Sullana
Piura
Perú</description>
                <styleUrl>#1338</styleUrl>
                <Point id="1336">
                    <coordinates>-80.7137353,-4.903609,0.0</coordinates>
                </Point>
            </Placemark>
            <Placemark id="1342">
                <name>KELLY STANY PACHECO NOLE</name>
                <description>TRANSVERSAL LOS JASMINES MZ G3 LT 5
Sullana
Sullana
Piura
Perú</description>
                <styleUrl>#1343</styleUrl>
                <Point id="1341">
                    <coordinates>-80.7127456,-4.903668,0.0</coordinates>
                </Point>
            </Placemark>
            <Placemark id="1347">
                <name>OLAYA AGUILAR MARIA RAQUEL</name>
                <description>OLAYA AGUILAR MARIA RAQUEL
MZ G 2 LT 4 A.H.VILLA PRIMAV.
Sullana
Sullana
Piura
Perú</description>
                <styleUrl>#1348</styleUrl>
                <Point id="1346">
                    <coordinates>-80.712773,-4.9047512,0.0</coordinates>
                </Point>
            </Placemark>
            <Placemark id="1352">
                <name>ALBURQUEQUE BURGOS DE MOGOLLON</name>
                <description>MZ-E2 LT-06 LOS ALGARROBOS
Sullana
Sullana
Piura
Perú</description>
                <styleUrl>#1353</styleUrl>
                <Point id="1351">
                    <coordinates>-80.7118351,-4.9048518,0.0</coordinates>
                </Point>
            </Placemark>
            <Placemark id="1357">
                <name>RUTH PAMELA CHUMACERO VIERA</name>
                <description>Calle los Ficus MZ E3 LT 14 villa Primavera
Sullana
Sullana
Piura
Perú</description>
                <styleUrl>#1358</styleUrl>
                <Point id="1356">
                    <coordinates>-80.7117364,-4.9033821,0.0</coordinates>
                </Point>
            </Placemark>
            <Placemark id="1362">
                <name>ORTIZ ACHA CARMEN</name>
                <description>FICUS  F3-25 VILLA PRIMAVERA
Sullana
Sullana
Piura
Perú</description>
                <styleUrl>#1363</styleUrl>
                <Point id="1361">
                    <coordinates>-80.7117288,-4.9033412,0.0</coordinates>
                </Point>
            </Placemark>
            <Placemark id="1367">
                <name>ELENA ESPINOZA HERRADA</name>
                <description>Calle los ficus f4 lote 15
Sullana
Sullana
Piura
Perú</description>
                <styleUrl>#1368</styleUrl>
                <Point id="1366">
                    <coordinates>-80.711534,-4.9025246,0.0</coordinates>
                </Point>
            </Placemark>
            <Placemark id="1372">
                <name>SANTOS CHANTA LIMA</name>
                <description>Calle los geranios MZ D4 LT.13 AA. HH VILLA PRIMAVERA4 ETP SULLANA
Sullana
Sullana
Piura
Perú</description>
                <styleUrl>#1373</styleUrl>
                <Point id="1371">
                    <coordinates>-80.7110402,-4.9024796,0.0</coordinates>
                </Point>
            </Placemark>
            <Placemark id="1377">
                <name>CARMELA OTIVO NINANYA</name>
                <description>CARMELA OTIVO NINANYA
CA. LOS GERANIOS MZ D4 LT.11 AA. HHVILLA PRIMAVERA
Sullana
Sullana
Piura
Perú</description>
                <styleUrl>#1378</styleUrl>
                <Point id="1376">
                    <coordinates>-80.7111159,-4.9026532,0.0</coordinates>
                </Point>
            </Placemark>
            <Placemark id="1382">
                <name>LOZADA BAYONA ALAN</name>
                <description>LOZADA BAYONA ALAN
A.H.VILLA P.MZD2 LT.27 EL ROSA
Sullana
Sullana
Piura
Perú</description>
                <styleUrl>#1383</styleUrl>
                <Point id="1381">
                    <coordinates>-80.7108942,-4.9044984,0.0</coordinates>
                </Point>
            </Placemark>
            <Placemark id="1387">
                <name>YUL MARI PALACIOS CORDOVA DE TINEDO</name>
                <description>LOS LAURELES MZ.C4 LTE.23 VILLA PRIMAVERA-SULLANA
Sullana
Sullana
Piura
Perú</description>
                <styleUrl>#1388</styleUrl>
                <Point id="1386">
                    <coordinates>-80.710125,-4.9027065,0.0</coordinates>
                </Point>
            </Placemark>
            <Placemark id="1392">
                <name>YUL MARI PALACIOS CORDOVA DE TINEDO</name>
                <description>LOS LAURELES MZ.C4 LTE.23 VILLA PRIMAVERA-SULLANA
Sullana
Sullana
Piura
Perú</description>
                <styleUrl>#1393</styleUrl>
                <Point id="1391">
                    <coordinates>-80.710125,-4.9027065,0.0</coordinates>
                </Point>
            </Placemark>
            <Placemark id="1397">
                <name>DIANA CANOVA SUAREZ</name>
                <description>A.H. VILLA PRIMAVERA II ETAPA MZ.B2LT.01 -SULLANA
Sullana
Sullana
Piura
Perú</description>
                <styleUrl>#1398</styleUrl>
                <Point id="1396">
                    <coordinates>-80.7100684,-4.9052641,0.0</coordinates>
                </Point>
            </Placemark>
            <Placemark id="1402">
                <name>ALEJANDRO ROBINSO RODRIGUEZ SOBRINO</name>
                <description>ALEJANDRO ROBINSO RODRIGUEZ SOBRINO
MZ N INT.01 LT. 29 URB. RAMIRO PRIALE - SULLANA
Sullana
Sullana
Piura
Perú</description>
                <styleUrl>#1403</styleUrl>
                <Point id="1401">
                    <coordinates>-80.7092633,-4.9041493,0.0</coordinates>
                </Point>
            </Placemark>
            <Placemark id="1407">
                <name>LIZ PAOLA MORAN JUAREZ</name>
                <description>MZ K LT. 36 URB. RAMIRO PRIALE 1 ETAPA
Sullana
Sullana
Piura
Perú</description>
                <styleUrl>#1408</styleUrl>
                <Point id="1406">
                    <coordinates>-80.7094837,-4.905135,0.0</coordinates>
                </Point>
            </Placemark>
        </Folder>
        <Folder id="1411">
            <Style id="1414">
                <IconStyle id="1415">
                    <color>ff008000</color>
                    <colorMode>normal</colorMode>
                    <scale>1</scale>
                    <heading>0</heading>
                    <Icon id="1416">
                        <href>http://maps.google.com/mapfiles/kml/pushpin/ylw-pushpin.png</href>
                    </Icon>
                </IconStyle>
            </Style>
            <Style id="1419">
                <IconStyle id="1420">
                    <color>ff008000</color>
                    <colorMode>normal</colorMode>
                    <scale>1</scale>
                    <heading>0</heading>
                    <Icon id="1421">
                        <href>http://maps.google.com/mapfiles/kml/pushpin/ylw-pushpin.png</href>
                    </Icon>
                </IconStyle>
            </Style>
            <Style id="1424">
                <IconStyle id="1425">
                    <color>ff008000</color>
                    <colorMode>normal</colorMode>
                    <scale>1</scale>
                    <heading>0</heading>
                    <Icon id="1426">
                        <href>http://maps.google.com/mapfiles/kml/pushpin/ylw-pushpin.png</href>
                    </Icon>
                </IconStyle>
            </Style>
            <Style id="1429">
                <IconStyle id="1430">
                    <color>ff008000</color>
                    <colorMode>normal</colorMode>
                    <scale>1</scale>
                    <heading>0</heading>
                    <Icon id="1431">
                        <href>http://maps.google.com/mapfiles/kml/pushpin/ylw-pushpin.png</href>
                    </Icon>
                </IconStyle>
            </Style>
            <Style id="1434">
                <IconStyle id="1435">
                    <color>ff008000</color>
                    <colorMode>normal</colorMode>
                    <scale>1</scale>
                    <heading>0</heading>
                    <Icon id="1436">
                        <href>http://maps.google.com/mapfiles/kml/pushpin/ylw-pushpin.png</href>
                    </Icon>
                </IconStyle>
            </Style>
            <Style id="1439">
                <IconStyle id="1440">
                    <color>ff008000</color>
                    <colorMode>normal</colorMode>
                    <scale>1</scale>
                    <heading>0</heading>
                    <Icon id="1441">
                        <href>http://maps.google.com/mapfiles/kml/pushpin/ylw-pushpin.png</href>
                    </Icon>
                </IconStyle>
            </Style>
            <Style id="1444">
                <IconStyle id="1445">
                    <color>ff008000</color>
                    <colorMode>normal</colorMode>
                    <scale>1</scale>
                    <heading>0</heading>
                    <Icon id="1446">
                        <href>http://maps.google.com/mapfiles/kml/pushpin/ylw-pushpin.png</href>
                    </Icon>
                </IconStyle>
            </Style>
            <Style id="1449">
                <IconStyle id="1450">
                    <color>ff008000</color>
                    <colorMode>normal</colorMode>
                    <scale>1</scale>
                    <heading>0</heading>
                    <Icon id="1451">
                        <href>http://maps.google.com/mapfiles/kml/pushpin/ylw-pushpin.png</href>
                    </Icon>
                </IconStyle>
            </Style>
            <Style id="1454">
                <IconStyle id="1455">
                    <color>ff008000</color>
                    <colorMode>normal</colorMode>
                    <scale>1</scale>
                    <heading>0</heading>
                    <Icon id="1456">
                        <href>http://maps.google.com/mapfiles/kml/pushpin/ylw-pushpin.png</href>
                    </Icon>
                </IconStyle>
            </Style>
            <Style id="1459">
                <IconStyle id="1460">
                    <color>ff008000</color>
                    <colorMode>normal</colorMode>
                    <scale>1</scale>
                    <heading>0</heading>
                    <Icon id="1461">
                        <href>http://maps.google.com/mapfiles/kml/pushpin/ylw-pushpin.png</href>
                    </Icon>
                </IconStyle>
            </Style>
            <Style id="1464">
                <IconStyle id="1465">
                    <color>ff008000</color>
                    <colorMode>normal</colorMode>
                    <scale>1</scale>
                    <heading>0</heading>
                    <Icon id="1466">
                        <href>http://maps.google.com/mapfiles/kml/pushpin/ylw-pushpin.png</href>
                    </Icon>
                </IconStyle>
            </Style>
            <Style id="1469">
                <IconStyle id="1470">
                    <color>ff008000</color>
                    <colorMode>normal</colorMode>
                    <scale>1</scale>
                    <heading>0</heading>
                    <Icon id="1471">
                        <href>http://maps.google.com/mapfiles/kml/pushpin/ylw-pushpin.png</href>
                    </Icon>
                </IconStyle>
            </Style>
            <Style id="1474">
                <IconStyle id="1475">
                    <color>ff008000</color>
                    <colorMode>normal</colorMode>
                    <scale>1</scale>
                    <heading>0</heading>
                    <Icon id="1476">
                        <href>http://maps.google.com/mapfiles/kml/pushpin/ylw-pushpin.png</href>
                    </Icon>
                </IconStyle>
            </Style>
            <Style id="1479">
                <IconStyle id="1480">
                    <color>ff008000</color>
                    <colorMode>normal</colorMode>
                    <scale>1</scale>
                    <heading>0</heading>
                    <Icon id="1481">
                        <href>http://maps.google.com/mapfiles/kml/pushpin/ylw-pushpin.png</href>
                    </Icon>
                </IconStyle>
            </Style>
            <Style id="1484">
                <IconStyle id="1485">
                    <color>ff008000</color>
                    <colorMode>normal</colorMode>
                    <scale>1</scale>
                    <heading>0</heading>
                    <Icon id="1486">
                        <href>http://maps.google.com/mapfiles/kml/pushpin/ylw-pushpin.png</href>
                    </Icon>
                </IconStyle>
            </Style>
            <Style id="1489">
                <IconStyle id="1490">
                    <color>ff008000</color>
                    <colorMode>normal</colorMode>
                    <scale>1</scale>
                    <heading>0</heading>
                    <Icon id="1491">
                        <href>http://maps.google.com/mapfiles/kml/pushpin/ylw-pushpin.png</href>
                    </Icon>
                </IconStyle>
            </Style>
            <Style id="1494">
                <IconStyle id="1495">
                    <color>ff008000</color>
                    <colorMode>normal</colorMode>
                    <scale>1</scale>
                    <heading>0</heading>
                    <Icon id="1496">
                        <href>http://maps.google.com/mapfiles/kml/pushpin/ylw-pushpin.png</href>
                    </Icon>
                </IconStyle>
            </Style>
            <Style id="1499">
                <IconStyle id="1500">
                    <color>ff008000</color>
                    <colorMode>normal</colorMode>
                    <scale>1</scale>
                    <heading>0</heading>
                    <Icon id="1501">
                        <href>http://maps.google.com/mapfiles/kml/pushpin/ylw-pushpin.png</href>
                    </Icon>
                </IconStyle>
            </Style>
            <name>WILLIAN ALEJANDRO HERRERA MORAN</name>
            <Placemark id="1413">
                <name>FIORELLA YACQUELINE VALDEZ PEÑA</name>
                <description>AV BUENOS AIRES MERCADO SULLANA
Sullana
Sullana
Piura
Perú</description>
                <styleUrl>#1414</styleUrl>
                <Point id="1412">
                    <coordinates>-80.6817839,-4.8961652,0.0</coordinates>
                </Point>
            </Placemark>
            <Placemark id="1418">
                <name>MARIA VICTORIA RIVAS VARGAS</name>
                <description>MERCADO SULLANA
Sullana
Sullana
Piura
Perú</description>
                <styleUrl>#1419</styleUrl>
                <Point id="1417">
                    <coordinates>-80.682041,-4.8961139,0.0</coordinates>
                </Point>
            </Placemark>
            <Placemark id="1423">
                <name>MIRTHA CRISANTO CORDOVA DE MORE</name>
                <description>MIRTHA CRISANTO CORDOVA DE MORE
PSTO 106 MCDO BUENOS AIRES
Sullana
Sullana
Piura
Perú</description>
                <styleUrl>#1424</styleUrl>
                <Point id="1422">
                    <coordinates>-80.6823474,-4.8933505,0.0</coordinates>
                </Point>
            </Placemark>
            <Placemark id="1428">
                <name>RONALD HUMBERTO PEREZ BUSTAMANTE</name>
                <description>Calle 6  número 118-(buenos aires)
Sullana
Sullana
Piura
Perú</description>
                <styleUrl>#1429</styleUrl>
                <Point id="1427">
                    <coordinates>-80.6823427,-4.8955518,0.0</coordinates>
                </Point>
            </Placemark>
            <Placemark id="1433">
                <name>CHOZO SANTIAGO MARGARITA E.</name>
                <description>CA.J.HERNANDEZ MZ.A LT.1B 45
Sullana
Sullana
Piura
Perú</description>
                <styleUrl>#1434</styleUrl>
                <Point id="1432">
                    <coordinates>-80.6815775,-4.8964689,0.0</coordinates>
                </Point>
            </Placemark>
            <Placemark id="1438">
                <name>DALINDA AURORA OJEDA IZAGUIRRE</name>
                <description>ACALVO PEREZ 600 OBRERO SULLANA-SULLANA
Sullana
Sullana
Piura
Perú</description>
                <styleUrl>#1439</styleUrl>
                <Point id="1437">
                    <coordinates>-80.6831337,-4.9100678,0.0</coordinates>
                </Point>
            </Placemark>
            <Placemark id="1443">
                <name>VILLEGAS HERRERA ADELA</name>
                <description>Ciro alegría MZ B lt 21 el obrero
Sullana
Sullana
Piura
Perú</description>
                <styleUrl>#1444</styleUrl>
                <Point id="1442">
                    <coordinates>-80.686225,-4.9089627,0.0</coordinates>
                </Point>
            </Placemark>
            <Placemark id="1448">
                <name>WINDY ESTEFANI VILCHEZ SANDOVAL</name>
                <description>CIRO ALEGRIA MZ B LOTE 22-SULLANA-SULLANA
Sullana
Sullana
Piura
Perú</description>
                <styleUrl>#1449</styleUrl>
                <Point id="1447">
                    <coordinates>-80.686255,-4.909125,0.0</coordinates>
                </Point>
            </Placemark>
            <Placemark id="1453">
                <name>ROSA ELENA CHERO LECARNAQUE</name>
                <description>Calle López albujar 901 el obrero
Sullana
Sullana
Piura
Perú</description>
                <styleUrl>#1454</styleUrl>
                <Point id="1452">
                    <coordinates>-80.686017,-4.9083978,0.0</coordinates>
                </Point>
            </Placemark>
            <Placemark id="1458">
                <name>MARIA CHAVEZ ZAPATA</name>
                <description>Santa cruz 905 el obrero
Sullana
Sullana
Piura
Perú</description>
                <styleUrl>#1459</styleUrl>
                <Point id="1457">
                    <coordinates>-80.6864956,-4.9067446,0.0</coordinates>
                </Point>
            </Placemark>
            <Placemark id="1463">
                <name>LILA MARGOT GARCIA CRISANTO</name>
                <description>LILA MARGOT GARCIA CRISANTO
CA LOPEZ ALBUJAR 124 EL OBRERO SULLANA
Sullana
Sullana
Piura
Perú</description>
                <styleUrl>#1464</styleUrl>
                <Point id="1462">
                    <coordinates>-80.6809769,-4.9075609,0.0</coordinates>
                </Point>
            </Placemark>
            <Placemark id="1468">
                <name>FRANCISCA JANNET TINEO DE LA CRUZ</name>
                <description>Ciro alegría con avenida buenos aires
Sullana
Sullana
Piura
Perú</description>
                <styleUrl>#1469</styleUrl>
                <Point id="1467">
                    <coordinates>-80.6799678,-4.9081631,0.0</coordinates>
                </Point>
            </Placemark>
            <Placemark id="1473">
                <name>EVELYN CATHERINE SANCHEZ CALLE</name>
                <description>CA PUNO 256 POR LOZADA
Sullana
Sullana
Piura
Perú</description>
                <styleUrl>#1474</styleUrl>
                <Point id="1472">
                    <coordinates>-80.6815815,-4.8909533,0.0</coordinates>
                </Point>
            </Placemark>
            <Placemark id="1478">
                <name>ROBERTO CARLOS CUCHICHO NAVARRO</name>
                <description>AV BS AIRES 196 MDO SULLANA
Sullana
Sullana
Piura
Perú</description>
                <styleUrl>#1479</styleUrl>
                <Point id="1477">
                    <coordinates>-80.6819442,-4.8950852,0.0</coordinates>
                </Point>
            </Placemark>
            <Placemark id="1483">
                <name>SEGUNDO JORGE FLORES ALAMEDA</name>
                <description>AV.BUENOS AIRES CDRA.1 PSTO.14
Sullana
Sullana
Piura
Perú</description>
                <styleUrl>#1484</styleUrl>
                <Point id="1482">
                    <coordinates>-80.6815,-4.896058,0.0</coordinates>
                </Point>
            </Placemark>
            <Placemark id="1488">
                <name>AURORA QUINDE CHAMBA</name>
                <description>Av Buenos Aires cuadra 1 psto 26 Ref (frente a flores alameda)
Sullana

Piura
Perú</description>
                <styleUrl>#1489</styleUrl>
                <Point id="1487">
                    <coordinates>-80.681552,-4.896113,0.0</coordinates>
                </Point>
            </Placemark>
            <Placemark id="1493">
                <name>PABLO CESAR NAVARRO CARMEN</name>
                <description>MERCADO SULLANA puesto 29 mercado buenos aires
Sullana
Sullana
Piura
Perú</description>
                <styleUrl>#1494</styleUrl>
                <Point id="1492">
                    <coordinates>-80.6820886,-4.8959312,0.0</coordinates>
                </Point>
            </Placemark>
            <Placemark id="1498">
                <name>CHOZO SANTIAGO MARGARITA E.</name>
                <description>CA.J.HERNANDEZ MZ.A LT.1B 45
Sullana
Sullana
Piura
Perú</description>
                <styleUrl>#1499</styleUrl>
                <Point id="1497">
                    <coordinates>-80.6815775,-4.8964689,0.0</coordinates>
                </Point>
            </Placemark>
        </Folder>
    </Document>
</kml>
