<?xml version="1.0" encoding="UTF-8"?>
<kml xmlns="http://www.opengis.net/kml/2.2" xmlns:gx="http://www.google.com/kml/ext/2.2">
    <Document id="1410">
        <Folder id="1411">
            <Style id="1414">
                <IconStyle id="1415">
                    <color>ff0000ff</color>
                    <colorMode>normal</colorMode>
                    <scale>1</scale>
                    <heading>0</heading>
                    <Icon id="1416">
                        <href>http://maps.google.com/mapfiles/kml/pushpin/ylw-pushpin.png</href>
                    </Icon>
                </IconStyle>
            </Style>
            <Style id="1419">
                <IconStyle id="1420">
                    <color>ff0000ff</color>
                    <colorMode>normal</colorMode>
                    <scale>1</scale>
                    <heading>0</heading>
                    <Icon id="1421">
                        <href>http://maps.google.com/mapfiles/kml/pushpin/ylw-pushpin.png</href>
                    </Icon>
                </IconStyle>
            </Style>
            <Style id="1424">
                <IconStyle id="1425">
                    <color>ff0000ff</color>
                    <colorMode>normal</colorMode>
                    <scale>1</scale>
                    <heading>0</heading>
                    <Icon id="1426">
                        <href>http://maps.google.com/mapfiles/kml/pushpin/ylw-pushpin.png</href>
                    </Icon>
                </IconStyle>
            </Style>
            <Style id="1429">
                <IconStyle id="1430">
                    <color>ff0000ff</color>
                    <colorMode>normal</colorMode>
                    <scale>1</scale>
                    <heading>0</heading>
                    <Icon id="1431">
                        <href>http://maps.google.com/mapfiles/kml/pushpin/ylw-pushpin.png</href>
                    </Icon>
                </IconStyle>
            </Style>
            <Style id="1434">
                <IconStyle id="1435">
                    <color>ff0000ff</color>
                    <colorMode>normal</colorMode>
                    <scale>1</scale>
                    <heading>0</heading>
                    <Icon id="1436">
                        <href>http://maps.google.com/mapfiles/kml/pushpin/ylw-pushpin.png</href>
                    </Icon>
                </IconStyle>
            </Style>
            <Style id="1439">
                <IconStyle id="1440">
                    <color>ff0000ff</color>
                    <colorMode>normal</colorMode>
                    <scale>1</scale>
                    <heading>0</heading>
                    <Icon id="1441">
                        <href>http://maps.google.com/mapfiles/kml/pushpin/ylw-pushpin.png</href>
                    </Icon>
                </IconStyle>
            </Style>
            <Style id="1444">
                <IconStyle id="1445">
                    <color>ff0000ff</color>
                    <colorMode>normal</colorMode>
                    <scale>1</scale>
                    <heading>0</heading>
                    <Icon id="1446">
                        <href>http://maps.google.com/mapfiles/kml/pushpin/ylw-pushpin.png</href>
                    </Icon>
                </IconStyle>
            </Style>
            <Style id="1449">
                <IconStyle id="1450">
                    <color>ff0000ff</color>
                    <colorMode>normal</colorMode>
                    <scale>1</scale>
                    <heading>0</heading>
                    <Icon id="1451">
                        <href>http://maps.google.com/mapfiles/kml/pushpin/ylw-pushpin.png</href>
                    </Icon>
                </IconStyle>
            </Style>
            <Style id="1454">
                <IconStyle id="1455">
                    <color>ff0000ff</color>
                    <colorMode>normal</colorMode>
                    <scale>1</scale>
                    <heading>0</heading>
                    <Icon id="1456">
                        <href>http://maps.google.com/mapfiles/kml/pushpin/ylw-pushpin.png</href>
                    </Icon>
                </IconStyle>
            </Style>
            <Style id="1459">
                <IconStyle id="1460">
                    <color>ff0000ff</color>
                    <colorMode>normal</colorMode>
                    <scale>1</scale>
                    <heading>0</heading>
                    <Icon id="1461">
                        <href>http://maps.google.com/mapfiles/kml/pushpin/ylw-pushpin.png</href>
                    </Icon>
                </IconStyle>
            </Style>
            <Style id="1464">
                <IconStyle id="1465">
                    <color>ff0000ff</color>
                    <colorMode>normal</colorMode>
                    <scale>1</scale>
                    <heading>0</heading>
                    <Icon id="1466">
                        <href>http://maps.google.com/mapfiles/kml/pushpin/ylw-pushpin.png</href>
                    </Icon>
                </IconStyle>
            </Style>
            <Style id="1469">
                <IconStyle id="1470">
                    <color>ff0000ff</color>
                    <colorMode>normal</colorMode>
                    <scale>1</scale>
                    <heading>0</heading>
                    <Icon id="1471">
                        <href>http://maps.google.com/mapfiles/kml/pushpin/ylw-pushpin.png</href>
                    </Icon>
                </IconStyle>
            </Style>
            <Style id="1474">
                <IconStyle id="1475">
                    <color>ff0000ff</color>
                    <colorMode>normal</colorMode>
                    <scale>1</scale>
                    <heading>0</heading>
                    <Icon id="1476">
                        <href>http://maps.google.com/mapfiles/kml/pushpin/ylw-pushpin.png</href>
                    </Icon>
                </IconStyle>
            </Style>
            <Style id="1479">
                <IconStyle id="1480">
                    <color>ff0000ff</color>
                    <colorMode>normal</colorMode>
                    <scale>1</scale>
                    <heading>0</heading>
                    <Icon id="1481">
                        <href>http://maps.google.com/mapfiles/kml/pushpin/ylw-pushpin.png</href>
                    </Icon>
                </IconStyle>
            </Style>
            <Style id="1484">
                <IconStyle id="1485">
                    <color>ff0000ff</color>
                    <colorMode>normal</colorMode>
                    <scale>1</scale>
                    <heading>0</heading>
                    <Icon id="1486">
                        <href>http://maps.google.com/mapfiles/kml/pushpin/ylw-pushpin.png</href>
                    </Icon>
                </IconStyle>
            </Style>
            <Style id="1489">
                <IconStyle id="1490">
                    <color>ff0000ff</color>
                    <colorMode>normal</colorMode>
                    <scale>1</scale>
                    <heading>0</heading>
                    <Icon id="1491">
                        <href>http://maps.google.com/mapfiles/kml/pushpin/ylw-pushpin.png</href>
                    </Icon>
                </IconStyle>
            </Style>
            <Style id="1494">
                <IconStyle id="1495">
                    <color>ff0000ff</color>
                    <colorMode>normal</colorMode>
                    <scale>1</scale>
                    <heading>0</heading>
                    <Icon id="1496">
                        <href>http://maps.google.com/mapfiles/kml/pushpin/ylw-pushpin.png</href>
                    </Icon>
                </IconStyle>
            </Style>
            <Style id="1499">
                <IconStyle id="1500">
                    <color>ff0000ff</color>
                    <colorMode>normal</colorMode>
                    <scale>1</scale>
                    <heading>0</heading>
                    <Icon id="1501">
                        <href>http://maps.google.com/mapfiles/kml/pushpin/ylw-pushpin.png</href>
                    </Icon>
                </IconStyle>
            </Style>
            <Style id="1504">
                <IconStyle id="1505">
                    <color>ff0000ff</color>
                    <colorMode>normal</colorMode>
                    <scale>1</scale>
                    <heading>0</heading>
                    <Icon id="1506">
                        <href>http://maps.google.com/mapfiles/kml/pushpin/ylw-pushpin.png</href>
                    </Icon>
                </IconStyle>
            </Style>
            <Style id="1509">
                <IconStyle id="1510">
                    <color>ff0000ff</color>
                    <colorMode>normal</colorMode>
                    <scale>1</scale>
                    <heading>0</heading>
                    <Icon id="1511">
                        <href>http://maps.google.com/mapfiles/kml/pushpin/ylw-pushpin.png</href>
                    </Icon>
                </IconStyle>
            </Style>
            <Style id="1514">
                <IconStyle id="1515">
                    <color>ff0000ff</color>
                    <colorMode>normal</colorMode>
                    <scale>1</scale>
                    <heading>0</heading>
                    <Icon id="1516">
                        <href>http://maps.google.com/mapfiles/kml/pushpin/ylw-pushpin.png</href>
                    </Icon>
                </IconStyle>
            </Style>
            <Style id="1519">
                <IconStyle id="1520">
                    <color>ff0000ff</color>
                    <colorMode>normal</colorMode>
                    <scale>1</scale>
                    <heading>0</heading>
                    <Icon id="1521">
                        <href>http://maps.google.com/mapfiles/kml/pushpin/ylw-pushpin.png</href>
                    </Icon>
                </IconStyle>
            </Style>
            <Style id="1524">
                <IconStyle id="1525">
                    <color>ff0000ff</color>
                    <colorMode>normal</colorMode>
                    <scale>1</scale>
                    <heading>0</heading>
                    <Icon id="1526">
                        <href>http://maps.google.com/mapfiles/kml/pushpin/ylw-pushpin.png</href>
                    </Icon>
                </IconStyle>
            </Style>
            <Style id="1529">
                <IconStyle id="1530">
                    <color>ff0000ff</color>
                    <colorMode>normal</colorMode>
                    <scale>1</scale>
                    <heading>0</heading>
                    <Icon id="1531">
                        <href>http://maps.google.com/mapfiles/kml/pushpin/ylw-pushpin.png</href>
                    </Icon>
                </IconStyle>
            </Style>
            <Style id="1534">
                <IconStyle id="1535">
                    <color>ff0000ff</color>
                    <colorMode>normal</colorMode>
                    <scale>1</scale>
                    <heading>0</heading>
                    <Icon id="1536">
                        <href>http://maps.google.com/mapfiles/kml/pushpin/ylw-pushpin.png</href>
                    </Icon>
                </IconStyle>
            </Style>
            <Style id="1539">
                <IconStyle id="1540">
                    <color>ff0000ff</color>
                    <colorMode>normal</colorMode>
                    <scale>1</scale>
                    <heading>0</heading>
                    <Icon id="1541">
                        <href>http://maps.google.com/mapfiles/kml/pushpin/ylw-pushpin.png</href>
                    </Icon>
                </IconStyle>
            </Style>
            <Style id="1544">
                <IconStyle id="1545">
                    <color>ff0000ff</color>
                    <colorMode>normal</colorMode>
                    <scale>1</scale>
                    <heading>0</heading>
                    <Icon id="1546">
                        <href>http://maps.google.com/mapfiles/kml/pushpin/ylw-pushpin.png</href>
                    </Icon>
                </IconStyle>
            </Style>
            <Style id="1549">
                <IconStyle id="1550">
                    <color>ff0000ff</color>
                    <colorMode>normal</colorMode>
                    <scale>1</scale>
                    <heading>0</heading>
                    <Icon id="1551">
                        <href>http://maps.google.com/mapfiles/kml/pushpin/ylw-pushpin.png</href>
                    </Icon>
                </IconStyle>
            </Style>
            <Style id="1554">
                <IconStyle id="1555">
                    <color>ff0000ff</color>
                    <colorMode>normal</colorMode>
                    <scale>1</scale>
                    <heading>0</heading>
                    <Icon id="1556">
                        <href>http://maps.google.com/mapfiles/kml/pushpin/ylw-pushpin.png</href>
                    </Icon>
                </IconStyle>
            </Style>
            <Style id="1559">
                <IconStyle id="1560">
                    <color>ff0000ff</color>
                    <colorMode>normal</colorMode>
                    <scale>1</scale>
                    <heading>0</heading>
                    <Icon id="1561">
                        <href>http://maps.google.com/mapfiles/kml/pushpin/ylw-pushpin.png</href>
                    </Icon>
                </IconStyle>
            </Style>
            <Style id="1564">
                <IconStyle id="1565">
                    <color>ff0000ff</color>
                    <colorMode>normal</colorMode>
                    <scale>1</scale>
                    <heading>0</heading>
                    <Icon id="1566">
                        <href>http://maps.google.com/mapfiles/kml/pushpin/ylw-pushpin.png</href>
                    </Icon>
                </IconStyle>
            </Style>
            <Style id="1569">
                <IconStyle id="1570">
                    <color>ff0000ff</color>
                    <colorMode>normal</colorMode>
                    <scale>1</scale>
                    <heading>0</heading>
                    <Icon id="1571">
                        <href>http://maps.google.com/mapfiles/kml/pushpin/ylw-pushpin.png</href>
                    </Icon>
                </IconStyle>
            </Style>
            <Style id="1574">
                <IconStyle id="1575">
                    <color>ff0000ff</color>
                    <colorMode>normal</colorMode>
                    <scale>1</scale>
                    <heading>0</heading>
                    <Icon id="1576">
                        <href>http://maps.google.com/mapfiles/kml/pushpin/ylw-pushpin.png</href>
                    </Icon>
                </IconStyle>
            </Style>
            <Style id="1579">
                <IconStyle id="1580">
                    <color>ff0000ff</color>
                    <colorMode>normal</colorMode>
                    <scale>1</scale>
                    <heading>0</heading>
                    <Icon id="1581">
                        <href>http://maps.google.com/mapfiles/kml/pushpin/ylw-pushpin.png</href>
                    </Icon>
                </IconStyle>
            </Style>
            <Style id="1584">
                <IconStyle id="1585">
                    <color>ff0000ff</color>
                    <colorMode>normal</colorMode>
                    <scale>1</scale>
                    <heading>0</heading>
                    <Icon id="1586">
                        <href>http://maps.google.com/mapfiles/kml/pushpin/ylw-pushpin.png</href>
                    </Icon>
                </IconStyle>
            </Style>
            <name>CRISTHIAN ALEXANDER ALVARADO GONZALES</name>
            <Placemark id="1413">
                <name>JORGE EUGENIO RIVAS JIMENEZ</name>
                <description>TRANS. RASURI 014 - QUERECOTILLO-SULLANA
Querecotillo
Querecotillo
Piura
Perú</description>
                <styleUrl>#1414</styleUrl>
                <Point id="1412">
                    <coordinates>-80.6503974,-4.8407496,0.0</coordinates>
                </Point>
            </Placemark>
            <Placemark id="1418">
                <name>DE RODRIGUEZ DIODORA ZAPATA CORDOVA</name>
                <description>DE RODRIGUEZ DIODORA ZAPATA CORDOVA
CA.FERRER 203
Querecotillo
Querecotillo
Piura
Perú</description>
                <styleUrl>#1419</styleUrl>
                <Point id="1417">
                    <coordinates>-80.6498469,-4.8411531,0.0</coordinates>
                </Point>
            </Placemark>
            <Placemark id="1423">
                <name>FELICITO CORTEZ AVILES</name>
                <description>FELICITO CORTEZ AVILES
ESPINAR Nº 141 QUERE
Querecotillo
Querecotillo
Piura
Perú</description>
                <styleUrl>#1424</styleUrl>
                <Point id="1422">
                    <coordinates>-80.6484383,-4.8414551,0.0</coordinates>
                </Point>
            </Placemark>
            <Placemark id="1428">
                <name>EDINSON ALEXANDER RIVERA CRUZ</name>
                <description>Calle Aguirre 1065
Querecotillo
Querecotillo
Piura
Perú</description>
                <styleUrl>#1429</styleUrl>
                <Point id="1427">
                    <coordinates>-80.647376,-4.8368364,0.0</coordinates>
                </Point>
            </Placemark>
            <Placemark id="1433">
                <name>ZAPATA SOCOLA IVONNE DEL PILAR</name>
                <description>ZAPATA SOCOLA IVONNE DEL PILAR
CA.AGUIRRE 782
Querecotillo
Querecotillo
Piura
Perú</description>
                <styleUrl>#1434</styleUrl>
                <Point id="1432">
                    <coordinates>-80.649215,-4.838662,0.0</coordinates>
                </Point>
            </Placemark>
            <Placemark id="1438">
                <name>PABLO ARMANDO ALBINES OTERO</name>
                <description>MERCADO INTERIOR QUERECOTILLO
Querecotillo
Querecotillo
Piura
Perú</description>
                <styleUrl>#1439</styleUrl>
                <Point id="1437">
                    <coordinates>-80.6501481,-4.8399471,0.0</coordinates>
                </Point>
            </Placemark>
            <Placemark id="1443">
                <name>TANIA KARINA RIVERA GUTIERREZ</name>
                <description>BARRIO SEÑOR CAUTIVO MZ.15 LT.35 QU
Querecotillo
Querecotillo
Piura
Perú</description>
                <styleUrl>#1444</styleUrl>
                <Point id="1442">
                    <coordinates>-80.644632,-4.8355866,0.0</coordinates>
                </Point>
            </Placemark>
            <Placemark id="1448">
                <name>RAUL ORTEGA ESPINOZA</name>
                <description>GALVEZ 757 PARTE POSTERIOR
Querecotillo
Sullana
Piura
Perú</description>
                <styleUrl>#1449</styleUrl>
                <Point id="1447">
                    <coordinates>-80.644159,-4.835344,0.0</coordinates>
                </Point>
            </Placemark>
            <Placemark id="1453">
                <name>PABLO ARMANDO ALBINES OTERO</name>
                <description>MERCADO INTERIOR QUERECOTILLO
Querecotillo
Querecotillo
Piura
Perú</description>
                <styleUrl>#1454</styleUrl>
                <Point id="1452">
                    <coordinates>-80.6501481,-4.8399471,0.0</coordinates>
                </Point>
            </Placemark>
            <Placemark id="1458">
                <name>CASTILLO VELASCO CARI</name>
                <description>CASTILLO VELASCO CARI
AGUIRE 821 QUERECOTILLO
Querecotillo
Querecotillo
Piura
Perú</description>
                <styleUrl>#1459</styleUrl>
                <Point id="1457">
                    <coordinates>-80.6487098,-4.8380997,0.0</coordinates>
                </Point>
            </Placemark>
            <Placemark id="1463">
                <name>VIDAL NIEVES TERESITA</name>
                <description>Calle José Gálvez 893
Querecotillo

Piura
Perú</description>
                <styleUrl>#1464</styleUrl>
                <Point id="1462">
                    <coordinates>-80.643883,-4.834834,0.0</coordinates>
                </Point>
            </Placemark>
            <Placemark id="1468">
                <name>MARINA SOLEDAD MEDINA FLORES</name>
                <description>Cetro poblado chocan frente a la posta
Querecotillo

Piura
Perú</description>
                <styleUrl>#1469</styleUrl>
                <Point id="1467">
                    <coordinates>-80.5763723,-4.7301473,0.0</coordinates>
                </Point>
            </Placemark>
            <Placemark id="1473">
                <name>LUDEÑA SARANGO ADELA</name>
                <description>GALVEZ 944 QUERECOTILLO
Querecotillo
Querecotillo
Piura
Perú</description>
                <styleUrl>#1474</styleUrl>
                <Point id="1472">
                    <coordinates>-80.643232,-4.834079,0.0</coordinates>
                </Point>
            </Placemark>
            <Placemark id="1478">
                <name>LUZ MARIA ORDINOLA NUNJAR</name>
                <description>Calle Aguirre S / N  última cuadra por la sequía
Querecotillo
Sullana
Piura
Perú</description>
                <styleUrl>#1479</styleUrl>
                <Point id="1477">
                    <coordinates>-80.643853,-4.833534,0.0</coordinates>
                </Point>
            </Placemark>
            <Placemark id="1483">
                <name>MIRIAM LIDIA TORIBIO CALMET</name>
                <description>MIRIAM LIDIA TORIBIO CALMET
MZ. A LT.18 A.H. FROILAN ALAMA - QU
Querecotillo
Querecotillo
Piura
Perú</description>
                <styleUrl>#1484</styleUrl>
                <Point id="1482">
                    <coordinates>-80.6462285,-4.8347135,0.0</coordinates>
                </Point>
            </Placemark>
            <Placemark id="1488">
                <name>MERCEDES DEL SOCORRO GUTIERREZ CHUNGA</name>
                <description>Froilan Alama MZ F, lt21 querecotillo
Querecotillo
Querecotillo
Piura
Perú</description>
                <styleUrl>#1489</styleUrl>
                <Point id="1487">
                    <coordinates>-80.6462414,-4.8333215,0.0</coordinates>
                </Point>
            </Placemark>
            <Placemark id="1493">
                <name>CASTILLO VELASCO CARI</name>
                <description>CASTILLO VELASCO CARI
AGUIRE 821 QUERECOTILLO
Querecotillo
Querecotillo
Piura
Perú</description>
                <styleUrl>#1494</styleUrl>
                <Point id="1492">
                    <coordinates>-80.6487098,-4.8380997,0.0</coordinates>
                </Point>
            </Placemark>
            <Placemark id="1498">
                <name>IVONN TAVARA GUTIERREZ DE SEMINARIO</name>
                <description>IVONN TAVARA GUTIERREZ DE SEMINARIO
AH FROILAN ALAM MZ A LT 7-182 CA 2
Querecotillo
Querecotillo
Piura
Perú</description>
                <styleUrl>#1499</styleUrl>
                <Point id="1497">
                    <coordinates>-80.6466707,-4.8338163,0.0</coordinates>
                </Point>
            </Placemark>
            <Placemark id="1503">
                <name>MARIA MAGDALENA RIVERA JIMENEZ</name>
                <description>José Obdulio Rivera MZ E LT 12 querecotillo
Querecotillo


Perú</description>
                <styleUrl>#1504</styleUrl>
                <Point id="1502">
                    <coordinates>-80.646288,-4.832929,0.0</coordinates>
                </Point>
            </Placemark>
            <Placemark id="1508">
                <name>MARIA FRANCISCA CALLIRGOS QUISPE</name>
                <description>AAHH JESUS OBDULIO MZ C LT 4 QUERECOTILLO-SULLANA
Querecotillo
Querecotillo
Piura
Perú</description>
                <styleUrl>#1509</styleUrl>
                <Point id="1507">
                    <coordinates>-80.6456561,-4.8323226,0.0</coordinates>
                </Point>
            </Placemark>
            <Placemark id="1513">
                <name>ESTELA VILLALTA TRELLES</name>
                <description>A.H JOSE OBDULIO RIVERA  MZB LOTE 6
Querecotillo
Sullana
Piura
Perú</description>
                <styleUrl>#1514</styleUrl>
                <Point id="1512">
                    <coordinates>-80.6452779,-4.8319895,0.0</coordinates>
                </Point>
            </Placemark>
            <Placemark id="1518">
                <name>MARLENY DEL PILAR PRIETO SAAVEDRA</name>
                <description>Centro poblado San Francisco frente al parque
Querecotillo
Querecotillo
Piura
Perú</description>
                <styleUrl>#1519</styleUrl>
                <Point id="1517">
                    <coordinates>-80.5816126,-4.7421269,0.0</coordinates>
                </Point>
            </Placemark>
            <Placemark id="1523">
                <name>GABY ELIZET AREVALO CEVALLOS</name>
                <description>BARRIO EL MILAGRO S/N SULLANA-SULLANA
Querecotillo
Querecotillo
Piura
Perú</description>
                <styleUrl>#1524</styleUrl>
                <Point id="1522">
                    <coordinates>-80.5827954,-4.7409169,0.0</coordinates>
                </Point>
            </Placemark>
            <Placemark id="1528">
                <name>AREVALO CEVALLOS EIDEY JILIBET</name>
                <description>CA.SAN FRANCISCO  S/N
Querecotillo
Querecotillo
Piura
Perú</description>
                <styleUrl>#1529</styleUrl>
                <Point id="1527">
                    <coordinates>-80.582615,-4.741886,0.0</coordinates>
                </Point>
            </Placemark>
            <Placemark id="1533">
                <name>ELVER OCTAVIO CEVALLOS FARIAS</name>
                <description>SAN FRANCISCO S/N QUERECOTILLO
Querecotillo
Querecotillo
Piura
Perú</description>
                <styleUrl>#1534</styleUrl>
                <Point id="1532">
                    <coordinates>-80.5846533,-4.7404771,0.0</coordinates>
                </Point>
            </Placemark>
            <Placemark id="1538">
                <name>VERONIKA FARIAS MEJIA</name>
                <description>Caserío nueva esperanza san Francisco de chocan querecotillo
Querecotillo

Piura
Perú</description>
                <styleUrl>#1539</styleUrl>
                <Point id="1537">
                    <coordinates>-80.580818,-4.737521,0.0</coordinates>
                </Point>
            </Placemark>
            <Placemark id="1543">
                <name>MARINA SOLEDAD MEDINA FLORES</name>
                <description>Cetro poblado chocan frente a la posta
Querecotillo

Piura
Perú</description>
                <styleUrl>#1544</styleUrl>
                <Point id="1542">
                    <coordinates>-80.5763723,-4.7301473,0.0</coordinates>
                </Point>
            </Placemark>
            <Placemark id="1548">
                <name>SANCHEZ MORE OLGA</name>
                <description>CA.CHOCAN S/N
Querecotillo
Querecotillo
Piura
Perú</description>
                <styleUrl>#1549</styleUrl>
                <Point id="1547">
                    <coordinates>-80.5757685,-4.7285997,0.0</coordinates>
                </Point>
            </Placemark>
            <Placemark id="1553">
                <name>MERCEDES IPANAQUE CRUZ DE SAAVEDRA</name>
                <description>CP. CHOCAN  - QUERECOTILLO
Querecotillo
Querecotillo
Piura
Perú</description>
                <styleUrl>#1554</styleUrl>
                <Point id="1552">
                    <coordinates>-80.575173,-4.7278981,0.0</coordinates>
                </Point>
            </Placemark>
            <Placemark id="1558">
                <name>DANITZA EVELINA CAMPOS CAMPOS</name>
                <description>Huaypira SERCA al tanque elevado
Querecotillo
Querecotillo
Piura
Perú</description>
                <styleUrl>#1559</styleUrl>
                <Point id="1557">
                    <coordinates>-80.5396491,-4.6422503,0.0</coordinates>
                </Point>
            </Placemark>
            <Placemark id="1563">
                <name>SUSANA YANET ORDINOLA OVIEDO</name>
                <description>CALLE SAN PABLO I-14-LANCONES-SULLANA-SULLANA
Querecotillo
Querecotillo
Piura
Perú</description>
                <styleUrl>#1564</styleUrl>
                <Point id="1562">
                    <coordinates>-80.5487889,-4.641029,0.0</coordinates>
                </Point>
            </Placemark>
            <Placemark id="1568">
                <name>BARRANZUELA GUTIÉRREZ SANTOS O</name>
                <description>CA SAN JUAN C-031 CENT.LANCONE
Querecotillo
Querecotillo
Piura
Perú</description>
                <styleUrl>#1569</styleUrl>
                <Point id="1567">
                    <coordinates>-80.5489103,-4.640649,0.0</coordinates>
                </Point>
            </Placemark>
            <Placemark id="1573">
                <name>BARRANZUELA GUTIERREZ PILAR</name>
                <description>BARRANZUELA GUTIERREZ PILAR
CA.SAN JUAN MZ.B LT.10
Lancones
Querecotillo
Piura
Perú</description>
                <styleUrl>#1574</styleUrl>
                <Point id="1572">
                    <coordinates>-80.5495269,-4.6401193,0.0</coordinates>
                </Point>
            </Placemark>
            <Placemark id="1578">
                <name>RUIZ BARRANZUELA DIANA</name>
                <description>RUIZ BARRANZUELA DIANA
CA.SAN MATEO S/N
Querecotillo
Querecotillo
Piura
Perú</description>
                <styleUrl>#1579</styleUrl>
                <Point id="1577">
                    <coordinates>-80.5506284,-4.6387594,0.0</coordinates>
                </Point>
            </Placemark>
            <Placemark id="1583">
                <name>BARRANZUELA GUTIERREZ CECILIA</name>
                <description>BARRANZUELA GUTIERREZ CECILIA
CALLE SAN MATEO MZ A LT 1 - LANCONES
Querecotillo
Querecotillo
Piura
Perú</description>
                <styleUrl>#1584</styleUrl>
                <Point id="1582">
                    <coordinates>-80.5503713,-4.6391345,0.0</coordinates>
                </Point>
            </Placemark>
        </Folder>
        <Folder id="1587">
            <Style id="1590">
                <IconStyle id="1591">
                    <color>ffff0000</color>
                    <colorMode>normal</colorMode>
                    <scale>1</scale>
                    <heading>0</heading>
                    <Icon id="1592">
                        <href>http://maps.google.com/mapfiles/kml/pushpin/ylw-pushpin.png</href>
                    </Icon>
                </IconStyle>
            </Style>
            <Style id="1595">
                <IconStyle id="1596">
                    <color>ffff0000</color>
                    <colorMode>normal</colorMode>
                    <scale>1</scale>
                    <heading>0</heading>
                    <Icon id="1597">
                        <href>http://maps.google.com/mapfiles/kml/pushpin/ylw-pushpin.png</href>
                    </Icon>
                </IconStyle>
            </Style>
            <Style id="1600">
                <IconStyle id="1601">
                    <color>ffff0000</color>
                    <colorMode>normal</colorMode>
                    <scale>1</scale>
                    <heading>0</heading>
                    <Icon id="1602">
                        <href>http://maps.google.com/mapfiles/kml/pushpin/ylw-pushpin.png</href>
                    </Icon>
                </IconStyle>
            </Style>
            <Style id="1605">
                <IconStyle id="1606">
                    <color>ffff0000</color>
                    <colorMode>normal</colorMode>
                    <scale>1</scale>
                    <heading>0</heading>
                    <Icon id="1607">
                        <href>http://maps.google.com/mapfiles/kml/pushpin/ylw-pushpin.png</href>
                    </Icon>
                </IconStyle>
            </Style>
            <Style id="1610">
                <IconStyle id="1611">
                    <color>ffff0000</color>
                    <colorMode>normal</colorMode>
                    <scale>1</scale>
                    <heading>0</heading>
                    <Icon id="1612">
                        <href>http://maps.google.com/mapfiles/kml/pushpin/ylw-pushpin.png</href>
                    </Icon>
                </IconStyle>
            </Style>
            <Style id="1615">
                <IconStyle id="1616">
                    <color>ffff0000</color>
                    <colorMode>normal</colorMode>
                    <scale>1</scale>
                    <heading>0</heading>
                    <Icon id="1617">
                        <href>http://maps.google.com/mapfiles/kml/pushpin/ylw-pushpin.png</href>
                    </Icon>
                </IconStyle>
            </Style>
            <Style id="1620">
                <IconStyle id="1621">
                    <color>ffff0000</color>
                    <colorMode>normal</colorMode>
                    <scale>1</scale>
                    <heading>0</heading>
                    <Icon id="1622">
                        <href>http://maps.google.com/mapfiles/kml/pushpin/ylw-pushpin.png</href>
                    </Icon>
                </IconStyle>
            </Style>
            <Style id="1625">
                <IconStyle id="1626">
                    <color>ffff0000</color>
                    <colorMode>normal</colorMode>
                    <scale>1</scale>
                    <heading>0</heading>
                    <Icon id="1627">
                        <href>http://maps.google.com/mapfiles/kml/pushpin/ylw-pushpin.png</href>
                    </Icon>
                </IconStyle>
            </Style>
            <Style id="1630">
                <IconStyle id="1631">
                    <color>ffff0000</color>
                    <colorMode>normal</colorMode>
                    <scale>1</scale>
                    <heading>0</heading>
                    <Icon id="1632">
                        <href>http://maps.google.com/mapfiles/kml/pushpin/ylw-pushpin.png</href>
                    </Icon>
                </IconStyle>
            </Style>
            <Style id="1635">
                <IconStyle id="1636">
                    <color>ffff0000</color>
                    <colorMode>normal</colorMode>
                    <scale>1</scale>
                    <heading>0</heading>
                    <Icon id="1637">
                        <href>http://maps.google.com/mapfiles/kml/pushpin/ylw-pushpin.png</href>
                    </Icon>
                </IconStyle>
            </Style>
            <Style id="1640">
                <IconStyle id="1641">
                    <color>ffff0000</color>
                    <colorMode>normal</colorMode>
                    <scale>1</scale>
                    <heading>0</heading>
                    <Icon id="1642">
                        <href>http://maps.google.com/mapfiles/kml/pushpin/ylw-pushpin.png</href>
                    </Icon>
                </IconStyle>
            </Style>
            <Style id="1645">
                <IconStyle id="1646">
                    <color>ffff0000</color>
                    <colorMode>normal</colorMode>
                    <scale>1</scale>
                    <heading>0</heading>
                    <Icon id="1647">
                        <href>http://maps.google.com/mapfiles/kml/pushpin/ylw-pushpin.png</href>
                    </Icon>
                </IconStyle>
            </Style>
            <Style id="1650">
                <IconStyle id="1651">
                    <color>ffff0000</color>
                    <colorMode>normal</colorMode>
                    <scale>1</scale>
                    <heading>0</heading>
                    <Icon id="1652">
                        <href>http://maps.google.com/mapfiles/kml/pushpin/ylw-pushpin.png</href>
                    </Icon>
                </IconStyle>
            </Style>
            <Style id="1655">
                <IconStyle id="1656">
                    <color>ffff0000</color>
                    <colorMode>normal</colorMode>
                    <scale>1</scale>
                    <heading>0</heading>
                    <Icon id="1657">
                        <href>http://maps.google.com/mapfiles/kml/pushpin/ylw-pushpin.png</href>
                    </Icon>
                </IconStyle>
            </Style>
            <Style id="1660">
                <IconStyle id="1661">
                    <color>ffff0000</color>
                    <colorMode>normal</colorMode>
                    <scale>1</scale>
                    <heading>0</heading>
                    <Icon id="1662">
                        <href>http://maps.google.com/mapfiles/kml/pushpin/ylw-pushpin.png</href>
                    </Icon>
                </IconStyle>
            </Style>
            <Style id="1665">
                <IconStyle id="1666">
                    <color>ffff0000</color>
                    <colorMode>normal</colorMode>
                    <scale>1</scale>
                    <heading>0</heading>
                    <Icon id="1667">
                        <href>http://maps.google.com/mapfiles/kml/pushpin/ylw-pushpin.png</href>
                    </Icon>
                </IconStyle>
            </Style>
            <Style id="1670">
                <IconStyle id="1671">
                    <color>ffff0000</color>
                    <colorMode>normal</colorMode>
                    <scale>1</scale>
                    <heading>0</heading>
                    <Icon id="1672">
                        <href>http://maps.google.com/mapfiles/kml/pushpin/ylw-pushpin.png</href>
                    </Icon>
                </IconStyle>
            </Style>
            <Style id="1675">
                <IconStyle id="1676">
                    <color>ffff0000</color>
                    <colorMode>normal</colorMode>
                    <scale>1</scale>
                    <heading>0</heading>
                    <Icon id="1677">
                        <href>http://maps.google.com/mapfiles/kml/pushpin/ylw-pushpin.png</href>
                    </Icon>
                </IconStyle>
            </Style>
            <Style id="1680">
                <IconStyle id="1681">
                    <color>ffff0000</color>
                    <colorMode>normal</colorMode>
                    <scale>1</scale>
                    <heading>0</heading>
                    <Icon id="1682">
                        <href>http://maps.google.com/mapfiles/kml/pushpin/ylw-pushpin.png</href>
                    </Icon>
                </IconStyle>
            </Style>
            <Style id="1685">
                <IconStyle id="1686">
                    <color>ffff0000</color>
                    <colorMode>normal</colorMode>
                    <scale>1</scale>
                    <heading>0</heading>
                    <Icon id="1687">
                        <href>http://maps.google.com/mapfiles/kml/pushpin/ylw-pushpin.png</href>
                    </Icon>
                </IconStyle>
            </Style>
            <Style id="1690">
                <IconStyle id="1691">
                    <color>ffff0000</color>
                    <colorMode>normal</colorMode>
                    <scale>1</scale>
                    <heading>0</heading>
                    <Icon id="1692">
                        <href>http://maps.google.com/mapfiles/kml/pushpin/ylw-pushpin.png</href>
                    </Icon>
                </IconStyle>
            </Style>
            <Style id="1695">
                <IconStyle id="1696">
                    <color>ffff0000</color>
                    <colorMode>normal</colorMode>
                    <scale>1</scale>
                    <heading>0</heading>
                    <Icon id="1697">
                        <href>http://maps.google.com/mapfiles/kml/pushpin/ylw-pushpin.png</href>
                    </Icon>
                </IconStyle>
            </Style>
            <Style id="1700">
                <IconStyle id="1701">
                    <color>ffff0000</color>
                    <colorMode>normal</colorMode>
                    <scale>1</scale>
                    <heading>0</heading>
                    <Icon id="1702">
                        <href>http://maps.google.com/mapfiles/kml/pushpin/ylw-pushpin.png</href>
                    </Icon>
                </IconStyle>
            </Style>
            <Style id="1705">
                <IconStyle id="1706">
                    <color>ffff0000</color>
                    <colorMode>normal</colorMode>
                    <scale>1</scale>
                    <heading>0</heading>
                    <Icon id="1707">
                        <href>http://maps.google.com/mapfiles/kml/pushpin/ylw-pushpin.png</href>
                    </Icon>
                </IconStyle>
            </Style>
            <Style id="1710">
                <IconStyle id="1711">
                    <color>ffff0000</color>
                    <colorMode>normal</colorMode>
                    <scale>1</scale>
                    <heading>0</heading>
                    <Icon id="1712">
                        <href>http://maps.google.com/mapfiles/kml/pushpin/ylw-pushpin.png</href>
                    </Icon>
                </IconStyle>
            </Style>
            <Style id="1715">
                <IconStyle id="1716">
                    <color>ffff0000</color>
                    <colorMode>normal</colorMode>
                    <scale>1</scale>
                    <heading>0</heading>
                    <Icon id="1717">
                        <href>http://maps.google.com/mapfiles/kml/pushpin/ylw-pushpin.png</href>
                    </Icon>
                </IconStyle>
            </Style>
            <Style id="1720">
                <IconStyle id="1721">
                    <color>ffff0000</color>
                    <colorMode>normal</colorMode>
                    <scale>1</scale>
                    <heading>0</heading>
                    <Icon id="1722">
                        <href>http://maps.google.com/mapfiles/kml/pushpin/ylw-pushpin.png</href>
                    </Icon>
                </IconStyle>
            </Style>
            <Style id="1725">
                <IconStyle id="1726">
                    <color>ffff0000</color>
                    <colorMode>normal</colorMode>
                    <scale>1</scale>
                    <heading>0</heading>
                    <Icon id="1727">
                        <href>http://maps.google.com/mapfiles/kml/pushpin/ylw-pushpin.png</href>
                    </Icon>
                </IconStyle>
            </Style>
            <Style id="1730">
                <IconStyle id="1731">
                    <color>ffff0000</color>
                    <colorMode>normal</colorMode>
                    <scale>1</scale>
                    <heading>0</heading>
                    <Icon id="1732">
                        <href>http://maps.google.com/mapfiles/kml/pushpin/ylw-pushpin.png</href>
                    </Icon>
                </IconStyle>
            </Style>
            <Style id="1735">
                <IconStyle id="1736">
                    <color>ffff0000</color>
                    <colorMode>normal</colorMode>
                    <scale>1</scale>
                    <heading>0</heading>
                    <Icon id="1737">
                        <href>http://maps.google.com/mapfiles/kml/pushpin/ylw-pushpin.png</href>
                    </Icon>
                </IconStyle>
            </Style>
            <Style id="1740">
                <IconStyle id="1741">
                    <color>ffff0000</color>
                    <colorMode>normal</colorMode>
                    <scale>1</scale>
                    <heading>0</heading>
                    <Icon id="1742">
                        <href>http://maps.google.com/mapfiles/kml/pushpin/ylw-pushpin.png</href>
                    </Icon>
                </IconStyle>
            </Style>
            <Style id="1745">
                <IconStyle id="1746">
                    <color>ffff0000</color>
                    <colorMode>normal</colorMode>
                    <scale>1</scale>
                    <heading>0</heading>
                    <Icon id="1747">
                        <href>http://maps.google.com/mapfiles/kml/pushpin/ylw-pushpin.png</href>
                    </Icon>
                </IconStyle>
            </Style>
            <Style id="1750">
                <IconStyle id="1751">
                    <color>ffff0000</color>
                    <colorMode>normal</colorMode>
                    <scale>1</scale>
                    <heading>0</heading>
                    <Icon id="1752">
                        <href>http://maps.google.com/mapfiles/kml/pushpin/ylw-pushpin.png</href>
                    </Icon>
                </IconStyle>
            </Style>
            <Style id="1755">
                <IconStyle id="1756">
                    <color>ffff0000</color>
                    <colorMode>normal</colorMode>
                    <scale>1</scale>
                    <heading>0</heading>
                    <Icon id="1757">
                        <href>http://maps.google.com/mapfiles/kml/pushpin/ylw-pushpin.png</href>
                    </Icon>
                </IconStyle>
            </Style>
            <Style id="1760">
                <IconStyle id="1761">
                    <color>ffff0000</color>
                    <colorMode>normal</colorMode>
                    <scale>1</scale>
                    <heading>0</heading>
                    <Icon id="1762">
                        <href>http://maps.google.com/mapfiles/kml/pushpin/ylw-pushpin.png</href>
                    </Icon>
                </IconStyle>
            </Style>
            <Style id="1765">
                <IconStyle id="1766">
                    <color>ffff0000</color>
                    <colorMode>normal</colorMode>
                    <scale>1</scale>
                    <heading>0</heading>
                    <Icon id="1767">
                        <href>http://maps.google.com/mapfiles/kml/pushpin/ylw-pushpin.png</href>
                    </Icon>
                </IconStyle>
            </Style>
            <Style id="1770">
                <IconStyle id="1771">
                    <color>ffff0000</color>
                    <colorMode>normal</colorMode>
                    <scale>1</scale>
                    <heading>0</heading>
                    <Icon id="1772">
                        <href>http://maps.google.com/mapfiles/kml/pushpin/ylw-pushpin.png</href>
                    </Icon>
                </IconStyle>
            </Style>
            <Style id="1775">
                <IconStyle id="1776">
                    <color>ffff0000</color>
                    <colorMode>normal</colorMode>
                    <scale>1</scale>
                    <heading>0</heading>
                    <Icon id="1777">
                        <href>http://maps.google.com/mapfiles/kml/pushpin/ylw-pushpin.png</href>
                    </Icon>
                </IconStyle>
            </Style>
            <Style id="1780">
                <IconStyle id="1781">
                    <color>ffff0000</color>
                    <colorMode>normal</colorMode>
                    <scale>1</scale>
                    <heading>0</heading>
                    <Icon id="1782">
                        <href>http://maps.google.com/mapfiles/kml/pushpin/ylw-pushpin.png</href>
                    </Icon>
                </IconStyle>
            </Style>
            <Style id="1785">
                <IconStyle id="1786">
                    <color>ffff0000</color>
                    <colorMode>normal</colorMode>
                    <scale>1</scale>
                    <heading>0</heading>
                    <Icon id="1787">
                        <href>http://maps.google.com/mapfiles/kml/pushpin/ylw-pushpin.png</href>
                    </Icon>
                </IconStyle>
            </Style>
            <name>JACIEL MOGOLLON ALVARADO</name>
            <Placemark id="1589">
                <name>REYES SERNAQUE ELIXA</name>
                <description>CA.02 DE MAYO 101
Marcavelica
Marcavelica
Piura
Perú</description>
                <styleUrl>#1590</styleUrl>
                <Point id="1588">
                    <coordinates>-80.703731,-4.874382,0.0</coordinates>
                </Point>
            </Placemark>
            <Placemark id="1594">
                <name>JUANA VITALICIA QUINTANA SERNAQUE</name>
                <description>CA.BERNARDO ALCEDO 221
Sullana
Sullana
Piura
Perú</description>
                <styleUrl>#1595</styleUrl>
                <Point id="1593">
                    <coordinates>-80.6830872,-4.892073,0.0</coordinates>
                </Point>
            </Placemark>
            <Placemark id="1599">
                <name>LLACSAHUANGA CHUMACERO OSCAR</name>
                <description>CALLE BERNARDO ALCEDO 221
Sullana
Sullana
Piura
Perú</description>
                <styleUrl>#1600</styleUrl>
                <Point id="1598">
                    <coordinates>-80.6831433,-4.8920557,0.0</coordinates>
                </Point>
            </Placemark>
            <Placemark id="1604">
                <name>JOSE PORFIRIO ANDRADE ESPINOZA</name>
                <description>Calle Bernardo alcedo 250
Sullana
Sullana
Piura
Perú</description>
                <styleUrl>#1605</styleUrl>
                <Point id="1603">
                    <coordinates>-80.6831591,-4.8920828,0.0</coordinates>
                </Point>
            </Placemark>
            <Placemark id="1609">
                <name>FIGUEROA TIMANA MILAGROS</name>
                <description>FIGUEROA TIMANA MILAGROS
R.CASTILLA SN CENT MARC.
Marcavelica
Marcavelica
Piura
Perú</description>
                <styleUrl>#1610</styleUrl>
                <Point id="1608">
                    <coordinates>-80.6987843,-4.8854011,0.0</coordinates>
                </Point>
            </Placemark>
            <Placemark id="1614">
                <name>ALEXANDER EUGENIO CORDOVA ROSAS</name>
                <description>AV SULLANA FRENTE A LA MUNICIPALIDAD DE MARCAVELIVA
Marcavelica
Marcavelica
Piura
Perú</description>
                <styleUrl>#1615</styleUrl>
                <Point id="1613">
                    <coordinates>-80.703234,-4.8817714,0.0</coordinates>
                </Point>
            </Placemark>
            <Placemark id="1619">
                <name>DISTRIBUIDORA Y SERVICIOS GENERALES G&amp;P S.A.C. -</name>
                <description>DISTRIBUIDORA Y SERVICIOS GENERALES G&amp;P S.A.C. -
CAL.LIBERTAD KM. 608
Salitral
200608Salitral
Piura
Perú</description>
                <styleUrl>#1620</styleUrl>
                <Point id="1618">
                    <coordinates>-80.6810344,-4.8568452,0.0</coordinates>
                </Point>
            </Placemark>
            <Placemark id="1624">
                <name>JESUS FELIPE PLASENCIA REGALADO</name>
                <description>MERCADO MAYORISTA CEBOLLERO
Sullana
Sullana
Piura
Perú</description>
                <styleUrl>#1625</styleUrl>
                <Point id="1623">
                    <coordinates>-80.6794409,-4.9130793,0.0</coordinates>
                </Point>
            </Placemark>
            <Placemark id="1629">
                <name>ALEXANDER EUGENIO CORDOVA ROSAS</name>
                <description>AV SULLANA FRENTE A LA MUNICIPALIDAD DE MARCAVELIVA
Marcavelica
Marcavelica
Piura
Perú</description>
                <styleUrl>#1630</styleUrl>
                <Point id="1628">
                    <coordinates>-80.703234,-4.8817714,0.0</coordinates>
                </Point>
            </Placemark>
            <Placemark id="1634">
                <name>THALIA YASMIN CALDERON ABAD</name>
                <description>THALIA YASMIN CALDERON ABAD
MCDO MAYORISTA CEBOLLERO(X PALOMINO)
Sullana
Sullana
Piura
Perú</description>
                <styleUrl>#1635</styleUrl>
                <Point id="1633">
                    <coordinates>-80.679097,-4.9153202,0.0</coordinates>
                </Point>
            </Placemark>
            <Placemark id="1639">
                <name>ORDINOLA INFANTE LEONILA</name>
                <description>CA BOLIVAR 209 INT 01 CENT MAR
Marcavelica
Marcavelica
Piura
Perú</description>
                <styleUrl>#1640</styleUrl>
                <Point id="1638">
                    <coordinates>-80.7045403,-4.8768446,0.0</coordinates>
                </Point>
            </Placemark>
            <Placemark id="1644">
                <name>JIMENEZ ROMERO JULISSA LIXBET</name>
                <description>CA.2 DE MAYO 142
Marcavelica
Marcavelica
Piura
Perú</description>
                <styleUrl>#1645</styleUrl>
                <Point id="1643">
                    <coordinates>-80.7040251,-4.8761325,0.0</coordinates>
                </Point>
            </Placemark>
            <Placemark id="1649">
                <name>YNFANTE COBOS MAXIMINA</name>
                <description>2 DE MAYO 137 LAS PALMERAS MA.
Marcavelica
Marcavelica
Piura
Perú</description>
                <styleUrl>#1650</styleUrl>
                <Point id="1648">
                    <coordinates>-80.705319,-4.8793782,0.0</coordinates>
                </Point>
            </Placemark>
            <Placemark id="1654">
                <name>GONZALEZ RETO HILDA TATIANA</name>
                <description>GONZALEZ RETO HILDA TATIANA
AV.SULLANA S/N
Marcavelica
Marcavelica
Piura
Perú</description>
                <styleUrl>#1655</styleUrl>
                <Point id="1653">
                    <coordinates>-80.7033283,-4.8818196,0.0</coordinates>
                </Point>
            </Placemark>
            <Placemark id="1659">
                <name>ALEXANDER EUGENIO CORDOVA ROSAS</name>
                <description>AV SULLANA FRENTE A LA MUNICIPALIDAD DE MARCAVELIVA
Marcavelica
Marcavelica
Piura
Perú</description>
                <styleUrl>#1660</styleUrl>
                <Point id="1658">
                    <coordinates>-80.703234,-4.8817714,0.0</coordinates>
                </Point>
            </Placemark>
            <Placemark id="1664">
                <name>ELSA AGURTO ORDOÑEZ</name>
                <description>Av Sullana 103 Marcavelica
Marcavelica
Marcavelica
Piura
Perú</description>
                <styleUrl>#1665</styleUrl>
                <Point id="1663">
                    <coordinates>-80.702868,-4.8817949,0.0</coordinates>
                </Point>
            </Placemark>
            <Placemark id="1669">
                <name>QUISPE MORALES YUSLUNY YANET</name>
                <description>CA.J.CHAVEZ S/N MARCAVELIC
Marcavelica
Marcavelica
Piura
Perú</description>
                <styleUrl>#1670</styleUrl>
                <Point id="1668">
                    <coordinates>-80.698881,-4.880204,0.0</coordinates>
                </Point>
            </Placemark>
            <Placemark id="1674">
                <name>REINA ROSSANA PULACHE PULACHE</name>
                <description>CA.VICHAYAL 844 AA. HH 9 DE OCTUBRE-SULLANA
Sullana
Sullana
Piura
Perú</description>
                <styleUrl>#1675</styleUrl>
                <Point id="1673">
                    <coordinates>-80.6758287,-4.9068468,0.0</coordinates>
                </Point>
            </Placemark>
            <Placemark id="1679">
                <name>VARGAS VALDIVIEZO INGRID LOREN</name>
                <description>CA.ATAHUALPA 180 VICHAYAL
Querecotillo
Querecotillo
Piura
Perú</description>
                <styleUrl>#1680</styleUrl>
                <Point id="1678">
                    <coordinates>-80.6579942,-4.8443892,0.0</coordinates>
                </Point>
            </Placemark>
            <Placemark id="1684">
                <name>RUIZ ARCELES HILDA</name>
                <description>CA.ATAHUALPA 108
Salitral
Salitral
Piura
Perú</description>
                <styleUrl>#1685</styleUrl>
                <Point id="1683">
                    <coordinates>-80.6583356,-4.8438207,0.0</coordinates>
                </Point>
            </Placemark>
            <Placemark id="1689">
                <name>ALFREDO AGURTO PALACIOS</name>
                <description>Avenida Perú 142 vichallal
Querecotillo
Querecotillo
Piura
Perú</description>
                <styleUrl>#1690</styleUrl>
                <Point id="1688">
                    <coordinates>-80.6579295,-4.8433707,0.0</coordinates>
                </Point>
            </Placemark>
            <Placemark id="1694">
                <name>LUZ ANGELICA SANDOVAL SEMINARIO</name>
                <description>LUZ ANGELICA SANDOVAL SEMINARIO
CAL. LIBERTAD N 624 - SALITRAL
Salitral
Salitral
Piura
Perú</description>
                <styleUrl>#1695</styleUrl>
                <Point id="1693">
                    <coordinates>-80.6798676,-4.8560416,0.0</coordinates>
                </Point>
            </Placemark>
            <Placemark id="1699">
                <name>DIANA MORALES MORAN</name>
                <description>TACNA -206 SN ESPALDAS DE LA PANAMERICANA SALITRAL
Salitral
Salitral
Piura
Perú</description>
                <styleUrl>#1700</styleUrl>
                <Point id="1698">
                    <coordinates>-80.6778752,-4.8541646,0.0</coordinates>
                </Point>
            </Placemark>
            <Placemark id="1704">
                <name>ELVIA RIOFRIO CHORRES</name>
                <description>Calle libertad sin número
Salitral
Sullana
Piura
Perú</description>
                <styleUrl>#1705</styleUrl>
                <Point id="1703">
                    <coordinates>-80.6782074,-4.8543373,0.0</coordinates>
                </Point>
            </Placemark>
            <Placemark id="1709">
                <name>RAMIREZ RAMIREZ ZELMA GRACIELA</name>
                <description>CA.TACNA 008
Salitral
Salitral
Piura
Perú</description>
                <styleUrl>#1710</styleUrl>
                <Point id="1708">
                    <coordinates>-80.6771556,-4.8542438,0.0</coordinates>
                </Point>
            </Placemark>
            <Placemark id="1714">
                <name>MERCEDES ARACELY MORALES CRUZ</name>
                <description>BOLOGNESI 100 SALITRAL-SULLANA
Salitral
Salitral
Piura
Perú</description>
                <styleUrl>#1715</styleUrl>
                <Point id="1713">
                    <coordinates>-80.6774106,-4.8556578,0.0</coordinates>
                </Point>
            </Placemark>
            <Placemark id="1719">
                <name>ROSA PETRONILA GONZAGA CRUZ</name>
                <description>ROSA PETRONILA GONZAGA CRUZ
CAL GRAU 1 CDA NRO SN BR NORTE - SALITRAL
Salitral
Salitral
Piura
Perú</description>
                <styleUrl>#1720</styleUrl>
                <Point id="1718">
                    <coordinates>-80.6783337,-4.856809,0.0</coordinates>
                </Point>
            </Placemark>
            <Placemark id="1724">
                <name>GEYVI ITALIA SAAVEDRA MORALES</name>
                <description>Sullana Salitral Sucre sn Costado de club cabo verde
Salitral
Salitral
Piura
Perú</description>
                <styleUrl>#1725</styleUrl>
                <Point id="1723">
                    <coordinates>-80.6786309,-4.8576244,0.0</coordinates>
                </Point>
            </Placemark>
            <Placemark id="1729">
                <name>ZAPATA RUIZ SARA</name>
                <description>SUCRE SN
Salitral
Salitral
Piura
Perú</description>
                <styleUrl>#1730</styleUrl>
                <Point id="1728">
                    <coordinates>-80.683779,-4.860764,0.0</coordinates>
                </Point>
            </Placemark>
            <Placemark id="1734">
                <name>MARIA MAGDALENA ZAPATA ORDINOLA</name>
                <description>CA. BOLIVAR NÂ°720
Salitral
Salitral
Piura
Perú</description>
                <styleUrl>#1735</styleUrl>
                <Point id="1733">
                    <coordinates>-80.6841579,-4.8617474,0.0</coordinates>
                </Point>
            </Placemark>
            <Placemark id="1739">
                <name>ARICA ALBURQUEQUE MARLENY</name>
                <description>CA BOLIVAR S/N SALITRAL
Salitral
Salitral
Piura
Perú</description>
                <styleUrl>#1740</styleUrl>
                <Point id="1738">
                    <coordinates>-80.68505,-4.8617066,0.0</coordinates>
                </Point>
            </Placemark>
            <Placemark id="1744">
                <name>PULACHE ORDINOLA LILI</name>
                <description>SUCRE CDA.09 ESPALDA EST.
Salitral
Salitral
Piura
Perú</description>
                <styleUrl>#1745</styleUrl>
                <Point id="1743">
                    <coordinates>-80.6852651,-4.8620173,0.0</coordinates>
                </Point>
            </Placemark>
            <Placemark id="1749">
                <name>RAMOS CEDAMANO MARIA JULIA</name>
                <description>CA.SUCRE 898
Salitral
Salitral
Piura
Perú</description>
                <styleUrl>#1750</styleUrl>
                <Point id="1748">
                    <coordinates>-80.685213,-4.861826,0.0</coordinates>
                </Point>
            </Placemark>
            <Placemark id="1754">
                <name>LUIS ALBERTO JARAMILLO MENDOZA</name>
                <description>Calle San Martín cuadra 10 salitral
Salitral
Salitral
Piura
Perú</description>
                <styleUrl>#1755</styleUrl>
                <Point id="1753">
                    <coordinates>-80.6850535,-4.8599728,0.0</coordinates>
                </Point>
            </Placemark>
            <Placemark id="1759">
                <name>KATTY CAROLINA MARQUEZ CHERO</name>
                <description>TRANVERSAL SALAVERRY 100
Salitral
Salitral
Piura
Perú</description>
                <styleUrl>#1760</styleUrl>
                <Point id="1758">
                    <coordinates>-80.6834844,-4.8583742,0.0</coordinates>
                </Point>
            </Placemark>
            <Placemark id="1764">
                <name>CISNEROS MORALES JULIANA</name>
                <description>BOLOGNESI 702 SALITRAL
Salitral
Salitral
Piura
Perú</description>
                <styleUrl>#1765</styleUrl>
                <Point id="1763">
                    <coordinates>-80.6822489,-4.8588526,0.0</coordinates>
                </Point>
            </Placemark>
            <Placemark id="1769">
                <name>DISTRIBUIDORA Y SERVICIOS GENERALES G&amp;P S.A.C. -</name>
                <description>DISTRIBUIDORA Y SERVICIOS GENERALES G&amp;P S.A.C. -
CAL.LIBERTAD KM. 608
Salitral
200608Salitral
Piura
Perú</description>
                <styleUrl>#1770</styleUrl>
                <Point id="1768">
                    <coordinates>-80.6810344,-4.8568452,0.0</coordinates>
                </Point>
            </Placemark>
            <Placemark id="1774">
                <name>MARIA AIDEE TAVARA CALDERON</name>
                <description>Zona industrial, carretera sullana-tambogrande, delante de la maderera Camila
Sullana
Sullana
Piura
Perú</description>
                <styleUrl>#1775</styleUrl>
                <Point id="1773">
                    <coordinates>-80.6807905,-4.9124127,0.0</coordinates>
                </Point>
            </Placemark>
            <Placemark id="1779">
                <name>JESUS FELIPE PLASENCIA REGALADO</name>
                <description>MERCADO MAYORISTA CEBOLLERO
Sullana
Sullana
Piura
Perú</description>
                <styleUrl>#1780</styleUrl>
                <Point id="1778">
                    <coordinates>-80.6794409,-4.9130793,0.0</coordinates>
                </Point>
            </Placemark>
            <Placemark id="1784">
                <name>NIÑO ABAD LAURENTINA</name>
                <description>NIÑO ABAD LAURENTINA
PRO AV BUENOS AIRES / ZONA INDUSTRIAL FRENTE AL CEBOLLERO
Sullana
Sullana
Piura
Perú</description>
                <styleUrl>#1785</styleUrl>
                <Point id="1783">
                    <coordinates>-80.6786219,-4.9155829,0.0</coordinates>
                </Point>
            </Placemark>
        </Folder>
    </Document>
</kml>
