<?xml version="1.0" encoding="UTF-8"?>
<kml xmlns="http://www.opengis.net/kml/2.2" xmlns:gx="http://www.google.com/kml/ext/2.2">
    <Document id="1025">
        <Folder id="1026">
            <Style id="1029">
                <IconStyle id="1030">
                    <color>ff0000ff</color>
                    <colorMode>normal</colorMode>
                    <scale>1</scale>
                    <heading>0</heading>
                    <Icon id="1031">
                        <href>http://maps.google.com/mapfiles/kml/pushpin/ylw-pushpin.png</href>
                    </Icon>
                </IconStyle>
            </Style>
            <Style id="1034">
                <IconStyle id="1035">
                    <color>ff0000ff</color>
                    <colorMode>normal</colorMode>
                    <scale>1</scale>
                    <heading>0</heading>
                    <Icon id="1036">
                        <href>http://maps.google.com/mapfiles/kml/pushpin/ylw-pushpin.png</href>
                    </Icon>
                </IconStyle>
            </Style>
            <Style id="1039">
                <IconStyle id="1040">
                    <color>ff0000ff</color>
                    <colorMode>normal</colorMode>
                    <scale>1</scale>
                    <heading>0</heading>
                    <Icon id="1041">
                        <href>http://maps.google.com/mapfiles/kml/pushpin/ylw-pushpin.png</href>
                    </Icon>
                </IconStyle>
            </Style>
            <Style id="1044">
                <IconStyle id="1045">
                    <color>ff0000ff</color>
                    <colorMode>normal</colorMode>
                    <scale>1</scale>
                    <heading>0</heading>
                    <Icon id="1046">
                        <href>http://maps.google.com/mapfiles/kml/pushpin/ylw-pushpin.png</href>
                    </Icon>
                </IconStyle>
            </Style>
            <Style id="1049">
                <IconStyle id="1050">
                    <color>ff0000ff</color>
                    <colorMode>normal</colorMode>
                    <scale>1</scale>
                    <heading>0</heading>
                    <Icon id="1051">
                        <href>http://maps.google.com/mapfiles/kml/pushpin/ylw-pushpin.png</href>
                    </Icon>
                </IconStyle>
            </Style>
            <Style id="1054">
                <IconStyle id="1055">
                    <color>ff0000ff</color>
                    <colorMode>normal</colorMode>
                    <scale>1</scale>
                    <heading>0</heading>
                    <Icon id="1056">
                        <href>http://maps.google.com/mapfiles/kml/pushpin/ylw-pushpin.png</href>
                    </Icon>
                </IconStyle>
            </Style>
            <Style id="1059">
                <IconStyle id="1060">
                    <color>ff0000ff</color>
                    <colorMode>normal</colorMode>
                    <scale>1</scale>
                    <heading>0</heading>
                    <Icon id="1061">
                        <href>http://maps.google.com/mapfiles/kml/pushpin/ylw-pushpin.png</href>
                    </Icon>
                </IconStyle>
            </Style>
            <Style id="1064">
                <IconStyle id="1065">
                    <color>ff0000ff</color>
                    <colorMode>normal</colorMode>
                    <scale>1</scale>
                    <heading>0</heading>
                    <Icon id="1066">
                        <href>http://maps.google.com/mapfiles/kml/pushpin/ylw-pushpin.png</href>
                    </Icon>
                </IconStyle>
            </Style>
            <Style id="1069">
                <IconStyle id="1070">
                    <color>ff0000ff</color>
                    <colorMode>normal</colorMode>
                    <scale>1</scale>
                    <heading>0</heading>
                    <Icon id="1071">
                        <href>http://maps.google.com/mapfiles/kml/pushpin/ylw-pushpin.png</href>
                    </Icon>
                </IconStyle>
            </Style>
            <Style id="1074">
                <IconStyle id="1075">
                    <color>ff0000ff</color>
                    <colorMode>normal</colorMode>
                    <scale>1</scale>
                    <heading>0</heading>
                    <Icon id="1076">
                        <href>http://maps.google.com/mapfiles/kml/pushpin/ylw-pushpin.png</href>
                    </Icon>
                </IconStyle>
            </Style>
            <Style id="1079">
                <IconStyle id="1080">
                    <color>ff0000ff</color>
                    <colorMode>normal</colorMode>
                    <scale>1</scale>
                    <heading>0</heading>
                    <Icon id="1081">
                        <href>http://maps.google.com/mapfiles/kml/pushpin/ylw-pushpin.png</href>
                    </Icon>
                </IconStyle>
            </Style>
            <Style id="1084">
                <IconStyle id="1085">
                    <color>ff0000ff</color>
                    <colorMode>normal</colorMode>
                    <scale>1</scale>
                    <heading>0</heading>
                    <Icon id="1086">
                        <href>http://maps.google.com/mapfiles/kml/pushpin/ylw-pushpin.png</href>
                    </Icon>
                </IconStyle>
            </Style>
            <Style id="1089">
                <IconStyle id="1090">
                    <color>ff0000ff</color>
                    <colorMode>normal</colorMode>
                    <scale>1</scale>
                    <heading>0</heading>
                    <Icon id="1091">
                        <href>http://maps.google.com/mapfiles/kml/pushpin/ylw-pushpin.png</href>
                    </Icon>
                </IconStyle>
            </Style>
            <Style id="1094">
                <IconStyle id="1095">
                    <color>ff0000ff</color>
                    <colorMode>normal</colorMode>
                    <scale>1</scale>
                    <heading>0</heading>
                    <Icon id="1096">
                        <href>http://maps.google.com/mapfiles/kml/pushpin/ylw-pushpin.png</href>
                    </Icon>
                </IconStyle>
            </Style>
            <Style id="1099">
                <IconStyle id="1100">
                    <color>ff0000ff</color>
                    <colorMode>normal</colorMode>
                    <scale>1</scale>
                    <heading>0</heading>
                    <Icon id="1101">
                        <href>http://maps.google.com/mapfiles/kml/pushpin/ylw-pushpin.png</href>
                    </Icon>
                </IconStyle>
            </Style>
            <Style id="1104">
                <IconStyle id="1105">
                    <color>ff0000ff</color>
                    <colorMode>normal</colorMode>
                    <scale>1</scale>
                    <heading>0</heading>
                    <Icon id="1106">
                        <href>http://maps.google.com/mapfiles/kml/pushpin/ylw-pushpin.png</href>
                    </Icon>
                </IconStyle>
            </Style>
            <Style id="1109">
                <IconStyle id="1110">
                    <color>ff0000ff</color>
                    <colorMode>normal</colorMode>
                    <scale>1</scale>
                    <heading>0</heading>
                    <Icon id="1111">
                        <href>http://maps.google.com/mapfiles/kml/pushpin/ylw-pushpin.png</href>
                    </Icon>
                </IconStyle>
            </Style>
            <Style id="1114">
                <IconStyle id="1115">
                    <color>ff0000ff</color>
                    <colorMode>normal</colorMode>
                    <scale>1</scale>
                    <heading>0</heading>
                    <Icon id="1116">
                        <href>http://maps.google.com/mapfiles/kml/pushpin/ylw-pushpin.png</href>
                    </Icon>
                </IconStyle>
            </Style>
            <Style id="1119">
                <IconStyle id="1120">
                    <color>ff0000ff</color>
                    <colorMode>normal</colorMode>
                    <scale>1</scale>
                    <heading>0</heading>
                    <Icon id="1121">
                        <href>http://maps.google.com/mapfiles/kml/pushpin/ylw-pushpin.png</href>
                    </Icon>
                </IconStyle>
            </Style>
            <Style id="1124">
                <IconStyle id="1125">
                    <color>ff0000ff</color>
                    <colorMode>normal</colorMode>
                    <scale>1</scale>
                    <heading>0</heading>
                    <Icon id="1126">
                        <href>http://maps.google.com/mapfiles/kml/pushpin/ylw-pushpin.png</href>
                    </Icon>
                </IconStyle>
            </Style>
            <Style id="1129">
                <IconStyle id="1130">
                    <color>ff0000ff</color>
                    <colorMode>normal</colorMode>
                    <scale>1</scale>
                    <heading>0</heading>
                    <Icon id="1131">
                        <href>http://maps.google.com/mapfiles/kml/pushpin/ylw-pushpin.png</href>
                    </Icon>
                </IconStyle>
            </Style>
            <Style id="1134">
                <IconStyle id="1135">
                    <color>ff0000ff</color>
                    <colorMode>normal</colorMode>
                    <scale>1</scale>
                    <heading>0</heading>
                    <Icon id="1136">
                        <href>http://maps.google.com/mapfiles/kml/pushpin/ylw-pushpin.png</href>
                    </Icon>
                </IconStyle>
            </Style>
            <Style id="1139">
                <IconStyle id="1140">
                    <color>ff0000ff</color>
                    <colorMode>normal</colorMode>
                    <scale>1</scale>
                    <heading>0</heading>
                    <Icon id="1141">
                        <href>http://maps.google.com/mapfiles/kml/pushpin/ylw-pushpin.png</href>
                    </Icon>
                </IconStyle>
            </Style>
            <Style id="1144">
                <IconStyle id="1145">
                    <color>ff0000ff</color>
                    <colorMode>normal</colorMode>
                    <scale>1</scale>
                    <heading>0</heading>
                    <Icon id="1146">
                        <href>http://maps.google.com/mapfiles/kml/pushpin/ylw-pushpin.png</href>
                    </Icon>
                </IconStyle>
            </Style>
            <Style id="1149">
                <IconStyle id="1150">
                    <color>ff0000ff</color>
                    <colorMode>normal</colorMode>
                    <scale>1</scale>
                    <heading>0</heading>
                    <Icon id="1151">
                        <href>http://maps.google.com/mapfiles/kml/pushpin/ylw-pushpin.png</href>
                    </Icon>
                </IconStyle>
            </Style>
            <Style id="1154">
                <IconStyle id="1155">
                    <color>ff0000ff</color>
                    <colorMode>normal</colorMode>
                    <scale>1</scale>
                    <heading>0</heading>
                    <Icon id="1156">
                        <href>http://maps.google.com/mapfiles/kml/pushpin/ylw-pushpin.png</href>
                    </Icon>
                </IconStyle>
            </Style>
            <Style id="1159">
                <IconStyle id="1160">
                    <color>ff0000ff</color>
                    <colorMode>normal</colorMode>
                    <scale>1</scale>
                    <heading>0</heading>
                    <Icon id="1161">
                        <href>http://maps.google.com/mapfiles/kml/pushpin/ylw-pushpin.png</href>
                    </Icon>
                </IconStyle>
            </Style>
            <Style id="1164">
                <IconStyle id="1165">
                    <color>ff0000ff</color>
                    <colorMode>normal</colorMode>
                    <scale>1</scale>
                    <heading>0</heading>
                    <Icon id="1166">
                        <href>http://maps.google.com/mapfiles/kml/pushpin/ylw-pushpin.png</href>
                    </Icon>
                </IconStyle>
            </Style>
            <Style id="1169">
                <IconStyle id="1170">
                    <color>ff0000ff</color>
                    <colorMode>normal</colorMode>
                    <scale>1</scale>
                    <heading>0</heading>
                    <Icon id="1171">
                        <href>http://maps.google.com/mapfiles/kml/pushpin/ylw-pushpin.png</href>
                    </Icon>
                </IconStyle>
            </Style>
            <name>JACIEL MOGOLLON ALVARADO</name>
            <Placemark id="1028">
                <name>VASQUEZ REYES YESSICA PATRICIA</name>
                <description>VASQUEZ REYES YESSICA PATRICIA
MZA. DLOTE 01 PARQUE INDUSTRIAL ( EX TERMINAL PESQUERO ) PIURA - SULLANA 
Sullana
-Sullana
Piura
Perú</description>
                <styleUrl>#1029</styleUrl>
                <Point id="1027">
                    <coordinates>-80.678827,-4.9152949,0.0</coordinates>
                </Point>
            </Placemark>
            <Placemark id="1033">
                <name>REYES JUAREZ SIMONA</name>
                <description>CA JCM 484 CAS CENT SOJO
Sullana
Sullana
Piura
Perú</description>
                <styleUrl>#1034</styleUrl>
                <Point id="1032">
                    <coordinates>-80.814,-4.900176,0.0</coordinates>
                </Point>
            </Placemark>
            <Placemark id="1038">
                <name>ABARROTES Y SERV.CHINININ SAC</name>
                <description>ABARROTES Y SERV.CHINININ SAC
CA.CUATRO 193 Y 199.
Sullana
200601Sullana
Piura
Perú</description>
                <styleUrl>#1039</styleUrl>
                <Point id="1037">
                    <coordinates>-80.6828445,-4.8945854,0.0</coordinates>
                </Point>
            </Placemark>
            <Placemark id="1043">
                <name>THALIA YASMIN CALDERON ABAD</name>
                <description>THALIA YASMIN CALDERON ABAD
MCDO MAYORISTA CEBOLLERO(X PALOMINO)
Sullana
Sullana
Piura
Perú</description>
                <styleUrl>#1044</styleUrl>
                <Point id="1042">
                    <coordinates>-80.679097,-4.9153202,0.0</coordinates>
                </Point>
            </Placemark>
            <Placemark id="1048">
                <name>ABARROTES Y SERV.CHINININ SAC</name>
                <description>ABARROTES Y SERV.CHINININ SAC
CA.CUATRO 193 Y 199.
Sullana
200601Sullana
Piura
Perú</description>
                <styleUrl>#1049</styleUrl>
                <Point id="1047">
                    <coordinates>-80.6828445,-4.8945854,0.0</coordinates>
                </Point>
            </Placemark>
            <Placemark id="1053">
                <name>MILAGROS YANET DIOSES TAVARA</name>
                <description>MZ.A1 LT.3 INT.2 URB JARDIN
Sullana
Sullana
Piura
Perú</description>
                <styleUrl>#1054</styleUrl>
                <Point id="1052">
                    <coordinates>-80.703182,-4.904064,0.0</coordinates>
                </Point>
            </Placemark>
            <Placemark id="1058">
                <name>THALIA YASMIN CALDERON ABAD</name>
                <description>THALIA YASMIN CALDERON ABAD
MCDO MAYORISTA CEBOLLERO(X PALOMINO)
Sullana
Sullana
Piura
Perú</description>
                <styleUrl>#1059</styleUrl>
                <Point id="1057">
                    <coordinates>-80.679097,-4.9153202,0.0</coordinates>
                </Point>
            </Placemark>
            <Placemark id="1063">
                <name>JOSE PORFIRIO ANDRADE ESPINOZA</name>
                <description>Calle Bernardo alcedo 250
Sullana
Sullana
Piura
Perú</description>
                <styleUrl>#1064</styleUrl>
                <Point id="1062">
                    <coordinates>-80.6831591,-4.8920828,0.0</coordinates>
                </Point>
            </Placemark>
            <Placemark id="1068">
                <name>GEORGINA PAZ CALLE</name>
                <description>Av Salaverry MZ A lote 4 Sol Brillante Nuevo sullana
Miguel Checa
Miguel Checa
Piura
Perú</description>
                <styleUrl>#1069</styleUrl>
                <Point id="1067">
                    <coordinates>-80.7269571,-4.9193088,0.0</coordinates>
                </Point>
            </Placemark>
            <Placemark id="1073">
                <name>REYES JUAREZ SIMONA</name>
                <description>CA JCM 484 CAS CENT SOJO
Sullana
Sullana
Piura
Perú</description>
                <styleUrl>#1074</styleUrl>
                <Point id="1072">
                    <coordinates>-80.814,-4.900176,0.0</coordinates>
                </Point>
            </Placemark>
            <Placemark id="1078">
                <name>QUEVEDO CHECA LILIANA</name>
                <description>CA.COMERCIO 215 SOJO
Miguel Checa
Miguel Checa
Piura
Perú</description>
                <styleUrl>#1079</styleUrl>
                <Point id="1077">
                    <coordinates>-80.815417,-4.9024679,0.0</coordinates>
                </Point>
            </Placemark>
            <Placemark id="1083">
                <name>Aquino bruno catalina</name>
                <description>Calle Tacna por la cancha sojo
Sullana

Piura
Perú</description>
                <styleUrl>#1084</styleUrl>
                <Point id="1082">
                    <coordinates>-80.8165181,-4.9003196,0.0</coordinates>
                </Point>
            </Placemark>
            <Placemark id="1088">
                <name>WILDER MERCEDES BURGOS SERNAQUE</name>
                <description>Calle Juan morales Rivas 311-1  costado parque lar mercedes
Miguel Checa

Piura
Perú</description>
                <styleUrl>#1089</styleUrl>
                <Point id="1087">
                    <coordinates>-80.816647,-4.89995,0.0</coordinates>
                </Point>
            </Placemark>
            <Placemark id="1093">
                <name>LUIS FERNANDO CORNEJO ZAPATA</name>
                <description>CA LIZARDO OTERO ALCAS 630 SOJO - SULLANA
Miguel Checa
Miguel Checa
Piura
Perú</description>
                <styleUrl>#1094</styleUrl>
                <Point id="1092">
                    <coordinates>-80.8155336,-4.9001258,0.0</coordinates>
                </Point>
            </Placemark>
            <Placemark id="1098">
                <name>JASMIN BEATRIZ RODRIGUEZ CORNEJO</name>
                <description>Calle la victoria sojo
Miguel Checa
Miguel Checa
Piura
Perú</description>
                <styleUrl>#1099</styleUrl>
                <Point id="1097">
                    <coordinates>-80.8146495,-4.9019314,0.0</coordinates>
                </Point>
            </Placemark>
            <Placemark id="1103">
                <name>GONZALES COLMENARES JUAN JORGE</name>
                <description>CALLE VICTORIA 181 CENTRO SOJO
Miguel Checa
Miguel Checa
Piura
Perú</description>
                <styleUrl>#1104</styleUrl>
                <Point id="1102">
                    <coordinates>-80.8152457,-4.9035677,0.0</coordinates>
                </Point>
            </Placemark>
            <Placemark id="1108">
                <name>JULIA MARIA MONTERO SOJO</name>
                <description>JULIA MARIA MONTERO SOJO
CAL LA VICTORIA NRO 150 CENT SOJO
Miguel Checa
Miguel Checa
Piura
Perú</description>
                <styleUrl>#1109</styleUrl>
                <Point id="1107">
                    <coordinates>-80.815197,-4.9040252,0.0</coordinates>
                </Point>
            </Placemark>
            <Placemark id="1113">
                <name>JESUS NATIVIDAD CHERO SALDARRIAGA</name>
                <description>JESUS NATIVIDAD CHERO SALDARRIAGA
CP JIBITO AV SAN ANTONIO 128
Miguel Checa
Miguel Checa
Piura
Perú</description>
                <styleUrl>#1114</styleUrl>
                <Point id="1112">
                    <coordinates>-80.7461778,-4.9058614,0.0</coordinates>
                </Point>
            </Placemark>
            <Placemark id="1118">
                <name>MARIA MAGDALENA JIMENEZ SANDOVAL</name>
                <description>Av san luis jibito barrio santa rosa - 130
Miguel Checa
Miguel Checa
Piura
Perú</description>
                <styleUrl>#1119</styleUrl>
                <Point id="1117">
                    <coordinates>-80.7487517,-4.9066386,0.0</coordinates>
                </Point>
            </Placemark>
            <Placemark id="1123">
                <name>SANDOVAL NUÑEZ MARIA DEL C.</name>
                <description>SAN HILARION Nª121 JIBITO
Sullana
Sullana
Piura
Perú</description>
                <styleUrl>#1124</styleUrl>
                <Point id="1122">
                    <coordinates>-80.745038,-4.904165,0.0</coordinates>
                </Point>
            </Placemark>
            <Placemark id="1128">
                <name>JIMENEZ CORREA IRIS DEL PILAR</name>
                <description>CA.SAN MARCOS 109
Sullana
Sullana
Piura
Perú</description>
                <styleUrl>#1129</styleUrl>
                <Point id="1127">
                    <coordinates>-80.7492284,-4.9079765,0.0</coordinates>
                </Point>
            </Placemark>
            <Placemark id="1133">
                <name>RAQUEL MOGOLLÓN SALDARRIAGA</name>
                <description>Calle San pedro/ jibito por la plaza, frente a la iglesia
Miguel Checa
Miguel Checa
Piura
Perú</description>
                <styleUrl>#1134</styleUrl>
                <Point id="1132">
                    <coordinates>-80.7464236,-4.904619,0.0</coordinates>
                </Point>
            </Placemark>
            <Placemark id="1138">
                <name>JIMENEZ SAAVEDRA SEVERA</name>
                <description>JIMENEZ SAAVEDRA SEVERA
AV.MIGUEL GRAU 115 JIBITO
Miguel Checa
Miguel Checa
Piura
Perú</description>
                <styleUrl>#1139</styleUrl>
                <Point id="1137">
                    <coordinates>-80.7464318,-4.9044354,0.0</coordinates>
                </Point>
            </Placemark>
            <Placemark id="1143">
                <name>JOSE LUIS ROMAN QUISPE</name>
                <description>JOSE LUIS ROMAN QUISPE
PRO.BOLIVAR MZA. J2 LOTE. 09 C.P. J
Miguel Checa
Miguel Checa
Piura
Perú</description>
                <styleUrl>#1144</styleUrl>
                <Point id="1142">
                    <coordinates>-80.7454126,-4.9041502,0.0</coordinates>
                </Point>
            </Placemark>
            <Placemark id="1148">
                <name>VASQUEZ CELIS GEORGINA</name>
                <description>AV PERU LL 1-8 CENT JIBITO
Miguel Checa
Miguel Checa
Piura
Perú</description>
                <styleUrl>#1149</styleUrl>
                <Point id="1147">
                    <coordinates>-80.7445294,-4.9040248,0.0</coordinates>
                </Point>
            </Placemark>
            <Placemark id="1153">
                <name>RUTH MARIBEL ALVARADO CARCAMO</name>
                <description>Calle los angeles 105 - jibito
Miguel Checa
Miguel Checa
Piura
Perú</description>
                <styleUrl>#1154</styleUrl>
                <Point id="1152">
                    <coordinates>-80.744161,-4.9031173,0.0</coordinates>
                </Point>
            </Placemark>
            <Placemark id="1158">
                <name>HERNAN MORE ALVARADO</name>
                <description>AV SANTO TOMAS 402 SULLANA-SULLANA
Miguel Checa
Miguel Checa
Piura
Perú</description>
                <styleUrl>#1159</styleUrl>
                <Point id="1157">
                    <coordinates>-80.7437565,-4.9042399,0.0</coordinates>
                </Point>
            </Placemark>
            <Placemark id="1163">
                <name>LEIDY YULIANA SANDOVAL YARLEQUE</name>
                <description>Calle santo tomas jibito
Miguel Checa
Miguel Checa
Piura
Perú</description>
                <styleUrl>#1164</styleUrl>
                <Point id="1162">
                    <coordinates>-80.7438108,-4.9047258,0.0</coordinates>
                </Point>
            </Placemark>
            <Placemark id="1168">
                <name>CHIROQUE PALOMINO DE SAAVEDRA NORVY YOVANY</name>
                <description>CHIROQUE PALOMINO DE SAAVEDRA NORVY YOVANY

Miguel Checa
Miguel Checa
Piura
Perú</description>
                <styleUrl>#1169</styleUrl>
                <Point id="1167">
                    <coordinates>-80.742276,-4.9070448,0.0</coordinates>
                </Point>
            </Placemark>
        </Folder>
    </Document>
</kml>
