<?xml version="1.0" encoding="UTF-8"?>
<kml xmlns="http://www.opengis.net/kml/2.2" xmlns:gx="http://www.google.com/kml/ext/2.2">
    <Document id="2238">
        <Folder id="2239">
            <Style id="2242">
                <IconStyle id="2243">
                    <color>ff0000ff</color>
                    <colorMode>normal</colorMode>
                    <scale>1</scale>
                    <heading>0</heading>
                    <Icon id="2244">
                        <href>http://maps.google.com/mapfiles/kml/pushpin/ylw-pushpin.png</href>
                    </Icon>
                </IconStyle>
            </Style>
            <Style id="2247">
                <IconStyle id="2248">
                    <color>ff0000ff</color>
                    <colorMode>normal</colorMode>
                    <scale>1</scale>
                    <heading>0</heading>
                    <Icon id="2249">
                        <href>http://maps.google.com/mapfiles/kml/pushpin/ylw-pushpin.png</href>
                    </Icon>
                </IconStyle>
            </Style>
            <Style id="2252">
                <IconStyle id="2253">
                    <color>ff0000ff</color>
                    <colorMode>normal</colorMode>
                    <scale>1</scale>
                    <heading>0</heading>
                    <Icon id="2254">
                        <href>http://maps.google.com/mapfiles/kml/pushpin/ylw-pushpin.png</href>
                    </Icon>
                </IconStyle>
            </Style>
            <Style id="2257">
                <IconStyle id="2258">
                    <color>ff0000ff</color>
                    <colorMode>normal</colorMode>
                    <scale>1</scale>
                    <heading>0</heading>
                    <Icon id="2259">
                        <href>http://maps.google.com/mapfiles/kml/pushpin/ylw-pushpin.png</href>
                    </Icon>
                </IconStyle>
            </Style>
            <Style id="2262">
                <IconStyle id="2263">
                    <color>ff0000ff</color>
                    <colorMode>normal</colorMode>
                    <scale>1</scale>
                    <heading>0</heading>
                    <Icon id="2264">
                        <href>http://maps.google.com/mapfiles/kml/pushpin/ylw-pushpin.png</href>
                    </Icon>
                </IconStyle>
            </Style>
            <Style id="2267">
                <IconStyle id="2268">
                    <color>ff0000ff</color>
                    <colorMode>normal</colorMode>
                    <scale>1</scale>
                    <heading>0</heading>
                    <Icon id="2269">
                        <href>http://maps.google.com/mapfiles/kml/pushpin/ylw-pushpin.png</href>
                    </Icon>
                </IconStyle>
            </Style>
            <Style id="2272">
                <IconStyle id="2273">
                    <color>ff0000ff</color>
                    <colorMode>normal</colorMode>
                    <scale>1</scale>
                    <heading>0</heading>
                    <Icon id="2274">
                        <href>http://maps.google.com/mapfiles/kml/pushpin/ylw-pushpin.png</href>
                    </Icon>
                </IconStyle>
            </Style>
            <Style id="2277">
                <IconStyle id="2278">
                    <color>ff0000ff</color>
                    <colorMode>normal</colorMode>
                    <scale>1</scale>
                    <heading>0</heading>
                    <Icon id="2279">
                        <href>http://maps.google.com/mapfiles/kml/pushpin/ylw-pushpin.png</href>
                    </Icon>
                </IconStyle>
            </Style>
            <Style id="2282">
                <IconStyle id="2283">
                    <color>ff0000ff</color>
                    <colorMode>normal</colorMode>
                    <scale>1</scale>
                    <heading>0</heading>
                    <Icon id="2284">
                        <href>http://maps.google.com/mapfiles/kml/pushpin/ylw-pushpin.png</href>
                    </Icon>
                </IconStyle>
            </Style>
            <Style id="2287">
                <IconStyle id="2288">
                    <color>ff0000ff</color>
                    <colorMode>normal</colorMode>
                    <scale>1</scale>
                    <heading>0</heading>
                    <Icon id="2289">
                        <href>http://maps.google.com/mapfiles/kml/pushpin/ylw-pushpin.png</href>
                    </Icon>
                </IconStyle>
            </Style>
            <Style id="2292">
                <IconStyle id="2293">
                    <color>ff0000ff</color>
                    <colorMode>normal</colorMode>
                    <scale>1</scale>
                    <heading>0</heading>
                    <Icon id="2294">
                        <href>http://maps.google.com/mapfiles/kml/pushpin/ylw-pushpin.png</href>
                    </Icon>
                </IconStyle>
            </Style>
            <Style id="2297">
                <IconStyle id="2298">
                    <color>ff0000ff</color>
                    <colorMode>normal</colorMode>
                    <scale>1</scale>
                    <heading>0</heading>
                    <Icon id="2299">
                        <href>http://maps.google.com/mapfiles/kml/pushpin/ylw-pushpin.png</href>
                    </Icon>
                </IconStyle>
            </Style>
            <Style id="2302">
                <IconStyle id="2303">
                    <color>ff0000ff</color>
                    <colorMode>normal</colorMode>
                    <scale>1</scale>
                    <heading>0</heading>
                    <Icon id="2304">
                        <href>http://maps.google.com/mapfiles/kml/pushpin/ylw-pushpin.png</href>
                    </Icon>
                </IconStyle>
            </Style>
            <Style id="2307">
                <IconStyle id="2308">
                    <color>ff0000ff</color>
                    <colorMode>normal</colorMode>
                    <scale>1</scale>
                    <heading>0</heading>
                    <Icon id="2309">
                        <href>http://maps.google.com/mapfiles/kml/pushpin/ylw-pushpin.png</href>
                    </Icon>
                </IconStyle>
            </Style>
            <Style id="2312">
                <IconStyle id="2313">
                    <color>ff0000ff</color>
                    <colorMode>normal</colorMode>
                    <scale>1</scale>
                    <heading>0</heading>
                    <Icon id="2314">
                        <href>http://maps.google.com/mapfiles/kml/pushpin/ylw-pushpin.png</href>
                    </Icon>
                </IconStyle>
            </Style>
            <Style id="2317">
                <IconStyle id="2318">
                    <color>ff0000ff</color>
                    <colorMode>normal</colorMode>
                    <scale>1</scale>
                    <heading>0</heading>
                    <Icon id="2319">
                        <href>http://maps.google.com/mapfiles/kml/pushpin/ylw-pushpin.png</href>
                    </Icon>
                </IconStyle>
            </Style>
            <Style id="2322">
                <IconStyle id="2323">
                    <color>ff0000ff</color>
                    <colorMode>normal</colorMode>
                    <scale>1</scale>
                    <heading>0</heading>
                    <Icon id="2324">
                        <href>http://maps.google.com/mapfiles/kml/pushpin/ylw-pushpin.png</href>
                    </Icon>
                </IconStyle>
            </Style>
            <Style id="2327">
                <IconStyle id="2328">
                    <color>ff0000ff</color>
                    <colorMode>normal</colorMode>
                    <scale>1</scale>
                    <heading>0</heading>
                    <Icon id="2329">
                        <href>http://maps.google.com/mapfiles/kml/pushpin/ylw-pushpin.png</href>
                    </Icon>
                </IconStyle>
            </Style>
            <Style id="2332">
                <IconStyle id="2333">
                    <color>ff0000ff</color>
                    <colorMode>normal</colorMode>
                    <scale>1</scale>
                    <heading>0</heading>
                    <Icon id="2334">
                        <href>http://maps.google.com/mapfiles/kml/pushpin/ylw-pushpin.png</href>
                    </Icon>
                </IconStyle>
            </Style>
            <Style id="2337">
                <IconStyle id="2338">
                    <color>ff0000ff</color>
                    <colorMode>normal</colorMode>
                    <scale>1</scale>
                    <heading>0</heading>
                    <Icon id="2339">
                        <href>http://maps.google.com/mapfiles/kml/pushpin/ylw-pushpin.png</href>
                    </Icon>
                </IconStyle>
            </Style>
            <Style id="2342">
                <IconStyle id="2343">
                    <color>ff0000ff</color>
                    <colorMode>normal</colorMode>
                    <scale>1</scale>
                    <heading>0</heading>
                    <Icon id="2344">
                        <href>http://maps.google.com/mapfiles/kml/pushpin/ylw-pushpin.png</href>
                    </Icon>
                </IconStyle>
            </Style>
            <Style id="2347">
                <IconStyle id="2348">
                    <color>ff0000ff</color>
                    <colorMode>normal</colorMode>
                    <scale>1</scale>
                    <heading>0</heading>
                    <Icon id="2349">
                        <href>http://maps.google.com/mapfiles/kml/pushpin/ylw-pushpin.png</href>
                    </Icon>
                </IconStyle>
            </Style>
            <Style id="2352">
                <IconStyle id="2353">
                    <color>ff0000ff</color>
                    <colorMode>normal</colorMode>
                    <scale>1</scale>
                    <heading>0</heading>
                    <Icon id="2354">
                        <href>http://maps.google.com/mapfiles/kml/pushpin/ylw-pushpin.png</href>
                    </Icon>
                </IconStyle>
            </Style>
            <Style id="2357">
                <IconStyle id="2358">
                    <color>ff0000ff</color>
                    <colorMode>normal</colorMode>
                    <scale>1</scale>
                    <heading>0</heading>
                    <Icon id="2359">
                        <href>http://maps.google.com/mapfiles/kml/pushpin/ylw-pushpin.png</href>
                    </Icon>
                </IconStyle>
            </Style>
            <Style id="2362">
                <IconStyle id="2363">
                    <color>ff0000ff</color>
                    <colorMode>normal</colorMode>
                    <scale>1</scale>
                    <heading>0</heading>
                    <Icon id="2364">
                        <href>http://maps.google.com/mapfiles/kml/pushpin/ylw-pushpin.png</href>
                    </Icon>
                </IconStyle>
            </Style>
            <Style id="2367">
                <IconStyle id="2368">
                    <color>ff0000ff</color>
                    <colorMode>normal</colorMode>
                    <scale>1</scale>
                    <heading>0</heading>
                    <Icon id="2369">
                        <href>http://maps.google.com/mapfiles/kml/pushpin/ylw-pushpin.png</href>
                    </Icon>
                </IconStyle>
            </Style>
            <Style id="2372">
                <IconStyle id="2373">
                    <color>ff0000ff</color>
                    <colorMode>normal</colorMode>
                    <scale>1</scale>
                    <heading>0</heading>
                    <Icon id="2374">
                        <href>http://maps.google.com/mapfiles/kml/pushpin/ylw-pushpin.png</href>
                    </Icon>
                </IconStyle>
            </Style>
            <Style id="2377">
                <IconStyle id="2378">
                    <color>ff0000ff</color>
                    <colorMode>normal</colorMode>
                    <scale>1</scale>
                    <heading>0</heading>
                    <Icon id="2379">
                        <href>http://maps.google.com/mapfiles/kml/pushpin/ylw-pushpin.png</href>
                    </Icon>
                </IconStyle>
            </Style>
            <Style id="2382">
                <IconStyle id="2383">
                    <color>ff0000ff</color>
                    <colorMode>normal</colorMode>
                    <scale>1</scale>
                    <heading>0</heading>
                    <Icon id="2384">
                        <href>http://maps.google.com/mapfiles/kml/pushpin/ylw-pushpin.png</href>
                    </Icon>
                </IconStyle>
            </Style>
            <Style id="2387">
                <IconStyle id="2388">
                    <color>ff0000ff</color>
                    <colorMode>normal</colorMode>
                    <scale>1</scale>
                    <heading>0</heading>
                    <Icon id="2389">
                        <href>http://maps.google.com/mapfiles/kml/pushpin/ylw-pushpin.png</href>
                    </Icon>
                </IconStyle>
            </Style>
            <Style id="2392">
                <IconStyle id="2393">
                    <color>ff0000ff</color>
                    <colorMode>normal</colorMode>
                    <scale>1</scale>
                    <heading>0</heading>
                    <Icon id="2394">
                        <href>http://maps.google.com/mapfiles/kml/pushpin/ylw-pushpin.png</href>
                    </Icon>
                </IconStyle>
            </Style>
            <Style id="2397">
                <IconStyle id="2398">
                    <color>ff0000ff</color>
                    <colorMode>normal</colorMode>
                    <scale>1</scale>
                    <heading>0</heading>
                    <Icon id="2399">
                        <href>http://maps.google.com/mapfiles/kml/pushpin/ylw-pushpin.png</href>
                    </Icon>
                </IconStyle>
            </Style>
            <Style id="2402">
                <IconStyle id="2403">
                    <color>ff0000ff</color>
                    <colorMode>normal</colorMode>
                    <scale>1</scale>
                    <heading>0</heading>
                    <Icon id="2404">
                        <href>http://maps.google.com/mapfiles/kml/pushpin/ylw-pushpin.png</href>
                    </Icon>
                </IconStyle>
            </Style>
            <Style id="2407">
                <IconStyle id="2408">
                    <color>ff0000ff</color>
                    <colorMode>normal</colorMode>
                    <scale>1</scale>
                    <heading>0</heading>
                    <Icon id="2409">
                        <href>http://maps.google.com/mapfiles/kml/pushpin/ylw-pushpin.png</href>
                    </Icon>
                </IconStyle>
            </Style>
            <Style id="2412">
                <IconStyle id="2413">
                    <color>ff0000ff</color>
                    <colorMode>normal</colorMode>
                    <scale>1</scale>
                    <heading>0</heading>
                    <Icon id="2414">
                        <href>http://maps.google.com/mapfiles/kml/pushpin/ylw-pushpin.png</href>
                    </Icon>
                </IconStyle>
            </Style>
            <name>WILLIAN ALEJANDRO HERRERA MORAN</name>
            <Placemark id="2241">
                <name>CHAMBA YANAYACO RUBEN YERSON</name>
                <description>CA.CINCO 130
Sullana
Sullana
Piura
Perú</description>
                <styleUrl>#2242</styleUrl>
                <Point id="2240">
                    <coordinates>-80.6823511,-4.8945964,0.0</coordinates>
                </Point>
            </Placemark>
            <Placemark id="2246">
                <name>RUTH NOEMI CHAMBA YANAYACO</name>
                <description>CA. 05 N130 MERCADO SULLANA
Sullana
Sullana
Piura
Perú</description>
                <styleUrl>#2247</styleUrl>
                <Point id="2245">
                    <coordinates>-80.6823754,-4.8945707,0.0</coordinates>
                </Point>
            </Placemark>
            <Placemark id="2251">
                <name>EVELYN CATHERINE SANCHEZ CALLE</name>
                <description>CA PUNO 256 POR LOZADA
Sullana
Sullana
Piura
Perú</description>
                <styleUrl>#2252</styleUrl>
                <Point id="2250">
                    <coordinates>-80.6815815,-4.8909533,0.0</coordinates>
                </Point>
            </Placemark>
            <Placemark id="2256">
                <name>PAREDES AGUIRRE ELIAS DANY</name>
                <description>Mercado buenos aires 100 ref al lado del pollo ricoton
Sullana
Sullana
Piura
Perú</description>
                <styleUrl>#2257</styleUrl>
                <Point id="2255">
                    <coordinates>-80.6823574,-4.894405,0.0</coordinates>
                </Point>
            </Placemark>
            <Placemark id="2261">
                <name>CHAMBA YANAYACO RUBEN YERSON</name>
                <description>CA.CINCO 130
Sullana
Sullana
Piura
Perú</description>
                <styleUrl>#2262</styleUrl>
                <Point id="2260">
                    <coordinates>-80.6823511,-4.8945964,0.0</coordinates>
                </Point>
            </Placemark>
            <Placemark id="2266">
                <name>JUAREZ INFANTE KIARA</name>
                <description>Transv Huancabamba con calle Puno en la esquina bellavista
Sullana
Sullana
Piura
Perú</description>
                <styleUrl>#2267</styleUrl>
                <Point id="2265">
                    <coordinates>-80.6814579,-4.8907071,0.0</coordinates>
                </Point>
            </Placemark>
            <Placemark id="2271">
                <name>CESAR FREDY PAUCAR SUAREZ</name>
                <description>MCDO BELLAVISTA N 79 (FRENTE SEA MIRTHA)
Sullana
Sullana
Piura
Perú</description>
                <styleUrl>#2272</styleUrl>
                <Point id="2270">
                    <coordinates>-80.6823491,-4.893254,0.0</coordinates>
                </Point>
            </Placemark>
            <Placemark id="2276">
                <name>DEDDVI TORRES CORDOVA</name>
                <description>NÂ°105 PLATAFOR. SECC FRUTAS (INT.M
Sullana
Sullana
Piura
Perú</description>
                <styleUrl>#2277</styleUrl>
                <Point id="2275">
                    <coordinates>-80.6823927,-4.8932649,0.0</coordinates>
                </Point>
            </Placemark>
            <Placemark id="2281">
                <name>CESAR FREDY PAUCAR SUAREZ</name>
                <description>MCDO BELLAVISTA N 79 (FRENTE SEA MIRTHA)
Sullana
Sullana
Piura
Perú</description>
                <styleUrl>#2282</styleUrl>
                <Point id="2280">
                    <coordinates>-80.6823491,-4.893254,0.0</coordinates>
                </Point>
            </Placemark>
            <Placemark id="2286">
                <name>MIRTHA CRISANTO CORDOVA DE MORE</name>
                <description>MIRTHA CRISANTO CORDOVA DE MORE
PSTO 106 MCDO BUENOS AIRES
Sullana
Sullana
Piura
Perú</description>
                <styleUrl>#2287</styleUrl>
                <Point id="2285">
                    <coordinates>-80.6823474,-4.8933505,0.0</coordinates>
                </Point>
            </Placemark>
            <Placemark id="2291">
                <name>PABLO CESAR NAVARRO CARMEN</name>
                <description>MERCADO SULLANA puesto 29 mercado buenos aires
Sullana
Sullana
Piura
Perú</description>
                <styleUrl>#2292</styleUrl>
                <Point id="2290">
                    <coordinates>-80.6820886,-4.8959312,0.0</coordinates>
                </Point>
            </Placemark>
            <Placemark id="2296">
                <name>WALT DIVERSERV E.I.R.L.</name>
                <description>WALT DIVERSERV E.I.R.L.
CAL.CINCO NRO. 120 OTR.  MERCADILLO DE SULLANA
Sullana
200601Sullana
Piura
Perú</description>
                <styleUrl>#2297</styleUrl>
                <Point id="2295">
                    <coordinates>-80.6824097,-4.8946666,0.0</coordinates>
                </Point>
            </Placemark>
            <Placemark id="2301">
                <name>VIOLETA PRIETO ASTUDILLO</name>
                <description>Calle cinco 123
Sullana
Sullana
Piura
Perú</description>
                <styleUrl>#2302</styleUrl>
                <Point id="2300">
                    <coordinates>-80.6824213,-4.8946503,0.0</coordinates>
                </Point>
            </Placemark>
            <Placemark id="2306">
                <name>MANUEL BENIGNO GUTIERREZ GALVEZ</name>
                <description>BUENOS AIRES MERCADO SULLANA
Sullana
Sullana
Piura
Perú</description>
                <styleUrl>#2307</styleUrl>
                <Point id="2305">
                    <coordinates>-80.6823981,-4.8946904,0.0</coordinates>
                </Point>
            </Placemark>
            <Placemark id="2311">
                <name>SANTOS JESSICA CASTILLO CORREA</name>
                <description>AV. BUENOS AIRES CUADRA LT 2 MCDO.7
Sullana
Sullana
Piura
Perú</description>
                <styleUrl>#2312</styleUrl>
                <Point id="2310">
                    <coordinates>-80.6823289,-4.8947052,0.0</coordinates>
                </Point>
            </Placemark>
            <Placemark id="2316">
                <name>ROBERTO CARLOS CUCHICHO NAVARRO</name>
                <description>AV BS AIRES 196 MDO SULLANA
Sullana
Sullana
Piura
Perú</description>
                <styleUrl>#2317</styleUrl>
                <Point id="2315">
                    <coordinates>-80.6819442,-4.8950852,0.0</coordinates>
                </Point>
            </Placemark>
            <Placemark id="2321">
                <name>RONALD HUMBERTO PEREZ BUSTAMANTE</name>
                <description>Calle 6  número 118-(buenos aires)
Sullana
Sullana
Piura
Perú</description>
                <styleUrl>#2322</styleUrl>
                <Point id="2320">
                    <coordinates>-80.6823427,-4.8955518,0.0</coordinates>
                </Point>
            </Placemark>
            <Placemark id="2326">
                <name>ELKI CELI HIDALGO</name>
                <description>EXT MCDO S N POR CASTILLO
Sullana
Sullana
Piura
Perú</description>
                <styleUrl>#2327</styleUrl>
                <Point id="2325">
                    <coordinates>-80.68144,-4.8956366,0.0</coordinates>
                </Point>
            </Placemark>
            <Placemark id="2331">
                <name>SEGUNDO JORGE FLORES ALAMEDA</name>
                <description>AV.BUENOS AIRES CDRA.1 PSTO.14
Sullana
Sullana
Piura
Perú</description>
                <styleUrl>#2332</styleUrl>
                <Point id="2330">
                    <coordinates>-80.6815,-4.896058,0.0</coordinates>
                </Point>
            </Placemark>
            <Placemark id="2336">
                <name>PABLO CESAR NAVARRO CARMEN</name>
                <description>MERCADO SULLANA puesto 29 mercado buenos aires
Sullana
Sullana
Piura
Perú</description>
                <styleUrl>#2337</styleUrl>
                <Point id="2335">
                    <coordinates>-80.6820886,-4.8959312,0.0</coordinates>
                </Point>
            </Placemark>
            <Placemark id="2341">
                <name>ABRAHAM MADRID MADRID</name>
                <description>ALMDA B. AIRES MZ NÂ°400 AH.SNTA TE
Sullana
Sullana
Piura
Perú</description>
                <styleUrl>#2342</styleUrl>
                <Point id="2340">
                    <coordinates>-80.6819899,-4.8967773,0.0</coordinates>
                </Point>
            </Placemark>
            <Placemark id="2346">
                <name>MIRANDA SILVA MARIA MARGARITA</name>
                <description>CA.TRES 782
Sullana
Sullana
Piura
Perú</description>
                <styleUrl>#2347</styleUrl>
                <Point id="2345">
                    <coordinates>-80.6881624,-4.9007578,0.0</coordinates>
                </Point>
            </Placemark>
            <Placemark id="2351">
                <name>INGA MARGARITA PURIZACA DE</name>
                <description>BR. BUENOS AIRES 740 CA.3 - SULLANA
Sullana
Sullana
Piura
Perú</description>
                <styleUrl>#2352</styleUrl>
                <Point id="2350">
                    <coordinates>-80.6876706,-4.90027,0.0</coordinates>
                </Point>
            </Placemark>
            <Placemark id="2356">
                <name>RIOS CLAVIJO EDINSON WALTER</name>
                <description>CA.CARLOS LEIGH 523
Sullana
Sullana
Piura
Perú</description>
                <styleUrl>#2357</styleUrl>
                <Point id="2355">
                    <coordinates>-80.6883241,-4.8989235,0.0</coordinates>
                </Point>
            </Placemark>
            <Placemark id="2361">
                <name>KARINA DEL PILAR ALCAS HURTADO</name>
                <description>CA.DOS 813
Sullana
Sullana
Piura
Perú</description>
                <styleUrl>#2362</styleUrl>
                <Point id="2360">
                    <coordinates>-80.686784,-4.898357,0.0</coordinates>
                </Point>
            </Placemark>
            <Placemark id="2366">
                <name>JUANA ESTHER ALARCON YAMUNAQUE</name>
                <description>JUANA ESTHER ALARCON YAMUNAQUE
CA.CUATRO 623 BUENOS AIRES
Sullana
Sullana
Piura
Perú</description>
                <styleUrl>#2367</styleUrl>
                <Point id="2365">
                    <coordinates>-80.6863418,-4.8991006,0.0</coordinates>
                </Point>
            </Placemark>
            <Placemark id="2371">
                <name>MARIA ESPERANZA RAMOS FERNANDEZ</name>
                <description>CA.4 663 SULLANA
Sullana
Sullana
Piura
Perú</description>
                <styleUrl>#2372</styleUrl>
                <Point id="2370">
                    <coordinates>-80.6866704,-4.899477,0.0</coordinates>
                </Point>
            </Placemark>
            <Placemark id="2376">
                <name>LUCY ZELMI INGA PURIZACA</name>
                <description>LUCY ZELMI INGA PURIZACA
CA.4 -622 BS.AS. SULLANA
Sullana
Sullana
Piura
Perú</description>
                <styleUrl>#2377</styleUrl>
                <Point id="2375">
                    <coordinates>-80.6861677,-4.898967,0.0</coordinates>
                </Point>
            </Placemark>
            <Placemark id="2381">
                <name>JUAN JOSE JARAMILLO CELI</name>
                <description>CA.CINCO 617
Sullana
Sullana
Piura
Perú</description>
                <styleUrl>#2382</styleUrl>
                <Point id="2380">
                    <coordinates>-80.6860115,-4.8992682,0.0</coordinates>
                </Point>
            </Placemark>
            <Placemark id="2386">
                <name>CELESTE CRISTINA GOMEZ SHAPIAMA</name>
                <description>CALLE CINCO 855
Sullana
Sullana
Piura
Perú</description>
                <styleUrl>#2387</styleUrl>
                <Point id="2385">
                    <coordinates>-80.687579,-4.9015691,0.0</coordinates>
                </Point>
            </Placemark>
            <Placemark id="2391">
                <name>MARIA MERCEDES BECERRA MACALUPU</name>
                <description>CA.SEIS 772
Sullana
Sullana
Piura
Perú</description>
                <styleUrl>#2392</styleUrl>
                <Point id="2390">
                    <coordinates>-80.6863351,-4.9002435,0.0</coordinates>
                </Point>
            </Placemark>
            <Placemark id="2396">
                <name>MONICA LEIDY LISSET PALACIOS URBINA</name>
                <description>Calle Ocho 803 Barrio Buenos Aires
Sullana
Sullana
Piura
Perú</description>
                <styleUrl>#2397</styleUrl>
                <Point id="2395">
                    <coordinates>-80.6862399,-4.9016536,0.0</coordinates>
                </Point>
            </Placemark>
            <Placemark id="2401">
                <name>MIGUEL ANGEL SILVA YOVERA</name>
                <description>Calle 8 N° 802 BARRIO BUENOS AIRES
Sullana
Sullana
Piura
Perú</description>
                <styleUrl>#2402</styleUrl>
                <Point id="2400">
                    <coordinates>-80.6861862,-4.9017276,0.0</coordinates>
                </Point>
            </Placemark>
            <Placemark id="2406">
                <name>ELVIRA LETICIA BALCAZAR DE ATOCHE</name>
                <description>calle Ocho 708 Barrio Buenos Aires
Sullana
Sullana
Piura
Perú</description>
                <styleUrl>#2407</styleUrl>
                <Point id="2405">
                    <coordinates>-80.6854661,-4.9006913,0.0</coordinates>
                </Point>
            </Placemark>
            <Placemark id="2411">
                <name>ROSA AMELIA NIMA ADANAQUE</name>
                <description>CA.NUEVE NÂ°899 BR BUENOS AIRES-SUL
Sullana
Sullana
Piura
Perú</description>
                <styleUrl>#2412</styleUrl>
                <Point id="2410">
                    <coordinates>-80.6869868,-4.9032284,0.0</coordinates>
                </Point>
            </Placemark>
        </Folder>
    </Document>
</kml>
