<?xml version="1.0" encoding="UTF-8"?>
<kml xmlns="http://www.opengis.net/kml/2.2" xmlns:gx="http://www.google.com/kml/ext/2.2">
    <Document id="1503">
        <Folder id="1504">
            <Style id="1507">
                <IconStyle id="1508">
                    <color>ff0000ff</color>
                    <colorMode>normal</colorMode>
                    <scale>1</scale>
                    <heading>0</heading>
                    <Icon id="1509">
                        <href>http://maps.google.com/mapfiles/kml/pushpin/ylw-pushpin.png</href>
                    </Icon>
                </IconStyle>
            </Style>
            <Style id="1512">
                <IconStyle id="1513">
                    <color>ff0000ff</color>
                    <colorMode>normal</colorMode>
                    <scale>1</scale>
                    <heading>0</heading>
                    <Icon id="1514">
                        <href>http://maps.google.com/mapfiles/kml/pushpin/ylw-pushpin.png</href>
                    </Icon>
                </IconStyle>
            </Style>
            <Style id="1517">
                <IconStyle id="1518">
                    <color>ff0000ff</color>
                    <colorMode>normal</colorMode>
                    <scale>1</scale>
                    <heading>0</heading>
                    <Icon id="1519">
                        <href>http://maps.google.com/mapfiles/kml/pushpin/ylw-pushpin.png</href>
                    </Icon>
                </IconStyle>
            </Style>
            <Style id="1522">
                <IconStyle id="1523">
                    <color>ff0000ff</color>
                    <colorMode>normal</colorMode>
                    <scale>1</scale>
                    <heading>0</heading>
                    <Icon id="1524">
                        <href>http://maps.google.com/mapfiles/kml/pushpin/ylw-pushpin.png</href>
                    </Icon>
                </IconStyle>
            </Style>
            <Style id="1527">
                <IconStyle id="1528">
                    <color>ff0000ff</color>
                    <colorMode>normal</colorMode>
                    <scale>1</scale>
                    <heading>0</heading>
                    <Icon id="1529">
                        <href>http://maps.google.com/mapfiles/kml/pushpin/ylw-pushpin.png</href>
                    </Icon>
                </IconStyle>
            </Style>
            <Style id="1532">
                <IconStyle id="1533">
                    <color>ff0000ff</color>
                    <colorMode>normal</colorMode>
                    <scale>1</scale>
                    <heading>0</heading>
                    <Icon id="1534">
                        <href>http://maps.google.com/mapfiles/kml/pushpin/ylw-pushpin.png</href>
                    </Icon>
                </IconStyle>
            </Style>
            <Style id="1537">
                <IconStyle id="1538">
                    <color>ff0000ff</color>
                    <colorMode>normal</colorMode>
                    <scale>1</scale>
                    <heading>0</heading>
                    <Icon id="1539">
                        <href>http://maps.google.com/mapfiles/kml/pushpin/ylw-pushpin.png</href>
                    </Icon>
                </IconStyle>
            </Style>
            <Style id="1542">
                <IconStyle id="1543">
                    <color>ff0000ff</color>
                    <colorMode>normal</colorMode>
                    <scale>1</scale>
                    <heading>0</heading>
                    <Icon id="1544">
                        <href>http://maps.google.com/mapfiles/kml/pushpin/ylw-pushpin.png</href>
                    </Icon>
                </IconStyle>
            </Style>
            <Style id="1547">
                <IconStyle id="1548">
                    <color>ff0000ff</color>
                    <colorMode>normal</colorMode>
                    <scale>1</scale>
                    <heading>0</heading>
                    <Icon id="1549">
                        <href>http://maps.google.com/mapfiles/kml/pushpin/ylw-pushpin.png</href>
                    </Icon>
                </IconStyle>
            </Style>
            <Style id="1552">
                <IconStyle id="1553">
                    <color>ff0000ff</color>
                    <colorMode>normal</colorMode>
                    <scale>1</scale>
                    <heading>0</heading>
                    <Icon id="1554">
                        <href>http://maps.google.com/mapfiles/kml/pushpin/ylw-pushpin.png</href>
                    </Icon>
                </IconStyle>
            </Style>
            <Style id="1557">
                <IconStyle id="1558">
                    <color>ff0000ff</color>
                    <colorMode>normal</colorMode>
                    <scale>1</scale>
                    <heading>0</heading>
                    <Icon id="1559">
                        <href>http://maps.google.com/mapfiles/kml/pushpin/ylw-pushpin.png</href>
                    </Icon>
                </IconStyle>
            </Style>
            <Style id="1562">
                <IconStyle id="1563">
                    <color>ff0000ff</color>
                    <colorMode>normal</colorMode>
                    <scale>1</scale>
                    <heading>0</heading>
                    <Icon id="1564">
                        <href>http://maps.google.com/mapfiles/kml/pushpin/ylw-pushpin.png</href>
                    </Icon>
                </IconStyle>
            </Style>
            <Style id="1567">
                <IconStyle id="1568">
                    <color>ff0000ff</color>
                    <colorMode>normal</colorMode>
                    <scale>1</scale>
                    <heading>0</heading>
                    <Icon id="1569">
                        <href>http://maps.google.com/mapfiles/kml/pushpin/ylw-pushpin.png</href>
                    </Icon>
                </IconStyle>
            </Style>
            <Style id="1572">
                <IconStyle id="1573">
                    <color>ff0000ff</color>
                    <colorMode>normal</colorMode>
                    <scale>1</scale>
                    <heading>0</heading>
                    <Icon id="1574">
                        <href>http://maps.google.com/mapfiles/kml/pushpin/ylw-pushpin.png</href>
                    </Icon>
                </IconStyle>
            </Style>
            <Style id="1577">
                <IconStyle id="1578">
                    <color>ff0000ff</color>
                    <colorMode>normal</colorMode>
                    <scale>1</scale>
                    <heading>0</heading>
                    <Icon id="1579">
                        <href>http://maps.google.com/mapfiles/kml/pushpin/ylw-pushpin.png</href>
                    </Icon>
                </IconStyle>
            </Style>
            <Style id="1582">
                <IconStyle id="1583">
                    <color>ff0000ff</color>
                    <colorMode>normal</colorMode>
                    <scale>1</scale>
                    <heading>0</heading>
                    <Icon id="1584">
                        <href>http://maps.google.com/mapfiles/kml/pushpin/ylw-pushpin.png</href>
                    </Icon>
                </IconStyle>
            </Style>
            <Style id="1587">
                <IconStyle id="1588">
                    <color>ff0000ff</color>
                    <colorMode>normal</colorMode>
                    <scale>1</scale>
                    <heading>0</heading>
                    <Icon id="1589">
                        <href>http://maps.google.com/mapfiles/kml/pushpin/ylw-pushpin.png</href>
                    </Icon>
                </IconStyle>
            </Style>
            <Style id="1592">
                <IconStyle id="1593">
                    <color>ff0000ff</color>
                    <colorMode>normal</colorMode>
                    <scale>1</scale>
                    <heading>0</heading>
                    <Icon id="1594">
                        <href>http://maps.google.com/mapfiles/kml/pushpin/ylw-pushpin.png</href>
                    </Icon>
                </IconStyle>
            </Style>
            <Style id="1597">
                <IconStyle id="1598">
                    <color>ff0000ff</color>
                    <colorMode>normal</colorMode>
                    <scale>1</scale>
                    <heading>0</heading>
                    <Icon id="1599">
                        <href>http://maps.google.com/mapfiles/kml/pushpin/ylw-pushpin.png</href>
                    </Icon>
                </IconStyle>
            </Style>
            <Style id="1602">
                <IconStyle id="1603">
                    <color>ff0000ff</color>
                    <colorMode>normal</colorMode>
                    <scale>1</scale>
                    <heading>0</heading>
                    <Icon id="1604">
                        <href>http://maps.google.com/mapfiles/kml/pushpin/ylw-pushpin.png</href>
                    </Icon>
                </IconStyle>
            </Style>
            <Style id="1607">
                <IconStyle id="1608">
                    <color>ff0000ff</color>
                    <colorMode>normal</colorMode>
                    <scale>1</scale>
                    <heading>0</heading>
                    <Icon id="1609">
                        <href>http://maps.google.com/mapfiles/kml/pushpin/ylw-pushpin.png</href>
                    </Icon>
                </IconStyle>
            </Style>
            <Style id="1612">
                <IconStyle id="1613">
                    <color>ff0000ff</color>
                    <colorMode>normal</colorMode>
                    <scale>1</scale>
                    <heading>0</heading>
                    <Icon id="1614">
                        <href>http://maps.google.com/mapfiles/kml/pushpin/ylw-pushpin.png</href>
                    </Icon>
                </IconStyle>
            </Style>
            <Style id="1617">
                <IconStyle id="1618">
                    <color>ff0000ff</color>
                    <colorMode>normal</colorMode>
                    <scale>1</scale>
                    <heading>0</heading>
                    <Icon id="1619">
                        <href>http://maps.google.com/mapfiles/kml/pushpin/ylw-pushpin.png</href>
                    </Icon>
                </IconStyle>
            </Style>
            <Style id="1622">
                <IconStyle id="1623">
                    <color>ff0000ff</color>
                    <colorMode>normal</colorMode>
                    <scale>1</scale>
                    <heading>0</heading>
                    <Icon id="1624">
                        <href>http://maps.google.com/mapfiles/kml/pushpin/ylw-pushpin.png</href>
                    </Icon>
                </IconStyle>
            </Style>
            <Style id="1627">
                <IconStyle id="1628">
                    <color>ff0000ff</color>
                    <colorMode>normal</colorMode>
                    <scale>1</scale>
                    <heading>0</heading>
                    <Icon id="1629">
                        <href>http://maps.google.com/mapfiles/kml/pushpin/ylw-pushpin.png</href>
                    </Icon>
                </IconStyle>
            </Style>
            <Style id="1632">
                <IconStyle id="1633">
                    <color>ff0000ff</color>
                    <colorMode>normal</colorMode>
                    <scale>1</scale>
                    <heading>0</heading>
                    <Icon id="1634">
                        <href>http://maps.google.com/mapfiles/kml/pushpin/ylw-pushpin.png</href>
                    </Icon>
                </IconStyle>
            </Style>
            <Style id="1637">
                <IconStyle id="1638">
                    <color>ff0000ff</color>
                    <colorMode>normal</colorMode>
                    <scale>1</scale>
                    <heading>0</heading>
                    <Icon id="1639">
                        <href>http://maps.google.com/mapfiles/kml/pushpin/ylw-pushpin.png</href>
                    </Icon>
                </IconStyle>
            </Style>
            <Style id="1642">
                <IconStyle id="1643">
                    <color>ff0000ff</color>
                    <colorMode>normal</colorMode>
                    <scale>1</scale>
                    <heading>0</heading>
                    <Icon id="1644">
                        <href>http://maps.google.com/mapfiles/kml/pushpin/ylw-pushpin.png</href>
                    </Icon>
                </IconStyle>
            </Style>
            <Style id="1647">
                <IconStyle id="1648">
                    <color>ff0000ff</color>
                    <colorMode>normal</colorMode>
                    <scale>1</scale>
                    <heading>0</heading>
                    <Icon id="1649">
                        <href>http://maps.google.com/mapfiles/kml/pushpin/ylw-pushpin.png</href>
                    </Icon>
                </IconStyle>
            </Style>
            <Style id="1652">
                <IconStyle id="1653">
                    <color>ff0000ff</color>
                    <colorMode>normal</colorMode>
                    <scale>1</scale>
                    <heading>0</heading>
                    <Icon id="1654">
                        <href>http://maps.google.com/mapfiles/kml/pushpin/ylw-pushpin.png</href>
                    </Icon>
                </IconStyle>
            </Style>
            <Style id="1657">
                <IconStyle id="1658">
                    <color>ff0000ff</color>
                    <colorMode>normal</colorMode>
                    <scale>1</scale>
                    <heading>0</heading>
                    <Icon id="1659">
                        <href>http://maps.google.com/mapfiles/kml/pushpin/ylw-pushpin.png</href>
                    </Icon>
                </IconStyle>
            </Style>
            <Style id="1662">
                <IconStyle id="1663">
                    <color>ff0000ff</color>
                    <colorMode>normal</colorMode>
                    <scale>1</scale>
                    <heading>0</heading>
                    <Icon id="1664">
                        <href>http://maps.google.com/mapfiles/kml/pushpin/ylw-pushpin.png</href>
                    </Icon>
                </IconStyle>
            </Style>
            <name>CRISTHIAN ALEXANDER ALVARADO GONZALES</name>
            <Placemark id="1506">
                <name>INVERSIONES SANTA INKA E.I.R.L.</name>
                <description>INVERSIONES SANTA INKA E.I.R.L.
CA.TARAPACA 390
Sullana
200601Sullana
Piura
Perú</description>
                <styleUrl>#1507</styleUrl>
                <Point id="1505">
                    <coordinates>-80.6879201,-4.8911143,0.0</coordinates>
                </Point>
            </Placemark>
            <Placemark id="1511">
                <name>WILMER CULQUI REYES</name>
                <description>SUCRE 999 SULLANA
Sullana
Sullana
Piura
Perú</description>
                <styleUrl>#1512</styleUrl>
                <Point id="1510">
                    <coordinates>-80.6920248,-4.8949657,0.0</coordinates>
                </Point>
            </Placemark>
            <Placemark id="1516">
                <name>TEODORO DE LA CRUZ CUZCANO</name>
                <description>CALLE BOLIVAR N 548 - SULLANA
Sullana
Sullana
Piura
Perú</description>
                <styleUrl>#1517</styleUrl>
                <Point id="1515">
                    <coordinates>-80.6912314,-4.8935478,0.0</coordinates>
                </Point>
            </Placemark>
            <Placemark id="1521">
                <name>ROSA SOLEDAD PALACIOS SAAVEDRA</name>
                <description>ROSA SOLEDAD PALACIOS SAAVEDRA
CA.GRAU 782 SULLANA
Sullana
Sullana
Piura
Perú</description>
                <styleUrl>#1522</styleUrl>
                <Point id="1520">
                    <coordinates>-80.686748,-4.892252,0.0</coordinates>
                </Point>
            </Placemark>
            <Placemark id="1526">
                <name>INVERSIONES SANTA INKA E.I.R.L.</name>
                <description>INVERSIONES SANTA INKA E.I.R.L.
CA.TARAPACA 390
Sullana
200601Sullana
Piura
Perú</description>
                <styleUrl>#1527</styleUrl>
                <Point id="1525">
                    <coordinates>-80.6879201,-4.8911143,0.0</coordinates>
                </Point>
            </Placemark>
            <Placemark id="1531">
                <name>JORGE LUIS YAMUNAQUE BARRIENTOS</name>
                <description>CA.ALFONSO UGARTE 995
Sullana
Sullana
Piura
Perú</description>
                <styleUrl>#1532</styleUrl>
                <Point id="1530">
                    <coordinates>-80.688217,-4.8943357,0.0</coordinates>
                </Point>
            </Placemark>
            <Placemark id="1536">
                <name>JUANA LUZ RIVAS CHORRES</name>
                <description>JUANA LUZ RIVAS CHORRES
TRANSVERS.LIMA 812 SULLANA
Sullana
Sullana
Piura
Perú</description>
                <styleUrl>#1537</styleUrl>
                <Point id="1535">
                    <coordinates>-80.6869514,-4.8938622,0.0</coordinates>
                </Point>
            </Placemark>
            <Placemark id="1541">
                <name>NOLE HERRERA ALBINA MILAGROS</name>
                <description>CA.J.J FARFAN  409
Sullana
Sullana
Piura
Perú</description>
                <styleUrl>#1542</styleUrl>
                <Point id="1540">
                    <coordinates>-80.6871221,-4.8937374,0.0</coordinates>
                </Point>
            </Placemark>
            <Placemark id="1546">
                <name>MANUELA FRANCISCA ZAPATA DE OLAYA</name>
                <description>CALLE LEONCIO PRADO 157
Sullana
Sullana
Piura
Perú</description>
                <styleUrl>#1547</styleUrl>
                <Point id="1545">
                    <coordinates>-80.6884783,-4.8930782,0.0</coordinates>
                </Point>
            </Placemark>
            <Placemark id="1551">
                <name>MARIA JOAQUINA SALAS CASTILLO</name>
                <description>MARIA JOAQUINA SALAS CASTILLO
CA.MIGUEL GRAU 903
Sullana
Sullana
Piura
Perú</description>
                <styleUrl>#1552</styleUrl>
                <Point id="1550">
                    <coordinates>-80.6875895,-4.893164,0.0</coordinates>
                </Point>
            </Placemark>
            <Placemark id="1556">
                <name>CALDERON VIERA GRACIELA</name>
                <description>ESPINAR 972
Sullana
Sullana
Piura
Perú</description>
                <styleUrl>#1557</styleUrl>
                <Point id="1555">
                    <coordinates>-80.6915918,-4.8983268,0.0</coordinates>
                </Point>
            </Placemark>
            <Placemark id="1561">
                <name>MORENO KITMANG LORGIO ANTONIO</name>
                <description>Calle José lama 141 al costado del colegio San Juan
Sullana
Sullana
Piura
Perú</description>
                <styleUrl>#1562</styleUrl>
                <Point id="1560">
                    <coordinates>-80.6860009,-4.8933564,0.0</coordinates>
                </Point>
            </Placemark>
            <Placemark id="1566">
                <name>LUIS ALBERTO ESPINOZA SALAZAR</name>
                <description>Calle Eduardo Vázquez 114
Sullana
Sullana
Piura
Perú</description>
                <styleUrl>#1567</styleUrl>
                <Point id="1565">
                    <coordinates>-80.6900688,-4.8947112,0.0</coordinates>
                </Point>
            </Placemark>
            <Placemark id="1571">
                <name>KARINA VIVIANA LEON CORREA</name>
                <description>CA.ALFONSO UGARTE  1344
Sullana
Sullana
Piura
Perú</description>
                <styleUrl>#1572</styleUrl>
                <Point id="1570">
                    <coordinates>-80.6905589,-4.8967113,0.0</coordinates>
                </Point>
            </Placemark>
            <Placemark id="1576">
                <name>ATOCHE FLORES NANCY ERIS</name>
                <description>TRAV.TACNA 851 SULLANA
Sullana
Sullana
Piura
Perú</description>
                <styleUrl>#1577</styleUrl>
                <Point id="1575">
                    <coordinates>-80.690078,-4.897478,0.0</coordinates>
                </Point>
            </Placemark>
            <Placemark id="1581">
                <name>MARIA LUISA CORONADO SERNAQUE</name>
                <description>MARIA LUISA CORONADO SERNAQUE
TRANSVERSAL. ARICA. 715 SULLANA
Sullana
Sullana
Piura
Perú</description>
                <styleUrl>#1582</styleUrl>
                <Point id="1580">
                    <coordinates>-80.6906586,-4.8974153,0.0</coordinates>
                </Point>
            </Placemark>
            <Placemark id="1586">
                <name>VEGA RIVERA MARIA CRISTINA</name>
                <description>UGARTE 1526
Sullana
Sullana
Piura
Perú</description>
                <styleUrl>#1587</styleUrl>
                <Point id="1585">
                    <coordinates>-80.692624,-4.898672,0.0</coordinates>
                </Point>
            </Placemark>
            <Placemark id="1591">
                <name>LIDIA PINTADO CHUQUIGUANCA</name>
                <description>ALFONSO UGARTE 1652 - SULLANA
Sullana
Sullana
Piura
Perú</description>
                <styleUrl>#1592</styleUrl>
                <Point id="1590">
                    <coordinates>-80.6935046,-4.8992567,0.0</coordinates>
                </Point>
            </Placemark>
            <Placemark id="1596">
                <name>FLORA SALDARRIAGA RIVERA</name>
                <description>CA.GRAU 1521 SULLANA
Sullana
Sullana
Piura
Perú</description>
                <styleUrl>#1597</styleUrl>
                <Point id="1595">
                    <coordinates>-80.6925662,-4.8978442,0.0</coordinates>
                </Point>
            </Placemark>
            <Placemark id="1601">
                <name>URBINA URBINA SANTOS</name>
                <description>CA.EDUARDO VASQUEZ 701
Sullana
Sullana
Piura
Perú</description>
                <styleUrl>#1602</styleUrl>
                <Point id="1600">
                    <coordinates>-80.6938874,-4.8981096,0.0</coordinates>
                </Point>
            </Placemark>
            <Placemark id="1606">
                <name>ELSA MERCEDES CURAY TOCTO</name>
                <description>ELSA MERCEDES CURAY TOCTO
CA. SUCRE NRO. 1292 - SULLANA
Sullana
Sullana
Piura
Perú</description>
                <styleUrl>#1607</styleUrl>
                <Point id="1605">
                    <coordinates>-80.694709,-4.89695,0.0</coordinates>
                </Point>
            </Placemark>
            <Placemark id="1611">
                <name>WILMER CULQUI REYES</name>
                <description>SUCRE 999 SULLANA
Sullana
Sullana
Piura
Perú</description>
                <styleUrl>#1612</styleUrl>
                <Point id="1610">
                    <coordinates>-80.6920248,-4.8949657,0.0</coordinates>
                </Point>
            </Placemark>
            <Placemark id="1616">
                <name>VIOLETA CALDERON SAAVEDRA</name>
                <description>SUCRE 1298 SULLANA
Sullana
Sullana
Piura
Perú</description>
                <styleUrl>#1617</styleUrl>
                <Point id="1615">
                    <coordinates>-80.6950883,-4.8971645,0.0</coordinates>
                </Point>
            </Placemark>
            <Placemark id="1621">
                <name>TEODORO DE LA CRUZ CUZCANO</name>
                <description>CALLE BOLIVAR N 548 - SULLANA
Sullana
Sullana
Piura
Perú</description>
                <styleUrl>#1622</styleUrl>
                <Point id="1620">
                    <coordinates>-80.6912314,-4.8935478,0.0</coordinates>
                </Point>
            </Placemark>
            <Placemark id="1626">
                <name>YANE ROSANA TIMANA GARAY</name>
                <description>Calle Bolívar 480
Sullana
Sullana
Piura
Perú</description>
                <styleUrl>#1627</styleUrl>
                <Point id="1625">
                    <coordinates>-80.690677,-4.8930692,0.0</coordinates>
                </Point>
            </Placemark>
            <Placemark id="1631">
                <name>TRINIDAD URBINA CASTRO</name>
                <description>CA.UGARTECHE 502
Sullana
Sullana
Piura
Perú</description>
                <styleUrl>#1632</styleUrl>
                <Point id="1630">
                    <coordinates>-80.685618,-4.889318,0.0</coordinates>
                </Point>
            </Placemark>
            <Placemark id="1636">
                <name>GESBY KAROL TALLEDO SOBRINO</name>
                <description>GESBY KAROL TALLEDO SOBRINO
UGARTERCHE 469
Sullana
Sullana
Piura
Perú</description>
                <styleUrl>#1637</styleUrl>
                <Point id="1635">
                    <coordinates>-80.6852714,-4.8891084,0.0</coordinates>
                </Point>
            </Placemark>
            <Placemark id="1641">
                <name>ADA KAROL RODRIGUEZ NUÑEZ</name>
                <description>CA.UGARTECHE 203 BARRIO NORTE - SUL
Sullana
Sullana
Piura
Perú</description>
                <styleUrl>#1642</styleUrl>
                <Point id="1640">
                    <coordinates>-80.6838663,-4.8875205,0.0</coordinates>
                </Point>
            </Placemark>
            <Placemark id="1646">
                <name>FLOR ESTELA CASTILLO GARCIA</name>
                <description>CA.MORROPON MZ.C LT.2
Sullana
Sullana
Piura
Perú</description>
                <styleUrl>#1647</styleUrl>
                <Point id="1645">
                    <coordinates>-80.684038,-4.8866556,0.0</coordinates>
                </Point>
            </Placemark>
            <Placemark id="1651">
                <name>KATHERINEE PAMELA ORDINOLA ATO</name>
                <description>Barrio norte MZ B LT 45
Sullana

Piura
Perú</description>
                <styleUrl>#1652</styleUrl>
                <Point id="1650">
                    <coordinates>-80.6811726,-4.8855128,0.0</coordinates>
                </Point>
            </Placemark>
            <Placemark id="1656">
                <name>MORALES CALLE ANYEL MARIA CAROLINA</name>
                <description>MORALES CALLE ANYEL MARIA CAROLINA
PRLG.SALAVERRY 440 A-3
Sullana
Sullana
Piura
Perú</description>
                <styleUrl>#1657</styleUrl>
                <Point id="1655">
                    <coordinates>-80.6828765,-4.8865005,0.0</coordinates>
                </Point>
            </Placemark>
            <Placemark id="1661">
                <name>ELSA RODRIGUEZ ROSALES</name>
                <description>CA.GRAU
Sullana
Sullana
Piura
Perú</description>
                <styleUrl>#1662</styleUrl>
                <Point id="1660">
                    <coordinates>-80.6843467,-4.8896087,0.0</coordinates>
                </Point>
            </Placemark>
        </Folder>
        <Folder id="1665">
            <Style id="1668">
                <IconStyle id="1669">
                    <color>ffff0000</color>
                    <colorMode>normal</colorMode>
                    <scale>1</scale>
                    <heading>0</heading>
                    <Icon id="1670">
                        <href>http://maps.google.com/mapfiles/kml/pushpin/ylw-pushpin.png</href>
                    </Icon>
                </IconStyle>
            </Style>
            <Style id="1673">
                <IconStyle id="1674">
                    <color>ffff0000</color>
                    <colorMode>normal</colorMode>
                    <scale>1</scale>
                    <heading>0</heading>
                    <Icon id="1675">
                        <href>http://maps.google.com/mapfiles/kml/pushpin/ylw-pushpin.png</href>
                    </Icon>
                </IconStyle>
            </Style>
            <Style id="1678">
                <IconStyle id="1679">
                    <color>ffff0000</color>
                    <colorMode>normal</colorMode>
                    <scale>1</scale>
                    <heading>0</heading>
                    <Icon id="1680">
                        <href>http://maps.google.com/mapfiles/kml/pushpin/ylw-pushpin.png</href>
                    </Icon>
                </IconStyle>
            </Style>
            <Style id="1683">
                <IconStyle id="1684">
                    <color>ffff0000</color>
                    <colorMode>normal</colorMode>
                    <scale>1</scale>
                    <heading>0</heading>
                    <Icon id="1685">
                        <href>http://maps.google.com/mapfiles/kml/pushpin/ylw-pushpin.png</href>
                    </Icon>
                </IconStyle>
            </Style>
            <Style id="1688">
                <IconStyle id="1689">
                    <color>ffff0000</color>
                    <colorMode>normal</colorMode>
                    <scale>1</scale>
                    <heading>0</heading>
                    <Icon id="1690">
                        <href>http://maps.google.com/mapfiles/kml/pushpin/ylw-pushpin.png</href>
                    </Icon>
                </IconStyle>
            </Style>
            <Style id="1693">
                <IconStyle id="1694">
                    <color>ffff0000</color>
                    <colorMode>normal</colorMode>
                    <scale>1</scale>
                    <heading>0</heading>
                    <Icon id="1695">
                        <href>http://maps.google.com/mapfiles/kml/pushpin/ylw-pushpin.png</href>
                    </Icon>
                </IconStyle>
            </Style>
            <Style id="1698">
                <IconStyle id="1699">
                    <color>ffff0000</color>
                    <colorMode>normal</colorMode>
                    <scale>1</scale>
                    <heading>0</heading>
                    <Icon id="1700">
                        <href>http://maps.google.com/mapfiles/kml/pushpin/ylw-pushpin.png</href>
                    </Icon>
                </IconStyle>
            </Style>
            <Style id="1703">
                <IconStyle id="1704">
                    <color>ffff0000</color>
                    <colorMode>normal</colorMode>
                    <scale>1</scale>
                    <heading>0</heading>
                    <Icon id="1705">
                        <href>http://maps.google.com/mapfiles/kml/pushpin/ylw-pushpin.png</href>
                    </Icon>
                </IconStyle>
            </Style>
            <Style id="1708">
                <IconStyle id="1709">
                    <color>ffff0000</color>
                    <colorMode>normal</colorMode>
                    <scale>1</scale>
                    <heading>0</heading>
                    <Icon id="1710">
                        <href>http://maps.google.com/mapfiles/kml/pushpin/ylw-pushpin.png</href>
                    </Icon>
                </IconStyle>
            </Style>
            <Style id="1713">
                <IconStyle id="1714">
                    <color>ffff0000</color>
                    <colorMode>normal</colorMode>
                    <scale>1</scale>
                    <heading>0</heading>
                    <Icon id="1715">
                        <href>http://maps.google.com/mapfiles/kml/pushpin/ylw-pushpin.png</href>
                    </Icon>
                </IconStyle>
            </Style>
            <Style id="1718">
                <IconStyle id="1719">
                    <color>ffff0000</color>
                    <colorMode>normal</colorMode>
                    <scale>1</scale>
                    <heading>0</heading>
                    <Icon id="1720">
                        <href>http://maps.google.com/mapfiles/kml/pushpin/ylw-pushpin.png</href>
                    </Icon>
                </IconStyle>
            </Style>
            <Style id="1723">
                <IconStyle id="1724">
                    <color>ffff0000</color>
                    <colorMode>normal</colorMode>
                    <scale>1</scale>
                    <heading>0</heading>
                    <Icon id="1725">
                        <href>http://maps.google.com/mapfiles/kml/pushpin/ylw-pushpin.png</href>
                    </Icon>
                </IconStyle>
            </Style>
            <Style id="1728">
                <IconStyle id="1729">
                    <color>ffff0000</color>
                    <colorMode>normal</colorMode>
                    <scale>1</scale>
                    <heading>0</heading>
                    <Icon id="1730">
                        <href>http://maps.google.com/mapfiles/kml/pushpin/ylw-pushpin.png</href>
                    </Icon>
                </IconStyle>
            </Style>
            <Style id="1733">
                <IconStyle id="1734">
                    <color>ffff0000</color>
                    <colorMode>normal</colorMode>
                    <scale>1</scale>
                    <heading>0</heading>
                    <Icon id="1735">
                        <href>http://maps.google.com/mapfiles/kml/pushpin/ylw-pushpin.png</href>
                    </Icon>
                </IconStyle>
            </Style>
            <Style id="1738">
                <IconStyle id="1739">
                    <color>ffff0000</color>
                    <colorMode>normal</colorMode>
                    <scale>1</scale>
                    <heading>0</heading>
                    <Icon id="1740">
                        <href>http://maps.google.com/mapfiles/kml/pushpin/ylw-pushpin.png</href>
                    </Icon>
                </IconStyle>
            </Style>
            <Style id="1743">
                <IconStyle id="1744">
                    <color>ffff0000</color>
                    <colorMode>normal</colorMode>
                    <scale>1</scale>
                    <heading>0</heading>
                    <Icon id="1745">
                        <href>http://maps.google.com/mapfiles/kml/pushpin/ylw-pushpin.png</href>
                    </Icon>
                </IconStyle>
            </Style>
            <Style id="1748">
                <IconStyle id="1749">
                    <color>ffff0000</color>
                    <colorMode>normal</colorMode>
                    <scale>1</scale>
                    <heading>0</heading>
                    <Icon id="1750">
                        <href>http://maps.google.com/mapfiles/kml/pushpin/ylw-pushpin.png</href>
                    </Icon>
                </IconStyle>
            </Style>
            <Style id="1753">
                <IconStyle id="1754">
                    <color>ffff0000</color>
                    <colorMode>normal</colorMode>
                    <scale>1</scale>
                    <heading>0</heading>
                    <Icon id="1755">
                        <href>http://maps.google.com/mapfiles/kml/pushpin/ylw-pushpin.png</href>
                    </Icon>
                </IconStyle>
            </Style>
            <Style id="1758">
                <IconStyle id="1759">
                    <color>ffff0000</color>
                    <colorMode>normal</colorMode>
                    <scale>1</scale>
                    <heading>0</heading>
                    <Icon id="1760">
                        <href>http://maps.google.com/mapfiles/kml/pushpin/ylw-pushpin.png</href>
                    </Icon>
                </IconStyle>
            </Style>
            <Style id="1763">
                <IconStyle id="1764">
                    <color>ffff0000</color>
                    <colorMode>normal</colorMode>
                    <scale>1</scale>
                    <heading>0</heading>
                    <Icon id="1765">
                        <href>http://maps.google.com/mapfiles/kml/pushpin/ylw-pushpin.png</href>
                    </Icon>
                </IconStyle>
            </Style>
            <Style id="1768">
                <IconStyle id="1769">
                    <color>ffff0000</color>
                    <colorMode>normal</colorMode>
                    <scale>1</scale>
                    <heading>0</heading>
                    <Icon id="1770">
                        <href>http://maps.google.com/mapfiles/kml/pushpin/ylw-pushpin.png</href>
                    </Icon>
                </IconStyle>
            </Style>
            <Style id="1773">
                <IconStyle id="1774">
                    <color>ffff0000</color>
                    <colorMode>normal</colorMode>
                    <scale>1</scale>
                    <heading>0</heading>
                    <Icon id="1775">
                        <href>http://maps.google.com/mapfiles/kml/pushpin/ylw-pushpin.png</href>
                    </Icon>
                </IconStyle>
            </Style>
            <Style id="1778">
                <IconStyle id="1779">
                    <color>ffff0000</color>
                    <colorMode>normal</colorMode>
                    <scale>1</scale>
                    <heading>0</heading>
                    <Icon id="1780">
                        <href>http://maps.google.com/mapfiles/kml/pushpin/ylw-pushpin.png</href>
                    </Icon>
                </IconStyle>
            </Style>
            <Style id="1783">
                <IconStyle id="1784">
                    <color>ffff0000</color>
                    <colorMode>normal</colorMode>
                    <scale>1</scale>
                    <heading>0</heading>
                    <Icon id="1785">
                        <href>http://maps.google.com/mapfiles/kml/pushpin/ylw-pushpin.png</href>
                    </Icon>
                </IconStyle>
            </Style>
            <Style id="1788">
                <IconStyle id="1789">
                    <color>ffff0000</color>
                    <colorMode>normal</colorMode>
                    <scale>1</scale>
                    <heading>0</heading>
                    <Icon id="1790">
                        <href>http://maps.google.com/mapfiles/kml/pushpin/ylw-pushpin.png</href>
                    </Icon>
                </IconStyle>
            </Style>
            <Style id="1793">
                <IconStyle id="1794">
                    <color>ffff0000</color>
                    <colorMode>normal</colorMode>
                    <scale>1</scale>
                    <heading>0</heading>
                    <Icon id="1795">
                        <href>http://maps.google.com/mapfiles/kml/pushpin/ylw-pushpin.png</href>
                    </Icon>
                </IconStyle>
            </Style>
            <Style id="1798">
                <IconStyle id="1799">
                    <color>ffff0000</color>
                    <colorMode>normal</colorMode>
                    <scale>1</scale>
                    <heading>0</heading>
                    <Icon id="1800">
                        <href>http://maps.google.com/mapfiles/kml/pushpin/ylw-pushpin.png</href>
                    </Icon>
                </IconStyle>
            </Style>
            <Style id="1803">
                <IconStyle id="1804">
                    <color>ffff0000</color>
                    <colorMode>normal</colorMode>
                    <scale>1</scale>
                    <heading>0</heading>
                    <Icon id="1805">
                        <href>http://maps.google.com/mapfiles/kml/pushpin/ylw-pushpin.png</href>
                    </Icon>
                </IconStyle>
            </Style>
            <Style id="1808">
                <IconStyle id="1809">
                    <color>ffff0000</color>
                    <colorMode>normal</colorMode>
                    <scale>1</scale>
                    <heading>0</heading>
                    <Icon id="1810">
                        <href>http://maps.google.com/mapfiles/kml/pushpin/ylw-pushpin.png</href>
                    </Icon>
                </IconStyle>
            </Style>
            <Style id="1813">
                <IconStyle id="1814">
                    <color>ffff0000</color>
                    <colorMode>normal</colorMode>
                    <scale>1</scale>
                    <heading>0</heading>
                    <Icon id="1815">
                        <href>http://maps.google.com/mapfiles/kml/pushpin/ylw-pushpin.png</href>
                    </Icon>
                </IconStyle>
            </Style>
            <Style id="1818">
                <IconStyle id="1819">
                    <color>ffff0000</color>
                    <colorMode>normal</colorMode>
                    <scale>1</scale>
                    <heading>0</heading>
                    <Icon id="1820">
                        <href>http://maps.google.com/mapfiles/kml/pushpin/ylw-pushpin.png</href>
                    </Icon>
                </IconStyle>
            </Style>
            <Style id="1823">
                <IconStyle id="1824">
                    <color>ffff0000</color>
                    <colorMode>normal</colorMode>
                    <scale>1</scale>
                    <heading>0</heading>
                    <Icon id="1825">
                        <href>http://maps.google.com/mapfiles/kml/pushpin/ylw-pushpin.png</href>
                    </Icon>
                </IconStyle>
            </Style>
            <Style id="1828">
                <IconStyle id="1829">
                    <color>ffff0000</color>
                    <colorMode>normal</colorMode>
                    <scale>1</scale>
                    <heading>0</heading>
                    <Icon id="1830">
                        <href>http://maps.google.com/mapfiles/kml/pushpin/ylw-pushpin.png</href>
                    </Icon>
                </IconStyle>
            </Style>
            <Style id="1833">
                <IconStyle id="1834">
                    <color>ffff0000</color>
                    <colorMode>normal</colorMode>
                    <scale>1</scale>
                    <heading>0</heading>
                    <Icon id="1835">
                        <href>http://maps.google.com/mapfiles/kml/pushpin/ylw-pushpin.png</href>
                    </Icon>
                </IconStyle>
            </Style>
            <Style id="1838">
                <IconStyle id="1839">
                    <color>ffff0000</color>
                    <colorMode>normal</colorMode>
                    <scale>1</scale>
                    <heading>0</heading>
                    <Icon id="1840">
                        <href>http://maps.google.com/mapfiles/kml/pushpin/ylw-pushpin.png</href>
                    </Icon>
                </IconStyle>
            </Style>
            <Style id="1843">
                <IconStyle id="1844">
                    <color>ffff0000</color>
                    <colorMode>normal</colorMode>
                    <scale>1</scale>
                    <heading>0</heading>
                    <Icon id="1845">
                        <href>http://maps.google.com/mapfiles/kml/pushpin/ylw-pushpin.png</href>
                    </Icon>
                </IconStyle>
            </Style>
            <Style id="1848">
                <IconStyle id="1849">
                    <color>ffff0000</color>
                    <colorMode>normal</colorMode>
                    <scale>1</scale>
                    <heading>0</heading>
                    <Icon id="1850">
                        <href>http://maps.google.com/mapfiles/kml/pushpin/ylw-pushpin.png</href>
                    </Icon>
                </IconStyle>
            </Style>
            <Style id="1853">
                <IconStyle id="1854">
                    <color>ffff0000</color>
                    <colorMode>normal</colorMode>
                    <scale>1</scale>
                    <heading>0</heading>
                    <Icon id="1855">
                        <href>http://maps.google.com/mapfiles/kml/pushpin/ylw-pushpin.png</href>
                    </Icon>
                </IconStyle>
            </Style>
            <name>JACIEL MOGOLLON ALVARADO</name>
            <Placemark id="1667">
                <name>JOSE PORFIRIO ANDRADE ESPINOZA</name>
                <description>Calle Bernardo alcedo 250
Sullana
Sullana
Piura
Perú</description>
                <styleUrl>#1668</styleUrl>
                <Point id="1666">
                    <coordinates>-80.6831591,-4.8920828,0.0</coordinates>
                </Point>
            </Placemark>
            <Placemark id="1672">
                <name>KARLA ELIZABETH GONZALES OLIVOS</name>
                <description>KARLA ELIZABETH GONZALES OLIVOS
CA. LOS COCOS URB.POP. NUEVO HORIZONTE MZ.G LT.6
Sullana
Sullana
Piura
Perú</description>
                <styleUrl>#1673</styleUrl>
                <Point id="1671">
                    <coordinates>-80.722761,-4.913728,0.0</coordinates>
                </Point>
            </Placemark>
            <Placemark id="1677">
                <name>JOSE PORFIRIO ANDRADE ESPINOZA</name>
                <description>Calle Bernardo alcedo 250
Sullana
Sullana
Piura
Perú</description>
                <styleUrl>#1678</styleUrl>
                <Point id="1676">
                    <coordinates>-80.6831591,-4.8920828,0.0</coordinates>
                </Point>
            </Placemark>
            <Placemark id="1682">
                <name>DUBER HILDEBRANDO QUEVEDO PONCE</name>
                <description>Calle Bernaldo alcedo
Sullana
Sullana
Piura
Perú</description>
                <styleUrl>#1683</styleUrl>
                <Point id="1681">
                    <coordinates>-80.6829911,-4.8918878,0.0</coordinates>
                </Point>
            </Placemark>
            <Placemark id="1687">
                <name>ALBURQUEQUE BURGOS DE MOGOLLON</name>
                <description>MZ-E2 LT-06 LOS ALGARROBOS
Sullana
Sullana
Piura
Perú</description>
                <styleUrl>#1688</styleUrl>
                <Point id="1686">
                    <coordinates>-80.7118351,-4.9048518,0.0</coordinates>
                </Point>
            </Placemark>
            <Placemark id="1692">
                <name>ROSA ELADIA OROZCO CORDOVA</name>
                <description>Calle Av Carlos Augusto Salaverry mz N lote 23 fronteriza
Miguel Checa
Miguel Checa
Piura
Perú</description>
                <styleUrl>#1693</styleUrl>
                <Point id="1691">
                    <coordinates>-80.7303073,-4.9188014,0.0</coordinates>
                </Point>
            </Placemark>
            <Placemark id="1697">
                <name>MARIA SULEMA MUÑOZ MEZONES</name>
                <description>Maria Auxiliadora MZ C lt 24 - asociación señor de milagros
Sullana
Sullana
Piura
Perú</description>
                <styleUrl>#1698</styleUrl>
                <Point id="1696">
                    <coordinates>-80.7208118,-4.9151656,0.0</coordinates>
                </Point>
            </Placemark>
            <Placemark id="1702">
                <name>PAULA QUINDE RONDOY</name>
                <description>Calle Alfonso Romero nuevo Sullana
Sullana
Sullana
Piura
Perú</description>
                <styleUrl>#1703</styleUrl>
                <Point id="1701">
                    <coordinates>-80.7216827,-4.9138266,0.0</coordinates>
                </Point>
            </Placemark>
            <Placemark id="1707">
                <name>KAREN JAKELINE CORREA CALLE</name>
                <description>AV.LOS TALLANES MZ A LT 20 SEC.C UR
Sullana
Sullana
Piura
Perú</description>
                <styleUrl>#1708</styleUrl>
                <Point id="1706">
                    <coordinates>-80.7246305,-4.909824,0.0</coordinates>
                </Point>
            </Placemark>
            <Placemark id="1712">
                <name>PRIETO COLMENARES DE NOLE</name>
                <description>MZ C 20 UP NVA SULLANA
Sullana
Sullana
Piura
Perú</description>
                <styleUrl>#1713</styleUrl>
                <Point id="1711">
                    <coordinates>-80.7258853,-4.9093968,0.0</coordinates>
                </Point>
            </Placemark>
            <Placemark id="1717">
                <name>FLORES CRUZ BAUDELIA</name>
                <description>MZA.C8 SCTR C PSJ 25
Sullana
Sullana
Piura
Perú</description>
                <styleUrl>#1718</styleUrl>
                <Point id="1716">
                    <coordinates>-80.726873,-4.910749,0.0</coordinates>
                </Point>
            </Placemark>
            <Placemark id="1722">
                <name>ARCELIA BALLADARES SILUPU</name>
                <description>Avenida Martínez de compañon lt4/ nuevo sullana
Sullana
Sullana
Piura
Perú</description>
                <styleUrl>#1723</styleUrl>
                <Point id="1721">
                    <coordinates>-80.7301407,-4.9065003,0.0</coordinates>
                </Point>
            </Placemark>
            <Placemark id="1727">
                <name>CRISTINA LORO PUESCAS</name>
                <description>Nuevo Perú Canadá J lote 30
Sullana
Sullana
Piura
Perú</description>
                <styleUrl>#1728</styleUrl>
                <Point id="1726">
                    <coordinates>-80.7296662,-4.907197,0.0</coordinates>
                </Point>
            </Placemark>
            <Placemark id="1732">
                <name>MARIA YSABEL JIMENEZ CALVA</name>
                <description>MARIA YSABEL JIMENEZ CALVA
SELECCIONAR UP VILLA PERU CANADA MZTLT 37
Sullana
Sullana
Piura
Perú</description>
                <styleUrl>#1733</styleUrl>
                <Point id="1731">
                    <coordinates>-80.7273671,-4.9089274,0.0</coordinates>
                </Point>
            </Placemark>
            <Placemark id="1737">
                <name>MERCY ARELLANO CEVALLOS</name>
                <description>Calle el rosal MZ c, lt3
Sullana
Sullana
Piura
Perú</description>
                <styleUrl>#1738</styleUrl>
                <Point id="1736">
                    <coordinates>-80.7112107,-4.9063894,0.0</coordinates>
                </Point>
            </Placemark>
            <Placemark id="1742">
                <name>MASIAS AGURTO GLADIS</name>
                <description>NUEVO SULLANA MZ C LT 12
Sullana
Sullana
Piura
Perú</description>
                <styleUrl>#1743</styleUrl>
                <Point id="1741">
                    <coordinates>-80.7223419,-4.9091261,0.0</coordinates>
                </Point>
            </Placemark>
            <Placemark id="1747">
                <name>FILOMENO ALVITES DEZA</name>
                <description>PSJE 11 MZ. B LT. 23 NVA SULLANA
Sullana
Sullana
Piura
Perú</description>
                <styleUrl>#1748</styleUrl>
                <Point id="1746">
                    <coordinates>-80.7212315,-4.9089936,0.0</coordinates>
                </Point>
            </Placemark>
            <Placemark id="1752">
                <name>REYNA ISABEL CASILLA TICONA</name>
                <description>PJE.10 MZ D LTE.13 SECTOR D NVO. SU,
Sullana
Sullana
Piura
Perú</description>
                <styleUrl>#1753</styleUrl>
                <Point id="1751">
                    <coordinates>-80.7212182,-4.908815,0.0</coordinates>
                </Point>
            </Placemark>
            <Placemark id="1757">
                <name>PAUCAR MALDONADO LESLY EDID</name>
                <description>CA EL ROSAL MZ L LT 27 NVA ESP
Sullana
Sullana
Piura
Perú</description>
                <styleUrl>#1758</styleUrl>
                <Point id="1756">
                    <coordinates>-80.720148,-4.907308,0.0</coordinates>
                </Point>
            </Placemark>
            <Placemark id="1762">
                <name>JUAN RICARDO PEÑA CASTILLO</name>
                <description>Calle Tamaris MZ N LT 44 Nueva Esperanza
Sullana
Sullana
Piura
Perú</description>
                <styleUrl>#1763</styleUrl>
                <Point id="1761">
                    <coordinates>-80.7163119,-4.9101019,0.0</coordinates>
                </Point>
            </Placemark>
            <Placemark id="1767">
                <name>JIMENEZ ALBERCA YOLANDA</name>
                <description>CA.BELLO HORIZONTE MZ.L LT.4
Sullana
Sullana
Piura
Perú</description>
                <styleUrl>#1768</styleUrl>
                <Point id="1766">
                    <coordinates>-80.7147951,-4.9078935,0.0</coordinates>
                </Point>
            </Placemark>
            <Placemark id="1772">
                <name>ANA KELINNA ZAPATA CAMPOS</name>
                <description>ANA KELINNA ZAPATA CAMPOS
PJ.SANTA ROSA MZ.O LT.01 APV.V.DE LAS MERCEDES
Sullana
Sullana
Piura
Perú</description>
                <styleUrl>#1773</styleUrl>
                <Point id="1771">
                    <coordinates>-80.7180156,-4.9037883,0.0</coordinates>
                </Point>
            </Placemark>
            <Placemark id="1777">
                <name>RUIZ CANOVA MARIA PETRONILA</name>
                <description>URB.VIDENITA MZ.H-SN SULLA.
Sullana
Sullana
Piura
Perú</description>
                <styleUrl>#1778</styleUrl>
                <Point id="1776">
                    <coordinates>-80.7156816,-4.9053543,0.0</coordinates>
                </Point>
            </Placemark>
            <Placemark id="1782">
                <name>ORTIZ ORTIZ AGUSTINA</name>
                <description>LAS PALMERAS MZ F LTE 2
Sullana
Sullana
Piura
Perú</description>
                <styleUrl>#1783</styleUrl>
                <Point id="1781">
                    <coordinates>-80.7144978,-4.9055687,0.0</coordinates>
                </Point>
            </Placemark>
            <Placemark id="1787">
                <name>SUSANA CARREÑO FARFAN</name>
                <description>SUSANA CARREÑO FARFAN
CA.LOS PINOS MZ A1 LTE.29 I ETAPA VILLA PRIMAVERA
Sullana
Sullana
Piura
Perú</description>
                <styleUrl>#1788</styleUrl>
                <Point id="1786">
                    <coordinates>-80.7132658,-4.9047703,0.0</coordinates>
                </Point>
            </Placemark>
            <Placemark id="1792">
                <name>OLAYA AGUILAR MARIA RAQUEL</name>
                <description>OLAYA AGUILAR MARIA RAQUEL
MZ G 2 LT 4 A.H.VILLA PRIMAV.
Sullana
Sullana
Piura
Perú</description>
                <styleUrl>#1793</styleUrl>
                <Point id="1791">
                    <coordinates>-80.712773,-4.9047512,0.0</coordinates>
                </Point>
            </Placemark>
            <Placemark id="1797">
                <name>MATILDE CORTEZ ROBLEDO</name>
                <description>MATILDE CORTEZ ROBLEDO
H.DEL CENEPA H-7.TRANS LOS JAZMINES-SULLANA
Sullana
Sullana
Piura
Perú</description>
                <styleUrl>#1798</styleUrl>
                <Point id="1796">
                    <coordinates>-80.7137353,-4.903609,0.0</coordinates>
                </Point>
            </Placemark>
            <Placemark id="1802">
                <name>JENNY DEL PILAR OJEDA CASTILLO</name>
                <description>Transversal Los Jazmínez MZ B LT 26 Héroes del Cenepa
Sullana
Sullana
Piura
Perú</description>
                <styleUrl>#1803</styleUrl>
                <Point id="1801">
                    <coordinates>-80.7136049,-4.9034926,0.0</coordinates>
                </Point>
            </Placemark>
            <Placemark id="1807">
                <name>RUTH PAMELA CHUMACERO VIERA</name>
                <description>Calle los Ficus MZ E3 LT 14 villa Primavera
Sullana
Sullana
Piura
Perú</description>
                <styleUrl>#1808</styleUrl>
                <Point id="1806">
                    <coordinates>-80.7117364,-4.9033821,0.0</coordinates>
                </Point>
            </Placemark>
            <Placemark id="1812">
                <name>ORTIZ ACHA CARMEN</name>
                <description>FICUS  F3-25 VILLA PRIMAVERA
Sullana
Sullana
Piura
Perú</description>
                <styleUrl>#1813</styleUrl>
                <Point id="1811">
                    <coordinates>-80.7117288,-4.9033412,0.0</coordinates>
                </Point>
            </Placemark>
            <Placemark id="1817">
                <name>SANTOS CHANTA LIMA</name>
                <description>Calle los geranios MZ D4 LT.13 AA. HH VILLA PRIMAVERA4 ETP SULLANA
Sullana
Sullana
Piura
Perú</description>
                <styleUrl>#1818</styleUrl>
                <Point id="1816">
                    <coordinates>-80.7110402,-4.9024796,0.0</coordinates>
                </Point>
            </Placemark>
            <Placemark id="1822">
                <name>CARMELA OTIVO NINANYA</name>
                <description>CARMELA OTIVO NINANYA
CA. LOS GERANIOS MZ D4 LT.11 AA. HHVILLA PRIMAVERA
Sullana
Sullana
Piura
Perú</description>
                <styleUrl>#1823</styleUrl>
                <Point id="1821">
                    <coordinates>-80.7111159,-4.9026532,0.0</coordinates>
                </Point>
            </Placemark>
            <Placemark id="1827">
                <name>LOZADA BAYONA ALAN</name>
                <description>LOZADA BAYONA ALAN
A.H.VILLA P.MZD2 LT.27 EL ROSA
Sullana
Sullana
Piura
Perú</description>
                <styleUrl>#1828</styleUrl>
                <Point id="1826">
                    <coordinates>-80.7108942,-4.9044984,0.0</coordinates>
                </Point>
            </Placemark>
            <Placemark id="1832">
                <name>YUL MARI PALACIOS CORDOVA DE TINEDO</name>
                <description>LOS LAURELES MZ.C4 LTE.23 VILLA PRIMAVERA-SULLANA
Sullana
Sullana
Piura
Perú</description>
                <styleUrl>#1833</styleUrl>
                <Point id="1831">
                    <coordinates>-80.710125,-4.9027065,0.0</coordinates>
                </Point>
            </Placemark>
            <Placemark id="1837">
                <name>DIANA CANOVA SUAREZ</name>
                <description>A.H. VILLA PRIMAVERA II ETAPA MZ.B2LT.01 -SULLANA
Sullana
Sullana
Piura
Perú</description>
                <styleUrl>#1838</styleUrl>
                <Point id="1836">
                    <coordinates>-80.7100684,-4.9052641,0.0</coordinates>
                </Point>
            </Placemark>
            <Placemark id="1842">
                <name>MARIA DORIS CALLA SALAZAR</name>
                <description>MZ B4 LT 22 PSJ.MUNICIPAL TRNS BEGONIAS
Sullana
Sullana
Piura
Perú</description>
                <styleUrl>#1843</styleUrl>
                <Point id="1841">
                    <coordinates>-80.7097137,-4.9021049,0.0</coordinates>
                </Point>
            </Placemark>
            <Placemark id="1847">
                <name>GASTON SIANCAS ARELLANO</name>
                <description>GASTON SIANCAS ARELLANO
URB JARDIN MZ M 1 LT 6 - SULLANA
Sullana
Sullana
Piura
Perú</description>
                <styleUrl>#1848</styleUrl>
                <Point id="1846">
                    <coordinates>-80.7023639,-4.9037212,0.0</coordinates>
                </Point>
            </Placemark>
            <Placemark id="1852">
                <name>ALEJANDRO ROBINSO RODRIGUEZ SOBRINO</name>
                <description>ALEJANDRO ROBINSO RODRIGUEZ SOBRINO
MZ N INT.01 LT. 29 URB. RAMIRO PRIALE - SULLANA
Sullana
Sullana
Piura
Perú</description>
                <styleUrl>#1853</styleUrl>
                <Point id="1851">
                    <coordinates>-80.7092633,-4.9041493,0.0</coordinates>
                </Point>
            </Placemark>
        </Folder>
    </Document>
</kml>
