<?xml version="1.0" encoding="UTF-8"?>
<kml xmlns="http://www.opengis.net/kml/2.2" xmlns:gx="http://www.google.com/kml/ext/2.2">
    <Document id="3424">
        <Folder id="3425">
            <Style id="3428">
                <IconStyle id="3429">
                    <color>ff0000ff</color>
                    <colorMode>normal</colorMode>
                    <scale>1</scale>
                    <heading>0</heading>
                    <Icon id="3430">
                        <href>http://maps.google.com/mapfiles/kml/pushpin/ylw-pushpin.png</href>
                    </Icon>
                </IconStyle>
            </Style>
            <Style id="3433">
                <IconStyle id="3434">
                    <color>ff0000ff</color>
                    <colorMode>normal</colorMode>
                    <scale>1</scale>
                    <heading>0</heading>
                    <Icon id="3435">
                        <href>http://maps.google.com/mapfiles/kml/pushpin/ylw-pushpin.png</href>
                    </Icon>
                </IconStyle>
            </Style>
            <Style id="3438">
                <IconStyle id="3439">
                    <color>ff0000ff</color>
                    <colorMode>normal</colorMode>
                    <scale>1</scale>
                    <heading>0</heading>
                    <Icon id="3440">
                        <href>http://maps.google.com/mapfiles/kml/pushpin/ylw-pushpin.png</href>
                    </Icon>
                </IconStyle>
            </Style>
            <Style id="3443">
                <IconStyle id="3444">
                    <color>ff0000ff</color>
                    <colorMode>normal</colorMode>
                    <scale>1</scale>
                    <heading>0</heading>
                    <Icon id="3445">
                        <href>http://maps.google.com/mapfiles/kml/pushpin/ylw-pushpin.png</href>
                    </Icon>
                </IconStyle>
            </Style>
            <Style id="3448">
                <IconStyle id="3449">
                    <color>ff0000ff</color>
                    <colorMode>normal</colorMode>
                    <scale>1</scale>
                    <heading>0</heading>
                    <Icon id="3450">
                        <href>http://maps.google.com/mapfiles/kml/pushpin/ylw-pushpin.png</href>
                    </Icon>
                </IconStyle>
            </Style>
            <Style id="3453">
                <IconStyle id="3454">
                    <color>ff0000ff</color>
                    <colorMode>normal</colorMode>
                    <scale>1</scale>
                    <heading>0</heading>
                    <Icon id="3455">
                        <href>http://maps.google.com/mapfiles/kml/pushpin/ylw-pushpin.png</href>
                    </Icon>
                </IconStyle>
            </Style>
            <Style id="3458">
                <IconStyle id="3459">
                    <color>ff0000ff</color>
                    <colorMode>normal</colorMode>
                    <scale>1</scale>
                    <heading>0</heading>
                    <Icon id="3460">
                        <href>http://maps.google.com/mapfiles/kml/pushpin/ylw-pushpin.png</href>
                    </Icon>
                </IconStyle>
            </Style>
            <Style id="3463">
                <IconStyle id="3464">
                    <color>ff0000ff</color>
                    <colorMode>normal</colorMode>
                    <scale>1</scale>
                    <heading>0</heading>
                    <Icon id="3465">
                        <href>http://maps.google.com/mapfiles/kml/pushpin/ylw-pushpin.png</href>
                    </Icon>
                </IconStyle>
            </Style>
            <Style id="3468">
                <IconStyle id="3469">
                    <color>ff0000ff</color>
                    <colorMode>normal</colorMode>
                    <scale>1</scale>
                    <heading>0</heading>
                    <Icon id="3470">
                        <href>http://maps.google.com/mapfiles/kml/pushpin/ylw-pushpin.png</href>
                    </Icon>
                </IconStyle>
            </Style>
            <Style id="3473">
                <IconStyle id="3474">
                    <color>ff0000ff</color>
                    <colorMode>normal</colorMode>
                    <scale>1</scale>
                    <heading>0</heading>
                    <Icon id="3475">
                        <href>http://maps.google.com/mapfiles/kml/pushpin/ylw-pushpin.png</href>
                    </Icon>
                </IconStyle>
            </Style>
            <Style id="3478">
                <IconStyle id="3479">
                    <color>ff0000ff</color>
                    <colorMode>normal</colorMode>
                    <scale>1</scale>
                    <heading>0</heading>
                    <Icon id="3480">
                        <href>http://maps.google.com/mapfiles/kml/pushpin/ylw-pushpin.png</href>
                    </Icon>
                </IconStyle>
            </Style>
            <Style id="3483">
                <IconStyle id="3484">
                    <color>ff0000ff</color>
                    <colorMode>normal</colorMode>
                    <scale>1</scale>
                    <heading>0</heading>
                    <Icon id="3485">
                        <href>http://maps.google.com/mapfiles/kml/pushpin/ylw-pushpin.png</href>
                    </Icon>
                </IconStyle>
            </Style>
            <Style id="3488">
                <IconStyle id="3489">
                    <color>ff0000ff</color>
                    <colorMode>normal</colorMode>
                    <scale>1</scale>
                    <heading>0</heading>
                    <Icon id="3490">
                        <href>http://maps.google.com/mapfiles/kml/pushpin/ylw-pushpin.png</href>
                    </Icon>
                </IconStyle>
            </Style>
            <Style id="3493">
                <IconStyle id="3494">
                    <color>ff0000ff</color>
                    <colorMode>normal</colorMode>
                    <scale>1</scale>
                    <heading>0</heading>
                    <Icon id="3495">
                        <href>http://maps.google.com/mapfiles/kml/pushpin/ylw-pushpin.png</href>
                    </Icon>
                </IconStyle>
            </Style>
            <Style id="3498">
                <IconStyle id="3499">
                    <color>ff0000ff</color>
                    <colorMode>normal</colorMode>
                    <scale>1</scale>
                    <heading>0</heading>
                    <Icon id="3500">
                        <href>http://maps.google.com/mapfiles/kml/pushpin/ylw-pushpin.png</href>
                    </Icon>
                </IconStyle>
            </Style>
            <Style id="3503">
                <IconStyle id="3504">
                    <color>ff0000ff</color>
                    <colorMode>normal</colorMode>
                    <scale>1</scale>
                    <heading>0</heading>
                    <Icon id="3505">
                        <href>http://maps.google.com/mapfiles/kml/pushpin/ylw-pushpin.png</href>
                    </Icon>
                </IconStyle>
            </Style>
            <Style id="3508">
                <IconStyle id="3509">
                    <color>ff0000ff</color>
                    <colorMode>normal</colorMode>
                    <scale>1</scale>
                    <heading>0</heading>
                    <Icon id="3510">
                        <href>http://maps.google.com/mapfiles/kml/pushpin/ylw-pushpin.png</href>
                    </Icon>
                </IconStyle>
            </Style>
            <Style id="3513">
                <IconStyle id="3514">
                    <color>ff0000ff</color>
                    <colorMode>normal</colorMode>
                    <scale>1</scale>
                    <heading>0</heading>
                    <Icon id="3515">
                        <href>http://maps.google.com/mapfiles/kml/pushpin/ylw-pushpin.png</href>
                    </Icon>
                </IconStyle>
            </Style>
            <Style id="3518">
                <IconStyle id="3519">
                    <color>ff0000ff</color>
                    <colorMode>normal</colorMode>
                    <scale>1</scale>
                    <heading>0</heading>
                    <Icon id="3520">
                        <href>http://maps.google.com/mapfiles/kml/pushpin/ylw-pushpin.png</href>
                    </Icon>
                </IconStyle>
            </Style>
            <Style id="3523">
                <IconStyle id="3524">
                    <color>ff0000ff</color>
                    <colorMode>normal</colorMode>
                    <scale>1</scale>
                    <heading>0</heading>
                    <Icon id="3525">
                        <href>http://maps.google.com/mapfiles/kml/pushpin/ylw-pushpin.png</href>
                    </Icon>
                </IconStyle>
            </Style>
            <Style id="3528">
                <IconStyle id="3529">
                    <color>ff0000ff</color>
                    <colorMode>normal</colorMode>
                    <scale>1</scale>
                    <heading>0</heading>
                    <Icon id="3530">
                        <href>http://maps.google.com/mapfiles/kml/pushpin/ylw-pushpin.png</href>
                    </Icon>
                </IconStyle>
            </Style>
            <Style id="3533">
                <IconStyle id="3534">
                    <color>ff0000ff</color>
                    <colorMode>normal</colorMode>
                    <scale>1</scale>
                    <heading>0</heading>
                    <Icon id="3535">
                        <href>http://maps.google.com/mapfiles/kml/pushpin/ylw-pushpin.png</href>
                    </Icon>
                </IconStyle>
            </Style>
            <Style id="3538">
                <IconStyle id="3539">
                    <color>ff0000ff</color>
                    <colorMode>normal</colorMode>
                    <scale>1</scale>
                    <heading>0</heading>
                    <Icon id="3540">
                        <href>http://maps.google.com/mapfiles/kml/pushpin/ylw-pushpin.png</href>
                    </Icon>
                </IconStyle>
            </Style>
            <Style id="3543">
                <IconStyle id="3544">
                    <color>ff0000ff</color>
                    <colorMode>normal</colorMode>
                    <scale>1</scale>
                    <heading>0</heading>
                    <Icon id="3545">
                        <href>http://maps.google.com/mapfiles/kml/pushpin/ylw-pushpin.png</href>
                    </Icon>
                </IconStyle>
            </Style>
            <Style id="3548">
                <IconStyle id="3549">
                    <color>ff0000ff</color>
                    <colorMode>normal</colorMode>
                    <scale>1</scale>
                    <heading>0</heading>
                    <Icon id="3550">
                        <href>http://maps.google.com/mapfiles/kml/pushpin/ylw-pushpin.png</href>
                    </Icon>
                </IconStyle>
            </Style>
            <Style id="3553">
                <IconStyle id="3554">
                    <color>ff0000ff</color>
                    <colorMode>normal</colorMode>
                    <scale>1</scale>
                    <heading>0</heading>
                    <Icon id="3555">
                        <href>http://maps.google.com/mapfiles/kml/pushpin/ylw-pushpin.png</href>
                    </Icon>
                </IconStyle>
            </Style>
            <Style id="3558">
                <IconStyle id="3559">
                    <color>ff0000ff</color>
                    <colorMode>normal</colorMode>
                    <scale>1</scale>
                    <heading>0</heading>
                    <Icon id="3560">
                        <href>http://maps.google.com/mapfiles/kml/pushpin/ylw-pushpin.png</href>
                    </Icon>
                </IconStyle>
            </Style>
            <Style id="3563">
                <IconStyle id="3564">
                    <color>ff0000ff</color>
                    <colorMode>normal</colorMode>
                    <scale>1</scale>
                    <heading>0</heading>
                    <Icon id="3565">
                        <href>http://maps.google.com/mapfiles/kml/pushpin/ylw-pushpin.png</href>
                    </Icon>
                </IconStyle>
            </Style>
            <Style id="3568">
                <IconStyle id="3569">
                    <color>ff0000ff</color>
                    <colorMode>normal</colorMode>
                    <scale>1</scale>
                    <heading>0</heading>
                    <Icon id="3570">
                        <href>http://maps.google.com/mapfiles/kml/pushpin/ylw-pushpin.png</href>
                    </Icon>
                </IconStyle>
            </Style>
            <Style id="3573">
                <IconStyle id="3574">
                    <color>ff0000ff</color>
                    <colorMode>normal</colorMode>
                    <scale>1</scale>
                    <heading>0</heading>
                    <Icon id="3575">
                        <href>http://maps.google.com/mapfiles/kml/pushpin/ylw-pushpin.png</href>
                    </Icon>
                </IconStyle>
            </Style>
            <Style id="3578">
                <IconStyle id="3579">
                    <color>ff0000ff</color>
                    <colorMode>normal</colorMode>
                    <scale>1</scale>
                    <heading>0</heading>
                    <Icon id="3580">
                        <href>http://maps.google.com/mapfiles/kml/pushpin/ylw-pushpin.png</href>
                    </Icon>
                </IconStyle>
            </Style>
            <Style id="3583">
                <IconStyle id="3584">
                    <color>ff0000ff</color>
                    <colorMode>normal</colorMode>
                    <scale>1</scale>
                    <heading>0</heading>
                    <Icon id="3585">
                        <href>http://maps.google.com/mapfiles/kml/pushpin/ylw-pushpin.png</href>
                    </Icon>
                </IconStyle>
            </Style>
            <Style id="3588">
                <IconStyle id="3589">
                    <color>ff0000ff</color>
                    <colorMode>normal</colorMode>
                    <scale>1</scale>
                    <heading>0</heading>
                    <Icon id="3590">
                        <href>http://maps.google.com/mapfiles/kml/pushpin/ylw-pushpin.png</href>
                    </Icon>
                </IconStyle>
            </Style>
            <Style id="3593">
                <IconStyle id="3594">
                    <color>ff0000ff</color>
                    <colorMode>normal</colorMode>
                    <scale>1</scale>
                    <heading>0</heading>
                    <Icon id="3595">
                        <href>http://maps.google.com/mapfiles/kml/pushpin/ylw-pushpin.png</href>
                    </Icon>
                </IconStyle>
            </Style>
            <Style id="3598">
                <IconStyle id="3599">
                    <color>ff0000ff</color>
                    <colorMode>normal</colorMode>
                    <scale>1</scale>
                    <heading>0</heading>
                    <Icon id="3600">
                        <href>http://maps.google.com/mapfiles/kml/pushpin/ylw-pushpin.png</href>
                    </Icon>
                </IconStyle>
            </Style>
            <Style id="3603">
                <IconStyle id="3604">
                    <color>ff0000ff</color>
                    <colorMode>normal</colorMode>
                    <scale>1</scale>
                    <heading>0</heading>
                    <Icon id="3605">
                        <href>http://maps.google.com/mapfiles/kml/pushpin/ylw-pushpin.png</href>
                    </Icon>
                </IconStyle>
            </Style>
            <Style id="3608">
                <IconStyle id="3609">
                    <color>ff0000ff</color>
                    <colorMode>normal</colorMode>
                    <scale>1</scale>
                    <heading>0</heading>
                    <Icon id="3610">
                        <href>http://maps.google.com/mapfiles/kml/pushpin/ylw-pushpin.png</href>
                    </Icon>
                </IconStyle>
            </Style>
            <Style id="3613">
                <IconStyle id="3614">
                    <color>ff0000ff</color>
                    <colorMode>normal</colorMode>
                    <scale>1</scale>
                    <heading>0</heading>
                    <Icon id="3615">
                        <href>http://maps.google.com/mapfiles/kml/pushpin/ylw-pushpin.png</href>
                    </Icon>
                </IconStyle>
            </Style>
            <Style id="3618">
                <IconStyle id="3619">
                    <color>ff0000ff</color>
                    <colorMode>normal</colorMode>
                    <scale>1</scale>
                    <heading>0</heading>
                    <Icon id="3620">
                        <href>http://maps.google.com/mapfiles/kml/pushpin/ylw-pushpin.png</href>
                    </Icon>
                </IconStyle>
            </Style>
            <Style id="3623">
                <IconStyle id="3624">
                    <color>ff0000ff</color>
                    <colorMode>normal</colorMode>
                    <scale>1</scale>
                    <heading>0</heading>
                    <Icon id="3625">
                        <href>http://maps.google.com/mapfiles/kml/pushpin/ylw-pushpin.png</href>
                    </Icon>
                </IconStyle>
            </Style>
            <Style id="3628">
                <IconStyle id="3629">
                    <color>ff0000ff</color>
                    <colorMode>normal</colorMode>
                    <scale>1</scale>
                    <heading>0</heading>
                    <Icon id="3630">
                        <href>http://maps.google.com/mapfiles/kml/pushpin/ylw-pushpin.png</href>
                    </Icon>
                </IconStyle>
            </Style>
            <Style id="3633">
                <IconStyle id="3634">
                    <color>ff0000ff</color>
                    <colorMode>normal</colorMode>
                    <scale>1</scale>
                    <heading>0</heading>
                    <Icon id="3635">
                        <href>http://maps.google.com/mapfiles/kml/pushpin/ylw-pushpin.png</href>
                    </Icon>
                </IconStyle>
            </Style>
            <Style id="3638">
                <IconStyle id="3639">
                    <color>ff0000ff</color>
                    <colorMode>normal</colorMode>
                    <scale>1</scale>
                    <heading>0</heading>
                    <Icon id="3640">
                        <href>http://maps.google.com/mapfiles/kml/pushpin/ylw-pushpin.png</href>
                    </Icon>
                </IconStyle>
            </Style>
            <Style id="3643">
                <IconStyle id="3644">
                    <color>ff0000ff</color>
                    <colorMode>normal</colorMode>
                    <scale>1</scale>
                    <heading>0</heading>
                    <Icon id="3645">
                        <href>http://maps.google.com/mapfiles/kml/pushpin/ylw-pushpin.png</href>
                    </Icon>
                </IconStyle>
            </Style>
            <Style id="3648">
                <IconStyle id="3649">
                    <color>ff0000ff</color>
                    <colorMode>normal</colorMode>
                    <scale>1</scale>
                    <heading>0</heading>
                    <Icon id="3650">
                        <href>http://maps.google.com/mapfiles/kml/pushpin/ylw-pushpin.png</href>
                    </Icon>
                </IconStyle>
            </Style>
            <Style id="3653">
                <IconStyle id="3654">
                    <color>ff0000ff</color>
                    <colorMode>normal</colorMode>
                    <scale>1</scale>
                    <heading>0</heading>
                    <Icon id="3655">
                        <href>http://maps.google.com/mapfiles/kml/pushpin/ylw-pushpin.png</href>
                    </Icon>
                </IconStyle>
            </Style>
            <name>CRISTHIAN ALEXANDER ALVARADO GONZALES</name>
            <Placemark id="3427">
                <name>JOEL FRANCISCO VALDIVIEZO PALACIOS</name>
                <description>LAMBAYEQUE  149 / BELLAVISTA
Sullana
Sullana
Piura
Perú</description>
                <styleUrl>#3428</styleUrl>
                <Point id="3426">
                    <coordinates>-80.6819677,-4.8908217,0.0</coordinates>
                </Point>
            </Placemark>
            <Placemark id="3432">
                <name>JOEL FRANCISCO VALDIVIEZO PALACIOS</name>
                <description>LAMBAYEQUE  149 / BELLAVISTA
Sullana
Sullana
Piura
Perú</description>
                <styleUrl>#3433</styleUrl>
                <Point id="3431">
                    <coordinates>-80.6819677,-4.8908217,0.0</coordinates>
                </Point>
            </Placemark>
            <Placemark id="3437">
                <name>CLARIBEL JUDITH SANCHEZ CANDELA</name>
                <description>Calle Cuzco 532 Bellavista
Bellavista
Bellavista
Piura
Perú</description>
                <styleUrl>#3438</styleUrl>
                <Point id="3436">
                    <coordinates>-80.67844,-4.8896232,0.0</coordinates>
                </Point>
            </Placemark>
            <Placemark id="3442">
                <name>DE ZAPATA AURORA LLOCLLA</name>
                <description>DE ZAPATA AURORA LLOCLLA
CA.LORETO N320 - BELLAVISTA - SULLANA
Bellavista
Bellavista
Piura
Perú</description>
                <styleUrl>#3443</styleUrl>
                <Point id="3441">
                    <coordinates>-80.6803466,-4.8911939,0.0</coordinates>
                </Point>
            </Placemark>
            <Placemark id="3447">
                <name>MARCOS ANTONIO ABRAMONTE GIRON</name>
                <description>CASTILLA 228-BELLAVISTA-SULLANA
Bellavista
Bellavista
Piura
Perú</description>
                <styleUrl>#3448</styleUrl>
                <Point id="3446">
                    <coordinates>-80.6756865,-4.892554,0.0</coordinates>
                </Point>
            </Placemark>
            <Placemark id="3452">
                <name>VENTURA COBA ERNICIDA SYOLANDA</name>
                <description>CA.CATACAOS 153
Bellavista
Bellavista
Piura
Perú</description>
                <styleUrl>#3453</styleUrl>
                <Point id="3451">
                    <coordinates>-80.6747924,-4.8923736,0.0</coordinates>
                </Point>
            </Placemark>
            <Placemark id="3457">
                <name>DOLY ABIGAIL HUAYAMA DURAZNO</name>
                <description>Trav.ayabaca#370
Bellavista
Bellavista
Piura
Perú</description>
                <styleUrl>#3458</styleUrl>
                <Point id="3456">
                    <coordinates>-80.681263,-4.8924,0.0</coordinates>
                </Point>
            </Placemark>
            <Placemark id="3462">
                <name>ROSA ELENA REYES DE CRISANTO</name>
                <description>CA.CUZCO 290 Bellavista
Bellavista
Bellavista
Piura
Perú</description>
                <styleUrl>#3463</styleUrl>
                <Point id="3461">
                    <coordinates>-80.6793321,-4.8915596,0.0</coordinates>
                </Point>
            </Placemark>
            <Placemark id="3467">
                <name>GIRON RUMICHE MARITZA DEL PILAR</name>
                <description>GIRON RUMICHE MARITZA DEL PILAR
TRANSV AMAZONAS 708
Bellavista
Bellavista
Piura
Perú</description>
                <styleUrl>#3468</styleUrl>
                <Point id="3466">
                    <coordinates>-80.6776384,-4.890131,0.0</coordinates>
                </Point>
            </Placemark>
            <Placemark id="3472">
                <name>SANTOS HUANCA ESCOBAR</name>
                <description>CA.CUZCO 711 BELLAVISTA
Bellavista
Bellavista
Piura
Perú</description>
                <styleUrl>#3473</styleUrl>
                <Point id="3471">
                    <coordinates>-80.6774747,-4.8876953,0.0</coordinates>
                </Point>
            </Placemark>
            <Placemark id="3477">
                <name>FABIOLA PATRICIA MORE SEMINARIO</name>
                <description>CA.ANCASH 572 Bellavista
Bellavista
Bellavista
Piura
Perú</description>
                <styleUrl>#3478</styleUrl>
                <Point id="3476">
                    <coordinates>-80.6752491,-4.8874711,0.0</coordinates>
                </Point>
            </Placemark>
            <Placemark id="3482">
                <name>MARIA CONSUELO GIRON OJEDA</name>
                <description>Calle Áncash 593
Bellavista
Bellavista
Piura
Perú</description>
                <styleUrl>#3483</styleUrl>
                <Point id="3481">
                    <coordinates>-80.6749307,-4.8868399,0.0</coordinates>
                </Point>
            </Placemark>
            <Placemark id="3487">
                <name>KATERY GLORIA VILCHEZ ZEGARRA</name>
                <description>Calle Huancavelica 595 Bellavista
Bellavista
Bellavista
Piura
Perú</description>
                <styleUrl>#3488</styleUrl>
                <Point id="3486">
                    <coordinates>-80.6745172,-4.8872218,0.0</coordinates>
                </Point>
            </Placemark>
            <Placemark id="3492">
                <name>CELESTE ANAIS TAVARA MORE</name>
                <description>CELESTE ANAIS TAVARA MORE
CAA. HHUANCAVELICA. N575 - SULLANA
Bellavista
Bellavista
Piura
Perú</description>
                <styleUrl>#3493</styleUrl>
                <Point id="3491">
                    <coordinates>-80.6748785,-4.8875349,0.0</coordinates>
                </Point>
            </Placemark>
            <Placemark id="3497">
                <name>MARIA ISABEL ARIZOLA SALES</name>
                <description>Calle Huancavelica 528 Bellavista
Bellavista
Bellavista
Piura
Perú</description>
                <styleUrl>#3498</styleUrl>
                <Point id="3496">
                    <coordinates>-80.6752532,-4.888485,0.0</coordinates>
                </Point>
            </Placemark>
            <Placemark id="3502">
                <name>ROSA ELVIRA CRUZ NUNJAR</name>
                <description>CA.HUANCAVELICA 520 BELLAVISTA
Bellavista
Bellavista
Piura
Perú</description>
                <styleUrl>#3503</styleUrl>
                <Point id="3501">
                    <coordinates>-80.675549,-4.8885792,0.0</coordinates>
                </Point>
            </Placemark>
            <Placemark id="3507">
                <name>MARIA MAGDALENA CORDOVA DE ALBAN</name>
                <description>APURIMAC 474 BELLAVISTA
Bellavista
Bellavista
Piura
Perú</description>
                <styleUrl>#3508</styleUrl>
                <Point id="3506">
                    <coordinates>-80.6738255,-4.8882829,0.0</coordinates>
                </Point>
            </Placemark>
            <Placemark id="3512">
                <name>NANCY TATIANA VILLASECA AGURTO</name>
                <description>CALLE LAMBAYEQUE 235 / SULLANA
Sullana
Sullana
Piura
Perú</description>
                <styleUrl>#3513</styleUrl>
                <Point id="3511">
                    <coordinates>-80.681479,-4.8903295,0.0</coordinates>
                </Point>
            </Placemark>
            <Placemark id="3517">
                <name>ANALI PAOLA CARREÑO SANCHEZ</name>
                <description>CALLE CASTILLA 307
Bellavista
Bellavista
Piura
Perú</description>
                <styleUrl>#3518</styleUrl>
                <Point id="3516">
                    <coordinates>-80.6749107,-4.8916331,0.0</coordinates>
                </Point>
            </Placemark>
            <Placemark id="3522">
                <name>LORENA AZUCENA RIVERA NAVARRO</name>
                <description>CA BERNAL 319 AH EL PORVE
Bellavista
Bellavista
Piura
Perú</description>
                <styleUrl>#3523</styleUrl>
                <Point id="3521">
                    <coordinates>-80.6752085,-4.8911084,0.0</coordinates>
                </Point>
            </Placemark>
            <Placemark id="3527">
                <name>ANALI PAOLA CARREÑO SANCHEZ</name>
                <description>CALLE CASTILLA 307
Bellavista
Bellavista
Piura
Perú</description>
                <styleUrl>#3528</styleUrl>
                <Point id="3526">
                    <coordinates>-80.6749107,-4.8916331,0.0</coordinates>
                </Point>
            </Placemark>
            <Placemark id="3532">
                <name>DE PAICO AMERICA RISCO GIRON</name>
                <description>Calle castilla 259
Bellavista
Bellavista
Piura
Perú</description>
                <styleUrl>#3533</styleUrl>
                <Point id="3531">
                    <coordinates>-80.6751653,-4.8919869,0.0</coordinates>
                </Point>
            </Placemark>
            <Placemark id="3537">
                <name>ERICA HERENIA VELIZ BENITES</name>
                <description>CA LA ARENA 340 AH EL POR
Bellavista
Bellavista
Piura
Perú</description>
                <styleUrl>#3538</styleUrl>
                <Point id="3536">
                    <coordinates>-80.6723789,-4.8901563,0.0</coordinates>
                </Point>
            </Placemark>
            <Placemark id="3542">
                <name>IRINA GORETTY HINSBI GONZALES</name>
                <description>Calle la Arena 203 Bellavista
Bellavista
Bellavista
Piura
Perú</description>
                <styleUrl>#3543</styleUrl>
                <Point id="3541">
                    <coordinates>-80.6739057,-4.8924116,0.0</coordinates>
                </Point>
            </Placemark>
            <Placemark id="3547">
                <name>MAGDALENA CORDOVA RUESTA DE ORTIZ</name>
                <description>Miraflores 210 - Bellavista
Bellavista
Bellavista
Piura
Perú</description>
                <styleUrl>#3548</styleUrl>
                <Point id="3546">
                    <coordinates>-80.672147,-4.8928486,0.0</coordinates>
                </Point>
            </Placemark>
            <Placemark id="3552">
                <name>CARMEN ALVARADO GLORIA DEL PILAR</name>
                <description>CARMEN ALVARADO GLORIA DEL PILAR
CA. SAN ISIDRO 246 AA. HH PORVENIR- BELLAVISTA
Bellavista
Bellavista
Piura
Perú</description>
                <styleUrl>#3553</styleUrl>
                <Point id="3551">
                    <coordinates>-80.6721912,-4.8917866,0.0</coordinates>
                </Point>
            </Placemark>
            <Placemark id="3557">
                <name>CARMEN ALVARADO GLORIA DEL PILAR</name>
                <description>CARMEN ALVARADO GLORIA DEL PILAR
CA. SAN ISIDRO 246 AA. HH PORVENIR- BELLAVISTA
Bellavista
Bellavista
Piura
Perú</description>
                <styleUrl>#3558</styleUrl>
                <Point id="3556">
                    <coordinates>-80.6721912,-4.8917866,0.0</coordinates>
                </Point>
            </Placemark>
            <Placemark id="3562">
                <name>ELIZABETH SANCHEZ GENNELL</name>
                <description>ELIZABETH SANCHEZ GENNELL
CA. SAN ISIDRO N 470 BAR. PORVENIR-BELLAVISTA
Bellavista
Bellavista
Piura
Perú</description>
                <styleUrl>#3563</styleUrl>
                <Point id="3561">
                    <coordinates>-80.6711911,-4.8902549,0.0</coordinates>
                </Point>
            </Placemark>
            <Placemark id="3567">
                <name>DOMINGO NAVARRO CARMEN</name>
                <description>CA.CATACAOS 465 AA. HH TUPAC AMARU- SULLANA
Bellavista
Sullana
Piura
Perú</description>
                <styleUrl>#3568</styleUrl>
                <Point id="3566">
                    <coordinates>-80.6715763,-4.8877986,0.0</coordinates>
                </Point>
            </Placemark>
            <Placemark id="3572">
                <name>JOSE ONOFRE ATOCHE HEREDIA</name>
                <description>CA.SAN ISIDRO 494 AH PORVEN
Bellavista
Bellavista
Piura
Perú</description>
                <styleUrl>#3573</styleUrl>
                <Point id="3571">
                    <coordinates>-80.6709839,-4.8900306,0.0</coordinates>
                </Point>
            </Placemark>
            <Placemark id="3577">
                <name>AGUILERA VIERA YESSICA</name>
                <description>TRANSV. LUCIANE MZ C LT 47 - BELLAVISTA
Bellavista
Bellavista
Piura
Perú</description>
                <styleUrl>#3578</styleUrl>
                <Point id="3576">
                    <coordinates>-80.670867,-4.8850287,0.0</coordinates>
                </Point>
            </Placemark>
            <Placemark id="3582">
                <name>LILIANA CASTILLO DIOSES</name>
                <description>CAL. CATACAOS MZ. A LT.23 - BELLAVI
Bellavista
Bellavista
Piura
Perú</description>
                <styleUrl>#3583</styleUrl>
                <Point id="3581">
                    <coordinates>-80.6710032,-4.8873196,0.0</coordinates>
                </Point>
            </Placemark>
            <Placemark id="3587">
                <name>NANCY TATIANA VILLASECA AGURTO</name>
                <description>CALLE LAMBAYEQUE 235 / SULLANA
Sullana
Sullana
Piura
Perú</description>
                <styleUrl>#3588</styleUrl>
                <Point id="3586">
                    <coordinates>-80.681479,-4.8903295,0.0</coordinates>
                </Point>
            </Placemark>
            <Placemark id="3592">
                <name>NANCY TATIANA VILLASECA AGURTO</name>
                <description>CALLE LAMBAYEQUE 235 / SULLANA
Sullana
Sullana
Piura
Perú</description>
                <styleUrl>#3593</styleUrl>
                <Point id="3591">
                    <coordinates>-80.681479,-4.8903295,0.0</coordinates>
                </Point>
            </Placemark>
            <Placemark id="3597">
                <name>MILAGROS DEL PILAR PANTA JUAREZ</name>
                <description>CA.RAMON CASTILLA  453
Bellavista
Bellavista
Piura
Perú</description>
                <styleUrl>#3598</styleUrl>
                <Point id="3596">
                    <coordinates>-80.6730658,-4.8892682,0.0</coordinates>
                </Point>
            </Placemark>
            <Placemark id="3602">
                <name>MICSI MARIBEL CASTILLO SALES</name>
                <description>Calle madre de Dios MZ D Lt 21 Bellavista
Sullana
Sullana
Piura
Perú</description>
                <styleUrl>#3603</styleUrl>
                <Point id="3601">
                    <coordinates>-80.6706605,-4.8832163,0.0</coordinates>
                </Point>
            </Placemark>
            <Placemark id="3607">
                <name>MARIA JOSEFINA FLORES MONTERO</name>
                <description>MARIA JOSEFINA FLORES MONTERO
HUANCAVELICA N 670
Bellavista
Bellavista
Piura
Perú</description>
                <styleUrl>#3608</styleUrl>
                <Point id="3606">
                    <coordinates>-80.6732531,-4.8857774,0.0</coordinates>
                </Point>
            </Placemark>
            <Placemark id="3612">
                <name>MARIA VIOLETA VILLALTA SIANCAS</name>
                <description>CA.MOQUEGUA MZ E LT 16
Bellavista
Bellavista
Piura
Perú</description>
                <styleUrl>#3613</styleUrl>
                <Point id="3611">
                    <coordinates>-80.673185,-4.8834074,0.0</coordinates>
                </Point>
            </Placemark>
            <Placemark id="3617">
                <name>ELIZABETH GLADYS NOLE GAMARRA</name>
                <description>Calle: Moquegua #845

Bellavista
Piura
Perú</description>
                <styleUrl>#3618</styleUrl>
                <Point id="3616">
                    <coordinates>-80.6739101,-4.8845458,0.0</coordinates>
                </Point>
            </Placemark>
            <Placemark id="3622">
                <name>ADITA ELIZABETH ORDINOLA GIRON</name>
                <description>Moquegua 713 - Bellavista
Bellavista
Bellavista
Piura
Perú</description>
                <styleUrl>#3623</styleUrl>
                <Point id="3621">
                    <coordinates>-80.6752099,-4.8861082,0.0</coordinates>
                </Point>
            </Placemark>
            <Placemark id="3627">
                <name>LISBETH ATOCHE DE LA CRUZ</name>
                <description>CA.JOBINO ARAMBULO 355 47-69
Bellavista
Bellavista
Piura
Perú</description>
                <styleUrl>#3628</styleUrl>
                <Point id="3626">
                    <coordinates>-80.6749912,-4.8853162,0.0</coordinates>
                </Point>
            </Placemark>
            <Placemark id="3632">
                <name>CRUZ RUTH GUINOCHIO DE DE LA</name>
                <description>JOVINO ARAMBULO 296 BELLAVISTA-SULL
Bellavista
Bellavista
Piura
Perú</description>
                <styleUrl>#3633</styleUrl>
                <Point id="3631">
                    <coordinates>-80.6760176,-4.8863652,0.0</coordinates>
                </Point>
            </Placemark>
            <Placemark id="3637">
                <name>DOLORES DELGADO CHOQUEHUANCA</name>
                <description>CUSCO 980 BELLAVISTA-SULLANA
Bellavista
Bellavista
Piura
Perú</description>
                <styleUrl>#3638</styleUrl>
                <Point id="3636">
                    <coordinates>-80.6755767,-4.8848078,0.0</coordinates>
                </Point>
            </Placemark>
            <Placemark id="3642">
                <name>AMPARO CASTILLO ATARAMA</name>
                <description>AMPARO CASTILLO ATARAMA
CA. JOSE CASTRO SILVA N 490 - BELLA
Bellavista
Bellavista
Piura
Perú</description>
                <styleUrl>#3643</styleUrl>
                <Point id="3641">
                    <coordinates>-80.6767322,-4.8854923,0.0</coordinates>
                </Point>
            </Placemark>
            <Placemark id="3647">
                <name>REYES MORE MARIA DEL PILAR</name>
                <description>REYES MORE MARIA DEL PILAR
CAJAMARCA 401.
Bellavista
Bellavista
Piura
Perú</description>
                <styleUrl>#3648</styleUrl>
                <Point id="3646">
                    <coordinates>-80.6803117,-4.8900085,0.0</coordinates>
                </Point>
            </Placemark>
            <Placemark id="3652">
                <name>YOLANDA MENA MIÑAN</name>
                <description>CA.LAMBAYEQUE 223 Bellavista
Sullana
Sullana
Piura
Perú</description>
                <styleUrl>#3653</styleUrl>
                <Point id="3651">
                    <coordinates>-80.6815074,-4.8903615,0.0</coordinates>
                </Point>
            </Placemark>
        </Folder>
        <Folder id="3656">
            <Style id="3659">
                <IconStyle id="3660">
                    <color>ffff0000</color>
                    <colorMode>normal</colorMode>
                    <scale>1</scale>
                    <heading>0</heading>
                    <Icon id="3661">
                        <href>http://maps.google.com/mapfiles/kml/pushpin/ylw-pushpin.png</href>
                    </Icon>
                </IconStyle>
            </Style>
            <Style id="3664">
                <IconStyle id="3665">
                    <color>ffff0000</color>
                    <colorMode>normal</colorMode>
                    <scale>1</scale>
                    <heading>0</heading>
                    <Icon id="3666">
                        <href>http://maps.google.com/mapfiles/kml/pushpin/ylw-pushpin.png</href>
                    </Icon>
                </IconStyle>
            </Style>
            <Style id="3669">
                <IconStyle id="3670">
                    <color>ffff0000</color>
                    <colorMode>normal</colorMode>
                    <scale>1</scale>
                    <heading>0</heading>
                    <Icon id="3671">
                        <href>http://maps.google.com/mapfiles/kml/pushpin/ylw-pushpin.png</href>
                    </Icon>
                </IconStyle>
            </Style>
            <Style id="3674">
                <IconStyle id="3675">
                    <color>ffff0000</color>
                    <colorMode>normal</colorMode>
                    <scale>1</scale>
                    <heading>0</heading>
                    <Icon id="3676">
                        <href>http://maps.google.com/mapfiles/kml/pushpin/ylw-pushpin.png</href>
                    </Icon>
                </IconStyle>
            </Style>
            <Style id="3679">
                <IconStyle id="3680">
                    <color>ffff0000</color>
                    <colorMode>normal</colorMode>
                    <scale>1</scale>
                    <heading>0</heading>
                    <Icon id="3681">
                        <href>http://maps.google.com/mapfiles/kml/pushpin/ylw-pushpin.png</href>
                    </Icon>
                </IconStyle>
            </Style>
            <Style id="3684">
                <IconStyle id="3685">
                    <color>ffff0000</color>
                    <colorMode>normal</colorMode>
                    <scale>1</scale>
                    <heading>0</heading>
                    <Icon id="3686">
                        <href>http://maps.google.com/mapfiles/kml/pushpin/ylw-pushpin.png</href>
                    </Icon>
                </IconStyle>
            </Style>
            <Style id="3689">
                <IconStyle id="3690">
                    <color>ffff0000</color>
                    <colorMode>normal</colorMode>
                    <scale>1</scale>
                    <heading>0</heading>
                    <Icon id="3691">
                        <href>http://maps.google.com/mapfiles/kml/pushpin/ylw-pushpin.png</href>
                    </Icon>
                </IconStyle>
            </Style>
            <Style id="3694">
                <IconStyle id="3695">
                    <color>ffff0000</color>
                    <colorMode>normal</colorMode>
                    <scale>1</scale>
                    <heading>0</heading>
                    <Icon id="3696">
                        <href>http://maps.google.com/mapfiles/kml/pushpin/ylw-pushpin.png</href>
                    </Icon>
                </IconStyle>
            </Style>
            <Style id="3699">
                <IconStyle id="3700">
                    <color>ffff0000</color>
                    <colorMode>normal</colorMode>
                    <scale>1</scale>
                    <heading>0</heading>
                    <Icon id="3701">
                        <href>http://maps.google.com/mapfiles/kml/pushpin/ylw-pushpin.png</href>
                    </Icon>
                </IconStyle>
            </Style>
            <Style id="3704">
                <IconStyle id="3705">
                    <color>ffff0000</color>
                    <colorMode>normal</colorMode>
                    <scale>1</scale>
                    <heading>0</heading>
                    <Icon id="3706">
                        <href>http://maps.google.com/mapfiles/kml/pushpin/ylw-pushpin.png</href>
                    </Icon>
                </IconStyle>
            </Style>
            <Style id="3709">
                <IconStyle id="3710">
                    <color>ffff0000</color>
                    <colorMode>normal</colorMode>
                    <scale>1</scale>
                    <heading>0</heading>
                    <Icon id="3711">
                        <href>http://maps.google.com/mapfiles/kml/pushpin/ylw-pushpin.png</href>
                    </Icon>
                </IconStyle>
            </Style>
            <Style id="3714">
                <IconStyle id="3715">
                    <color>ffff0000</color>
                    <colorMode>normal</colorMode>
                    <scale>1</scale>
                    <heading>0</heading>
                    <Icon id="3716">
                        <href>http://maps.google.com/mapfiles/kml/pushpin/ylw-pushpin.png</href>
                    </Icon>
                </IconStyle>
            </Style>
            <Style id="3719">
                <IconStyle id="3720">
                    <color>ffff0000</color>
                    <colorMode>normal</colorMode>
                    <scale>1</scale>
                    <heading>0</heading>
                    <Icon id="3721">
                        <href>http://maps.google.com/mapfiles/kml/pushpin/ylw-pushpin.png</href>
                    </Icon>
                </IconStyle>
            </Style>
            <Style id="3724">
                <IconStyle id="3725">
                    <color>ffff0000</color>
                    <colorMode>normal</colorMode>
                    <scale>1</scale>
                    <heading>0</heading>
                    <Icon id="3726">
                        <href>http://maps.google.com/mapfiles/kml/pushpin/ylw-pushpin.png</href>
                    </Icon>
                </IconStyle>
            </Style>
            <Style id="3729">
                <IconStyle id="3730">
                    <color>ffff0000</color>
                    <colorMode>normal</colorMode>
                    <scale>1</scale>
                    <heading>0</heading>
                    <Icon id="3731">
                        <href>http://maps.google.com/mapfiles/kml/pushpin/ylw-pushpin.png</href>
                    </Icon>
                </IconStyle>
            </Style>
            <Style id="3734">
                <IconStyle id="3735">
                    <color>ffff0000</color>
                    <colorMode>normal</colorMode>
                    <scale>1</scale>
                    <heading>0</heading>
                    <Icon id="3736">
                        <href>http://maps.google.com/mapfiles/kml/pushpin/ylw-pushpin.png</href>
                    </Icon>
                </IconStyle>
            </Style>
            <Style id="3739">
                <IconStyle id="3740">
                    <color>ffff0000</color>
                    <colorMode>normal</colorMode>
                    <scale>1</scale>
                    <heading>0</heading>
                    <Icon id="3741">
                        <href>http://maps.google.com/mapfiles/kml/pushpin/ylw-pushpin.png</href>
                    </Icon>
                </IconStyle>
            </Style>
            <Style id="3744">
                <IconStyle id="3745">
                    <color>ffff0000</color>
                    <colorMode>normal</colorMode>
                    <scale>1</scale>
                    <heading>0</heading>
                    <Icon id="3746">
                        <href>http://maps.google.com/mapfiles/kml/pushpin/ylw-pushpin.png</href>
                    </Icon>
                </IconStyle>
            </Style>
            <Style id="3749">
                <IconStyle id="3750">
                    <color>ffff0000</color>
                    <colorMode>normal</colorMode>
                    <scale>1</scale>
                    <heading>0</heading>
                    <Icon id="3751">
                        <href>http://maps.google.com/mapfiles/kml/pushpin/ylw-pushpin.png</href>
                    </Icon>
                </IconStyle>
            </Style>
            <Style id="3754">
                <IconStyle id="3755">
                    <color>ffff0000</color>
                    <colorMode>normal</colorMode>
                    <scale>1</scale>
                    <heading>0</heading>
                    <Icon id="3756">
                        <href>http://maps.google.com/mapfiles/kml/pushpin/ylw-pushpin.png</href>
                    </Icon>
                </IconStyle>
            </Style>
            <Style id="3759">
                <IconStyle id="3760">
                    <color>ffff0000</color>
                    <colorMode>normal</colorMode>
                    <scale>1</scale>
                    <heading>0</heading>
                    <Icon id="3761">
                        <href>http://maps.google.com/mapfiles/kml/pushpin/ylw-pushpin.png</href>
                    </Icon>
                </IconStyle>
            </Style>
            <Style id="3764">
                <IconStyle id="3765">
                    <color>ffff0000</color>
                    <colorMode>normal</colorMode>
                    <scale>1</scale>
                    <heading>0</heading>
                    <Icon id="3766">
                        <href>http://maps.google.com/mapfiles/kml/pushpin/ylw-pushpin.png</href>
                    </Icon>
                </IconStyle>
            </Style>
            <Style id="3769">
                <IconStyle id="3770">
                    <color>ffff0000</color>
                    <colorMode>normal</colorMode>
                    <scale>1</scale>
                    <heading>0</heading>
                    <Icon id="3771">
                        <href>http://maps.google.com/mapfiles/kml/pushpin/ylw-pushpin.png</href>
                    </Icon>
                </IconStyle>
            </Style>
            <Style id="3774">
                <IconStyle id="3775">
                    <color>ffff0000</color>
                    <colorMode>normal</colorMode>
                    <scale>1</scale>
                    <heading>0</heading>
                    <Icon id="3776">
                        <href>http://maps.google.com/mapfiles/kml/pushpin/ylw-pushpin.png</href>
                    </Icon>
                </IconStyle>
            </Style>
            <Style id="3779">
                <IconStyle id="3780">
                    <color>ffff0000</color>
                    <colorMode>normal</colorMode>
                    <scale>1</scale>
                    <heading>0</heading>
                    <Icon id="3781">
                        <href>http://maps.google.com/mapfiles/kml/pushpin/ylw-pushpin.png</href>
                    </Icon>
                </IconStyle>
            </Style>
            <Style id="3784">
                <IconStyle id="3785">
                    <color>ffff0000</color>
                    <colorMode>normal</colorMode>
                    <scale>1</scale>
                    <heading>0</heading>
                    <Icon id="3786">
                        <href>http://maps.google.com/mapfiles/kml/pushpin/ylw-pushpin.png</href>
                    </Icon>
                </IconStyle>
            </Style>
            <Style id="3789">
                <IconStyle id="3790">
                    <color>ffff0000</color>
                    <colorMode>normal</colorMode>
                    <scale>1</scale>
                    <heading>0</heading>
                    <Icon id="3791">
                        <href>http://maps.google.com/mapfiles/kml/pushpin/ylw-pushpin.png</href>
                    </Icon>
                </IconStyle>
            </Style>
            <Style id="3794">
                <IconStyle id="3795">
                    <color>ffff0000</color>
                    <colorMode>normal</colorMode>
                    <scale>1</scale>
                    <heading>0</heading>
                    <Icon id="3796">
                        <href>http://maps.google.com/mapfiles/kml/pushpin/ylw-pushpin.png</href>
                    </Icon>
                </IconStyle>
            </Style>
            <Style id="3799">
                <IconStyle id="3800">
                    <color>ffff0000</color>
                    <colorMode>normal</colorMode>
                    <scale>1</scale>
                    <heading>0</heading>
                    <Icon id="3801">
                        <href>http://maps.google.com/mapfiles/kml/pushpin/ylw-pushpin.png</href>
                    </Icon>
                </IconStyle>
            </Style>
            <Style id="3804">
                <IconStyle id="3805">
                    <color>ffff0000</color>
                    <colorMode>normal</colorMode>
                    <scale>1</scale>
                    <heading>0</heading>
                    <Icon id="3806">
                        <href>http://maps.google.com/mapfiles/kml/pushpin/ylw-pushpin.png</href>
                    </Icon>
                </IconStyle>
            </Style>
            <Style id="3809">
                <IconStyle id="3810">
                    <color>ffff0000</color>
                    <colorMode>normal</colorMode>
                    <scale>1</scale>
                    <heading>0</heading>
                    <Icon id="3811">
                        <href>http://maps.google.com/mapfiles/kml/pushpin/ylw-pushpin.png</href>
                    </Icon>
                </IconStyle>
            </Style>
            <Style id="3814">
                <IconStyle id="3815">
                    <color>ffff0000</color>
                    <colorMode>normal</colorMode>
                    <scale>1</scale>
                    <heading>0</heading>
                    <Icon id="3816">
                        <href>http://maps.google.com/mapfiles/kml/pushpin/ylw-pushpin.png</href>
                    </Icon>
                </IconStyle>
            </Style>
            <Style id="3819">
                <IconStyle id="3820">
                    <color>ffff0000</color>
                    <colorMode>normal</colorMode>
                    <scale>1</scale>
                    <heading>0</heading>
                    <Icon id="3821">
                        <href>http://maps.google.com/mapfiles/kml/pushpin/ylw-pushpin.png</href>
                    </Icon>
                </IconStyle>
            </Style>
            <Style id="3824">
                <IconStyle id="3825">
                    <color>ffff0000</color>
                    <colorMode>normal</colorMode>
                    <scale>1</scale>
                    <heading>0</heading>
                    <Icon id="3826">
                        <href>http://maps.google.com/mapfiles/kml/pushpin/ylw-pushpin.png</href>
                    </Icon>
                </IconStyle>
            </Style>
            <Style id="3829">
                <IconStyle id="3830">
                    <color>ffff0000</color>
                    <colorMode>normal</colorMode>
                    <scale>1</scale>
                    <heading>0</heading>
                    <Icon id="3831">
                        <href>http://maps.google.com/mapfiles/kml/pushpin/ylw-pushpin.png</href>
                    </Icon>
                </IconStyle>
            </Style>
            <Style id="3834">
                <IconStyle id="3835">
                    <color>ffff0000</color>
                    <colorMode>normal</colorMode>
                    <scale>1</scale>
                    <heading>0</heading>
                    <Icon id="3836">
                        <href>http://maps.google.com/mapfiles/kml/pushpin/ylw-pushpin.png</href>
                    </Icon>
                </IconStyle>
            </Style>
            <Style id="3839">
                <IconStyle id="3840">
                    <color>ffff0000</color>
                    <colorMode>normal</colorMode>
                    <scale>1</scale>
                    <heading>0</heading>
                    <Icon id="3841">
                        <href>http://maps.google.com/mapfiles/kml/pushpin/ylw-pushpin.png</href>
                    </Icon>
                </IconStyle>
            </Style>
            <Style id="3844">
                <IconStyle id="3845">
                    <color>ffff0000</color>
                    <colorMode>normal</colorMode>
                    <scale>1</scale>
                    <heading>0</heading>
                    <Icon id="3846">
                        <href>http://maps.google.com/mapfiles/kml/pushpin/ylw-pushpin.png</href>
                    </Icon>
                </IconStyle>
            </Style>
            <Style id="3849">
                <IconStyle id="3850">
                    <color>ffff0000</color>
                    <colorMode>normal</colorMode>
                    <scale>1</scale>
                    <heading>0</heading>
                    <Icon id="3851">
                        <href>http://maps.google.com/mapfiles/kml/pushpin/ylw-pushpin.png</href>
                    </Icon>
                </IconStyle>
            </Style>
            <Style id="3854">
                <IconStyle id="3855">
                    <color>ffff0000</color>
                    <colorMode>normal</colorMode>
                    <scale>1</scale>
                    <heading>0</heading>
                    <Icon id="3856">
                        <href>http://maps.google.com/mapfiles/kml/pushpin/ylw-pushpin.png</href>
                    </Icon>
                </IconStyle>
            </Style>
            <Style id="3859">
                <IconStyle id="3860">
                    <color>ffff0000</color>
                    <colorMode>normal</colorMode>
                    <scale>1</scale>
                    <heading>0</heading>
                    <Icon id="3861">
                        <href>http://maps.google.com/mapfiles/kml/pushpin/ylw-pushpin.png</href>
                    </Icon>
                </IconStyle>
            </Style>
            <Style id="3864">
                <IconStyle id="3865">
                    <color>ffff0000</color>
                    <colorMode>normal</colorMode>
                    <scale>1</scale>
                    <heading>0</heading>
                    <Icon id="3866">
                        <href>http://maps.google.com/mapfiles/kml/pushpin/ylw-pushpin.png</href>
                    </Icon>
                </IconStyle>
            </Style>
            <Style id="3869">
                <IconStyle id="3870">
                    <color>ffff0000</color>
                    <colorMode>normal</colorMode>
                    <scale>1</scale>
                    <heading>0</heading>
                    <Icon id="3871">
                        <href>http://maps.google.com/mapfiles/kml/pushpin/ylw-pushpin.png</href>
                    </Icon>
                </IconStyle>
            </Style>
            <Style id="3874">
                <IconStyle id="3875">
                    <color>ffff0000</color>
                    <colorMode>normal</colorMode>
                    <scale>1</scale>
                    <heading>0</heading>
                    <Icon id="3876">
                        <href>http://maps.google.com/mapfiles/kml/pushpin/ylw-pushpin.png</href>
                    </Icon>
                </IconStyle>
            </Style>
            <Style id="3879">
                <IconStyle id="3880">
                    <color>ffff0000</color>
                    <colorMode>normal</colorMode>
                    <scale>1</scale>
                    <heading>0</heading>
                    <Icon id="3881">
                        <href>http://maps.google.com/mapfiles/kml/pushpin/ylw-pushpin.png</href>
                    </Icon>
                </IconStyle>
            </Style>
            <Style id="3884">
                <IconStyle id="3885">
                    <color>ffff0000</color>
                    <colorMode>normal</colorMode>
                    <scale>1</scale>
                    <heading>0</heading>
                    <Icon id="3886">
                        <href>http://maps.google.com/mapfiles/kml/pushpin/ylw-pushpin.png</href>
                    </Icon>
                </IconStyle>
            </Style>
            <Style id="3889">
                <IconStyle id="3890">
                    <color>ffff0000</color>
                    <colorMode>normal</colorMode>
                    <scale>1</scale>
                    <heading>0</heading>
                    <Icon id="3891">
                        <href>http://maps.google.com/mapfiles/kml/pushpin/ylw-pushpin.png</href>
                    </Icon>
                </IconStyle>
            </Style>
            <name>WILLIAN ALEJANDRO HERRERA MORAN</name>
            <Placemark id="3658">
                <name>SANTOS JESSICA CASTILLO CORREA</name>
                <description>AV. BUENOS AIRES CUADRA LT 2 MCDO.7
Sullana
Sullana
Piura
Perú</description>
                <styleUrl>#3659</styleUrl>
                <Point id="3657">
                    <coordinates>-80.6823289,-4.8947052,0.0</coordinates>
                </Point>
            </Placemark>
            <Placemark id="3663">
                <name>PAREDES AGUIRRE ELIAS DANY</name>
                <description>Mercado buenos aires 100 ref al lado del pollo ricoton
Sullana
Sullana
Piura
Perú</description>
                <styleUrl>#3664</styleUrl>
                <Point id="3662">
                    <coordinates>-80.6823574,-4.894405,0.0</coordinates>
                </Point>
            </Placemark>
            <Placemark id="3668">
                <name>ESTEFANY BRICHELLY PEÑA SOSA</name>
                <description>Cqllebel rosal 104 - mallares
Marcavelica

Piura
Perú</description>
                <styleUrl>#3669</styleUrl>
                <Point id="3667">
                    <coordinates>-80.7690667,-4.8596921,0.0</coordinates>
                </Point>
            </Placemark>
            <Placemark id="3673">
                <name>GINA ROXANA PALOMINO ADANAQUE</name>
                <description>Calle 3 Mayo #100 Barrio Fe y Alegría
Marcavelica
Marcavelica
Piura
Perú</description>
                <styleUrl>#3674</styleUrl>
                <Point id="3672">
                    <coordinates>-80.7721587,-4.8616441,0.0</coordinates>
                </Point>
            </Placemark>
            <Placemark id="3678">
                <name>ISABEL DIOSES CORREA DE VITE</name>
                <description>AV SAN MARTIN S/N SANTA SOFIA SULLANA-SULLANA
Ignacio Escudero
Ignacio Escudero
Piura
Perú</description>
                <styleUrl>#3679</styleUrl>
                <Point id="3677">
                    <coordinates>-80.8397712,-4.8858645,0.0</coordinates>
                </Point>
            </Placemark>
            <Placemark id="3683">
                <name>ZAIDA DIOSES ROA</name>
                <description>Av.Grau#03 santa Sofía
Ignacio Escudero

Piura
Perú</description>
                <styleUrl>#3684</styleUrl>
                <Point id="3682">
                    <coordinates>-80.839996,-4.885523,0.0</coordinates>
                </Point>
            </Placemark>
            <Placemark id="3688">
                <name>RENY SILVA CANOVA</name>
                <description>AV.GRAU N°21-A-SANTA SOFIA-SULLANA-SULLANA
Ignacio Escudero
Ignacio Escudero
Piura
Perú</description>
                <styleUrl>#3689</styleUrl>
                <Point id="3687">
                    <coordinates>-80.8393763,-4.8851343,0.0</coordinates>
                </Point>
            </Placemark>
            <Placemark id="3693">
                <name>DORIS DIAZ OQUENDO</name>
                <description>Calle Grau 43 santa Sofía
Marcavelica

Piura
Perú</description>
                <styleUrl>#3694</styleUrl>
                <Point id="3692">
                    <coordinates>-80.8385701,-4.88471,0.0</coordinates>
                </Point>
            </Placemark>
            <Placemark id="3698">
                <name>ETELVINA JAQUELINE NAVARRO GIRON</name>
                <description>Psje Estadio NRO 4 CP Santa Sofía
Ignacio Escudero
Sullana
Piura
Perú</description>
                <styleUrl>#3699</styleUrl>
                <Point id="3697">
                    <coordinates>-80.8369589,-4.8831308,0.0</coordinates>
                </Point>
            </Placemark>
            <Placemark id="3703">
                <name>MONICA DEL PILAR ARCA FERNANDEZ</name>
                <description>Pasaje estadio S/N santa Sofía
Ignacio Escudero
Sullana
Piura
Perú</description>
                <styleUrl>#3704</styleUrl>
                <Point id="3702">
                    <coordinates>-80.8374966,-4.8830347,0.0</coordinates>
                </Point>
            </Placemark>
            <Placemark id="3708">
                <name>CHAVEZ FERIA CRUZ CARMEN</name>
                <description>CHAVEZ FERIA CRUZ CARMEN
Calle Miguel Grau # 133 Santa Sofía
Ignacio Escudero
Ignacio Escudero
Piura
Perú</description>
                <styleUrl>#3709</styleUrl>
                <Point id="3707">
                    <coordinates>-80.8353628,-4.8822494,0.0</coordinates>
                </Point>
            </Placemark>
            <Placemark id="3713">
                <name>VIVIANA DIOSES CORREA</name>
                <description>Av Grau # 117 - Santa Sofía
Ignacio Escudero
Ignacio Escudero
Piura
Perú</description>
                <styleUrl>#3714</styleUrl>
                <Point id="3712">
                    <coordinates>-80.8356617,-4.8826806,0.0</coordinates>
                </Point>
            </Placemark>
            <Placemark id="3718">
                <name>KARINA VALDIVIEZO CORREA</name>
                <description>AV GRAU #85 SANTA SOFIA
Ignacio Escudero
Ignacio Escudero
Piura
Perú</description>
                <styleUrl>#3719</styleUrl>
                <Point id="3717">
                    <coordinates>-80.8368977,-4.8835452,0.0</coordinates>
                </Point>
            </Placemark>
            <Placemark id="3723">
                <name>NELLY FREDELINDA ZAPATA CARRANZA</name>
                <description>CALLE GRAU 81 - Santa Sofía
Ignacio Escudero
Ignacio Escudero
Piura
Perú</description>
                <styleUrl>#3724</styleUrl>
                <Point id="3722">
                    <coordinates>-80.8369019,-4.8835701,0.0</coordinates>
                </Point>
            </Placemark>
            <Placemark id="3728">
                <name>MARIA REYNA PEÑA LEJABO</name>
                <description>SANCHE SERRO 09 - Santa Sofía
Ignacio Escudero
Ignacio Escudero
Piura
Perú</description>
                <styleUrl>#3729</styleUrl>
                <Point id="3727">
                    <coordinates>-80.8389668,-4.8856372,0.0</coordinates>
                </Point>
            </Placemark>
            <Placemark id="3733">
                <name>MARIA MAGDALENA ZAPATA CHERO</name>
                <description>Av Sánchez Cerro 46 - Santa Sofía
Ignacio Escudero
Ignacio Escudero
Piura
Perú</description>
                <styleUrl>#3734</styleUrl>
                <Point id="3732">
                    <coordinates>-80.8372494,-4.8843136,0.0</coordinates>
                </Point>
            </Placemark>
            <Placemark id="3738">
                <name>CRISTINA VALDIVIEZO CORREA</name>
                <description>Calle Sanchez cerro s/n - Santa Sofía
Ignacio Escudero
Ignacio Escudero
Piura
Perú</description>
                <styleUrl>#3739</styleUrl>
                <Point id="3737">
                    <coordinates>-80.8363913,-4.8838448,0.0</coordinates>
                </Point>
            </Placemark>
            <Placemark id="3743">
                <name>BETTY ELIANA ALBURQUEQUE NIZAMA</name>
                <description>Pampa nueva S/N Santa Sofía
Ignacio Escudero
Ignacio Escudero
Piura
Perú</description>
                <styleUrl>#3744</styleUrl>
                <Point id="3742">
                    <coordinates>-80.8338371,-4.883799,0.0</coordinates>
                </Point>
            </Placemark>
            <Placemark id="3748">
                <name>SANTOS ALICIA ZAPATA ELIZALDE</name>
                <description>Calle Francisco Pizarro S/N - Tangarara
Marcavelica
Marcavelica
Piura
Perú</description>
                <styleUrl>#3749</styleUrl>
                <Point id="3747">
                    <coordinates>-80.8242346,-4.8870411,0.0</coordinates>
                </Point>
            </Placemark>
            <Placemark id="3753">
                <name>JOSE SANTOS RUIZ CRUZ</name>
                <description>Av Pizarro MZ A LT 49 caserío Tangarara
Marcavelica
Marcavelica
Piura
Perú</description>
                <styleUrl>#3754</styleUrl>
                <Point id="3752">
                    <coordinates>-80.8231212,-4.8861478,0.0</coordinates>
                </Point>
            </Placemark>
            <Placemark id="3758">
                <name>DIANA MARIELA GUTIERREZ LLOCLLA</name>
                <description>PEAJE RICARDO PALMA  01-SULLANA-Monteron
Marcavelica
Marcavelica
Piura
Perú</description>
                <styleUrl>#3759</styleUrl>
                <Point id="3757">
                    <coordinates>-80.7990048,-4.8767106,0.0</coordinates>
                </Point>
            </Placemark>
            <Placemark id="3763">
                <name>JUANA ESMERALDA ARCA SANDOVAL</name>
                <description>AV ALFONSO UGARTE #02 MONTERON SULLANA-SULLANA
Marcavelica
Marcavelica
Piura
Perú</description>
                <styleUrl>#3764</styleUrl>
                <Point id="3762">
                    <coordinates>-80.7992663,-4.878782,0.0</coordinates>
                </Point>
            </Placemark>
            <Placemark id="3768">
                <name>KIARA CELINA SALAZAR GONZALES</name>
                <description>CALLE MIGUEL GRAU 029 - Monteron
Marcavelica
Marcavelica
Piura
Perú</description>
                <styleUrl>#3769</styleUrl>
                <Point id="3767">
                    <coordinates>-80.7996508,-4.8781383,0.0</coordinates>
                </Point>
            </Placemark>
            <Placemark id="3773">
                <name>SALDARRIAGA RAMIREZ SANTOS CONCEPCION</name>
                <description>SALDARRIAGA RAMIREZ SANTOS CONCEPCION
Calle Miguel Grau 029 Caserío Monteron
Marcavelica
Marcavelica
Piura
Perú</description>
                <styleUrl>#3774</styleUrl>
                <Point id="3772">
                    <coordinates>-80.800241,-4.8788287,0.0</coordinates>
                </Point>
            </Placemark>
            <Placemark id="3778">
                <name>MIRTHA ALICIA SAAVEDRA GONZALES</name>
                <description>AVELARDO QUIÑONES S/N CASERÍO MONTERON SULLANA-SULLANA
Marcavelica
Marcavelica
Piura
Perú</description>
                <styleUrl>#3779</styleUrl>
                <Point id="3777">
                    <coordinates>-80.8009905,-4.8789191,0.0</coordinates>
                </Point>
            </Placemark>
            <Placemark id="3783">
                <name>ELISA SALDARRIAGA MEJIAS</name>
                <description>Calle Miguel Grau 07-B Caserío Monteron
Marcavelica
Marcavelica
Piura
Perú</description>
                <styleUrl>#3784</styleUrl>
                <Point id="3782">
                    <coordinates>-80.8019473,-4.8793056,0.0</coordinates>
                </Point>
            </Placemark>
            <Placemark id="3788">
                <name>Natividad Pascuala Suárez Ojeda</name>
                <description>Av Miguel Grau 049 - Monteron
Marcavelica
Marcavelica
Piura
Perú</description>
                <styleUrl>#3789</styleUrl>
                <Point id="3787">
                    <coordinates>-80.7993094,-4.8757853,0.0</coordinates>
                </Point>
            </Placemark>
            <Placemark id="3793">
                <name>LAURA CANOVA DE CHAVEZ</name>
                <description>Av Miguel Grau 057 Caserío Monteron
Marcavelica
Marcavelica
Piura
Perú</description>
                <styleUrl>#3794</styleUrl>
                <Point id="3792">
                    <coordinates>-80.7985066,-4.8749384,0.0</coordinates>
                </Point>
            </Placemark>
            <Placemark id="3798">
                <name>LOURDES ATOCHE SANDOVAL</name>
                <description>Av Miguel Grau 066 Monteron
Marcavelica
Marcavelica
Piura
Perú</description>
                <styleUrl>#3799</styleUrl>
                <Point id="3797">
                    <coordinates>-80.7985862,-4.8748585,0.0</coordinates>
                </Point>
            </Placemark>
            <Placemark id="3803">
                <name>CHARITO ISABEL GONZALES SALDARRIAGA</name>
                <description>QPASAJE LOS JAMINES 109 - A MALLARES
Mallaritos
Mallaritos
Piura
Perú</description>
                <styleUrl>#3804</styleUrl>
                <Point id="3802">
                    <coordinates>-80.7706911,-4.861548,0.0</coordinates>
                </Point>
            </Placemark>
            <Placemark id="3808">
                <name>SERNAQUE PAULINI KARINA</name>
                <description>CA.VISTA FLORIDA M-37
Marcavelica
Marcavelica
Piura
Perú</description>
                <styleUrl>#3809</styleUrl>
                <Point id="3807">
                    <coordinates>-80.7382231,-4.8781103,0.0</coordinates>
                </Point>
            </Placemark>
            <Placemark id="3813">
                <name>MELIZA ISABEL CORREA CIEZA</name>
                <description>Calle 10 de marzo
Marcavelica

Piura
Perú</description>
                <styleUrl>#3814</styleUrl>
                <Point id="3812">
                    <coordinates>-80.7372784,-4.8764006,0.0</coordinates>
                </Point>
            </Placemark>
            <Placemark id="3818">
                <name>CESPEDES SANDOVAL URSULINA</name>
                <description>BOLOGNESI Nº 105 MALLA
Marcavelica
Marcavelica
Piura
Perú</description>
                <styleUrl>#3819</styleUrl>
                <Point id="3817">
                    <coordinates>-80.7176073,-4.8690464,0.0</coordinates>
                </Point>
            </Placemark>
            <Placemark id="3823">
                <name>CORREA OJEDA ANYELA VERONICA</name>
                <description>AV.PANAMERICANA MZ.G3-15
Marcavelica
Marcavelica
Piura
Perú</description>
                <styleUrl>#3824</styleUrl>
                <Point id="3822">
                    <coordinates>-80.7191811,-4.8686128,0.0</coordinates>
                </Point>
            </Placemark>
            <Placemark id="3828">
                <name>ALBURQUEQUE SILVA JESUS</name>
                <description>CA.BOLIVAR MALLARITOS LL2.12
Marcavelica
Marcavelica
Piura
Perú</description>
                <styleUrl>#3829</styleUrl>
                <Point id="3827">
                    <coordinates>-80.7203797,-4.8664842,0.0</coordinates>
                </Point>
            </Placemark>
            <Placemark id="3833">
                <name>VICTORIA GARCIA CORDOVA</name>
                <description>CA. PIURA 105 - QUERECOTILLO
Marcavelica
Marcavelica
Piura
Perú</description>
                <styleUrl>#3834</styleUrl>
                <Point id="3832">
                    <coordinates>-80.7196993,-4.8672129,0.0</coordinates>
                </Point>
            </Placemark>
            <Placemark id="3838">
                <name>ACUÑA GOYCOCHEA   BREMILDA</name>
                <description>PSJ.CHAVEZ 203 MALLARITO
Marcavelica
Marcavelica
Piura
Perú</description>
                <styleUrl>#3839</styleUrl>
                <Point id="3837">
                    <coordinates>-80.7177189,-4.8670875,0.0</coordinates>
                </Point>
            </Placemark>
            <Placemark id="3843">
                <name>LILIAN PAOLA CASTILLO MAURICIO</name>
                <description>ASENTAMIENTO HUMANO 2
Marcavelica
Marcavelica
Piura
Perú</description>
                <styleUrl>#3844</styleUrl>
                <Point id="3842">
                    <coordinates>-80.7180942,-4.8677275,0.0</coordinates>
                </Point>
            </Placemark>
            <Placemark id="3848">
                <name>VICTORIA PAZ ORTIZ AGURTO</name>
                <description>VICTORIA PAZ ORTIZ AGURTO
CAL.LIBERTAD NRO. 129 CAS. MALLARIT
Marcavelica
Marcavelica
Piura
Perú</description>
                <styleUrl>#3849</styleUrl>
                <Point id="3847">
                    <coordinates>-80.7170847,-4.8683335,0.0</coordinates>
                </Point>
            </Placemark>
            <Placemark id="3853">
                <name>CESPEDES OLAYA ELIDA</name>
                <description>SALAVERRY 161 MALLARITOS
Marcavelica
Marcavelica
Piura
Perú</description>
                <styleUrl>#3854</styleUrl>
                <Point id="3852">
                    <coordinates>-80.7175564,-4.8663399,0.0</coordinates>
                </Point>
            </Placemark>
            <Placemark id="3858">
                <name>GONZALES MORAN DIANA</name>
                <description>CA.M.CHECA.104 MALLARITOS
Marcavelica
Marcavelica
Piura
Perú</description>
                <styleUrl>#3859</styleUrl>
                <Point id="3857">
                    <coordinates>-80.7196076,-4.8663029,0.0</coordinates>
                </Point>
            </Placemark>
            <Placemark id="3863">
                <name>ROSA ELVIRA CASTILLO ENCALADA</name>
                <description>ROSA ELVIRA CASTILLO ENCALADA
AV EL PUENTE SN
Marcavelica
Marcavelica
Piura
Perú</description>
                <styleUrl>#3864</styleUrl>
                <Point id="3862">
                    <coordinates>-80.7259245,-4.8575504,0.0</coordinates>
                </Point>
            </Placemark>
            <Placemark id="3868">
                <name>VALLADARES CARRASCO ROSAURA</name>
                <description>CA.LA QUINTA SN MALLARITO
Marcavelica
Marcavelica
Piura
Perú</description>
                <styleUrl>#3869</styleUrl>
                <Point id="3867">
                    <coordinates>-80.7255779,-4.8560366,0.0</coordinates>
                </Point>
            </Placemark>
            <Placemark id="3873">
                <name>TERESITA VELASQUEZ PURIZACA</name>
                <description>La quinta
Marcavelica
Marcavelica
Piura
Perú</description>
                <styleUrl>#3874</styleUrl>
                <Point id="3872">
                    <coordinates>-80.7253552,-4.8546622,0.0</coordinates>
                </Point>
            </Placemark>
            <Placemark id="3878">
                <name>SANDOVAL DE OJEDA SANTOS</name>
                <description>R.CASTILLA 138 MALLARITOS
Marcavelica
Marcavelica
Piura
Perú</description>
                <styleUrl>#3879</styleUrl>
                <Point id="3877">
                    <coordinates>-80.7185688,-4.8708361,0.0</coordinates>
                </Point>
            </Placemark>
            <Placemark id="3883">
                <name>MAURICIO CASTRO SOFIA M.</name>
                <description>CA.SAN MIGUEL 123 MALLARITOS
Marcavelica
Marcavelica
Piura
Perú</description>
                <styleUrl>#3884</styleUrl>
                <Point id="3882">
                    <coordinates>-80.7181154,-4.8713635,0.0</coordinates>
                </Point>
            </Placemark>
            <Placemark id="3888">
                <name>LUZMARINA SANCHEZ SANCHEZ</name>
                <description>PANAMERIC NÂ¬117 MALLARITOS
Marcavelica
Marcavelica
Piura
Perú</description>
                <styleUrl>#3889</styleUrl>
                <Point id="3887">
                    <coordinates>-80.7160441,-4.8709385,0.0</coordinates>
                </Point>
            </Placemark>
        </Folder>
    </Document>
</kml>
