<?xml version="1.0" encoding="UTF-8"?>
<kml xmlns="http://www.opengis.net/kml/2.2" xmlns:gx="http://www.google.com/kml/ext/2.2">
    <Document id="1951">
        <Folder id="1952">
            <Style id="1955">
                <IconStyle id="1956">
                    <color>ff0000ff</color>
                    <colorMode>normal</colorMode>
                    <scale>1</scale>
                    <heading>0</heading>
                    <Icon id="1957">
                        <href>http://maps.google.com/mapfiles/kml/pushpin/ylw-pushpin.png</href>
                    </Icon>
                </IconStyle>
            </Style>
            <Style id="1960">
                <IconStyle id="1961">
                    <color>ff0000ff</color>
                    <colorMode>normal</colorMode>
                    <scale>1</scale>
                    <heading>0</heading>
                    <Icon id="1962">
                        <href>http://maps.google.com/mapfiles/kml/pushpin/ylw-pushpin.png</href>
                    </Icon>
                </IconStyle>
            </Style>
            <Style id="1965">
                <IconStyle id="1966">
                    <color>ff0000ff</color>
                    <colorMode>normal</colorMode>
                    <scale>1</scale>
                    <heading>0</heading>
                    <Icon id="1967">
                        <href>http://maps.google.com/mapfiles/kml/pushpin/ylw-pushpin.png</href>
                    </Icon>
                </IconStyle>
            </Style>
            <Style id="1970">
                <IconStyle id="1971">
                    <color>ff0000ff</color>
                    <colorMode>normal</colorMode>
                    <scale>1</scale>
                    <heading>0</heading>
                    <Icon id="1972">
                        <href>http://maps.google.com/mapfiles/kml/pushpin/ylw-pushpin.png</href>
                    </Icon>
                </IconStyle>
            </Style>
            <Style id="1975">
                <IconStyle id="1976">
                    <color>ff0000ff</color>
                    <colorMode>normal</colorMode>
                    <scale>1</scale>
                    <heading>0</heading>
                    <Icon id="1977">
                        <href>http://maps.google.com/mapfiles/kml/pushpin/ylw-pushpin.png</href>
                    </Icon>
                </IconStyle>
            </Style>
            <Style id="1980">
                <IconStyle id="1981">
                    <color>ff0000ff</color>
                    <colorMode>normal</colorMode>
                    <scale>1</scale>
                    <heading>0</heading>
                    <Icon id="1982">
                        <href>http://maps.google.com/mapfiles/kml/pushpin/ylw-pushpin.png</href>
                    </Icon>
                </IconStyle>
            </Style>
            <Style id="1985">
                <IconStyle id="1986">
                    <color>ff0000ff</color>
                    <colorMode>normal</colorMode>
                    <scale>1</scale>
                    <heading>0</heading>
                    <Icon id="1987">
                        <href>http://maps.google.com/mapfiles/kml/pushpin/ylw-pushpin.png</href>
                    </Icon>
                </IconStyle>
            </Style>
            <Style id="1990">
                <IconStyle id="1991">
                    <color>ff0000ff</color>
                    <colorMode>normal</colorMode>
                    <scale>1</scale>
                    <heading>0</heading>
                    <Icon id="1992">
                        <href>http://maps.google.com/mapfiles/kml/pushpin/ylw-pushpin.png</href>
                    </Icon>
                </IconStyle>
            </Style>
            <Style id="1995">
                <IconStyle id="1996">
                    <color>ff0000ff</color>
                    <colorMode>normal</colorMode>
                    <scale>1</scale>
                    <heading>0</heading>
                    <Icon id="1997">
                        <href>http://maps.google.com/mapfiles/kml/pushpin/ylw-pushpin.png</href>
                    </Icon>
                </IconStyle>
            </Style>
            <Style id="2000">
                <IconStyle id="2001">
                    <color>ff0000ff</color>
                    <colorMode>normal</colorMode>
                    <scale>1</scale>
                    <heading>0</heading>
                    <Icon id="2002">
                        <href>http://maps.google.com/mapfiles/kml/pushpin/ylw-pushpin.png</href>
                    </Icon>
                </IconStyle>
            </Style>
            <Style id="2005">
                <IconStyle id="2006">
                    <color>ff0000ff</color>
                    <colorMode>normal</colorMode>
                    <scale>1</scale>
                    <heading>0</heading>
                    <Icon id="2007">
                        <href>http://maps.google.com/mapfiles/kml/pushpin/ylw-pushpin.png</href>
                    </Icon>
                </IconStyle>
            </Style>
            <Style id="2010">
                <IconStyle id="2011">
                    <color>ff0000ff</color>
                    <colorMode>normal</colorMode>
                    <scale>1</scale>
                    <heading>0</heading>
                    <Icon id="2012">
                        <href>http://maps.google.com/mapfiles/kml/pushpin/ylw-pushpin.png</href>
                    </Icon>
                </IconStyle>
            </Style>
            <Style id="2015">
                <IconStyle id="2016">
                    <color>ff0000ff</color>
                    <colorMode>normal</colorMode>
                    <scale>1</scale>
                    <heading>0</heading>
                    <Icon id="2017">
                        <href>http://maps.google.com/mapfiles/kml/pushpin/ylw-pushpin.png</href>
                    </Icon>
                </IconStyle>
            </Style>
            <Style id="2020">
                <IconStyle id="2021">
                    <color>ff0000ff</color>
                    <colorMode>normal</colorMode>
                    <scale>1</scale>
                    <heading>0</heading>
                    <Icon id="2022">
                        <href>http://maps.google.com/mapfiles/kml/pushpin/ylw-pushpin.png</href>
                    </Icon>
                </IconStyle>
            </Style>
            <Style id="2025">
                <IconStyle id="2026">
                    <color>ff0000ff</color>
                    <colorMode>normal</colorMode>
                    <scale>1</scale>
                    <heading>0</heading>
                    <Icon id="2027">
                        <href>http://maps.google.com/mapfiles/kml/pushpin/ylw-pushpin.png</href>
                    </Icon>
                </IconStyle>
            </Style>
            <Style id="2030">
                <IconStyle id="2031">
                    <color>ff0000ff</color>
                    <colorMode>normal</colorMode>
                    <scale>1</scale>
                    <heading>0</heading>
                    <Icon id="2032">
                        <href>http://maps.google.com/mapfiles/kml/pushpin/ylw-pushpin.png</href>
                    </Icon>
                </IconStyle>
            </Style>
            <Style id="2035">
                <IconStyle id="2036">
                    <color>ff0000ff</color>
                    <colorMode>normal</colorMode>
                    <scale>1</scale>
                    <heading>0</heading>
                    <Icon id="2037">
                        <href>http://maps.google.com/mapfiles/kml/pushpin/ylw-pushpin.png</href>
                    </Icon>
                </IconStyle>
            </Style>
            <Style id="2040">
                <IconStyle id="2041">
                    <color>ff0000ff</color>
                    <colorMode>normal</colorMode>
                    <scale>1</scale>
                    <heading>0</heading>
                    <Icon id="2042">
                        <href>http://maps.google.com/mapfiles/kml/pushpin/ylw-pushpin.png</href>
                    </Icon>
                </IconStyle>
            </Style>
            <Style id="2045">
                <IconStyle id="2046">
                    <color>ff0000ff</color>
                    <colorMode>normal</colorMode>
                    <scale>1</scale>
                    <heading>0</heading>
                    <Icon id="2047">
                        <href>http://maps.google.com/mapfiles/kml/pushpin/ylw-pushpin.png</href>
                    </Icon>
                </IconStyle>
            </Style>
            <Style id="2050">
                <IconStyle id="2051">
                    <color>ff0000ff</color>
                    <colorMode>normal</colorMode>
                    <scale>1</scale>
                    <heading>0</heading>
                    <Icon id="2052">
                        <href>http://maps.google.com/mapfiles/kml/pushpin/ylw-pushpin.png</href>
                    </Icon>
                </IconStyle>
            </Style>
            <Style id="2055">
                <IconStyle id="2056">
                    <color>ff0000ff</color>
                    <colorMode>normal</colorMode>
                    <scale>1</scale>
                    <heading>0</heading>
                    <Icon id="2057">
                        <href>http://maps.google.com/mapfiles/kml/pushpin/ylw-pushpin.png</href>
                    </Icon>
                </IconStyle>
            </Style>
            <Style id="2060">
                <IconStyle id="2061">
                    <color>ff0000ff</color>
                    <colorMode>normal</colorMode>
                    <scale>1</scale>
                    <heading>0</heading>
                    <Icon id="2062">
                        <href>http://maps.google.com/mapfiles/kml/pushpin/ylw-pushpin.png</href>
                    </Icon>
                </IconStyle>
            </Style>
            <Style id="2065">
                <IconStyle id="2066">
                    <color>ff0000ff</color>
                    <colorMode>normal</colorMode>
                    <scale>1</scale>
                    <heading>0</heading>
                    <Icon id="2067">
                        <href>http://maps.google.com/mapfiles/kml/pushpin/ylw-pushpin.png</href>
                    </Icon>
                </IconStyle>
            </Style>
            <name>JACIEL MOGOLLON ALVARADO</name>
            <Placemark id="1954">
                <name>FLORES CRUZ BAUDELIA</name>
                <description>MZA.C8 SCTR C PSJ 25
Sullana
Sullana
Piura
Perú</description>
                <styleUrl>#1955</styleUrl>
                <Point id="1953">
                    <coordinates>-80.726873,-4.910749,0.0</coordinates>
                </Point>
            </Placemark>
            <Placemark id="1959">
                <name>ABARROTES Y SERV.CHINININ SAC</name>
                <description>ABARROTES Y SERV.CHINININ SAC
CA.CUATRO 193 Y 199.
Sullana
200601Sullana
Piura
Perú</description>
                <styleUrl>#1960</styleUrl>
                <Point id="1958">
                    <coordinates>-80.6828445,-4.8945854,0.0</coordinates>
                </Point>
            </Placemark>
            <Placemark id="1964">
                <name>MOSCOL TALLEDO DAVID</name>
                <description>CA.SAN VALENTIN MZ.116 LT.02
Miguel Checa
Miguel Checa
Piura
Perú</description>
                <styleUrl>#1965</styleUrl>
                <Point id="1963">
                    <coordinates>-80.7465694,-4.9073168,0.0</coordinates>
                </Point>
            </Placemark>
            <Placemark id="1969">
                <name>DUBER HILDEBRANDO QUEVEDO PONCE</name>
                <description>Calle Bernaldo alcedo
Sullana
Sullana
Piura
Perú</description>
                <styleUrl>#1970</styleUrl>
                <Point id="1968">
                    <coordinates>-80.6829911,-4.8918878,0.0</coordinates>
                </Point>
            </Placemark>
            <Placemark id="1974">
                <name>ORTIZ ORTIZ AGUSTINA</name>
                <description>ORTIZ ORTIZ AGUSTINA
LAS PALMERAS MZ F LTE 2
Sullana
Sullana
Piura
Perú</description>
                <styleUrl>#1975</styleUrl>
                <Point id="1973">
                    <coordinates>-80.714693,-4.904525,0.0</coordinates>
                </Point>
            </Placemark>
            <Placemark id="1979">
                <name>DEYSI OLANDA DIOSES CISNEROS</name>
                <description>EL ROSARIO 1005 SULLANA-SULLANA
Sullana
Sullana
Piura
Perú</description>
                <styleUrl>#1980</styleUrl>
                <Point id="1978">
                    <coordinates>-80.696666,-4.9081418,0.0</coordinates>
                </Point>
            </Placemark>
            <Placemark id="1984">
                <name>ABARROTES Y SERV.CHINININ SAC</name>
                <description>ABARROTES Y SERV.CHINININ SAC
CA.CUATRO 193 Y 199.
Sullana
200601Sullana
Piura
Perú</description>
                <styleUrl>#1985</styleUrl>
                <Point id="1983">
                    <coordinates>-80.6828445,-4.8945854,0.0</coordinates>
                </Point>
            </Placemark>
            <Placemark id="1989">
                <name>SOSA FLORES FAUSTINA</name>
                <description>PSJ.SANTA ROSA 375 SOJO
Miguel Checa
Miguel Checa
Piura
Perú</description>
                <styleUrl>#1990</styleUrl>
                <Point id="1988">
                    <coordinates>-80.8159489,-4.8988789,0.0</coordinates>
                </Point>
            </Placemark>
            <Placemark id="1994">
                <name>WILDER MERCEDES BURGOS SERNAQUE</name>
                <description>Calle Juan morales Rivas 311-1  costado parque lar mercedes
Miguel Checa

Piura
Perú</description>
                <styleUrl>#1995</styleUrl>
                <Point id="1993">
                    <coordinates>-80.816647,-4.89995,0.0</coordinates>
                </Point>
            </Placemark>
            <Placemark id="1999">
                <name>REYES JUAREZ SIMONA</name>
                <description>CA JCM 484 CAS CENT SOJO
Sullana
Sullana
Piura
Perú</description>
                <styleUrl>#2000</styleUrl>
                <Point id="1998">
                    <coordinates>-80.814,-4.900176,0.0</coordinates>
                </Point>
            </Placemark>
            <Placemark id="2004">
                <name>JASMIN BEATRIZ RODRIGUEZ CORNEJO</name>
                <description>Calle la victoria sojo
Miguel Checa
Miguel Checa
Piura
Perú</description>
                <styleUrl>#2005</styleUrl>
                <Point id="2003">
                    <coordinates>-80.8146495,-4.9019314,0.0</coordinates>
                </Point>
            </Placemark>
            <Placemark id="2009">
                <name>GONZALES COLMENARES JUAN JORGE</name>
                <description>CALLE VICTORIA 181 CENTRO SOJO
Miguel Checa
Miguel Checa
Piura
Perú</description>
                <styleUrl>#2010</styleUrl>
                <Point id="2008">
                    <coordinates>-80.8152457,-4.9035677,0.0</coordinates>
                </Point>
            </Placemark>
            <Placemark id="2014">
                <name>JULIA MARIA MONTERO SOJO</name>
                <description>JULIA MARIA MONTERO SOJO
CAL LA VICTORIA NRO 150 CENT SOJO
Miguel Checa
Miguel Checa
Piura
Perú</description>
                <styleUrl>#2015</styleUrl>
                <Point id="2013">
                    <coordinates>-80.815197,-4.9040252,0.0</coordinates>
                </Point>
            </Placemark>
            <Placemark id="2019">
                <name>ARCIRA PRECIADO PALACIOS</name>
                <description>AV ARGENTINA MZ 16 LT 13 - SULLANA
Miguel Checa
Miguel Checa
Piura
Perú</description>
                <styleUrl>#2020</styleUrl>
                <Point id="2018">
                    <coordinates>-80.742361,-4.907003,0.0</coordinates>
                </Point>
            </Placemark>
            <Placemark id="2024">
                <name>CHIROQUE PALOMINO DE SAAVEDRA NORVY YOVANY</name>
                <description>CHIROQUE PALOMINO DE SAAVEDRA NORVY YOVANY

Miguel Checa
Miguel Checa
Piura
Perú</description>
                <styleUrl>#2025</styleUrl>
                <Point id="2023">
                    <coordinates>-80.742276,-4.9070448,0.0</coordinates>
                </Point>
            </Placemark>
            <Placemark id="2029">
                <name>CALDERON VASQUEZ LILIANA</name>
                <description>CLLOS JAZMINES UP26 ENE JIBITO
Sullana
Sullana
Piura
Perú</description>
                <styleUrl>#2030</styleUrl>
                <Point id="2028">
                    <coordinates>-80.7455973,-4.9080881,0.0</coordinates>
                </Point>
            </Placemark>
            <Placemark id="2034">
                <name>MOSCOL TALLEDO DAVID</name>
                <description>CA.SAN VALENTIN MZ.116 LT.02
Miguel Checa
Miguel Checa
Piura
Perú</description>
                <styleUrl>#2035</styleUrl>
                <Point id="2033">
                    <coordinates>-80.7465694,-4.9073168,0.0</coordinates>
                </Point>
            </Placemark>
            <Placemark id="2039">
                <name>SANDOVAL NUÑEZ MARIA DEL C.</name>
                <description>SAN HILARION Nª121 JIBITO
Sullana
Sullana
Piura
Perú</description>
                <styleUrl>#2040</styleUrl>
                <Point id="2038">
                    <coordinates>-80.745038,-4.904165,0.0</coordinates>
                </Point>
            </Placemark>
            <Placemark id="2044">
                <name>JIMENEZ CORREA IRIS DEL PILAR</name>
                <description>CA.SAN MARCOS 109
Sullana
Sullana
Piura
Perú</description>
                <styleUrl>#2045</styleUrl>
                <Point id="2043">
                    <coordinates>-80.7492284,-4.9079765,0.0</coordinates>
                </Point>
            </Placemark>
            <Placemark id="2049">
                <name>JOSE LUIS ROMAN QUISPE</name>
                <description>JOSE LUIS ROMAN QUISPE
PRO.BOLIVAR MZA. J2 LOTE. 09 C.P. J
Miguel Checa
Miguel Checa
Piura
Perú</description>
                <styleUrl>#2050</styleUrl>
                <Point id="2048">
                    <coordinates>-80.7454126,-4.9041502,0.0</coordinates>
                </Point>
            </Placemark>
            <Placemark id="2054">
                <name>VASQUEZ CELIS GEORGINA</name>
                <description>AV PERU LL 1-8 CENT JIBITO
Miguel Checa
Miguel Checa
Piura
Perú</description>
                <styleUrl>#2055</styleUrl>
                <Point id="2053">
                    <coordinates>-80.7445294,-4.9040248,0.0</coordinates>
                </Point>
            </Placemark>
            <Placemark id="2059">
                <name>HERNAN MORE ALVARADO</name>
                <description>AV SANTO TOMAS 402 SULLANA-SULLANA
Miguel Checa
Miguel Checa
Piura
Perú</description>
                <styleUrl>#2060</styleUrl>
                <Point id="2058">
                    <coordinates>-80.7437565,-4.9042399,0.0</coordinates>
                </Point>
            </Placemark>
            <Placemark id="2064">
                <name>LEIDY YULIANA SANDOVAL YARLEQUE</name>
                <description>Calle santo tomas jibito
Miguel Checa
Miguel Checa
Piura
Perú</description>
                <styleUrl>#2065</styleUrl>
                <Point id="2063">
                    <coordinates>-80.7438108,-4.9047258,0.0</coordinates>
                </Point>
            </Placemark>
        </Folder>
        <Folder id="2068">
            <Style id="2071">
                <IconStyle id="2072">
                    <color>ffff0000</color>
                    <colorMode>normal</colorMode>
                    <scale>1</scale>
                    <heading>0</heading>
                    <Icon id="2073">
                        <href>http://maps.google.com/mapfiles/kml/pushpin/ylw-pushpin.png</href>
                    </Icon>
                </IconStyle>
            </Style>
            <Style id="2076">
                <IconStyle id="2077">
                    <color>ffff0000</color>
                    <colorMode>normal</colorMode>
                    <scale>1</scale>
                    <heading>0</heading>
                    <Icon id="2078">
                        <href>http://maps.google.com/mapfiles/kml/pushpin/ylw-pushpin.png</href>
                    </Icon>
                </IconStyle>
            </Style>
            <Style id="2081">
                <IconStyle id="2082">
                    <color>ffff0000</color>
                    <colorMode>normal</colorMode>
                    <scale>1</scale>
                    <heading>0</heading>
                    <Icon id="2083">
                        <href>http://maps.google.com/mapfiles/kml/pushpin/ylw-pushpin.png</href>
                    </Icon>
                </IconStyle>
            </Style>
            <Style id="2086">
                <IconStyle id="2087">
                    <color>ffff0000</color>
                    <colorMode>normal</colorMode>
                    <scale>1</scale>
                    <heading>0</heading>
                    <Icon id="2088">
                        <href>http://maps.google.com/mapfiles/kml/pushpin/ylw-pushpin.png</href>
                    </Icon>
                </IconStyle>
            </Style>
            <Style id="2091">
                <IconStyle id="2092">
                    <color>ffff0000</color>
                    <colorMode>normal</colorMode>
                    <scale>1</scale>
                    <heading>0</heading>
                    <Icon id="2093">
                        <href>http://maps.google.com/mapfiles/kml/pushpin/ylw-pushpin.png</href>
                    </Icon>
                </IconStyle>
            </Style>
            <Style id="2096">
                <IconStyle id="2097">
                    <color>ffff0000</color>
                    <colorMode>normal</colorMode>
                    <scale>1</scale>
                    <heading>0</heading>
                    <Icon id="2098">
                        <href>http://maps.google.com/mapfiles/kml/pushpin/ylw-pushpin.png</href>
                    </Icon>
                </IconStyle>
            </Style>
            <Style id="2101">
                <IconStyle id="2102">
                    <color>ffff0000</color>
                    <colorMode>normal</colorMode>
                    <scale>1</scale>
                    <heading>0</heading>
                    <Icon id="2103">
                        <href>http://maps.google.com/mapfiles/kml/pushpin/ylw-pushpin.png</href>
                    </Icon>
                </IconStyle>
            </Style>
            <Style id="2106">
                <IconStyle id="2107">
                    <color>ffff0000</color>
                    <colorMode>normal</colorMode>
                    <scale>1</scale>
                    <heading>0</heading>
                    <Icon id="2108">
                        <href>http://maps.google.com/mapfiles/kml/pushpin/ylw-pushpin.png</href>
                    </Icon>
                </IconStyle>
            </Style>
            <Style id="2111">
                <IconStyle id="2112">
                    <color>ffff0000</color>
                    <colorMode>normal</colorMode>
                    <scale>1</scale>
                    <heading>0</heading>
                    <Icon id="2113">
                        <href>http://maps.google.com/mapfiles/kml/pushpin/ylw-pushpin.png</href>
                    </Icon>
                </IconStyle>
            </Style>
            <Style id="2116">
                <IconStyle id="2117">
                    <color>ffff0000</color>
                    <colorMode>normal</colorMode>
                    <scale>1</scale>
                    <heading>0</heading>
                    <Icon id="2118">
                        <href>http://maps.google.com/mapfiles/kml/pushpin/ylw-pushpin.png</href>
                    </Icon>
                </IconStyle>
            </Style>
            <Style id="2121">
                <IconStyle id="2122">
                    <color>ffff0000</color>
                    <colorMode>normal</colorMode>
                    <scale>1</scale>
                    <heading>0</heading>
                    <Icon id="2123">
                        <href>http://maps.google.com/mapfiles/kml/pushpin/ylw-pushpin.png</href>
                    </Icon>
                </IconStyle>
            </Style>
            <Style id="2126">
                <IconStyle id="2127">
                    <color>ffff0000</color>
                    <colorMode>normal</colorMode>
                    <scale>1</scale>
                    <heading>0</heading>
                    <Icon id="2128">
                        <href>http://maps.google.com/mapfiles/kml/pushpin/ylw-pushpin.png</href>
                    </Icon>
                </IconStyle>
            </Style>
            <Style id="2131">
                <IconStyle id="2132">
                    <color>ffff0000</color>
                    <colorMode>normal</colorMode>
                    <scale>1</scale>
                    <heading>0</heading>
                    <Icon id="2133">
                        <href>http://maps.google.com/mapfiles/kml/pushpin/ylw-pushpin.png</href>
                    </Icon>
                </IconStyle>
            </Style>
            <Style id="2136">
                <IconStyle id="2137">
                    <color>ffff0000</color>
                    <colorMode>normal</colorMode>
                    <scale>1</scale>
                    <heading>0</heading>
                    <Icon id="2138">
                        <href>http://maps.google.com/mapfiles/kml/pushpin/ylw-pushpin.png</href>
                    </Icon>
                </IconStyle>
            </Style>
            <Style id="2141">
                <IconStyle id="2142">
                    <color>ffff0000</color>
                    <colorMode>normal</colorMode>
                    <scale>1</scale>
                    <heading>0</heading>
                    <Icon id="2143">
                        <href>http://maps.google.com/mapfiles/kml/pushpin/ylw-pushpin.png</href>
                    </Icon>
                </IconStyle>
            </Style>
            <Style id="2146">
                <IconStyle id="2147">
                    <color>ffff0000</color>
                    <colorMode>normal</colorMode>
                    <scale>1</scale>
                    <heading>0</heading>
                    <Icon id="2148">
                        <href>http://maps.google.com/mapfiles/kml/pushpin/ylw-pushpin.png</href>
                    </Icon>
                </IconStyle>
            </Style>
            <Style id="2151">
                <IconStyle id="2152">
                    <color>ffff0000</color>
                    <colorMode>normal</colorMode>
                    <scale>1</scale>
                    <heading>0</heading>
                    <Icon id="2153">
                        <href>http://maps.google.com/mapfiles/kml/pushpin/ylw-pushpin.png</href>
                    </Icon>
                </IconStyle>
            </Style>
            <Style id="2156">
                <IconStyle id="2157">
                    <color>ffff0000</color>
                    <colorMode>normal</colorMode>
                    <scale>1</scale>
                    <heading>0</heading>
                    <Icon id="2158">
                        <href>http://maps.google.com/mapfiles/kml/pushpin/ylw-pushpin.png</href>
                    </Icon>
                </IconStyle>
            </Style>
            <Style id="2161">
                <IconStyle id="2162">
                    <color>ffff0000</color>
                    <colorMode>normal</colorMode>
                    <scale>1</scale>
                    <heading>0</heading>
                    <Icon id="2163">
                        <href>http://maps.google.com/mapfiles/kml/pushpin/ylw-pushpin.png</href>
                    </Icon>
                </IconStyle>
            </Style>
            <Style id="2166">
                <IconStyle id="2167">
                    <color>ffff0000</color>
                    <colorMode>normal</colorMode>
                    <scale>1</scale>
                    <heading>0</heading>
                    <Icon id="2168">
                        <href>http://maps.google.com/mapfiles/kml/pushpin/ylw-pushpin.png</href>
                    </Icon>
                </IconStyle>
            </Style>
            <Style id="2171">
                <IconStyle id="2172">
                    <color>ffff0000</color>
                    <colorMode>normal</colorMode>
                    <scale>1</scale>
                    <heading>0</heading>
                    <Icon id="2173">
                        <href>http://maps.google.com/mapfiles/kml/pushpin/ylw-pushpin.png</href>
                    </Icon>
                </IconStyle>
            </Style>
            <Style id="2176">
                <IconStyle id="2177">
                    <color>ffff0000</color>
                    <colorMode>normal</colorMode>
                    <scale>1</scale>
                    <heading>0</heading>
                    <Icon id="2178">
                        <href>http://maps.google.com/mapfiles/kml/pushpin/ylw-pushpin.png</href>
                    </Icon>
                </IconStyle>
            </Style>
            <Style id="2181">
                <IconStyle id="2182">
                    <color>ffff0000</color>
                    <colorMode>normal</colorMode>
                    <scale>1</scale>
                    <heading>0</heading>
                    <Icon id="2183">
                        <href>http://maps.google.com/mapfiles/kml/pushpin/ylw-pushpin.png</href>
                    </Icon>
                </IconStyle>
            </Style>
            <Style id="2186">
                <IconStyle id="2187">
                    <color>ffff0000</color>
                    <colorMode>normal</colorMode>
                    <scale>1</scale>
                    <heading>0</heading>
                    <Icon id="2188">
                        <href>http://maps.google.com/mapfiles/kml/pushpin/ylw-pushpin.png</href>
                    </Icon>
                </IconStyle>
            </Style>
            <Style id="2191">
                <IconStyle id="2192">
                    <color>ffff0000</color>
                    <colorMode>normal</colorMode>
                    <scale>1</scale>
                    <heading>0</heading>
                    <Icon id="2193">
                        <href>http://maps.google.com/mapfiles/kml/pushpin/ylw-pushpin.png</href>
                    </Icon>
                </IconStyle>
            </Style>
            <Style id="2196">
                <IconStyle id="2197">
                    <color>ffff0000</color>
                    <colorMode>normal</colorMode>
                    <scale>1</scale>
                    <heading>0</heading>
                    <Icon id="2198">
                        <href>http://maps.google.com/mapfiles/kml/pushpin/ylw-pushpin.png</href>
                    </Icon>
                </IconStyle>
            </Style>
            <Style id="2201">
                <IconStyle id="2202">
                    <color>ffff0000</color>
                    <colorMode>normal</colorMode>
                    <scale>1</scale>
                    <heading>0</heading>
                    <Icon id="2203">
                        <href>http://maps.google.com/mapfiles/kml/pushpin/ylw-pushpin.png</href>
                    </Icon>
                </IconStyle>
            </Style>
            <Style id="2206">
                <IconStyle id="2207">
                    <color>ffff0000</color>
                    <colorMode>normal</colorMode>
                    <scale>1</scale>
                    <heading>0</heading>
                    <Icon id="2208">
                        <href>http://maps.google.com/mapfiles/kml/pushpin/ylw-pushpin.png</href>
                    </Icon>
                </IconStyle>
            </Style>
            <Style id="2211">
                <IconStyle id="2212">
                    <color>ffff0000</color>
                    <colorMode>normal</colorMode>
                    <scale>1</scale>
                    <heading>0</heading>
                    <Icon id="2213">
                        <href>http://maps.google.com/mapfiles/kml/pushpin/ylw-pushpin.png</href>
                    </Icon>
                </IconStyle>
            </Style>
            <Style id="2216">
                <IconStyle id="2217">
                    <color>ffff0000</color>
                    <colorMode>normal</colorMode>
                    <scale>1</scale>
                    <heading>0</heading>
                    <Icon id="2218">
                        <href>http://maps.google.com/mapfiles/kml/pushpin/ylw-pushpin.png</href>
                    </Icon>
                </IconStyle>
            </Style>
            <Style id="2221">
                <IconStyle id="2222">
                    <color>ffff0000</color>
                    <colorMode>normal</colorMode>
                    <scale>1</scale>
                    <heading>0</heading>
                    <Icon id="2223">
                        <href>http://maps.google.com/mapfiles/kml/pushpin/ylw-pushpin.png</href>
                    </Icon>
                </IconStyle>
            </Style>
            <Style id="2226">
                <IconStyle id="2227">
                    <color>ffff0000</color>
                    <colorMode>normal</colorMode>
                    <scale>1</scale>
                    <heading>0</heading>
                    <Icon id="2228">
                        <href>http://maps.google.com/mapfiles/kml/pushpin/ylw-pushpin.png</href>
                    </Icon>
                </IconStyle>
            </Style>
            <Style id="2231">
                <IconStyle id="2232">
                    <color>ffff0000</color>
                    <colorMode>normal</colorMode>
                    <scale>1</scale>
                    <heading>0</heading>
                    <Icon id="2233">
                        <href>http://maps.google.com/mapfiles/kml/pushpin/ylw-pushpin.png</href>
                    </Icon>
                </IconStyle>
            </Style>
            <Style id="2236">
                <IconStyle id="2237">
                    <color>ffff0000</color>
                    <colorMode>normal</colorMode>
                    <scale>1</scale>
                    <heading>0</heading>
                    <Icon id="2238">
                        <href>http://maps.google.com/mapfiles/kml/pushpin/ylw-pushpin.png</href>
                    </Icon>
                </IconStyle>
            </Style>
            <Style id="2241">
                <IconStyle id="2242">
                    <color>ffff0000</color>
                    <colorMode>normal</colorMode>
                    <scale>1</scale>
                    <heading>0</heading>
                    <Icon id="2243">
                        <href>http://maps.google.com/mapfiles/kml/pushpin/ylw-pushpin.png</href>
                    </Icon>
                </IconStyle>
            </Style>
            <Style id="2246">
                <IconStyle id="2247">
                    <color>ffff0000</color>
                    <colorMode>normal</colorMode>
                    <scale>1</scale>
                    <heading>0</heading>
                    <Icon id="2248">
                        <href>http://maps.google.com/mapfiles/kml/pushpin/ylw-pushpin.png</href>
                    </Icon>
                </IconStyle>
            </Style>
            <Style id="2251">
                <IconStyle id="2252">
                    <color>ffff0000</color>
                    <colorMode>normal</colorMode>
                    <scale>1</scale>
                    <heading>0</heading>
                    <Icon id="2253">
                        <href>http://maps.google.com/mapfiles/kml/pushpin/ylw-pushpin.png</href>
                    </Icon>
                </IconStyle>
            </Style>
            <name>WILLIAN ALEJANDRO HERRERA MORAN</name>
            <Placemark id="2070">
                <name>EVELYN CATHERINE SANCHEZ CALLE</name>
                <description>CA PUNO 256 POR LOZADA
Sullana
Sullana
Piura
Perú</description>
                <styleUrl>#2071</styleUrl>
                <Point id="2069">
                    <coordinates>-80.6815815,-4.8909533,0.0</coordinates>
                </Point>
            </Placemark>
            <Placemark id="2075">
                <name>EVELYN CATHERINE SANCHEZ CALLE</name>
                <description>CA PUNO 256 POR LOZADA
Sullana
Sullana
Piura
Perú</description>
                <styleUrl>#2076</styleUrl>
                <Point id="2074">
                    <coordinates>-80.6815815,-4.8909533,0.0</coordinates>
                </Point>
            </Placemark>
            <Placemark id="2080">
                <name>MARTHA ZAPATA MORAN</name>
                <description>MARTHA ZAPATA MORAN
ATAHUALPA Nº 526   STA.
Sullana
Sullana
Piura
Perú</description>
                <styleUrl>#2081</styleUrl>
                <Point id="2079">
                    <coordinates>-80.6786753,-4.9010813,0.0</coordinates>
                </Point>
            </Placemark>
            <Placemark id="2085">
                <name>DENIXA ALEJANDRA ABRAMONTE TALLEDO</name>
                <description>
Bellavista
Bellavista
Piura
Perú</description>
                <styleUrl>#2086</styleUrl>
                <Point id="2084">
                    <coordinates>-80.672975,-4.8818134,0.0</coordinates>
                </Point>
            </Placemark>
            <Placemark id="2090">
                <name>REYES SEVERINO MARIA S.</name>
                <description>REYES SEVERINO MARIA S.
M.MELGAR 307 STA TERESITA
Sullana
Sullana
Piura
Perú</description>
                <styleUrl>#2091</styleUrl>
                <Point id="2089">
                    <coordinates>-80.673981,-4.8987555,0.0</coordinates>
                </Point>
            </Placemark>
            <Placemark id="2095">
                <name>SOSA MENDOZA ANA MARIA</name>
                <description>LA BREA # 513 STA. TERESITA
Sullana
Sullana
Piura
Perú</description>
                <styleUrl>#2096</styleUrl>
                <Point id="2094">
                    <coordinates>-80.678476,-4.900331,0.0</coordinates>
                </Point>
            </Placemark>
            <Placemark id="2100">
                <name>ROSA ELVIRA MORAN RODRIGUEZ</name>
                <description>522 ATAHUALPA-SULLANA-SULLANA
Sullana

Piura
Perú</description>
                <styleUrl>#2101</styleUrl>
                <Point id="2099">
                    <coordinates>-80.6787346,-4.9007282,0.0</coordinates>
                </Point>
            </Placemark>
            <Placemark id="2105">
                <name>PERALTA SAAVEDRA FABIOLA DE J.</name>
                <description>AV.CIRCUNVALACION 147
Sullana
Sullana
Piura
Perú</description>
                <styleUrl>#2106</styleUrl>
                <Point id="2104">
                    <coordinates>-80.6792332,-4.9019718,0.0</coordinates>
                </Point>
            </Placemark>
            <Placemark id="2110">
                <name>MARIA ESTHER ALAMA ZAVALU DE SAAVEDRA</name>
                <description>Calle circunvalación 143 A.H Santa Teresita
Sullana
Sullana
Piura
Perú</description>
                <styleUrl>#2111</styleUrl>
                <Point id="2109">
                    <coordinates>-80.6794617,-4.9023379,0.0</coordinates>
                </Point>
            </Placemark>
            <Placemark id="2115">
                <name>BARRIENTOS ORTIZ DAYSI ROSARIO</name>
                <description>A.H.SANTA TERESITA MZ.B 6-28A
Sullana
Sullana
Piura
Perú</description>
                <styleUrl>#2116</styleUrl>
                <Point id="2114">
                    <coordinates>-80.6799921,-4.901681,0.0</coordinates>
                </Point>
            </Placemark>
            <Placemark id="2120">
                <name>CRISANTO ZAPATA JESSICA PAOLA</name>
                <description>CA.MANCORA 105
Sullana
Sullana
Piura
Perú</description>
                <styleUrl>#2121</styleUrl>
                <Point id="2119">
                    <coordinates>-80.6801621,-4.8952993,0.0</coordinates>
                </Point>
            </Placemark>
            <Placemark id="2125">
                <name>APARICIO RETO GUISELLA</name>
                <description>PSJ BRASIL 414 STA TERESITASUL
Sullana
Sullana
Piura
Perú</description>
                <styleUrl>#2126</styleUrl>
                <Point id="2124">
                    <coordinates>-80.6781974,-4.8995186,0.0</coordinates>
                </Point>
            </Placemark>
            <Placemark id="2130">
                <name>LILE ESPERANZA CAMPOS ATO</name>
                <description>Calle pariñas 407 - santa Teresita
Sullana
Sullana
Piura
Perú</description>
                <styleUrl>#2131</styleUrl>
                <Point id="2129">
                    <coordinates>-80.6776892,-4.8992579,0.0</coordinates>
                </Point>
            </Placemark>
            <Placemark id="2135">
                <name>SANTISTEBAN CASTILLO ORFELINDA</name>
                <description>CA.PIURA 152
Sullana
Sullana
Piura
Perú</description>
                <styleUrl>#2136</styleUrl>
                <Point id="2134">
                    <coordinates>-80.6763203,-4.8961574,0.0</coordinates>
                </Point>
            </Placemark>
            <Placemark id="2140">
                <name>FARFAN ORDO#EZ AMERI</name>
                <description>PIURA Nº 237 STA.
Sullana
Sullana
Piura
Perú</description>
                <styleUrl>#2141</styleUrl>
                <Point id="2139">
                    <coordinates>-80.676354,-4.897035,0.0</coordinates>
                </Point>
            </Placemark>
            <Placemark id="2145">
                <name>SANTOS FRANNY OVIEDO RODRIGUEZ</name>
                <description>CANAL VIAL LA QUEBRADA - BELLAVISTA
Sullana
Sullana
Piura
Perú</description>
                <styleUrl>#2146</styleUrl>
                <Point id="2144">
                    <coordinates>-80.683651,-4.893063,0.0</coordinates>
                </Point>
            </Placemark>
            <Placemark id="2150">
                <name>GLADYS MATILDE TINEDO MADRID</name>
                <description>GLADYS MATILDE TINEDO MADRID
CA. SAN JUAN N#399 A.H. SANTA TERES
Sullana
Sullana
Piura
Perú</description>
                <styleUrl>#2151</styleUrl>
                <Point id="2149">
                    <coordinates>-80.6754716,-4.8986832,0.0</coordinates>
                </Point>
            </Placemark>
            <Placemark id="2155">
                <name>QUISPE DE PEÑA ROSA</name>
                <description>SAN ISIDRO 239  STA TERESITA
Sullana
Sullana
Piura
Perú</description>
                <styleUrl>#2156</styleUrl>
                <Point id="2154">
                    <coordinates>-80.6748579,-4.8985646,0.0</coordinates>
                </Point>
            </Placemark>
            <Placemark id="2160">
                <name>MARIBEL MADRID ACARO</name>
                <description>Ah santa Teresita calle Mariano Melgar 203
Sullana
Sullana
Piura
Perú</description>
                <styleUrl>#2161</styleUrl>
                <Point id="2159">
                    <coordinates>-80.6740007,-4.8973461,0.0</coordinates>
                </Point>
            </Placemark>
            <Placemark id="2165">
                <name>JAN CARLO AREVALO GUZMAN</name>
                <description>Mariano Melgar 112
Sullana
Sullana
Piura
Perú</description>
                <styleUrl>#2166</styleUrl>
                <Point id="2164">
                    <coordinates>-80.674115,-4.8963966,0.0</coordinates>
                </Point>
            </Placemark>
            <Placemark id="2170">
                <name>FELICIANO VILLAREYES RUIZ</name>
                <description>Calle 8 de marzo MZ F Jorge Basadre
Bellavista
Bellavista
Piura
Perú</description>
                <styleUrl>#2171</styleUrl>
                <Point id="2169">
                    <coordinates>-80.6735802,-4.8952065,0.0</coordinates>
                </Point>
            </Placemark>
            <Placemark id="2175">
                <name>ROSARIO DEL PILAR LIVIA AGUILAR</name>
                <description>MZ.E LT-31 AH JORGE BASADRE
Bellavista
Bellavista
Piura
Perú</description>
                <styleUrl>#2176</styleUrl>
                <Point id="2174">
                    <coordinates>-80.6731573,-4.895109,0.0</coordinates>
                </Point>
            </Placemark>
            <Placemark id="2180">
                <name>NOEMI PILAR SANTOS VILLEGAS</name>
                <description>Av Canchaque MZ D LT 24 Bellavista
Bellavista
Bellavista
Piura
Perú</description>
                <styleUrl>#2181</styleUrl>
                <Point id="2179">
                    <coordinates>-80.6726689,-4.8942318,0.0</coordinates>
                </Point>
            </Placemark>
            <Placemark id="2185">
                <name>ASTRID KATHERINE SIANCAS JUAREZ</name>
                <description>Calle General Garzón MZ 7 LT 4 Bellavista
Bellavista
Bellavista
Piura
Perú</description>
                <styleUrl>#2186</styleUrl>
                <Point id="2184">
                    <coordinates>-80.6686935,-4.8918372,0.0</coordinates>
                </Point>
            </Placemark>
            <Placemark id="2190">
                <name>DELIA VERONICA FARFAN PANTA</name>
                <description>VICTOR RAUL MZ 8 LOTE 12-BELLAVISTA-SULLANA
Sullana
Sullana
Piura
Perú</description>
                <styleUrl>#2191</styleUrl>
                <Point id="2189">
                    <coordinates>-80.6685935,-4.8917089,0.0</coordinates>
                </Point>
            </Placemark>
            <Placemark id="2195">
                <name>YANETH YSABEL SILUPU OLAYA</name>
                <description>CA.SAN MATEO MZ 8 LT 7
Sullana
Sullana
Piura
Perú</description>
                <styleUrl>#2196</styleUrl>
                <Point id="2194">
                    <coordinates>-80.6683428,-4.8921854,0.0</coordinates>
                </Point>
            </Placemark>
            <Placemark id="2200">
                <name>CHUNGA PANTA DE GONZALES ELIZABETH</name>
                <description>CHUNGA PANTA DE GONZALES ELIZABETH
CA.SANTA ROSA  MZ.21 LT.05
Bellavista
Bellavista
Piura
Perú</description>
                <styleUrl>#2201</styleUrl>
                <Point id="2199">
                    <coordinates>-80.6690465,-4.8949515,0.0</coordinates>
                </Point>
            </Placemark>
            <Placemark id="2205">
                <name>ELVA ROXANA CRUZ ROMERO</name>
                <description>Psj santa rosa MZ 19 lt 31
Bellavista
Bellavista
Piura
Perú</description>
                <styleUrl>#2206</styleUrl>
                <Point id="2204">
                    <coordinates>-80.6690422,-4.8951159,0.0</coordinates>
                </Point>
            </Placemark>
            <Placemark id="2210">
                <name>JACOBITA NAVARRO ZAPATA</name>
                <description>Av General Garzón MZ 5 Lt 41 El Nuevo Porvenir
Bellavista
Bellavista
Piura
Perú</description>
                <styleUrl>#2211</styleUrl>
                <Point id="2209">
                    <coordinates>-80.6704375,-4.8944059,0.0</coordinates>
                </Point>
            </Placemark>
            <Placemark id="2215">
                <name>YOLANDA ABAB YANAYACO</name>
                <description>Canchaque 201 - Bellavista
Bellavista
Bellavista
Piura
Perú</description>
                <styleUrl>#2216</styleUrl>
                <Point id="2214">
                    <coordinates>-80.6712207,-4.8949571,0.0</coordinates>
                </Point>
            </Placemark>
            <Placemark id="2220">
                <name>ANGELA DIOSES GIRON</name>
                <description>CA LOS LIBERTADORES MZ L LT 26 ZAPATA SILVA
Sullana
Sullana
Piura
Perú</description>
                <styleUrl>#2221</styleUrl>
                <Point id="2219">
                    <coordinates>-80.671426,-4.8980193,0.0</coordinates>
                </Point>
            </Placemark>
            <Placemark id="2225">
                <name>FARFAN SUNCION THALIA DE LOS M</name>
                <description>A.H.SANTIAGO ZAPATA MZ.F LT.10
Sullana
Sullana
Piura
Perú</description>
                <styleUrl>#2226</styleUrl>
                <Point id="2224">
                    <coordinates>-80.670253,-4.9001491,0.0</coordinates>
                </Point>
            </Placemark>
            <Placemark id="2230">
                <name>ADRIANZEN CARRANZA CARMEN</name>
                <description>CA.LOS LIBERTADORE MZ.F LT.03
Sullana
Sullana
Piura
Perú</description>
                <styleUrl>#2231</styleUrl>
                <Point id="2229">
                    <coordinates>-80.6711172,-4.9002208,0.0</coordinates>
                </Point>
            </Placemark>
            <Placemark id="2235">
                <name>ROSA GENARA AREVALO CALDERON</name>
                <description>LOS LIBERTADORES MZ E LT 4 ZAPATA SILVA
Sullana
Sullana
Piura
Perú</description>
                <styleUrl>#2236</styleUrl>
                <Point id="2234">
                    <coordinates>-80.6709248,-4.9002154,0.0</coordinates>
                </Point>
            </Placemark>
            <Placemark id="2240">
                <name>JULIO VLADIMIR BECERRA TAVARA</name>
                <description>Calle San Pedro 202
Sullana
Sullana
Piura
Perú</description>
                <styleUrl>#2241</styleUrl>
                <Point id="2239">
                    <coordinates>-80.6747299,-4.8996775,0.0</coordinates>
                </Point>
            </Placemark>
            <Placemark id="2245">
                <name>FARFAN OLIVA IRIS MILAGROS</name>
                <description>CA.SANJ.510 SANTA TERESITA
Sullana
Sullana
Piura
Perú</description>
                <styleUrl>#2246</styleUrl>
                <Point id="2244">
                    <coordinates>-80.675655,-4.899911,0.0</coordinates>
                </Point>
            </Placemark>
            <Placemark id="2250">
                <name>RONDOY BALCAZAR EMILIA</name>
                <description>AV.CIRCUNVALACION 530
Sullana
Sullana
Piura
Perú</description>
                <styleUrl>#2251</styleUrl>
                <Point id="2249">
                    <coordinates>-80.6773356,-4.9019026,0.0</coordinates>
                </Point>
            </Placemark>
        </Folder>
    </Document>
</kml>
