<?xml version="1.0" encoding="UTF-8"?>
<kml xmlns="http://www.opengis.net/kml/2.2" xmlns:gx="http://www.google.com/kml/ext/2.2">
    <Document id="2930">
        <Folder id="2931">
            <Style id="2934">
                <IconStyle id="2935">
                    <color>ff0000ff</color>
                    <colorMode>normal</colorMode>
                    <scale>1</scale>
                    <heading>0</heading>
                    <Icon id="2936">
                        <href>http://maps.google.com/mapfiles/kml/pushpin/ylw-pushpin.png</href>
                    </Icon>
                </IconStyle>
            </Style>
            <Style id="2939">
                <IconStyle id="2940">
                    <color>ff0000ff</color>
                    <colorMode>normal</colorMode>
                    <scale>1</scale>
                    <heading>0</heading>
                    <Icon id="2941">
                        <href>http://maps.google.com/mapfiles/kml/pushpin/ylw-pushpin.png</href>
                    </Icon>
                </IconStyle>
            </Style>
            <Style id="2944">
                <IconStyle id="2945">
                    <color>ff0000ff</color>
                    <colorMode>normal</colorMode>
                    <scale>1</scale>
                    <heading>0</heading>
                    <Icon id="2946">
                        <href>http://maps.google.com/mapfiles/kml/pushpin/ylw-pushpin.png</href>
                    </Icon>
                </IconStyle>
            </Style>
            <Style id="2949">
                <IconStyle id="2950">
                    <color>ff0000ff</color>
                    <colorMode>normal</colorMode>
                    <scale>1</scale>
                    <heading>0</heading>
                    <Icon id="2951">
                        <href>http://maps.google.com/mapfiles/kml/pushpin/ylw-pushpin.png</href>
                    </Icon>
                </IconStyle>
            </Style>
            <Style id="2954">
                <IconStyle id="2955">
                    <color>ff0000ff</color>
                    <colorMode>normal</colorMode>
                    <scale>1</scale>
                    <heading>0</heading>
                    <Icon id="2956">
                        <href>http://maps.google.com/mapfiles/kml/pushpin/ylw-pushpin.png</href>
                    </Icon>
                </IconStyle>
            </Style>
            <Style id="2959">
                <IconStyle id="2960">
                    <color>ff0000ff</color>
                    <colorMode>normal</colorMode>
                    <scale>1</scale>
                    <heading>0</heading>
                    <Icon id="2961">
                        <href>http://maps.google.com/mapfiles/kml/pushpin/ylw-pushpin.png</href>
                    </Icon>
                </IconStyle>
            </Style>
            <Style id="2964">
                <IconStyle id="2965">
                    <color>ff0000ff</color>
                    <colorMode>normal</colorMode>
                    <scale>1</scale>
                    <heading>0</heading>
                    <Icon id="2966">
                        <href>http://maps.google.com/mapfiles/kml/pushpin/ylw-pushpin.png</href>
                    </Icon>
                </IconStyle>
            </Style>
            <Style id="2969">
                <IconStyle id="2970">
                    <color>ff0000ff</color>
                    <colorMode>normal</colorMode>
                    <scale>1</scale>
                    <heading>0</heading>
                    <Icon id="2971">
                        <href>http://maps.google.com/mapfiles/kml/pushpin/ylw-pushpin.png</href>
                    </Icon>
                </IconStyle>
            </Style>
            <Style id="2974">
                <IconStyle id="2975">
                    <color>ff0000ff</color>
                    <colorMode>normal</colorMode>
                    <scale>1</scale>
                    <heading>0</heading>
                    <Icon id="2976">
                        <href>http://maps.google.com/mapfiles/kml/pushpin/ylw-pushpin.png</href>
                    </Icon>
                </IconStyle>
            </Style>
            <Style id="2979">
                <IconStyle id="2980">
                    <color>ff0000ff</color>
                    <colorMode>normal</colorMode>
                    <scale>1</scale>
                    <heading>0</heading>
                    <Icon id="2981">
                        <href>http://maps.google.com/mapfiles/kml/pushpin/ylw-pushpin.png</href>
                    </Icon>
                </IconStyle>
            </Style>
            <Style id="2984">
                <IconStyle id="2985">
                    <color>ff0000ff</color>
                    <colorMode>normal</colorMode>
                    <scale>1</scale>
                    <heading>0</heading>
                    <Icon id="2986">
                        <href>http://maps.google.com/mapfiles/kml/pushpin/ylw-pushpin.png</href>
                    </Icon>
                </IconStyle>
            </Style>
            <Style id="2989">
                <IconStyle id="2990">
                    <color>ff0000ff</color>
                    <colorMode>normal</colorMode>
                    <scale>1</scale>
                    <heading>0</heading>
                    <Icon id="2991">
                        <href>http://maps.google.com/mapfiles/kml/pushpin/ylw-pushpin.png</href>
                    </Icon>
                </IconStyle>
            </Style>
            <Style id="2994">
                <IconStyle id="2995">
                    <color>ff0000ff</color>
                    <colorMode>normal</colorMode>
                    <scale>1</scale>
                    <heading>0</heading>
                    <Icon id="2996">
                        <href>http://maps.google.com/mapfiles/kml/pushpin/ylw-pushpin.png</href>
                    </Icon>
                </IconStyle>
            </Style>
            <Style id="2999">
                <IconStyle id="3000">
                    <color>ff0000ff</color>
                    <colorMode>normal</colorMode>
                    <scale>1</scale>
                    <heading>0</heading>
                    <Icon id="3001">
                        <href>http://maps.google.com/mapfiles/kml/pushpin/ylw-pushpin.png</href>
                    </Icon>
                </IconStyle>
            </Style>
            <Style id="3004">
                <IconStyle id="3005">
                    <color>ff0000ff</color>
                    <colorMode>normal</colorMode>
                    <scale>1</scale>
                    <heading>0</heading>
                    <Icon id="3006">
                        <href>http://maps.google.com/mapfiles/kml/pushpin/ylw-pushpin.png</href>
                    </Icon>
                </IconStyle>
            </Style>
            <Style id="3009">
                <IconStyle id="3010">
                    <color>ff0000ff</color>
                    <colorMode>normal</colorMode>
                    <scale>1</scale>
                    <heading>0</heading>
                    <Icon id="3011">
                        <href>http://maps.google.com/mapfiles/kml/pushpin/ylw-pushpin.png</href>
                    </Icon>
                </IconStyle>
            </Style>
            <Style id="3014">
                <IconStyle id="3015">
                    <color>ff0000ff</color>
                    <colorMode>normal</colorMode>
                    <scale>1</scale>
                    <heading>0</heading>
                    <Icon id="3016">
                        <href>http://maps.google.com/mapfiles/kml/pushpin/ylw-pushpin.png</href>
                    </Icon>
                </IconStyle>
            </Style>
            <Style id="3019">
                <IconStyle id="3020">
                    <color>ff0000ff</color>
                    <colorMode>normal</colorMode>
                    <scale>1</scale>
                    <heading>0</heading>
                    <Icon id="3021">
                        <href>http://maps.google.com/mapfiles/kml/pushpin/ylw-pushpin.png</href>
                    </Icon>
                </IconStyle>
            </Style>
            <Style id="3024">
                <IconStyle id="3025">
                    <color>ff0000ff</color>
                    <colorMode>normal</colorMode>
                    <scale>1</scale>
                    <heading>0</heading>
                    <Icon id="3026">
                        <href>http://maps.google.com/mapfiles/kml/pushpin/ylw-pushpin.png</href>
                    </Icon>
                </IconStyle>
            </Style>
            <Style id="3029">
                <IconStyle id="3030">
                    <color>ff0000ff</color>
                    <colorMode>normal</colorMode>
                    <scale>1</scale>
                    <heading>0</heading>
                    <Icon id="3031">
                        <href>http://maps.google.com/mapfiles/kml/pushpin/ylw-pushpin.png</href>
                    </Icon>
                </IconStyle>
            </Style>
            <Style id="3034">
                <IconStyle id="3035">
                    <color>ff0000ff</color>
                    <colorMode>normal</colorMode>
                    <scale>1</scale>
                    <heading>0</heading>
                    <Icon id="3036">
                        <href>http://maps.google.com/mapfiles/kml/pushpin/ylw-pushpin.png</href>
                    </Icon>
                </IconStyle>
            </Style>
            <Style id="3039">
                <IconStyle id="3040">
                    <color>ff0000ff</color>
                    <colorMode>normal</colorMode>
                    <scale>1</scale>
                    <heading>0</heading>
                    <Icon id="3041">
                        <href>http://maps.google.com/mapfiles/kml/pushpin/ylw-pushpin.png</href>
                    </Icon>
                </IconStyle>
            </Style>
            <Style id="3044">
                <IconStyle id="3045">
                    <color>ff0000ff</color>
                    <colorMode>normal</colorMode>
                    <scale>1</scale>
                    <heading>0</heading>
                    <Icon id="3046">
                        <href>http://maps.google.com/mapfiles/kml/pushpin/ylw-pushpin.png</href>
                    </Icon>
                </IconStyle>
            </Style>
            <Style id="3049">
                <IconStyle id="3050">
                    <color>ff0000ff</color>
                    <colorMode>normal</colorMode>
                    <scale>1</scale>
                    <heading>0</heading>
                    <Icon id="3051">
                        <href>http://maps.google.com/mapfiles/kml/pushpin/ylw-pushpin.png</href>
                    </Icon>
                </IconStyle>
            </Style>
            <Style id="3054">
                <IconStyle id="3055">
                    <color>ff0000ff</color>
                    <colorMode>normal</colorMode>
                    <scale>1</scale>
                    <heading>0</heading>
                    <Icon id="3056">
                        <href>http://maps.google.com/mapfiles/kml/pushpin/ylw-pushpin.png</href>
                    </Icon>
                </IconStyle>
            </Style>
            <Style id="3059">
                <IconStyle id="3060">
                    <color>ff0000ff</color>
                    <colorMode>normal</colorMode>
                    <scale>1</scale>
                    <heading>0</heading>
                    <Icon id="3061">
                        <href>http://maps.google.com/mapfiles/kml/pushpin/ylw-pushpin.png</href>
                    </Icon>
                </IconStyle>
            </Style>
            <Style id="3064">
                <IconStyle id="3065">
                    <color>ff0000ff</color>
                    <colorMode>normal</colorMode>
                    <scale>1</scale>
                    <heading>0</heading>
                    <Icon id="3066">
                        <href>http://maps.google.com/mapfiles/kml/pushpin/ylw-pushpin.png</href>
                    </Icon>
                </IconStyle>
            </Style>
            <Style id="3069">
                <IconStyle id="3070">
                    <color>ff0000ff</color>
                    <colorMode>normal</colorMode>
                    <scale>1</scale>
                    <heading>0</heading>
                    <Icon id="3071">
                        <href>http://maps.google.com/mapfiles/kml/pushpin/ylw-pushpin.png</href>
                    </Icon>
                </IconStyle>
            </Style>
            <Style id="3074">
                <IconStyle id="3075">
                    <color>ff0000ff</color>
                    <colorMode>normal</colorMode>
                    <scale>1</scale>
                    <heading>0</heading>
                    <Icon id="3076">
                        <href>http://maps.google.com/mapfiles/kml/pushpin/ylw-pushpin.png</href>
                    </Icon>
                </IconStyle>
            </Style>
            <Style id="3079">
                <IconStyle id="3080">
                    <color>ff0000ff</color>
                    <colorMode>normal</colorMode>
                    <scale>1</scale>
                    <heading>0</heading>
                    <Icon id="3081">
                        <href>http://maps.google.com/mapfiles/kml/pushpin/ylw-pushpin.png</href>
                    </Icon>
                </IconStyle>
            </Style>
            <Style id="3084">
                <IconStyle id="3085">
                    <color>ff0000ff</color>
                    <colorMode>normal</colorMode>
                    <scale>1</scale>
                    <heading>0</heading>
                    <Icon id="3086">
                        <href>http://maps.google.com/mapfiles/kml/pushpin/ylw-pushpin.png</href>
                    </Icon>
                </IconStyle>
            </Style>
            <Style id="3089">
                <IconStyle id="3090">
                    <color>ff0000ff</color>
                    <colorMode>normal</colorMode>
                    <scale>1</scale>
                    <heading>0</heading>
                    <Icon id="3091">
                        <href>http://maps.google.com/mapfiles/kml/pushpin/ylw-pushpin.png</href>
                    </Icon>
                </IconStyle>
            </Style>
            <Style id="3094">
                <IconStyle id="3095">
                    <color>ff0000ff</color>
                    <colorMode>normal</colorMode>
                    <scale>1</scale>
                    <heading>0</heading>
                    <Icon id="3096">
                        <href>http://maps.google.com/mapfiles/kml/pushpin/ylw-pushpin.png</href>
                    </Icon>
                </IconStyle>
            </Style>
            <Style id="3099">
                <IconStyle id="3100">
                    <color>ff0000ff</color>
                    <colorMode>normal</colorMode>
                    <scale>1</scale>
                    <heading>0</heading>
                    <Icon id="3101">
                        <href>http://maps.google.com/mapfiles/kml/pushpin/ylw-pushpin.png</href>
                    </Icon>
                </IconStyle>
            </Style>
            <Style id="3104">
                <IconStyle id="3105">
                    <color>ff0000ff</color>
                    <colorMode>normal</colorMode>
                    <scale>1</scale>
                    <heading>0</heading>
                    <Icon id="3106">
                        <href>http://maps.google.com/mapfiles/kml/pushpin/ylw-pushpin.png</href>
                    </Icon>
                </IconStyle>
            </Style>
            <name>CRISTHIAN ALEXANDER ALVARADO GONZALES</name>
            <Placemark id="2933">
                <name>FELICITO CORTEZ AVILES</name>
                <description>FELICITO CORTEZ AVILES
ESPINAR Nº 141 QUERE
Querecotillo
Querecotillo
Piura
Perú</description>
                <styleUrl>#2934</styleUrl>
                <Point id="2932">
                    <coordinates>-80.6484383,-4.8414551,0.0</coordinates>
                </Point>
            </Placemark>
            <Placemark id="2938">
                <name>NORY MAFALDA RIVERA NUNJAR</name>
                <description>CALLE ESPINAR 298
Querecotillo
Querecotillo
Piura
Perú</description>
                <styleUrl>#2939</styleUrl>
                <Point id="2937">
                    <coordinates>-80.6478754,-4.8405558,0.0</coordinates>
                </Point>
            </Placemark>
            <Placemark id="2943">
                <name>HERRERA SANDOVAL</name>
                <description>AGUIRRE Nº 990-QUERECOT.
Querecotillo
Querecotillo
Piura
Perú</description>
                <styleUrl>#2944</styleUrl>
                <Point id="2942">
                    <coordinates>-80.6478583,-4.8373314,0.0</coordinates>
                </Point>
            </Placemark>
            <Placemark id="2948">
                <name>EYDEN MERCEDES NUNJAR RIVERA</name>
                <description>Calle Aguirre 1152 Querecotillo
Querecotillo
Sullana
Piura
Perú</description>
                <styleUrl>#2949</styleUrl>
                <Point id="2947">
                    <coordinates>-80.6468713,-4.8364875,0.0</coordinates>
                </Point>
            </Placemark>
            <Placemark id="2953">
                <name>CISNEROS RONDOY ROSINA</name>
                <description>CA.BOLOGNESI 347 QUERECOTILLO
Querecotillo
Querecotillo
Piura
Perú</description>
                <styleUrl>#2954</styleUrl>
                <Point id="2952">
                    <coordinates>-80.6466386,-4.8384434,0.0</coordinates>
                </Point>
            </Placemark>
            <Placemark id="2958">
                <name>RUTH MICAELA RIVERA SUYON</name>
                <description>Calle Sánchez Cerro S/N Querecotillo
Querecotillo
Sullana
Piura
Perú</description>
                <styleUrl>#2959</styleUrl>
                <Point id="2957">
                    <coordinates>-80.6421777,-4.8359072,0.0</coordinates>
                </Point>
            </Placemark>
            <Placemark id="2963">
                <name>MELESTINA ORDINOLA NUNJAR</name>
                <description>MELESTINA ORDINOLA NUNJAR
CAL.JOSE MARIA RAYGADA NRO. 965 AH.
Querecotillo
Sullana
Piura
Perú</description>
                <styleUrl>#2964</styleUrl>
                <Point id="2962">
                    <coordinates>-80.6424697,-4.835683,0.0</coordinates>
                </Point>
            </Placemark>
            <Placemark id="2968">
                <name>CAROL ATOCHE NUNJAR</name>
                <description>Barrio Sánchez cerro 830, querecotillo
Querecotillo
Sullana
Piura
Perú</description>
                <styleUrl>#2969</styleUrl>
                <Point id="2967">
                    <coordinates>-80.643751,-4.836426,0.0</coordinates>
                </Point>
            </Placemark>
            <Placemark id="2973">
                <name>TANIA KARINA RIVERA GUTIERREZ</name>
                <description>BARRIO SEÑOR CAUTIVO MZ.15 LT.35 QU
Querecotillo
Querecotillo
Piura
Perú</description>
                <styleUrl>#2974</styleUrl>
                <Point id="2972">
                    <coordinates>-80.644632,-4.8355866,0.0</coordinates>
                </Point>
            </Placemark>
            <Placemark id="2978">
                <name>RAUL ORTEGA ESPINOZA</name>
                <description>GALVEZ 757 PARTE POSTERIOR
Querecotillo
Sullana
Piura
Perú</description>
                <styleUrl>#2979</styleUrl>
                <Point id="2977">
                    <coordinates>-80.644159,-4.835344,0.0</coordinates>
                </Point>
            </Placemark>
            <Placemark id="2983">
                <name>WENDY PAOLA COELLO RIVERA</name>
                <description>Aguirre 1426-01
Querecotillo

Piura
Perú</description>
                <styleUrl>#2984</styleUrl>
                <Point id="2982">
                    <coordinates>-80.6443414,-4.8340149,0.0</coordinates>
                </Point>
            </Placemark>
            <Placemark id="2988">
                <name>MERCEDES DEL SOCORRO GUTIERREZ CHUNGA</name>
                <description>Froilan Alama MZ F, lt21 querecotillo
Querecotillo
Querecotillo
Piura
Perú</description>
                <styleUrl>#2989</styleUrl>
                <Point id="2987">
                    <coordinates>-80.6462414,-4.8333215,0.0</coordinates>
                </Point>
            </Placemark>
            <Placemark id="2993">
                <name>IVONN TAVARA GUTIERREZ DE SEMINARIO</name>
                <description>IVONN TAVARA GUTIERREZ DE SEMINARIO
AH FROILAN ALAM MZ A LT 7-182 CA 2
Querecotillo
Querecotillo
Piura
Perú</description>
                <styleUrl>#2994</styleUrl>
                <Point id="2992">
                    <coordinates>-80.6466707,-4.8338163,0.0</coordinates>
                </Point>
            </Placemark>
            <Placemark id="2998">
                <name>NANCY NUÑEZ DIAZ</name>
                <description>AVENIDA PANAMERICANA N30
Querecotillo
Querecotillo
Piura
Perú</description>
                <styleUrl>#2999</styleUrl>
                <Point id="2997">
                    <coordinates>-80.6471426,-4.833442,0.0</coordinates>
                </Point>
            </Placemark>
            <Placemark id="3003">
                <name>CRISALIDA CUEVA HUALAN</name>
                <description>MZ.J LTE.14 A.H.OBDULIO RIVERA - QU
Querecotillo
Querecotillo
Piura
Perú</description>
                <styleUrl>#3004</styleUrl>
                <Point id="3002">
                    <coordinates>-80.6461941,-4.8325864,0.0</coordinates>
                </Point>
            </Placemark>
            <Placemark id="3008">
                <name>ROSA MATILDE PASICHE ALAMA</name>
                <description>AH.OBDULIO RIVERA MZ I LT 04
Querecotillo
Sullana
Piura
Perú</description>
                <styleUrl>#3009</styleUrl>
                <Point id="3007">
                    <coordinates>-80.646705,-4.832078,0.0</coordinates>
                </Point>
            </Placemark>
            <Placemark id="3013">
                <name>MARIA FRANCISCA CALLIRGOS QUISPE</name>
                <description>AAHH JESUS OBDULIO MZ C LT 4 QUERECOTILLO-SULLANA
Querecotillo
Querecotillo
Piura
Perú</description>
                <styleUrl>#3014</styleUrl>
                <Point id="3012">
                    <coordinates>-80.6456561,-4.8323226,0.0</coordinates>
                </Point>
            </Placemark>
            <Placemark id="3018">
                <name>ESTELA VILLALTA TRELLES</name>
                <description>A.H JOSE OBDULIO RIVERA  MZB LOTE 6
Querecotillo
Sullana
Piura
Perú</description>
                <styleUrl>#3019</styleUrl>
                <Point id="3017">
                    <coordinates>-80.6452779,-4.8319895,0.0</coordinates>
                </Point>
            </Placemark>
            <Placemark id="3023">
                <name>GABRIELA LIZZETT REYMUNDO CARREÑO</name>
                <description>Calle lima SN caserío santa cruz frente al estadio
Sullana

Piura
Perú</description>
                <styleUrl>#3024</styleUrl>
                <Point id="3022">
                    <coordinates>-80.618734,-4.796473,0.0</coordinates>
                </Point>
            </Placemark>
            <Placemark id="3028">
                <name>CARREÑO RUIZ YESSICA PAOLA</name>
                <description>CARREÑO RUIZ YESSICA PAOLA
CA.BOLOGNESI MZ.33-07 STA CRUZ
Querecotillo
Querecotillo
Piura
Perú</description>
                <styleUrl>#3029</styleUrl>
                <Point id="3027">
                    <coordinates>-80.621283,-4.797676,0.0</coordinates>
                </Point>
            </Placemark>
            <Placemark id="3033">
                <name>MARIA DEL PILAR MENA URBINA</name>
                <description>MARIA DEL PILAR MENA URBINA
CAS.STA.CRUZ BOLOGNESI 1RA ENT
Querecotillo
Querecotillo
Piura
Perú</description>
                <styleUrl>#3034</styleUrl>
                <Point id="3032">
                    <coordinates>-80.620444,-4.79829,0.0</coordinates>
                </Point>
            </Placemark>
            <Placemark id="3038">
                <name>CAROLINA MILAGROS CLAVIJO AYALA</name>
                <description>Calle Bolognesi SN caserío santa cruz
Querecotillo

Piura
Perú</description>
                <styleUrl>#3039</styleUrl>
                <Point id="3037">
                    <coordinates>-80.619754,-4.798478,0.0</coordinates>
                </Point>
            </Placemark>
            <Placemark id="3043">
                <name>LICINIO CASTILLO CALLE</name>
                <description>Calle Bolognesi SN caserío santa cruz
Querecotillo

Piura
Perú</description>
                <styleUrl>#3044</styleUrl>
                <Point id="3042">
                    <coordinates>-80.619566,-4.79872,0.0</coordinates>
                </Point>
            </Placemark>
            <Placemark id="3048">
                <name>ELIZALDE CARREÑO ROEL YAMES</name>
                <description>CA.SAN MARTIN-STA CRUZ 1-18
Querecotillo
Querecotillo
Piura
Perú</description>
                <styleUrl>#3049</styleUrl>
                <Point id="3047">
                    <coordinates>-80.620448,-4.796352,0.0</coordinates>
                </Point>
            </Placemark>
            <Placemark id="3053">
                <name>MORE LITANO MARIA ISABEL</name>
                <description>PUENTE DE LOS SERRANOS LT 190
Querecotillo
Querecotillo
Piura
Perú</description>
                <styleUrl>#3054</styleUrl>
                <Point id="3052">
                    <coordinates>-80.6099997,-4.7831659,0.0</coordinates>
                </Point>
            </Placemark>
            <Placemark id="3058">
                <name>ROSMERY CASTILLO VARGAS</name>
                <description>CP. NUEVO CAUTIVO S/N
Querecotillo
Querecotillo
Piura
Perú</description>
                <styleUrl>#3059</styleUrl>
                <Point id="3057">
                    <coordinates>-80.5859254,-4.7448297,0.0</coordinates>
                </Point>
            </Placemark>
            <Placemark id="3063">
                <name>DE RUIZ NATIVIDAD CARREÑO ABAD</name>
                <description>PUENTE DE LOS SERRANOS 159
Querecotillo
Querecotillo
Piura
Perú</description>
                <styleUrl>#3064</styleUrl>
                <Point id="3062">
                    <coordinates>-80.607386,-4.7837009,0.0</coordinates>
                </Point>
            </Placemark>
            <Placemark id="3068">
                <name>MARLENY DEL PILAR PRIETO SAAVEDRA</name>
                <description>Centro poblado San Francisco frente al parque
Querecotillo
Querecotillo
Piura
Perú</description>
                <styleUrl>#3069</styleUrl>
                <Point id="3067">
                    <coordinates>-80.5816126,-4.7421269,0.0</coordinates>
                </Point>
            </Placemark>
            <Placemark id="3073">
                <name>GABY ELIZET AREVALO CEVALLOS</name>
                <description>BARRIO EL MILAGRO S/N SULLANA-SULLANA
Querecotillo
Querecotillo
Piura
Perú</description>
                <styleUrl>#3074</styleUrl>
                <Point id="3072">
                    <coordinates>-80.5827954,-4.7409169,0.0</coordinates>
                </Point>
            </Placemark>
            <Placemark id="3078">
                <name>AREVALO CEVALLOS EIDEY JILIBET</name>
                <description>CA.SAN FRANCISCO  S/N
Querecotillo
Querecotillo
Piura
Perú</description>
                <styleUrl>#3079</styleUrl>
                <Point id="3077">
                    <coordinates>-80.582615,-4.741886,0.0</coordinates>
                </Point>
            </Placemark>
            <Placemark id="3083">
                <name>ELVER OCTAVIO CEVALLOS FARIAS</name>
                <description>SAN FRANCISCO S/N QUERECOTILLO
Querecotillo
Querecotillo
Piura
Perú</description>
                <styleUrl>#3084</styleUrl>
                <Point id="3082">
                    <coordinates>-80.5846533,-4.7404771,0.0</coordinates>
                </Point>
            </Placemark>
            <Placemark id="3088">
                <name>VERONIKA FARIAS MEJIA</name>
                <description>Caserío nueva esperanza san Francisco de chocan querecotillo
Querecotillo

Piura
Perú</description>
                <styleUrl>#3089</styleUrl>
                <Point id="3087">
                    <coordinates>-80.580818,-4.737521,0.0</coordinates>
                </Point>
            </Placemark>
            <Placemark id="3093">
                <name>MARINA SOLEDAD MEDINA FLORES</name>
                <description>Cetro poblado chocan frente a la posta
Querecotillo

Piura
Perú</description>
                <styleUrl>#3094</styleUrl>
                <Point id="3092">
                    <coordinates>-80.5763723,-4.7301473,0.0</coordinates>
                </Point>
            </Placemark>
            <Placemark id="3098">
                <name>ROJAS CARRASCO YULIANA</name>
                <description>ROJAS CARRASCO YULIANA
CA CHOCAN N 99CHOCAN
Querecotillo
Querecotillo
Piura
Perú</description>
                <styleUrl>#3099</styleUrl>
                <Point id="3097">
                    <coordinates>-80.5758679,-4.7289076,0.0</coordinates>
                </Point>
            </Placemark>
            <Placemark id="3103">
                <name>SANCHEZ MORE OLGA</name>
                <description>CA.CHOCAN S/N
Querecotillo
Querecotillo
Piura
Perú</description>
                <styleUrl>#3104</styleUrl>
                <Point id="3102">
                    <coordinates>-80.5757685,-4.7285997,0.0</coordinates>
                </Point>
            </Placemark>
        </Folder>
        <Folder id="3107">
            <Style id="3110">
                <IconStyle id="3111">
                    <color>ffff0000</color>
                    <colorMode>normal</colorMode>
                    <scale>1</scale>
                    <heading>0</heading>
                    <Icon id="3112">
                        <href>http://maps.google.com/mapfiles/kml/pushpin/ylw-pushpin.png</href>
                    </Icon>
                </IconStyle>
            </Style>
            <Style id="3115">
                <IconStyle id="3116">
                    <color>ffff0000</color>
                    <colorMode>normal</colorMode>
                    <scale>1</scale>
                    <heading>0</heading>
                    <Icon id="3117">
                        <href>http://maps.google.com/mapfiles/kml/pushpin/ylw-pushpin.png</href>
                    </Icon>
                </IconStyle>
            </Style>
            <Style id="3120">
                <IconStyle id="3121">
                    <color>ffff0000</color>
                    <colorMode>normal</colorMode>
                    <scale>1</scale>
                    <heading>0</heading>
                    <Icon id="3122">
                        <href>http://maps.google.com/mapfiles/kml/pushpin/ylw-pushpin.png</href>
                    </Icon>
                </IconStyle>
            </Style>
            <Style id="3125">
                <IconStyle id="3126">
                    <color>ffff0000</color>
                    <colorMode>normal</colorMode>
                    <scale>1</scale>
                    <heading>0</heading>
                    <Icon id="3127">
                        <href>http://maps.google.com/mapfiles/kml/pushpin/ylw-pushpin.png</href>
                    </Icon>
                </IconStyle>
            </Style>
            <Style id="3130">
                <IconStyle id="3131">
                    <color>ffff0000</color>
                    <colorMode>normal</colorMode>
                    <scale>1</scale>
                    <heading>0</heading>
                    <Icon id="3132">
                        <href>http://maps.google.com/mapfiles/kml/pushpin/ylw-pushpin.png</href>
                    </Icon>
                </IconStyle>
            </Style>
            <Style id="3135">
                <IconStyle id="3136">
                    <color>ffff0000</color>
                    <colorMode>normal</colorMode>
                    <scale>1</scale>
                    <heading>0</heading>
                    <Icon id="3137">
                        <href>http://maps.google.com/mapfiles/kml/pushpin/ylw-pushpin.png</href>
                    </Icon>
                </IconStyle>
            </Style>
            <Style id="3140">
                <IconStyle id="3141">
                    <color>ffff0000</color>
                    <colorMode>normal</colorMode>
                    <scale>1</scale>
                    <heading>0</heading>
                    <Icon id="3142">
                        <href>http://maps.google.com/mapfiles/kml/pushpin/ylw-pushpin.png</href>
                    </Icon>
                </IconStyle>
            </Style>
            <Style id="3145">
                <IconStyle id="3146">
                    <color>ffff0000</color>
                    <colorMode>normal</colorMode>
                    <scale>1</scale>
                    <heading>0</heading>
                    <Icon id="3147">
                        <href>http://maps.google.com/mapfiles/kml/pushpin/ylw-pushpin.png</href>
                    </Icon>
                </IconStyle>
            </Style>
            <Style id="3150">
                <IconStyle id="3151">
                    <color>ffff0000</color>
                    <colorMode>normal</colorMode>
                    <scale>1</scale>
                    <heading>0</heading>
                    <Icon id="3152">
                        <href>http://maps.google.com/mapfiles/kml/pushpin/ylw-pushpin.png</href>
                    </Icon>
                </IconStyle>
            </Style>
            <Style id="3155">
                <IconStyle id="3156">
                    <color>ffff0000</color>
                    <colorMode>normal</colorMode>
                    <scale>1</scale>
                    <heading>0</heading>
                    <Icon id="3157">
                        <href>http://maps.google.com/mapfiles/kml/pushpin/ylw-pushpin.png</href>
                    </Icon>
                </IconStyle>
            </Style>
            <Style id="3160">
                <IconStyle id="3161">
                    <color>ffff0000</color>
                    <colorMode>normal</colorMode>
                    <scale>1</scale>
                    <heading>0</heading>
                    <Icon id="3162">
                        <href>http://maps.google.com/mapfiles/kml/pushpin/ylw-pushpin.png</href>
                    </Icon>
                </IconStyle>
            </Style>
            <Style id="3165">
                <IconStyle id="3166">
                    <color>ffff0000</color>
                    <colorMode>normal</colorMode>
                    <scale>1</scale>
                    <heading>0</heading>
                    <Icon id="3167">
                        <href>http://maps.google.com/mapfiles/kml/pushpin/ylw-pushpin.png</href>
                    </Icon>
                </IconStyle>
            </Style>
            <Style id="3170">
                <IconStyle id="3171">
                    <color>ffff0000</color>
                    <colorMode>normal</colorMode>
                    <scale>1</scale>
                    <heading>0</heading>
                    <Icon id="3172">
                        <href>http://maps.google.com/mapfiles/kml/pushpin/ylw-pushpin.png</href>
                    </Icon>
                </IconStyle>
            </Style>
            <Style id="3175">
                <IconStyle id="3176">
                    <color>ffff0000</color>
                    <colorMode>normal</colorMode>
                    <scale>1</scale>
                    <heading>0</heading>
                    <Icon id="3177">
                        <href>http://maps.google.com/mapfiles/kml/pushpin/ylw-pushpin.png</href>
                    </Icon>
                </IconStyle>
            </Style>
            <Style id="3180">
                <IconStyle id="3181">
                    <color>ffff0000</color>
                    <colorMode>normal</colorMode>
                    <scale>1</scale>
                    <heading>0</heading>
                    <Icon id="3182">
                        <href>http://maps.google.com/mapfiles/kml/pushpin/ylw-pushpin.png</href>
                    </Icon>
                </IconStyle>
            </Style>
            <Style id="3185">
                <IconStyle id="3186">
                    <color>ffff0000</color>
                    <colorMode>normal</colorMode>
                    <scale>1</scale>
                    <heading>0</heading>
                    <Icon id="3187">
                        <href>http://maps.google.com/mapfiles/kml/pushpin/ylw-pushpin.png</href>
                    </Icon>
                </IconStyle>
            </Style>
            <Style id="3190">
                <IconStyle id="3191">
                    <color>ffff0000</color>
                    <colorMode>normal</colorMode>
                    <scale>1</scale>
                    <heading>0</heading>
                    <Icon id="3192">
                        <href>http://maps.google.com/mapfiles/kml/pushpin/ylw-pushpin.png</href>
                    </Icon>
                </IconStyle>
            </Style>
            <Style id="3195">
                <IconStyle id="3196">
                    <color>ffff0000</color>
                    <colorMode>normal</colorMode>
                    <scale>1</scale>
                    <heading>0</heading>
                    <Icon id="3197">
                        <href>http://maps.google.com/mapfiles/kml/pushpin/ylw-pushpin.png</href>
                    </Icon>
                </IconStyle>
            </Style>
            <Style id="3200">
                <IconStyle id="3201">
                    <color>ffff0000</color>
                    <colorMode>normal</colorMode>
                    <scale>1</scale>
                    <heading>0</heading>
                    <Icon id="3202">
                        <href>http://maps.google.com/mapfiles/kml/pushpin/ylw-pushpin.png</href>
                    </Icon>
                </IconStyle>
            </Style>
            <Style id="3205">
                <IconStyle id="3206">
                    <color>ffff0000</color>
                    <colorMode>normal</colorMode>
                    <scale>1</scale>
                    <heading>0</heading>
                    <Icon id="3207">
                        <href>http://maps.google.com/mapfiles/kml/pushpin/ylw-pushpin.png</href>
                    </Icon>
                </IconStyle>
            </Style>
            <Style id="3210">
                <IconStyle id="3211">
                    <color>ffff0000</color>
                    <colorMode>normal</colorMode>
                    <scale>1</scale>
                    <heading>0</heading>
                    <Icon id="3212">
                        <href>http://maps.google.com/mapfiles/kml/pushpin/ylw-pushpin.png</href>
                    </Icon>
                </IconStyle>
            </Style>
            <Style id="3215">
                <IconStyle id="3216">
                    <color>ffff0000</color>
                    <colorMode>normal</colorMode>
                    <scale>1</scale>
                    <heading>0</heading>
                    <Icon id="3217">
                        <href>http://maps.google.com/mapfiles/kml/pushpin/ylw-pushpin.png</href>
                    </Icon>
                </IconStyle>
            </Style>
            <Style id="3220">
                <IconStyle id="3221">
                    <color>ffff0000</color>
                    <colorMode>normal</colorMode>
                    <scale>1</scale>
                    <heading>0</heading>
                    <Icon id="3222">
                        <href>http://maps.google.com/mapfiles/kml/pushpin/ylw-pushpin.png</href>
                    </Icon>
                </IconStyle>
            </Style>
            <Style id="3225">
                <IconStyle id="3226">
                    <color>ffff0000</color>
                    <colorMode>normal</colorMode>
                    <scale>1</scale>
                    <heading>0</heading>
                    <Icon id="3227">
                        <href>http://maps.google.com/mapfiles/kml/pushpin/ylw-pushpin.png</href>
                    </Icon>
                </IconStyle>
            </Style>
            <Style id="3230">
                <IconStyle id="3231">
                    <color>ffff0000</color>
                    <colorMode>normal</colorMode>
                    <scale>1</scale>
                    <heading>0</heading>
                    <Icon id="3232">
                        <href>http://maps.google.com/mapfiles/kml/pushpin/ylw-pushpin.png</href>
                    </Icon>
                </IconStyle>
            </Style>
            <Style id="3235">
                <IconStyle id="3236">
                    <color>ffff0000</color>
                    <colorMode>normal</colorMode>
                    <scale>1</scale>
                    <heading>0</heading>
                    <Icon id="3237">
                        <href>http://maps.google.com/mapfiles/kml/pushpin/ylw-pushpin.png</href>
                    </Icon>
                </IconStyle>
            </Style>
            <Style id="3240">
                <IconStyle id="3241">
                    <color>ffff0000</color>
                    <colorMode>normal</colorMode>
                    <scale>1</scale>
                    <heading>0</heading>
                    <Icon id="3242">
                        <href>http://maps.google.com/mapfiles/kml/pushpin/ylw-pushpin.png</href>
                    </Icon>
                </IconStyle>
            </Style>
            <Style id="3245">
                <IconStyle id="3246">
                    <color>ffff0000</color>
                    <colorMode>normal</colorMode>
                    <scale>1</scale>
                    <heading>0</heading>
                    <Icon id="3247">
                        <href>http://maps.google.com/mapfiles/kml/pushpin/ylw-pushpin.png</href>
                    </Icon>
                </IconStyle>
            </Style>
            <Style id="3250">
                <IconStyle id="3251">
                    <color>ffff0000</color>
                    <colorMode>normal</colorMode>
                    <scale>1</scale>
                    <heading>0</heading>
                    <Icon id="3252">
                        <href>http://maps.google.com/mapfiles/kml/pushpin/ylw-pushpin.png</href>
                    </Icon>
                </IconStyle>
            </Style>
            <Style id="3255">
                <IconStyle id="3256">
                    <color>ffff0000</color>
                    <colorMode>normal</colorMode>
                    <scale>1</scale>
                    <heading>0</heading>
                    <Icon id="3257">
                        <href>http://maps.google.com/mapfiles/kml/pushpin/ylw-pushpin.png</href>
                    </Icon>
                </IconStyle>
            </Style>
            <Style id="3260">
                <IconStyle id="3261">
                    <color>ffff0000</color>
                    <colorMode>normal</colorMode>
                    <scale>1</scale>
                    <heading>0</heading>
                    <Icon id="3262">
                        <href>http://maps.google.com/mapfiles/kml/pushpin/ylw-pushpin.png</href>
                    </Icon>
                </IconStyle>
            </Style>
            <Style id="3265">
                <IconStyle id="3266">
                    <color>ffff0000</color>
                    <colorMode>normal</colorMode>
                    <scale>1</scale>
                    <heading>0</heading>
                    <Icon id="3267">
                        <href>http://maps.google.com/mapfiles/kml/pushpin/ylw-pushpin.png</href>
                    </Icon>
                </IconStyle>
            </Style>
            <Style id="3270">
                <IconStyle id="3271">
                    <color>ffff0000</color>
                    <colorMode>normal</colorMode>
                    <scale>1</scale>
                    <heading>0</heading>
                    <Icon id="3272">
                        <href>http://maps.google.com/mapfiles/kml/pushpin/ylw-pushpin.png</href>
                    </Icon>
                </IconStyle>
            </Style>
            <Style id="3275">
                <IconStyle id="3276">
                    <color>ffff0000</color>
                    <colorMode>normal</colorMode>
                    <scale>1</scale>
                    <heading>0</heading>
                    <Icon id="3277">
                        <href>http://maps.google.com/mapfiles/kml/pushpin/ylw-pushpin.png</href>
                    </Icon>
                </IconStyle>
            </Style>
            <name>JACIEL MOGOLLON ALVARADO</name>
            <Placemark id="3109">
                <name>ALEXANDER EUGENIO CORDOVA ROSAS</name>
                <description>AV SULLANA FRENTE A LA MUNICIPALIDAD DE MARCAVELIVA
Marcavelica
Marcavelica
Piura
Perú</description>
                <styleUrl>#3110</styleUrl>
                <Point id="3108">
                    <coordinates>-80.703234,-4.8817714,0.0</coordinates>
                </Point>
            </Placemark>
            <Placemark id="3114">
                <name>DISTRIBUIDORA Y SERVICIOS GENERALES G&amp;P S.A.C. -</name>
                <description>DISTRIBUIDORA Y SERVICIOS GENERALES G&amp;P S.A.C. -
CAL.LIBERTAD KM. 608
Salitral
200608Salitral
Piura
Perú</description>
                <styleUrl>#3115</styleUrl>
                <Point id="3113">
                    <coordinates>-80.6810344,-4.8568452,0.0</coordinates>
                </Point>
            </Placemark>
            <Placemark id="3119">
                <name>JUANA VITALICIA QUINTANA SERNAQUE</name>
                <description>CA.BERNARDO ALCEDO 221
Sullana
Sullana
Piura
Perú</description>
                <styleUrl>#3120</styleUrl>
                <Point id="3118">
                    <coordinates>-80.6830872,-4.892073,0.0</coordinates>
                </Point>
            </Placemark>
            <Placemark id="3124">
                <name>VILELA RETO PEDRO EDWARD</name>
                <description>VILELA RETO PEDRO EDWARD
JR 2 de mayo S/N
Marcavelica
Marcavelica
Piura
Perú</description>
                <styleUrl>#3125</styleUrl>
                <Point id="3123">
                    <coordinates>-80.7061166,-4.8807301,0.0</coordinates>
                </Point>
            </Placemark>
            <Placemark id="3129">
                <name>PEÑA PEÑA JULIANA</name>
                <description>2 DE MAYO 309  MARCAVELICA
Marcavelica
Marcavelica
Piura
Perú</description>
                <styleUrl>#3130</styleUrl>
                <Point id="3128">
                    <coordinates>-80.7039172,-4.8757839,0.0</coordinates>
                </Point>
            </Placemark>
            <Placemark id="3134">
                <name>JIMENEZ ROMERO JULISSA LIXBET</name>
                <description>CA.2 DE MAYO 142
Marcavelica
Marcavelica
Piura
Perú</description>
                <styleUrl>#3135</styleUrl>
                <Point id="3133">
                    <coordinates>-80.7040251,-4.8761325,0.0</coordinates>
                </Point>
            </Placemark>
            <Placemark id="3139">
                <name>YNFANTE COBOS MAXIMINA</name>
                <description>2 DE MAYO 137 LAS PALMERAS MA.
Marcavelica
Marcavelica
Piura
Perú</description>
                <styleUrl>#3140</styleUrl>
                <Point id="3138">
                    <coordinates>-80.705319,-4.8793782,0.0</coordinates>
                </Point>
            </Placemark>
            <Placemark id="3144">
                <name>ORDINOLA ARICA MARINA</name>
                <description>AV.SANCHEZ CERRO 265
Marcavelica
Marcavelica
Piura
Perú</description>
                <styleUrl>#3145</styleUrl>
                <Point id="3143">
                    <coordinates>-80.7030918,-4.8813975,0.0</coordinates>
                </Point>
            </Placemark>
            <Placemark id="3149">
                <name>CARREÑO FLORES MIRIAM</name>
                <description>CARREÑO FLORES MIRIAM
PLAZA DE ARMAS 126
Marcavelica
Marcavelica
Piura
Perú</description>
                <styleUrl>#3150</styleUrl>
                <Point id="3148">
                    <coordinates>-80.70355,-4.881699,0.0</coordinates>
                </Point>
            </Placemark>
            <Placemark id="3154">
                <name>GONZALEZ RETO HILDA TATIANA</name>
                <description>GONZALEZ RETO HILDA TATIANA
AV.SULLANA S/N
Marcavelica
Marcavelica
Piura
Perú</description>
                <styleUrl>#3155</styleUrl>
                <Point id="3153">
                    <coordinates>-80.7033283,-4.8818196,0.0</coordinates>
                </Point>
            </Placemark>
            <Placemark id="3159">
                <name>ALEXANDER EUGENIO CORDOVA ROSAS</name>
                <description>AV SULLANA FRENTE A LA MUNICIPALIDAD DE MARCAVELIVA
Marcavelica
Marcavelica
Piura
Perú</description>
                <styleUrl>#3160</styleUrl>
                <Point id="3158">
                    <coordinates>-80.703234,-4.8817714,0.0</coordinates>
                </Point>
            </Placemark>
            <Placemark id="3164">
                <name>ROSA CASTILLO DE NOLE</name>
                <description>ROSA CASTILLO DE NOLE
AV.JORGE CHAVEZ Nº 174 MARCA
Marcavelica
Marcavelica
Piura
Perú</description>
                <styleUrl>#3165</styleUrl>
                <Point id="3163">
                    <coordinates>-80.69996,-4.880918,0.0</coordinates>
                </Point>
            </Placemark>
            <Placemark id="3169">
                <name>DIANA MORALES MORAN</name>
                <description>TACNA -206 SN ESPALDAS DE LA PANAMERICANA SALITRAL
Salitral
Salitral
Piura
Perú</description>
                <styleUrl>#3170</styleUrl>
                <Point id="3168">
                    <coordinates>-80.6778752,-4.8541646,0.0</coordinates>
                </Point>
            </Placemark>
            <Placemark id="3174">
                <name>MARCO ANTONIO SULLON YOVERA</name>
                <description>Calle Bernardo alcedo 276 sullana
Sullana
Sullana
Piura
Perú</description>
                <styleUrl>#3175</styleUrl>
                <Point id="3173">
                    <coordinates>-80.6832925,-4.8923506,0.0</coordinates>
                </Point>
            </Placemark>
            <Placemark id="3179">
                <name>ELVIA RIOFRIO CHORRES</name>
                <description>Calle libertad sin número
Salitral
Sullana
Piura
Perú</description>
                <styleUrl>#3180</styleUrl>
                <Point id="3178">
                    <coordinates>-80.6782074,-4.8543373,0.0</coordinates>
                </Point>
            </Placemark>
            <Placemark id="3184">
                <name>RAMIREZ RAMIREZ ZELMA GRACIELA</name>
                <description>CA.TACNA 008
Salitral
Salitral
Piura
Perú</description>
                <styleUrl>#3185</styleUrl>
                <Point id="3183">
                    <coordinates>-80.6771556,-4.8542438,0.0</coordinates>
                </Point>
            </Placemark>
            <Placemark id="3189">
                <name>ADELIA CARINA ATOCHE OBLEA</name>
                <description>ADELIA CARINA ATOCHE OBLEA
CA 6 DE ABRIL N 100 CERCADO URBANOSALITRAL
Salitral
Salitral
Piura
Perú</description>
                <styleUrl>#3190</styleUrl>
                <Point id="3188">
                    <coordinates>-80.677297,-4.8548592,0.0</coordinates>
                </Point>
            </Placemark>
            <Placemark id="3194">
                <name>GEYVI ITALIA SAAVEDRA MORALES</name>
                <description>Sullana Salitral Sucre sn Costado de club cabo verde
Salitral
Salitral
Piura
Perú</description>
                <styleUrl>#3195</styleUrl>
                <Point id="3193">
                    <coordinates>-80.6786309,-4.8576244,0.0</coordinates>
                </Point>
            </Placemark>
            <Placemark id="3199">
                <name>ANA CECILIA GONZAGA RODRIGUEZ</name>
                <description>ANA CECILIA GONZAGA RODRIGUEZ
BOLOGNESI 405 SALITRAL
Salitral
Salitral
Piura
Perú</description>
                <styleUrl>#3200</styleUrl>
                <Point id="3198">
                    <coordinates>-80.6799192,-4.8572404,0.0</coordinates>
                </Point>
            </Placemark>
            <Placemark id="3204">
                <name>MARIA MAGDALENA ZAPATA ORDINOLA</name>
                <description>CA. BOLIVAR NÂ°720
Salitral
Salitral
Piura
Perú</description>
                <styleUrl>#3205</styleUrl>
                <Point id="3203">
                    <coordinates>-80.6841579,-4.8617474,0.0</coordinates>
                </Point>
            </Placemark>
            <Placemark id="3209">
                <name>ARICA ALBURQUEQUE MARLENY</name>
                <description>CA BOLIVAR S/N SALITRAL
Salitral
Salitral
Piura
Perú</description>
                <styleUrl>#3210</styleUrl>
                <Point id="3208">
                    <coordinates>-80.68505,-4.8617066,0.0</coordinates>
                </Point>
            </Placemark>
            <Placemark id="3214">
                <name>PULACHE ORDINOLA LILI</name>
                <description>SUCRE CDA.09 ESPALDA EST.
Salitral
Salitral
Piura
Perú</description>
                <styleUrl>#3215</styleUrl>
                <Point id="3213">
                    <coordinates>-80.6852651,-4.8620173,0.0</coordinates>
                </Point>
            </Placemark>
            <Placemark id="3219">
                <name>RAMOS CEDAMANO MARIA JULIA</name>
                <description>CA.SUCRE 898
Salitral
Salitral
Piura
Perú</description>
                <styleUrl>#3220</styleUrl>
                <Point id="3218">
                    <coordinates>-80.685213,-4.861826,0.0</coordinates>
                </Point>
            </Placemark>
            <Placemark id="3224">
                <name>LUIS ALBERTO JARAMILLO MENDOZA</name>
                <description>Calle San Martín cuadra 10 salitral
Salitral
Salitral
Piura
Perú</description>
                <styleUrl>#3225</styleUrl>
                <Point id="3223">
                    <coordinates>-80.6850535,-4.8599728,0.0</coordinates>
                </Point>
            </Placemark>
            <Placemark id="3229">
                <name>KATTY CAROLINA MARQUEZ CHERO</name>
                <description>TRANVERSAL SALAVERRY 100
Salitral
Salitral
Piura
Perú</description>
                <styleUrl>#3230</styleUrl>
                <Point id="3228">
                    <coordinates>-80.6834844,-4.8583742,0.0</coordinates>
                </Point>
            </Placemark>
            <Placemark id="3234">
                <name>ANA MARIA RIOFRIO PASICHE</name>
                <description>CA. Libertad 820
Salitral
Salitral
Piura
Perú</description>
                <styleUrl>#3235</styleUrl>
                <Point id="3233">
                    <coordinates>-80.6834133,-4.8585861,0.0</coordinates>
                </Point>
            </Placemark>
            <Placemark id="3239">
                <name>CISNEROS MORALES JULIANA</name>
                <description>BOLOGNESI 702 SALITRAL
Salitral
Salitral
Piura
Perú</description>
                <styleUrl>#3240</styleUrl>
                <Point id="3238">
                    <coordinates>-80.6822489,-4.8588526,0.0</coordinates>
                </Point>
            </Placemark>
            <Placemark id="3244">
                <name>PEÑA SAAVEDRA GUISELLA DE LOURDES</name>
                <description>PEÑA SAAVEDRA GUISELLA DE LOURDES
TRANSV.28 DE JULIO NÂª309 SALITRAL
Salitral
Salitral
Piura
Perú</description>
                <styleUrl>#3245</styleUrl>
                <Point id="3243">
                    <coordinates>-80.6813328,-4.8579744,0.0</coordinates>
                </Point>
            </Placemark>
            <Placemark id="3249">
                <name>DISTRIBUIDORA Y SERVICIOS GENERALES G&amp;P S.A.C. -</name>
                <description>DISTRIBUIDORA Y SERVICIOS GENERALES G&amp;P S.A.C. -
CAL.LIBERTAD KM. 608
Salitral
200608Salitral
Piura
Perú</description>
                <styleUrl>#3250</styleUrl>
                <Point id="3248">
                    <coordinates>-80.6810344,-4.8568452,0.0</coordinates>
                </Point>
            </Placemark>
            <Placemark id="3254">
                <name>LAURA CASTILLO REYMUNDO</name>
                <description>CALLE HUASCAR 126  VICHAYAL
Querecotillo
Querecotillo
Piura
Perú</description>
                <styleUrl>#3255</styleUrl>
                <Point id="3253">
                    <coordinates>-80.6553431,-4.8433495,0.0</coordinates>
                </Point>
            </Placemark>
            <Placemark id="3259">
                <name>VARGAS VALDIVIEZO INGRID LOREN</name>
                <description>CA.ATAHUALPA 180 VICHAYAL
Querecotillo
Querecotillo
Piura
Perú</description>
                <styleUrl>#3260</styleUrl>
                <Point id="3258">
                    <coordinates>-80.6579942,-4.8443892,0.0</coordinates>
                </Point>
            </Placemark>
            <Placemark id="3264">
                <name>RUIZ ARCELES HILDA</name>
                <description>CA.ATAHUALPA 108
Salitral
Salitral
Piura
Perú</description>
                <styleUrl>#3265</styleUrl>
                <Point id="3263">
                    <coordinates>-80.6583356,-4.8438207,0.0</coordinates>
                </Point>
            </Placemark>
            <Placemark id="3269">
                <name>ALFREDO AGURTO PALACIOS</name>
                <description>Avenida Perú 142 vichallal
Querecotillo
Querecotillo
Piura
Perú</description>
                <styleUrl>#3270</styleUrl>
                <Point id="3268">
                    <coordinates>-80.6579295,-4.8433707,0.0</coordinates>
                </Point>
            </Placemark>
            <Placemark id="3274">
                <name>JESUS FELIPE PLASENCIA REGALADO</name>
                <description>MERCADO MAYORISTA CEBOLLERO
Sullana
Sullana
Piura
Perú</description>
                <styleUrl>#3275</styleUrl>
                <Point id="3273">
                    <coordinates>-80.6794409,-4.9130793,0.0</coordinates>
                </Point>
            </Placemark>
        </Folder>
    </Document>
</kml>
