<?xml version="1.0" encoding="UTF-8"?>
<kml xmlns="http://www.opengis.net/kml/2.2" xmlns:gx="http://www.google.com/kml/ext/2.2">
    <Document id="1305">
        <Folder id="1306">
            <Style id="1309">
                <IconStyle id="1310">
                    <color>ff0000ff</color>
                    <colorMode>normal</colorMode>
                    <scale>1</scale>
                    <heading>0</heading>
                    <Icon id="1311">
                        <href>http://maps.google.com/mapfiles/kml/pushpin/ylw-pushpin.png</href>
                    </Icon>
                </IconStyle>
            </Style>
            <Style id="1314">
                <IconStyle id="1315">
                    <color>ff0000ff</color>
                    <colorMode>normal</colorMode>
                    <scale>1</scale>
                    <heading>0</heading>
                    <Icon id="1316">
                        <href>http://maps.google.com/mapfiles/kml/pushpin/ylw-pushpin.png</href>
                    </Icon>
                </IconStyle>
            </Style>
            <Style id="1319">
                <IconStyle id="1320">
                    <color>ff0000ff</color>
                    <colorMode>normal</colorMode>
                    <scale>1</scale>
                    <heading>0</heading>
                    <Icon id="1321">
                        <href>http://maps.google.com/mapfiles/kml/pushpin/ylw-pushpin.png</href>
                    </Icon>
                </IconStyle>
            </Style>
            <Style id="1324">
                <IconStyle id="1325">
                    <color>ff0000ff</color>
                    <colorMode>normal</colorMode>
                    <scale>1</scale>
                    <heading>0</heading>
                    <Icon id="1326">
                        <href>http://maps.google.com/mapfiles/kml/pushpin/ylw-pushpin.png</href>
                    </Icon>
                </IconStyle>
            </Style>
            <Style id="1329">
                <IconStyle id="1330">
                    <color>ff0000ff</color>
                    <colorMode>normal</colorMode>
                    <scale>1</scale>
                    <heading>0</heading>
                    <Icon id="1331">
                        <href>http://maps.google.com/mapfiles/kml/pushpin/ylw-pushpin.png</href>
                    </Icon>
                </IconStyle>
            </Style>
            <Style id="1334">
                <IconStyle id="1335">
                    <color>ff0000ff</color>
                    <colorMode>normal</colorMode>
                    <scale>1</scale>
                    <heading>0</heading>
                    <Icon id="1336">
                        <href>http://maps.google.com/mapfiles/kml/pushpin/ylw-pushpin.png</href>
                    </Icon>
                </IconStyle>
            </Style>
            <Style id="1339">
                <IconStyle id="1340">
                    <color>ff0000ff</color>
                    <colorMode>normal</colorMode>
                    <scale>1</scale>
                    <heading>0</heading>
                    <Icon id="1341">
                        <href>http://maps.google.com/mapfiles/kml/pushpin/ylw-pushpin.png</href>
                    </Icon>
                </IconStyle>
            </Style>
            <Style id="1344">
                <IconStyle id="1345">
                    <color>ff0000ff</color>
                    <colorMode>normal</colorMode>
                    <scale>1</scale>
                    <heading>0</heading>
                    <Icon id="1346">
                        <href>http://maps.google.com/mapfiles/kml/pushpin/ylw-pushpin.png</href>
                    </Icon>
                </IconStyle>
            </Style>
            <Style id="1349">
                <IconStyle id="1350">
                    <color>ff0000ff</color>
                    <colorMode>normal</colorMode>
                    <scale>1</scale>
                    <heading>0</heading>
                    <Icon id="1351">
                        <href>http://maps.google.com/mapfiles/kml/pushpin/ylw-pushpin.png</href>
                    </Icon>
                </IconStyle>
            </Style>
            <Style id="1354">
                <IconStyle id="1355">
                    <color>ff0000ff</color>
                    <colorMode>normal</colorMode>
                    <scale>1</scale>
                    <heading>0</heading>
                    <Icon id="1356">
                        <href>http://maps.google.com/mapfiles/kml/pushpin/ylw-pushpin.png</href>
                    </Icon>
                </IconStyle>
            </Style>
            <Style id="1359">
                <IconStyle id="1360">
                    <color>ff0000ff</color>
                    <colorMode>normal</colorMode>
                    <scale>1</scale>
                    <heading>0</heading>
                    <Icon id="1361">
                        <href>http://maps.google.com/mapfiles/kml/pushpin/ylw-pushpin.png</href>
                    </Icon>
                </IconStyle>
            </Style>
            <Style id="1364">
                <IconStyle id="1365">
                    <color>ff0000ff</color>
                    <colorMode>normal</colorMode>
                    <scale>1</scale>
                    <heading>0</heading>
                    <Icon id="1366">
                        <href>http://maps.google.com/mapfiles/kml/pushpin/ylw-pushpin.png</href>
                    </Icon>
                </IconStyle>
            </Style>
            <Style id="1369">
                <IconStyle id="1370">
                    <color>ff0000ff</color>
                    <colorMode>normal</colorMode>
                    <scale>1</scale>
                    <heading>0</heading>
                    <Icon id="1371">
                        <href>http://maps.google.com/mapfiles/kml/pushpin/ylw-pushpin.png</href>
                    </Icon>
                </IconStyle>
            </Style>
            <Style id="1374">
                <IconStyle id="1375">
                    <color>ff0000ff</color>
                    <colorMode>normal</colorMode>
                    <scale>1</scale>
                    <heading>0</heading>
                    <Icon id="1376">
                        <href>http://maps.google.com/mapfiles/kml/pushpin/ylw-pushpin.png</href>
                    </Icon>
                </IconStyle>
            </Style>
            <Style id="1379">
                <IconStyle id="1380">
                    <color>ff0000ff</color>
                    <colorMode>normal</colorMode>
                    <scale>1</scale>
                    <heading>0</heading>
                    <Icon id="1381">
                        <href>http://maps.google.com/mapfiles/kml/pushpin/ylw-pushpin.png</href>
                    </Icon>
                </IconStyle>
            </Style>
            <Style id="1384">
                <IconStyle id="1385">
                    <color>ff0000ff</color>
                    <colorMode>normal</colorMode>
                    <scale>1</scale>
                    <heading>0</heading>
                    <Icon id="1386">
                        <href>http://maps.google.com/mapfiles/kml/pushpin/ylw-pushpin.png</href>
                    </Icon>
                </IconStyle>
            </Style>
            <Style id="1389">
                <IconStyle id="1390">
                    <color>ff0000ff</color>
                    <colorMode>normal</colorMode>
                    <scale>1</scale>
                    <heading>0</heading>
                    <Icon id="1391">
                        <href>http://maps.google.com/mapfiles/kml/pushpin/ylw-pushpin.png</href>
                    </Icon>
                </IconStyle>
            </Style>
            <Style id="1394">
                <IconStyle id="1395">
                    <color>ff0000ff</color>
                    <colorMode>normal</colorMode>
                    <scale>1</scale>
                    <heading>0</heading>
                    <Icon id="1396">
                        <href>http://maps.google.com/mapfiles/kml/pushpin/ylw-pushpin.png</href>
                    </Icon>
                </IconStyle>
            </Style>
            <Style id="1399">
                <IconStyle id="1400">
                    <color>ff0000ff</color>
                    <colorMode>normal</colorMode>
                    <scale>1</scale>
                    <heading>0</heading>
                    <Icon id="1401">
                        <href>http://maps.google.com/mapfiles/kml/pushpin/ylw-pushpin.png</href>
                    </Icon>
                </IconStyle>
            </Style>
            <Style id="1404">
                <IconStyle id="1405">
                    <color>ff0000ff</color>
                    <colorMode>normal</colorMode>
                    <scale>1</scale>
                    <heading>0</heading>
                    <Icon id="1406">
                        <href>http://maps.google.com/mapfiles/kml/pushpin/ylw-pushpin.png</href>
                    </Icon>
                </IconStyle>
            </Style>
            <Style id="1409">
                <IconStyle id="1410">
                    <color>ff0000ff</color>
                    <colorMode>normal</colorMode>
                    <scale>1</scale>
                    <heading>0</heading>
                    <Icon id="1411">
                        <href>http://maps.google.com/mapfiles/kml/pushpin/ylw-pushpin.png</href>
                    </Icon>
                </IconStyle>
            </Style>
            <Style id="1414">
                <IconStyle id="1415">
                    <color>ff0000ff</color>
                    <colorMode>normal</colorMode>
                    <scale>1</scale>
                    <heading>0</heading>
                    <Icon id="1416">
                        <href>http://maps.google.com/mapfiles/kml/pushpin/ylw-pushpin.png</href>
                    </Icon>
                </IconStyle>
            </Style>
            <Style id="1419">
                <IconStyle id="1420">
                    <color>ff0000ff</color>
                    <colorMode>normal</colorMode>
                    <scale>1</scale>
                    <heading>0</heading>
                    <Icon id="1421">
                        <href>http://maps.google.com/mapfiles/kml/pushpin/ylw-pushpin.png</href>
                    </Icon>
                </IconStyle>
            </Style>
            <Style id="1424">
                <IconStyle id="1425">
                    <color>ff0000ff</color>
                    <colorMode>normal</colorMode>
                    <scale>1</scale>
                    <heading>0</heading>
                    <Icon id="1426">
                        <href>http://maps.google.com/mapfiles/kml/pushpin/ylw-pushpin.png</href>
                    </Icon>
                </IconStyle>
            </Style>
            <Style id="1429">
                <IconStyle id="1430">
                    <color>ff0000ff</color>
                    <colorMode>normal</colorMode>
                    <scale>1</scale>
                    <heading>0</heading>
                    <Icon id="1431">
                        <href>http://maps.google.com/mapfiles/kml/pushpin/ylw-pushpin.png</href>
                    </Icon>
                </IconStyle>
            </Style>
            <Style id="1434">
                <IconStyle id="1435">
                    <color>ff0000ff</color>
                    <colorMode>normal</colorMode>
                    <scale>1</scale>
                    <heading>0</heading>
                    <Icon id="1436">
                        <href>http://maps.google.com/mapfiles/kml/pushpin/ylw-pushpin.png</href>
                    </Icon>
                </IconStyle>
            </Style>
            <Style id="1439">
                <IconStyle id="1440">
                    <color>ff0000ff</color>
                    <colorMode>normal</colorMode>
                    <scale>1</scale>
                    <heading>0</heading>
                    <Icon id="1441">
                        <href>http://maps.google.com/mapfiles/kml/pushpin/ylw-pushpin.png</href>
                    </Icon>
                </IconStyle>
            </Style>
            <Style id="1444">
                <IconStyle id="1445">
                    <color>ff0000ff</color>
                    <colorMode>normal</colorMode>
                    <scale>1</scale>
                    <heading>0</heading>
                    <Icon id="1446">
                        <href>http://maps.google.com/mapfiles/kml/pushpin/ylw-pushpin.png</href>
                    </Icon>
                </IconStyle>
            </Style>
            <Style id="1449">
                <IconStyle id="1450">
                    <color>ff0000ff</color>
                    <colorMode>normal</colorMode>
                    <scale>1</scale>
                    <heading>0</heading>
                    <Icon id="1451">
                        <href>http://maps.google.com/mapfiles/kml/pushpin/ylw-pushpin.png</href>
                    </Icon>
                </IconStyle>
            </Style>
            <Style id="1454">
                <IconStyle id="1455">
                    <color>ff0000ff</color>
                    <colorMode>normal</colorMode>
                    <scale>1</scale>
                    <heading>0</heading>
                    <Icon id="1456">
                        <href>http://maps.google.com/mapfiles/kml/pushpin/ylw-pushpin.png</href>
                    </Icon>
                </IconStyle>
            </Style>
            <Style id="1459">
                <IconStyle id="1460">
                    <color>ff0000ff</color>
                    <colorMode>normal</colorMode>
                    <scale>1</scale>
                    <heading>0</heading>
                    <Icon id="1461">
                        <href>http://maps.google.com/mapfiles/kml/pushpin/ylw-pushpin.png</href>
                    </Icon>
                </IconStyle>
            </Style>
            <Style id="1464">
                <IconStyle id="1465">
                    <color>ff0000ff</color>
                    <colorMode>normal</colorMode>
                    <scale>1</scale>
                    <heading>0</heading>
                    <Icon id="1466">
                        <href>http://maps.google.com/mapfiles/kml/pushpin/ylw-pushpin.png</href>
                    </Icon>
                </IconStyle>
            </Style>
            <Style id="1469">
                <IconStyle id="1470">
                    <color>ff0000ff</color>
                    <colorMode>normal</colorMode>
                    <scale>1</scale>
                    <heading>0</heading>
                    <Icon id="1471">
                        <href>http://maps.google.com/mapfiles/kml/pushpin/ylw-pushpin.png</href>
                    </Icon>
                </IconStyle>
            </Style>
            <Style id="1474">
                <IconStyle id="1475">
                    <color>ff0000ff</color>
                    <colorMode>normal</colorMode>
                    <scale>1</scale>
                    <heading>0</heading>
                    <Icon id="1476">
                        <href>http://maps.google.com/mapfiles/kml/pushpin/ylw-pushpin.png</href>
                    </Icon>
                </IconStyle>
            </Style>
            <Style id="1479">
                <IconStyle id="1480">
                    <color>ff0000ff</color>
                    <colorMode>normal</colorMode>
                    <scale>1</scale>
                    <heading>0</heading>
                    <Icon id="1481">
                        <href>http://maps.google.com/mapfiles/kml/pushpin/ylw-pushpin.png</href>
                    </Icon>
                </IconStyle>
            </Style>
            <Style id="1484">
                <IconStyle id="1485">
                    <color>ff0000ff</color>
                    <colorMode>normal</colorMode>
                    <scale>1</scale>
                    <heading>0</heading>
                    <Icon id="1486">
                        <href>http://maps.google.com/mapfiles/kml/pushpin/ylw-pushpin.png</href>
                    </Icon>
                </IconStyle>
            </Style>
            <Style id="1489">
                <IconStyle id="1490">
                    <color>ff0000ff</color>
                    <colorMode>normal</colorMode>
                    <scale>1</scale>
                    <heading>0</heading>
                    <Icon id="1491">
                        <href>http://maps.google.com/mapfiles/kml/pushpin/ylw-pushpin.png</href>
                    </Icon>
                </IconStyle>
            </Style>
            <Style id="1494">
                <IconStyle id="1495">
                    <color>ff0000ff</color>
                    <colorMode>normal</colorMode>
                    <scale>1</scale>
                    <heading>0</heading>
                    <Icon id="1496">
                        <href>http://maps.google.com/mapfiles/kml/pushpin/ylw-pushpin.png</href>
                    </Icon>
                </IconStyle>
            </Style>
            <name>JACIEL MOGOLLON ALVARADO</name>
            <Placemark id="1308">
                <name>MILTON AVILA JARAMILLO</name>
                <description>Av las Mercedes somate bajo
Sullana
Sullana
Piura
Perú</description>
                <styleUrl>#1309</styleUrl>
                <Point id="1307">
                    <coordinates>-80.5328239,-4.7435379,0.0</coordinates>
                </Point>
            </Placemark>
            <Placemark id="1313">
                <name>DUBER HILDEBRANDO QUEVEDO PONCE</name>
                <description>Calle Bernaldo alcedo
Sullana
Sullana
Piura
Perú</description>
                <styleUrl>#1314</styleUrl>
                <Point id="1312">
                    <coordinates>-80.6829911,-4.8918878,0.0</coordinates>
                </Point>
            </Placemark>
            <Placemark id="1318">
                <name>JOSE MANUEL CHUNGA PAICO</name>
                <description>SECT LA PUNTA S/N MCDO BELLAVISTA frente al pescado
Sullana
Sullana
Piura
Perú</description>
                <styleUrl>#1319</styleUrl>
                <Point id="1317">
                    <coordinates>-80.682319,-4.8934019,0.0</coordinates>
                </Point>
            </Placemark>
            <Placemark id="1323">
                <name>SANCHEZ ZAPATA FABIOLA E.</name>
                <description>CAS. EL CUCHO
Sullana
Sullana
Piura
Perú</description>
                <styleUrl>#1324</styleUrl>
                <Point id="1322">
                    <coordinates>-80.660247,-4.869762,0.0</coordinates>
                </Point>
            </Placemark>
            <Placemark id="1328">
                <name>CASTRO FLORES ROXANA</name>
                <description>CAS. EL CUCHO
Sullana
Sullana
Piura
Perú</description>
                <styleUrl>#1329</styleUrl>
                <Point id="1327">
                    <coordinates>-80.6598786,-4.8694538,0.0</coordinates>
                </Point>
            </Placemark>
            <Placemark id="1333">
                <name>JUANA YSABEL JIMENEZ DELGADO</name>
                <description>CARRETERA LATINA S/N CP EL CUCHO CASTILLA-PIURA
Sullana
Sullana
Piura
Perú</description>
                <styleUrl>#1334</styleUrl>
                <Point id="1332">
                    <coordinates>-80.654816,-4.8682159,0.0</coordinates>
                </Point>
            </Placemark>
            <Placemark id="1338">
                <name>BYMSHOP SOCIEDAD ANONIMA CERRADA, C.P. El Cucho</name>
                <description>BYMSHOP SOCIEDAD ANONIMA CERRADA
Carretera Bellavista Huangala - Sullana
Bellavista
Bellavista
Piura
Perú</description>
                <styleUrl>#1339</styleUrl>
                <Point id="1337">
                    <coordinates>-80.6535032,-4.8679435,0.0</coordinates>
                </Point>
            </Placemark>
            <Placemark id="1343">
                <name>MARCELINA AREVALO ZAPATA</name>
                <description>SAN ANTONIO #102 HUANGALA SULLANA-SULLANA
Sullana
Sullana
Piura
Perú</description>
                <styleUrl>#1344</styleUrl>
                <Point id="1342">
                    <coordinates>-80.6018548,-4.8414923,0.0</coordinates>
                </Point>
            </Placemark>
            <Placemark id="1348">
                <name>NORMA CASTRO JIMENEZ</name>
                <description>CALLE SAN FRANCISCO S/N HUANGALA
Sullana
Sullana
Piura
Perú</description>
                <styleUrl>#1349</styleUrl>
                <Point id="1347">
                    <coordinates>-80.5999659,-4.8419911,0.0</coordinates>
                </Point>
            </Placemark>
            <Placemark id="1353">
                <name>PEDRO LOPEZ ALVA</name>
                <description>San Francisco - Huangala - Bellavista
Sullana
Sullana
Piura
Perú</description>
                <styleUrl>#1354</styleUrl>
                <Point id="1352">
                    <coordinates>-80.5999859,-4.8419946,0.0</coordinates>
                </Point>
            </Placemark>
            <Placemark id="1358">
                <name>MARITA NANCY SILVA GIRON</name>
                <description>SAN JOSE #510 HUANGALA SULLANA-SULLANA
Sullana
Sullana
Piura
Perú</description>
                <styleUrl>#1359</styleUrl>
                <Point id="1357">
                    <coordinates>-80.5975837,-4.8426371,0.0</coordinates>
                </Point>
            </Placemark>
            <Placemark id="1363">
                <name>BERTITA RAYMUNDO CRISANTO</name>
                <description>Calle San José huangala
Sullana
Sullana
Piura
Perú</description>
                <styleUrl>#1364</styleUrl>
                <Point id="1362">
                    <coordinates>-80.5973364,-4.8404623,0.0</coordinates>
                </Point>
            </Placemark>
            <Placemark id="1368">
                <name>ROSAURA SANCHEZ GIRON DE ALMESTAR</name>
                <description>CALLE SAN FRANCISCO S/N HUANGALA SULLANA-SULLANA
Sullana
Sullana
Piura
Perú</description>
                <styleUrl>#1369</styleUrl>
                <Point id="1367">
                    <coordinates>-80.5963441,-4.8438516,0.0</coordinates>
                </Point>
            </Placemark>
            <Placemark id="1373">
                <name>JOSE PORFIRIO ANDRADE ESPINOZA</name>
                <description>Calle Bernardo alcedo 250
Sullana
Sullana
Piura
Perú</description>
                <styleUrl>#1374</styleUrl>
                <Point id="1372">
                    <coordinates>-80.6831591,-4.8920828,0.0</coordinates>
                </Point>
            </Placemark>
            <Placemark id="1378">
                <name>GRIMANESA ISABEL AREVALO PACHERREZ</name>
                <description>Calle San Carlos 710 huangala
Sullana
Sullana
Piura
Perú</description>
                <styleUrl>#1379</styleUrl>
                <Point id="1377">
                    <coordinates>-80.5978409,-4.8419305,0.0</coordinates>
                </Point>
            </Placemark>
            <Placemark id="1383">
                <name>MAURA LOPEZ PAZ DE CARRASCO</name>
                <description>Calle San Eduardo huangala
Sullana
Sullana
Piura
Perú</description>
                <styleUrl>#1384</styleUrl>
                <Point id="1382">
                    <coordinates>-80.5942518,-4.8425077,0.0</coordinates>
                </Point>
            </Placemark>
            <Placemark id="1388">
                <name>DIANA CASTRO SANDOVAL DE PACHERREZ</name>
                <description>Calle San Juan huangala
Sullana
Sullana
Piura
Perú</description>
                <styleUrl>#1389</styleUrl>
                <Point id="1387">
                    <coordinates>-80.5980893,-4.8403587,0.0</coordinates>
                </Point>
            </Placemark>
            <Placemark id="1393">
                <name>SANTOS ROSA JIMENEZ VIERA</name>
                <description>9 de diciembre - Huangala- Bellavista
Sullana
Sullana
Piura
Perú</description>
                <styleUrl>#1394</styleUrl>
                <Point id="1392">
                    <coordinates>-80.6003998,-4.8402967,0.0</coordinates>
                </Point>
            </Placemark>
            <Placemark id="1398">
                <name>NORA BUSTAMANTE ADANAQUE DE ADANAQUE</name>
                <description>CALLE SAN ALBERTH HUANGALA SULLANA-SULLANA
Sullana
Sullana
Piura
Perú</description>
                <styleUrl>#1399</styleUrl>
                <Point id="1397">
                    <coordinates>-80.5971343,-4.8397079,0.0</coordinates>
                </Point>
            </Placemark>
            <Placemark id="1403">
                <name>Ana castro juarez</name>
                <description>Panamericana chalacala baja
Sullana
Sullana
Piura
Perú</description>
                <styleUrl>#1404</styleUrl>
                <Point id="1402">
                    <coordinates>-80.5714841,-4.7913209,0.0</coordinates>
                </Point>
            </Placemark>
            <Placemark id="1408">
                <name>YACKELINE DEL PILAR ABAD GIRON</name>
                <description>CA.PANAMERICANA  S/N
Sullana
Sullana
Piura
Perú</description>
                <styleUrl>#1409</styleUrl>
                <Point id="1407">
                    <coordinates>-80.5707643,-4.7900189,0.0</coordinates>
                </Point>
            </Placemark>
            <Placemark id="1413">
                <name>PALACIOS CHIQUIHUANGA O</name>
                <description>AV.PANAMERICANA SN CHALACALA B
Sullana
Sullana
Piura
Perú</description>
                <styleUrl>#1414</styleUrl>
                <Point id="1412">
                    <coordinates>-80.571182,-4.789898,0.0</coordinates>
                </Point>
            </Placemark>
            <Placemark id="1418">
                <name>SANDOVAL ZAPATA DEYSI EDITH</name>
                <description>CA.SOMATE BAJO S/N
Sullana
Sullana
Piura
Perú</description>
                <styleUrl>#1419</styleUrl>
                <Point id="1417">
                    <coordinates>-80.5318111,-4.7454359,0.0</coordinates>
                </Point>
            </Placemark>
            <Placemark id="1423">
                <name>CARREÑO FLORES ROSA</name>
                <description>CA.C.LEIGH S/N SOMATE BAJO
Sullana
Sullana
Piura
Perú</description>
                <styleUrl>#1424</styleUrl>
                <Point id="1422">
                    <coordinates>-80.5316053,-4.7453033,0.0</coordinates>
                </Point>
            </Placemark>
            <Placemark id="1428">
                <name>MILTON AVILA JARAMILLO</name>
                <description>Av las Mercedes somate bajo
Sullana
Sullana
Piura
Perú</description>
                <styleUrl>#1429</styleUrl>
                <Point id="1427">
                    <coordinates>-80.5328239,-4.7435379,0.0</coordinates>
                </Point>
            </Placemark>
            <Placemark id="1433">
                <name>JONATHAN ALEXIS CRUZ SOTO</name>
                <description>Av las Mercedes al costado de la señor Antonio Ojeda  somate bajo
Sullana

Piura
Perú</description>
                <styleUrl>#1434</styleUrl>
                <Point id="1432">
                    <coordinates>-80.5286406,-4.7388821,0.0</coordinates>
                </Point>
            </Placemark>
            <Placemark id="1438">
                <name>MARIA DOLORES ALVARES GUERRERO</name>
                <description>Carretera latina avenida las Mercedez San Jorge somate bajo
Sullana
Sullana
Piura
Perú</description>
                <styleUrl>#1439</styleUrl>
                <Point id="1437">
                    <coordinates>-80.5237912,-4.7357744,0.0</coordinates>
                </Point>
            </Placemark>
            <Placemark id="1443">
                <name>ARACELY ZAPATA DE LA CRUZ</name>
                <description>SOMATE BAJO SECTOR SAN JORGE
Sullana
Sullana
Piura
Perú</description>
                <styleUrl>#1444</styleUrl>
                <Point id="1442">
                    <coordinates>-80.5224423,-4.7359083,0.0</coordinates>
                </Point>
            </Placemark>
            <Placemark id="1448">
                <name>GUTIERREZ DOMINGUEZ MARISELLA</name>
                <description>CA.SOMATE BAJO S/N
Sullana
Sullana
Piura
Perú</description>
                <styleUrl>#1449</styleUrl>
                <Point id="1447">
                    <coordinates>-80.5235281,-4.7352619,0.0</coordinates>
                </Point>
            </Placemark>
            <Placemark id="1453">
                <name>RODRIGUEZ RODRIGUEZ JOSEFA</name>
                <description>CA.SOMATE BAJO SAN JORGE
Sullana
Sullana
Piura
Perú</description>
                <styleUrl>#1454</styleUrl>
                <Point id="1452">
                    <coordinates>-80.5214344,-4.7327006,0.0</coordinates>
                </Point>
            </Placemark>
            <Placemark id="1458">
                <name>FELICITA JIMENEZ GARCIA</name>
                <description>Cancha Santa Mónica somate antes de llegar al sector San Jorge
Sullana
Sullana
Piura
Perú</description>
                <styleUrl>#1459</styleUrl>
                <Point id="1457">
                    <coordinates>-80.5190357,-4.7308538,0.0</coordinates>
                </Point>
            </Placemark>
            <Placemark id="1463">
                <name>CESAR AUGUSTO FLORES VALDIVIEZO</name>
                <description>CHILACO SUR S/N SULLANA-SULLANA
Sullana
Sullana
Piura
Perú</description>
                <styleUrl>#1464</styleUrl>
                <Point id="1462">
                    <coordinates>-80.4964181,-4.7019653,0.0</coordinates>
                </Point>
            </Placemark>
            <Placemark id="1468">
                <name>JUANA ANDREA ZAPATA CAMACHO</name>
                <description>CHILACO S/N-SULLANA-SULLANA
Sullana
Sullana
Piura
Perú</description>
                <styleUrl>#1469</styleUrl>
                <Point id="1467">
                    <coordinates>-80.4964383,-4.7012371,0.0</coordinates>
                </Point>
            </Placemark>
            <Placemark id="1473">
                <name>ELENA ARCELA SALES</name>
                <description>PUENTE CHILACO PELADOS
Sullana
Sullana
Piura
Perú</description>
                <styleUrl>#1474</styleUrl>
                <Point id="1472">
                    <coordinates>-80.4962068,-4.7024601,0.0</coordinates>
                </Point>
            </Placemark>
            <Placemark id="1478">
                <name>JANNINA JOSVINDA CASTILLO TORRES</name>
                <description>CASERIO CHILACO PELADOS S/N SULLANA-SULLANA
Sullana

Piura
Perú</description>
                <styleUrl>#1479</styleUrl>
                <Point id="1477">
                    <coordinates>-80.492244,-4.701278,0.0</coordinates>
                </Point>
            </Placemark>
            <Placemark id="1483">
                <name>KAREN FIORELLA NUÑEZ VILLAREYES</name>
                <description>Chilaco pelados
Sullana
Sullana
Piura
Perú</description>
                <styleUrl>#1484</styleUrl>
                <Point id="1482">
                    <coordinates>-80.490246,-4.7011676,0.0</coordinates>
                </Point>
            </Placemark>
            <Placemark id="1488">
                <name>GRIMANESA ISABEL AREVALO PACHERREZ</name>
                <description>Calle San Carlos 710 huangala
Sullana
Sullana
Piura
Perú</description>
                <styleUrl>#1489</styleUrl>
                <Point id="1487">
                    <coordinates>-80.5978409,-4.8419305,0.0</coordinates>
                </Point>
            </Placemark>
            <Placemark id="1493">
                <name>JESUS FELIPE PLASENCIA REGALADO</name>
                <description>MERCADO MAYORISTA CEBOLLERO
Sullana
Sullana
Piura
Perú</description>
                <styleUrl>#1494</styleUrl>
                <Point id="1492">
                    <coordinates>-80.6794409,-4.9130793,0.0</coordinates>
                </Point>
            </Placemark>
        </Folder>
    </Document>
</kml>
