<?xml version="1.0" encoding="UTF-8"?>
<kml xmlns="http://www.opengis.net/kml/2.2" xmlns:gx="http://www.google.com/kml/ext/2.2">
    <Document id="2004">
        <Folder id="2005">
            <Style id="2008">
                <IconStyle id="2009">
                    <color>ff0000ff</color>
                    <colorMode>normal</colorMode>
                    <scale>1</scale>
                    <heading>0</heading>
                    <Icon id="2010">
                        <href>http://maps.google.com/mapfiles/kml/pushpin/ylw-pushpin.png</href>
                    </Icon>
                </IconStyle>
            </Style>
            <Style id="2013">
                <IconStyle id="2014">
                    <color>ff0000ff</color>
                    <colorMode>normal</colorMode>
                    <scale>1</scale>
                    <heading>0</heading>
                    <Icon id="2015">
                        <href>http://maps.google.com/mapfiles/kml/pushpin/ylw-pushpin.png</href>
                    </Icon>
                </IconStyle>
            </Style>
            <Style id="2018">
                <IconStyle id="2019">
                    <color>ff0000ff</color>
                    <colorMode>normal</colorMode>
                    <scale>1</scale>
                    <heading>0</heading>
                    <Icon id="2020">
                        <href>http://maps.google.com/mapfiles/kml/pushpin/ylw-pushpin.png</href>
                    </Icon>
                </IconStyle>
            </Style>
            <Style id="2023">
                <IconStyle id="2024">
                    <color>ff0000ff</color>
                    <colorMode>normal</colorMode>
                    <scale>1</scale>
                    <heading>0</heading>
                    <Icon id="2025">
                        <href>http://maps.google.com/mapfiles/kml/pushpin/ylw-pushpin.png</href>
                    </Icon>
                </IconStyle>
            </Style>
            <Style id="2028">
                <IconStyle id="2029">
                    <color>ff0000ff</color>
                    <colorMode>normal</colorMode>
                    <scale>1</scale>
                    <heading>0</heading>
                    <Icon id="2030">
                        <href>http://maps.google.com/mapfiles/kml/pushpin/ylw-pushpin.png</href>
                    </Icon>
                </IconStyle>
            </Style>
            <Style id="2033">
                <IconStyle id="2034">
                    <color>ff0000ff</color>
                    <colorMode>normal</colorMode>
                    <scale>1</scale>
                    <heading>0</heading>
                    <Icon id="2035">
                        <href>http://maps.google.com/mapfiles/kml/pushpin/ylw-pushpin.png</href>
                    </Icon>
                </IconStyle>
            </Style>
            <Style id="2038">
                <IconStyle id="2039">
                    <color>ff0000ff</color>
                    <colorMode>normal</colorMode>
                    <scale>1</scale>
                    <heading>0</heading>
                    <Icon id="2040">
                        <href>http://maps.google.com/mapfiles/kml/pushpin/ylw-pushpin.png</href>
                    </Icon>
                </IconStyle>
            </Style>
            <Style id="2043">
                <IconStyle id="2044">
                    <color>ff0000ff</color>
                    <colorMode>normal</colorMode>
                    <scale>1</scale>
                    <heading>0</heading>
                    <Icon id="2045">
                        <href>http://maps.google.com/mapfiles/kml/pushpin/ylw-pushpin.png</href>
                    </Icon>
                </IconStyle>
            </Style>
            <Style id="2048">
                <IconStyle id="2049">
                    <color>ff0000ff</color>
                    <colorMode>normal</colorMode>
                    <scale>1</scale>
                    <heading>0</heading>
                    <Icon id="2050">
                        <href>http://maps.google.com/mapfiles/kml/pushpin/ylw-pushpin.png</href>
                    </Icon>
                </IconStyle>
            </Style>
            <Style id="2053">
                <IconStyle id="2054">
                    <color>ff0000ff</color>
                    <colorMode>normal</colorMode>
                    <scale>1</scale>
                    <heading>0</heading>
                    <Icon id="2055">
                        <href>http://maps.google.com/mapfiles/kml/pushpin/ylw-pushpin.png</href>
                    </Icon>
                </IconStyle>
            </Style>
            <Style id="2058">
                <IconStyle id="2059">
                    <color>ff0000ff</color>
                    <colorMode>normal</colorMode>
                    <scale>1</scale>
                    <heading>0</heading>
                    <Icon id="2060">
                        <href>http://maps.google.com/mapfiles/kml/pushpin/ylw-pushpin.png</href>
                    </Icon>
                </IconStyle>
            </Style>
            <Style id="2063">
                <IconStyle id="2064">
                    <color>ff0000ff</color>
                    <colorMode>normal</colorMode>
                    <scale>1</scale>
                    <heading>0</heading>
                    <Icon id="2065">
                        <href>http://maps.google.com/mapfiles/kml/pushpin/ylw-pushpin.png</href>
                    </Icon>
                </IconStyle>
            </Style>
            <Style id="2068">
                <IconStyle id="2069">
                    <color>ff0000ff</color>
                    <colorMode>normal</colorMode>
                    <scale>1</scale>
                    <heading>0</heading>
                    <Icon id="2070">
                        <href>http://maps.google.com/mapfiles/kml/pushpin/ylw-pushpin.png</href>
                    </Icon>
                </IconStyle>
            </Style>
            <Style id="2073">
                <IconStyle id="2074">
                    <color>ff0000ff</color>
                    <colorMode>normal</colorMode>
                    <scale>1</scale>
                    <heading>0</heading>
                    <Icon id="2075">
                        <href>http://maps.google.com/mapfiles/kml/pushpin/ylw-pushpin.png</href>
                    </Icon>
                </IconStyle>
            </Style>
            <Style id="2078">
                <IconStyle id="2079">
                    <color>ff0000ff</color>
                    <colorMode>normal</colorMode>
                    <scale>1</scale>
                    <heading>0</heading>
                    <Icon id="2080">
                        <href>http://maps.google.com/mapfiles/kml/pushpin/ylw-pushpin.png</href>
                    </Icon>
                </IconStyle>
            </Style>
            <Style id="2083">
                <IconStyle id="2084">
                    <color>ff0000ff</color>
                    <colorMode>normal</colorMode>
                    <scale>1</scale>
                    <heading>0</heading>
                    <Icon id="2085">
                        <href>http://maps.google.com/mapfiles/kml/pushpin/ylw-pushpin.png</href>
                    </Icon>
                </IconStyle>
            </Style>
            <Style id="2088">
                <IconStyle id="2089">
                    <color>ff0000ff</color>
                    <colorMode>normal</colorMode>
                    <scale>1</scale>
                    <heading>0</heading>
                    <Icon id="2090">
                        <href>http://maps.google.com/mapfiles/kml/pushpin/ylw-pushpin.png</href>
                    </Icon>
                </IconStyle>
            </Style>
            <Style id="2093">
                <IconStyle id="2094">
                    <color>ff0000ff</color>
                    <colorMode>normal</colorMode>
                    <scale>1</scale>
                    <heading>0</heading>
                    <Icon id="2095">
                        <href>http://maps.google.com/mapfiles/kml/pushpin/ylw-pushpin.png</href>
                    </Icon>
                </IconStyle>
            </Style>
            <Style id="2098">
                <IconStyle id="2099">
                    <color>ff0000ff</color>
                    <colorMode>normal</colorMode>
                    <scale>1</scale>
                    <heading>0</heading>
                    <Icon id="2100">
                        <href>http://maps.google.com/mapfiles/kml/pushpin/ylw-pushpin.png</href>
                    </Icon>
                </IconStyle>
            </Style>
            <Style id="2103">
                <IconStyle id="2104">
                    <color>ff0000ff</color>
                    <colorMode>normal</colorMode>
                    <scale>1</scale>
                    <heading>0</heading>
                    <Icon id="2105">
                        <href>http://maps.google.com/mapfiles/kml/pushpin/ylw-pushpin.png</href>
                    </Icon>
                </IconStyle>
            </Style>
            <Style id="2108">
                <IconStyle id="2109">
                    <color>ff0000ff</color>
                    <colorMode>normal</colorMode>
                    <scale>1</scale>
                    <heading>0</heading>
                    <Icon id="2110">
                        <href>http://maps.google.com/mapfiles/kml/pushpin/ylw-pushpin.png</href>
                    </Icon>
                </IconStyle>
            </Style>
            <Style id="2113">
                <IconStyle id="2114">
                    <color>ff0000ff</color>
                    <colorMode>normal</colorMode>
                    <scale>1</scale>
                    <heading>0</heading>
                    <Icon id="2115">
                        <href>http://maps.google.com/mapfiles/kml/pushpin/ylw-pushpin.png</href>
                    </Icon>
                </IconStyle>
            </Style>
            <Style id="2118">
                <IconStyle id="2119">
                    <color>ff0000ff</color>
                    <colorMode>normal</colorMode>
                    <scale>1</scale>
                    <heading>0</heading>
                    <Icon id="2120">
                        <href>http://maps.google.com/mapfiles/kml/pushpin/ylw-pushpin.png</href>
                    </Icon>
                </IconStyle>
            </Style>
            <Style id="2123">
                <IconStyle id="2124">
                    <color>ff0000ff</color>
                    <colorMode>normal</colorMode>
                    <scale>1</scale>
                    <heading>0</heading>
                    <Icon id="2125">
                        <href>http://maps.google.com/mapfiles/kml/pushpin/ylw-pushpin.png</href>
                    </Icon>
                </IconStyle>
            </Style>
            <Style id="2128">
                <IconStyle id="2129">
                    <color>ff0000ff</color>
                    <colorMode>normal</colorMode>
                    <scale>1</scale>
                    <heading>0</heading>
                    <Icon id="2130">
                        <href>http://maps.google.com/mapfiles/kml/pushpin/ylw-pushpin.png</href>
                    </Icon>
                </IconStyle>
            </Style>
            <Style id="2133">
                <IconStyle id="2134">
                    <color>ff0000ff</color>
                    <colorMode>normal</colorMode>
                    <scale>1</scale>
                    <heading>0</heading>
                    <Icon id="2135">
                        <href>http://maps.google.com/mapfiles/kml/pushpin/ylw-pushpin.png</href>
                    </Icon>
                </IconStyle>
            </Style>
            <Style id="2138">
                <IconStyle id="2139">
                    <color>ff0000ff</color>
                    <colorMode>normal</colorMode>
                    <scale>1</scale>
                    <heading>0</heading>
                    <Icon id="2140">
                        <href>http://maps.google.com/mapfiles/kml/pushpin/ylw-pushpin.png</href>
                    </Icon>
                </IconStyle>
            </Style>
            <Style id="2143">
                <IconStyle id="2144">
                    <color>ff0000ff</color>
                    <colorMode>normal</colorMode>
                    <scale>1</scale>
                    <heading>0</heading>
                    <Icon id="2145">
                        <href>http://maps.google.com/mapfiles/kml/pushpin/ylw-pushpin.png</href>
                    </Icon>
                </IconStyle>
            </Style>
            <Style id="2148">
                <IconStyle id="2149">
                    <color>ff0000ff</color>
                    <colorMode>normal</colorMode>
                    <scale>1</scale>
                    <heading>0</heading>
                    <Icon id="2150">
                        <href>http://maps.google.com/mapfiles/kml/pushpin/ylw-pushpin.png</href>
                    </Icon>
                </IconStyle>
            </Style>
            <Style id="2153">
                <IconStyle id="2154">
                    <color>ff0000ff</color>
                    <colorMode>normal</colorMode>
                    <scale>1</scale>
                    <heading>0</heading>
                    <Icon id="2155">
                        <href>http://maps.google.com/mapfiles/kml/pushpin/ylw-pushpin.png</href>
                    </Icon>
                </IconStyle>
            </Style>
            <Style id="2158">
                <IconStyle id="2159">
                    <color>ff0000ff</color>
                    <colorMode>normal</colorMode>
                    <scale>1</scale>
                    <heading>0</heading>
                    <Icon id="2160">
                        <href>http://maps.google.com/mapfiles/kml/pushpin/ylw-pushpin.png</href>
                    </Icon>
                </IconStyle>
            </Style>
            <Style id="2163">
                <IconStyle id="2164">
                    <color>ff0000ff</color>
                    <colorMode>normal</colorMode>
                    <scale>1</scale>
                    <heading>0</heading>
                    <Icon id="2165">
                        <href>http://maps.google.com/mapfiles/kml/pushpin/ylw-pushpin.png</href>
                    </Icon>
                </IconStyle>
            </Style>
            <Style id="2168">
                <IconStyle id="2169">
                    <color>ff0000ff</color>
                    <colorMode>normal</colorMode>
                    <scale>1</scale>
                    <heading>0</heading>
                    <Icon id="2170">
                        <href>http://maps.google.com/mapfiles/kml/pushpin/ylw-pushpin.png</href>
                    </Icon>
                </IconStyle>
            </Style>
            <Style id="2173">
                <IconStyle id="2174">
                    <color>ff0000ff</color>
                    <colorMode>normal</colorMode>
                    <scale>1</scale>
                    <heading>0</heading>
                    <Icon id="2175">
                        <href>http://maps.google.com/mapfiles/kml/pushpin/ylw-pushpin.png</href>
                    </Icon>
                </IconStyle>
            </Style>
            <Style id="2178">
                <IconStyle id="2179">
                    <color>ff0000ff</color>
                    <colorMode>normal</colorMode>
                    <scale>1</scale>
                    <heading>0</heading>
                    <Icon id="2180">
                        <href>http://maps.google.com/mapfiles/kml/pushpin/ylw-pushpin.png</href>
                    </Icon>
                </IconStyle>
            </Style>
            <Style id="2183">
                <IconStyle id="2184">
                    <color>ff0000ff</color>
                    <colorMode>normal</colorMode>
                    <scale>1</scale>
                    <heading>0</heading>
                    <Icon id="2185">
                        <href>http://maps.google.com/mapfiles/kml/pushpin/ylw-pushpin.png</href>
                    </Icon>
                </IconStyle>
            </Style>
            <Style id="2188">
                <IconStyle id="2189">
                    <color>ff0000ff</color>
                    <colorMode>normal</colorMode>
                    <scale>1</scale>
                    <heading>0</heading>
                    <Icon id="2190">
                        <href>http://maps.google.com/mapfiles/kml/pushpin/ylw-pushpin.png</href>
                    </Icon>
                </IconStyle>
            </Style>
            <Style id="2193">
                <IconStyle id="2194">
                    <color>ff0000ff</color>
                    <colorMode>normal</colorMode>
                    <scale>1</scale>
                    <heading>0</heading>
                    <Icon id="2195">
                        <href>http://maps.google.com/mapfiles/kml/pushpin/ylw-pushpin.png</href>
                    </Icon>
                </IconStyle>
            </Style>
            <Style id="2198">
                <IconStyle id="2199">
                    <color>ff0000ff</color>
                    <colorMode>normal</colorMode>
                    <scale>1</scale>
                    <heading>0</heading>
                    <Icon id="2200">
                        <href>http://maps.google.com/mapfiles/kml/pushpin/ylw-pushpin.png</href>
                    </Icon>
                </IconStyle>
            </Style>
            <Style id="2203">
                <IconStyle id="2204">
                    <color>ff0000ff</color>
                    <colorMode>normal</colorMode>
                    <scale>1</scale>
                    <heading>0</heading>
                    <Icon id="2205">
                        <href>http://maps.google.com/mapfiles/kml/pushpin/ylw-pushpin.png</href>
                    </Icon>
                </IconStyle>
            </Style>
            <Style id="2208">
                <IconStyle id="2209">
                    <color>ff0000ff</color>
                    <colorMode>normal</colorMode>
                    <scale>1</scale>
                    <heading>0</heading>
                    <Icon id="2210">
                        <href>http://maps.google.com/mapfiles/kml/pushpin/ylw-pushpin.png</href>
                    </Icon>
                </IconStyle>
            </Style>
            <Style id="2213">
                <IconStyle id="2214">
                    <color>ff0000ff</color>
                    <colorMode>normal</colorMode>
                    <scale>1</scale>
                    <heading>0</heading>
                    <Icon id="2215">
                        <href>http://maps.google.com/mapfiles/kml/pushpin/ylw-pushpin.png</href>
                    </Icon>
                </IconStyle>
            </Style>
            <name>CRISTHIAN ALEXANDER ALVARADO GONZALES</name>
            <Placemark id="2007">
                <name>ANALI PAOLA CARREÑO SANCHEZ</name>
                <description>CALLE CASTILLA 307
Bellavista
Bellavista
Piura
Perú</description>
                <styleUrl>#2008</styleUrl>
                <Point id="2006">
                    <coordinates>-80.6749107,-4.8916331,0.0</coordinates>
                </Point>
            </Placemark>
            <Placemark id="2012">
                <name>ANALI PAOLA CARREÑO SANCHEZ</name>
                <description>CALLE CASTILLA 307
Bellavista
Bellavista
Piura
Perú</description>
                <styleUrl>#2013</styleUrl>
                <Point id="2011">
                    <coordinates>-80.6749107,-4.8916331,0.0</coordinates>
                </Point>
            </Placemark>
            <Placemark id="2017">
                <name>NANCY TATIANA VILLASECA AGURTO</name>
                <description>CALLE LAMBAYEQUE 235 / SULLANA
Sullana
Sullana
Piura
Perú</description>
                <styleUrl>#2018</styleUrl>
                <Point id="2016">
                    <coordinates>-80.681479,-4.8903295,0.0</coordinates>
                </Point>
            </Placemark>
            <Placemark id="2022">
                <name>DE ZAPATA AURORA LLOCLLA</name>
                <description>DE ZAPATA AURORA LLOCLLA
CA.LORETO N320 - BELLAVISTA - SULLANA
Bellavista
Bellavista
Piura
Perú</description>
                <styleUrl>#2023</styleUrl>
                <Point id="2021">
                    <coordinates>-80.6803466,-4.8911939,0.0</coordinates>
                </Point>
            </Placemark>
            <Placemark id="2027">
                <name>DOLY ABIGAIL HUAYAMA DURAZNO</name>
                <description>Trav.ayabaca#370
Bellavista
Bellavista
Piura
Perú</description>
                <styleUrl>#2028</styleUrl>
                <Point id="2026">
                    <coordinates>-80.681263,-4.8924,0.0</coordinates>
                </Point>
            </Placemark>
            <Placemark id="2032">
                <name>ROSA ELENA REYES DE CRISANTO</name>
                <description>CA.CUZCO 290 Bellavista
Bellavista
Bellavista
Piura
Perú</description>
                <styleUrl>#2033</styleUrl>
                <Point id="2031">
                    <coordinates>-80.6793321,-4.8915596,0.0</coordinates>
                </Point>
            </Placemark>
            <Placemark id="2037">
                <name>JOEL FRANCISCO VALDIVIEZO PALACIOS</name>
                <description>LAMBAYEQUE  149 / BELLAVISTA
Sullana
Sullana
Piura
Perú</description>
                <styleUrl>#2038</styleUrl>
                <Point id="2036">
                    <coordinates>-80.6819677,-4.8908217,0.0</coordinates>
                </Point>
            </Placemark>
            <Placemark id="2042">
                <name>CABRERA DE PULACHE CONSUELO</name>
                <description>CA.ANCASH 534 BELLAVISTA
Bellavista
Bellavista
Piura
Perú</description>
                <styleUrl>#2043</styleUrl>
                <Point id="2041">
                    <coordinates>-80.6757948,-4.8880765,0.0</coordinates>
                </Point>
            </Placemark>
            <Placemark id="2047">
                <name>JUANA ROSA OLIVA LOPEZ</name>
                <description>HUANCAVELICA 494 Bellavista
Bellavista
Bellavista
Piura
Perú</description>
                <styleUrl>#2048</styleUrl>
                <Point id="2046">
                    <coordinates>-80.6757466,-4.889258,0.0</coordinates>
                </Point>
            </Placemark>
            <Placemark id="2052">
                <name>ROSA MARCELA SEMINARIO PACHERREZ</name>
                <description>ROSA MARCELA SEMINARIO PACHERREZ
CA.MADRE DE DIOS 407 BELLAVISTA SULLANA
Bellavista
Bellavista
Piura
Perú</description>
                <styleUrl>#2053</styleUrl>
                <Point id="2051">
                    <coordinates>-80.6763458,-4.8906293,0.0</coordinates>
                </Point>
            </Placemark>
            <Placemark id="2057">
                <name>BLANCA CRUZ RETO OLIVA</name>
                <description>CA.BERNAL - 427 BELLAVISTA SULLANA
Bellavista
Bellavista
Piura
Perú</description>
                <styleUrl>#2058</styleUrl>
                <Point id="2056">
                    <coordinates>-80.6739542,-4.8893858,0.0</coordinates>
                </Point>
            </Placemark>
            <Placemark id="2062">
                <name>NORMA SANDOVAL VILLALTA DE ATOCHE</name>
                <description>BERNAL 459
Bellavista
Bellavista
Piura
Perú</description>
                <styleUrl>#2063</styleUrl>
                <Point id="2061">
                    <coordinates>-80.673788,-4.889042,0.0</coordinates>
                </Point>
            </Placemark>
            <Placemark id="2067">
                <name>FRANCISCO MARTIN ARCELES VILCHEZ</name>
                <description>CA Castilla NR 540
Bellavista
Bellavista
Piura
Perú</description>
                <styleUrl>#2068</styleUrl>
                <Point id="2066">
                    <coordinates>-80.6719,-4.8877544,0.0</coordinates>
                </Point>
            </Placemark>
            <Placemark id="2072">
                <name>JOEL FRANCISCO VALDIVIEZO PALACIOS</name>
                <description>LAMBAYEQUE  149 / BELLAVISTA
Sullana
Sullana
Piura
Perú</description>
                <styleUrl>#2073</styleUrl>
                <Point id="2071">
                    <coordinates>-80.6819677,-4.8908217,0.0</coordinates>
                </Point>
            </Placemark>
            <Placemark id="2077">
                <name>KI MARK E.I.R.L.</name>
                <description>AV. CHAMPAGNAT NRO. 401
Sullana
200601
Piura
Perú</description>
                <styleUrl>#2078</styleUrl>
                <Point id="2076">
                    <coordinates>-80.695309,-4.901197,0.0</coordinates>
                </Point>
            </Placemark>
            <Placemark id="2082">
                <name>IRINA GORETTY HINSBI GONZALES</name>
                <description>Calle la Arena 203 Bellavista
Bellavista
Bellavista
Piura
Perú</description>
                <styleUrl>#2083</styleUrl>
                <Point id="2081">
                    <coordinates>-80.6739057,-4.8924116,0.0</coordinates>
                </Point>
            </Placemark>
            <Placemark id="2087">
                <name>CARMEN ALVARADO GLORIA DEL PILAR</name>
                <description>CARMEN ALVARADO GLORIA DEL PILAR
CA. SAN ISIDRO 246 AA. HH PORVENIR- BELLAVISTA
Bellavista
Bellavista
Piura
Perú</description>
                <styleUrl>#2088</styleUrl>
                <Point id="2086">
                    <coordinates>-80.6721912,-4.8917866,0.0</coordinates>
                </Point>
            </Placemark>
            <Placemark id="2092">
                <name>MAGDALENA CORDOVA RUESTA DE ORTIZ</name>
                <description>Miraflores 210 - Bellavista
Bellavista
Bellavista
Piura
Perú</description>
                <styleUrl>#2093</styleUrl>
                <Point id="2091">
                    <coordinates>-80.672147,-4.8928486,0.0</coordinates>
                </Point>
            </Placemark>
            <Placemark id="2097">
                <name>MARIA ANGELA MENDOZA CARMEN</name>
                <description>CA.MIRAFLORES 346-BELLAVISTA
Bellavista
Bellavista
Piura
Perú</description>
                <styleUrl>#2098</styleUrl>
                <Point id="2096">
                    <coordinates>-80.6709331,-4.8909107,0.0</coordinates>
                </Point>
            </Placemark>
            <Placemark id="2102">
                <name>MINIMARKET &amp; BAZAR: LA BENDICION DE DIOS SOCIEDAD ANONIMA CERRADA</name>
                <description>MINIMARKET &amp; BAZAR: LA BENDICION DE DIOS SOCIEDAD ANONIMA CERRADA
CAL.MIRAFLORES NRO. 359 A.H. EL PORVENIR
Bellavista
200602Bellavista
Piura
Perú</description>
                <styleUrl>#2103</styleUrl>
                <Point id="2101">
                    <coordinates>-80.6706178,-4.8905459,0.0</coordinates>
                </Point>
            </Placemark>
            <Placemark id="2107">
                <name>ELIZABETH SANCHEZ GENNELL</name>
                <description>ELIZABETH SANCHEZ GENNELL
CA. SAN ISIDRO N 470 BAR. PORVENIR-BELLAVISTA
Bellavista
Bellavista
Piura
Perú</description>
                <styleUrl>#2108</styleUrl>
                <Point id="2106">
                    <coordinates>-80.6711911,-4.8902549,0.0</coordinates>
                </Point>
            </Placemark>
            <Placemark id="2112">
                <name>YESSIE LORELY HERRERA ESTRADA</name>
                <description>CA. CATACAOS 319 AA. HH PORVENIR -BELLAVISTA
Bellavista
Bellavista
Piura
Perú</description>
                <styleUrl>#2113</styleUrl>
                <Point id="2111">
                    <coordinates>-80.6731182,-4.8902871,0.0</coordinates>
                </Point>
            </Placemark>
            <Placemark id="2117">
                <name>SANTOS PAULA RIVERA FARFAN</name>
                <description>SANTOS PAULA RIVERA FARFAN
CALLE CATACOS  331 BELLAVISTA
Bellavista
Bellavista
Piura
Perú</description>
                <styleUrl>#2118</styleUrl>
                <Point id="2116">
                    <coordinates>-80.6729656,-4.889924,0.0</coordinates>
                </Point>
            </Placemark>
            <Placemark id="2122">
                <name>LILIANA CASTILLO DIOSES</name>
                <description>CAL. CATACAOS MZ. A LT.23 - BELLAVI
Bellavista
Bellavista
Piura
Perú</description>
                <styleUrl>#2123</styleUrl>
                <Point id="2121">
                    <coordinates>-80.6710032,-4.8873196,0.0</coordinates>
                </Point>
            </Placemark>
            <Placemark id="2127">
                <name>BERTHA LILIANA GUTIERREZ SANCHEZ DE ADRIANZEN</name>
                <description>CALLE HUANCAVELICA MZ C LOTE 32 AA.HH ESTEBAN PABLETICH
Sullana
Sullana
Piura
Perú</description>
                <styleUrl>#2128</styleUrl>
                <Point id="2126">
                    <coordinates>-80.6711666,-4.8827778,0.0</coordinates>
                </Point>
            </Placemark>
            <Placemark id="2132">
                <name>MARIA ISABEL ARIZOLA SALES</name>
                <description>Calle Huancavelica 528 Bellavista
Bellavista
Bellavista
Piura
Perú</description>
                <styleUrl>#2133</styleUrl>
                <Point id="2131">
                    <coordinates>-80.6752532,-4.888485,0.0</coordinates>
                </Point>
            </Placemark>
            <Placemark id="2137">
                <name>FABIOLA PATRICIA MORE SEMINARIO</name>
                <description>CA.ANCASH 572 Bellavista
Bellavista
Bellavista
Piura
Perú</description>
                <styleUrl>#2138</styleUrl>
                <Point id="2136">
                    <coordinates>-80.6752491,-4.8874711,0.0</coordinates>
                </Point>
            </Placemark>
            <Placemark id="2142">
                <name>JIMENEZ PETRONILA GIRON DE</name>
                <description>CA.ANCASOCH 641
Bellavista
Bellavista
Piura
Perú</description>
                <styleUrl>#2143</styleUrl>
                <Point id="2141">
                    <coordinates>-80.6742326,-4.8858374,0.0</coordinates>
                </Point>
            </Placemark>
            <Placemark id="2147">
                <name>BIANCA NATALY ZAPATA SALAZAR</name>
                <description>Calle ancash MZ b lote 39
Sullana
Sullana
Piura
Perú</description>
                <styleUrl>#2148</styleUrl>
                <Point id="2146">
                    <coordinates>-80.6711837,-4.881686,0.0</coordinates>
                </Point>
            </Placemark>
            <Placemark id="2152">
                <name>MARIA VIOLETA VILLALTA SIANCAS</name>
                <description>CA.MOQUEGUA MZ E LT 16
Bellavista
Bellavista
Piura
Perú</description>
                <styleUrl>#2153</styleUrl>
                <Point id="2151">
                    <coordinates>-80.673185,-4.8834074,0.0</coordinates>
                </Point>
            </Placemark>
            <Placemark id="2157">
                <name>ELIZABETH GLADYS NOLE GAMARRA</name>
                <description>Calle: Moquegua #845

Bellavista
Piura
Perú</description>
                <styleUrl>#2158</styleUrl>
                <Point id="2156">
                    <coordinates>-80.6739101,-4.8845458,0.0</coordinates>
                </Point>
            </Placemark>
            <Placemark id="2162">
                <name>ADITA ELIZABETH ORDINOLA GIRON</name>
                <description>Moquegua 713 - Bellavista
Bellavista
Bellavista
Piura
Perú</description>
                <styleUrl>#2163</styleUrl>
                <Point id="2161">
                    <coordinates>-80.6752099,-4.8861082,0.0</coordinates>
                </Point>
            </Placemark>
            <Placemark id="2167">
                <name>MARIA ELENA CALVAS CASTILLO</name>
                <description>CALLE JOVINO ARAMBULO 3 ETAPA MZ E LOTE 49
Bellavista
Bellavista
Piura
Perú</description>
                <styleUrl>#2168</styleUrl>
                <Point id="2166">
                    <coordinates>-80.6723131,-4.8814623,0.0</coordinates>
                </Point>
            </Placemark>
            <Placemark id="2172">
                <name>MARIA DIONISIA LAZO LA MADRID</name>
                <description>MZ.A LT.15 3ERA. ETAPA
Bellavista
Bellavista
Piura
Perú</description>
                <styleUrl>#2173</styleUrl>
                <Point id="2171">
                    <coordinates>-80.6732423,-4.8826915,0.0</coordinates>
                </Point>
            </Placemark>
            <Placemark id="2177">
                <name>DEYSI DEL PILAR SANCHEZ YACILA</name>
                <description>Cuzco 992 - Bellavista
Bellavista
Bellavista
Piura
Perú</description>
                <styleUrl>#2178</styleUrl>
                <Point id="2176">
                    <coordinates>-80.6754482,-4.8844876,0.0</coordinates>
                </Point>
            </Placemark>
            <Placemark id="2182">
                <name>DOLORES DELGADO CHOQUEHUANCA</name>
                <description>CUSCO 980 BELLAVISTA-SULLANA
Bellavista
Bellavista
Piura
Perú</description>
                <styleUrl>#2183</styleUrl>
                <Point id="2181">
                    <coordinates>-80.6755767,-4.8848078,0.0</coordinates>
                </Point>
            </Placemark>
            <Placemark id="2187">
                <name>SANTOS HUANCA ESCOBAR</name>
                <description>CA.CUZCO 711 BELLAVISTA
Bellavista
Bellavista
Piura
Perú</description>
                <styleUrl>#2188</styleUrl>
                <Point id="2186">
                    <coordinates>-80.6774747,-4.8876953,0.0</coordinates>
                </Point>
            </Placemark>
            <Placemark id="2192">
                <name>CLARA ISABEL ZAPATA PALACIOS</name>
                <description>CA.CASTRO SILVA N393 - BELLOSVISTA
Bellavista
Bellavista
Piura
Perú</description>
                <styleUrl>#2193</styleUrl>
                <Point id="2191">
                    <coordinates>-80.677366,-4.886643,0.0</coordinates>
                </Point>
            </Placemark>
            <Placemark id="2197">
                <name>AMPARO CASTILLO ATARAMA</name>
                <description>AMPARO CASTILLO ATARAMA
CA. JOSE CASTRO SILVA N 490 - BELLA
Bellavista
Bellavista
Piura
Perú</description>
                <styleUrl>#2198</styleUrl>
                <Point id="2196">
                    <coordinates>-80.6767322,-4.8854923,0.0</coordinates>
                </Point>
            </Placemark>
            <Placemark id="2202">
                <name>FRANCISCA LUCRECIA CORDOVA CELI</name>
                <description>FRANCISCA LUCRECIA CORDOVA CELI
LORETO Nº 708,BELLA
Bellavista
Bellavista
Piura
Perú</description>
                <styleUrl>#2203</styleUrl>
                <Point id="2201">
                    <coordinates>-80.6782709,-4.8872552,0.0</coordinates>
                </Point>
            </Placemark>
            <Placemark id="2207">
                <name>MARIA ELIZABETH MORAN MATORELA</name>
                <description>CALLE CAJAMARCA 580 BELLAVISTA
Bellavista
Bellavista
Piura
Perú</description>
                <styleUrl>#2208</styleUrl>
                <Point id="2206">
                    <coordinates>-80.6792531,-4.8881529,0.0</coordinates>
                </Point>
            </Placemark>
            <Placemark id="2212">
                <name>REYES MORE MARIA DEL PILAR</name>
                <description>REYES MORE MARIA DEL PILAR
CAJAMARCA 401.
Bellavista
Bellavista
Piura
Perú</description>
                <styleUrl>#2213</styleUrl>
                <Point id="2211">
                    <coordinates>-80.6803117,-4.8900085,0.0</coordinates>
                </Point>
            </Placemark>
        </Folder>
        <Folder id="2216">
            <Style id="2219">
                <IconStyle id="2220">
                    <color>ffff0000</color>
                    <colorMode>normal</colorMode>
                    <scale>1</scale>
                    <heading>0</heading>
                    <Icon id="2221">
                        <href>http://maps.google.com/mapfiles/kml/pushpin/ylw-pushpin.png</href>
                    </Icon>
                </IconStyle>
            </Style>
            <Style id="2224">
                <IconStyle id="2225">
                    <color>ffff0000</color>
                    <colorMode>normal</colorMode>
                    <scale>1</scale>
                    <heading>0</heading>
                    <Icon id="2226">
                        <href>http://maps.google.com/mapfiles/kml/pushpin/ylw-pushpin.png</href>
                    </Icon>
                </IconStyle>
            </Style>
            <Style id="2229">
                <IconStyle id="2230">
                    <color>ffff0000</color>
                    <colorMode>normal</colorMode>
                    <scale>1</scale>
                    <heading>0</heading>
                    <Icon id="2231">
                        <href>http://maps.google.com/mapfiles/kml/pushpin/ylw-pushpin.png</href>
                    </Icon>
                </IconStyle>
            </Style>
            <Style id="2234">
                <IconStyle id="2235">
                    <color>ffff0000</color>
                    <colorMode>normal</colorMode>
                    <scale>1</scale>
                    <heading>0</heading>
                    <Icon id="2236">
                        <href>http://maps.google.com/mapfiles/kml/pushpin/ylw-pushpin.png</href>
                    </Icon>
                </IconStyle>
            </Style>
            <Style id="2239">
                <IconStyle id="2240">
                    <color>ffff0000</color>
                    <colorMode>normal</colorMode>
                    <scale>1</scale>
                    <heading>0</heading>
                    <Icon id="2241">
                        <href>http://maps.google.com/mapfiles/kml/pushpin/ylw-pushpin.png</href>
                    </Icon>
                </IconStyle>
            </Style>
            <Style id="2244">
                <IconStyle id="2245">
                    <color>ffff0000</color>
                    <colorMode>normal</colorMode>
                    <scale>1</scale>
                    <heading>0</heading>
                    <Icon id="2246">
                        <href>http://maps.google.com/mapfiles/kml/pushpin/ylw-pushpin.png</href>
                    </Icon>
                </IconStyle>
            </Style>
            <Style id="2249">
                <IconStyle id="2250">
                    <color>ffff0000</color>
                    <colorMode>normal</colorMode>
                    <scale>1</scale>
                    <heading>0</heading>
                    <Icon id="2251">
                        <href>http://maps.google.com/mapfiles/kml/pushpin/ylw-pushpin.png</href>
                    </Icon>
                </IconStyle>
            </Style>
            <Style id="2254">
                <IconStyle id="2255">
                    <color>ffff0000</color>
                    <colorMode>normal</colorMode>
                    <scale>1</scale>
                    <heading>0</heading>
                    <Icon id="2256">
                        <href>http://maps.google.com/mapfiles/kml/pushpin/ylw-pushpin.png</href>
                    </Icon>
                </IconStyle>
            </Style>
            <Style id="2259">
                <IconStyle id="2260">
                    <color>ffff0000</color>
                    <colorMode>normal</colorMode>
                    <scale>1</scale>
                    <heading>0</heading>
                    <Icon id="2261">
                        <href>http://maps.google.com/mapfiles/kml/pushpin/ylw-pushpin.png</href>
                    </Icon>
                </IconStyle>
            </Style>
            <Style id="2264">
                <IconStyle id="2265">
                    <color>ffff0000</color>
                    <colorMode>normal</colorMode>
                    <scale>1</scale>
                    <heading>0</heading>
                    <Icon id="2266">
                        <href>http://maps.google.com/mapfiles/kml/pushpin/ylw-pushpin.png</href>
                    </Icon>
                </IconStyle>
            </Style>
            <Style id="2269">
                <IconStyle id="2270">
                    <color>ffff0000</color>
                    <colorMode>normal</colorMode>
                    <scale>1</scale>
                    <heading>0</heading>
                    <Icon id="2271">
                        <href>http://maps.google.com/mapfiles/kml/pushpin/ylw-pushpin.png</href>
                    </Icon>
                </IconStyle>
            </Style>
            <Style id="2274">
                <IconStyle id="2275">
                    <color>ffff0000</color>
                    <colorMode>normal</colorMode>
                    <scale>1</scale>
                    <heading>0</heading>
                    <Icon id="2276">
                        <href>http://maps.google.com/mapfiles/kml/pushpin/ylw-pushpin.png</href>
                    </Icon>
                </IconStyle>
            </Style>
            <Style id="2279">
                <IconStyle id="2280">
                    <color>ffff0000</color>
                    <colorMode>normal</colorMode>
                    <scale>1</scale>
                    <heading>0</heading>
                    <Icon id="2281">
                        <href>http://maps.google.com/mapfiles/kml/pushpin/ylw-pushpin.png</href>
                    </Icon>
                </IconStyle>
            </Style>
            <Style id="2284">
                <IconStyle id="2285">
                    <color>ffff0000</color>
                    <colorMode>normal</colorMode>
                    <scale>1</scale>
                    <heading>0</heading>
                    <Icon id="2286">
                        <href>http://maps.google.com/mapfiles/kml/pushpin/ylw-pushpin.png</href>
                    </Icon>
                </IconStyle>
            </Style>
            <Style id="2289">
                <IconStyle id="2290">
                    <color>ffff0000</color>
                    <colorMode>normal</colorMode>
                    <scale>1</scale>
                    <heading>0</heading>
                    <Icon id="2291">
                        <href>http://maps.google.com/mapfiles/kml/pushpin/ylw-pushpin.png</href>
                    </Icon>
                </IconStyle>
            </Style>
            <Style id="2294">
                <IconStyle id="2295">
                    <color>ffff0000</color>
                    <colorMode>normal</colorMode>
                    <scale>1</scale>
                    <heading>0</heading>
                    <Icon id="2296">
                        <href>http://maps.google.com/mapfiles/kml/pushpin/ylw-pushpin.png</href>
                    </Icon>
                </IconStyle>
            </Style>
            <Style id="2299">
                <IconStyle id="2300">
                    <color>ffff0000</color>
                    <colorMode>normal</colorMode>
                    <scale>1</scale>
                    <heading>0</heading>
                    <Icon id="2301">
                        <href>http://maps.google.com/mapfiles/kml/pushpin/ylw-pushpin.png</href>
                    </Icon>
                </IconStyle>
            </Style>
            <Style id="2304">
                <IconStyle id="2305">
                    <color>ffff0000</color>
                    <colorMode>normal</colorMode>
                    <scale>1</scale>
                    <heading>0</heading>
                    <Icon id="2306">
                        <href>http://maps.google.com/mapfiles/kml/pushpin/ylw-pushpin.png</href>
                    </Icon>
                </IconStyle>
            </Style>
            <Style id="2309">
                <IconStyle id="2310">
                    <color>ffff0000</color>
                    <colorMode>normal</colorMode>
                    <scale>1</scale>
                    <heading>0</heading>
                    <Icon id="2311">
                        <href>http://maps.google.com/mapfiles/kml/pushpin/ylw-pushpin.png</href>
                    </Icon>
                </IconStyle>
            </Style>
            <Style id="2314">
                <IconStyle id="2315">
                    <color>ffff0000</color>
                    <colorMode>normal</colorMode>
                    <scale>1</scale>
                    <heading>0</heading>
                    <Icon id="2316">
                        <href>http://maps.google.com/mapfiles/kml/pushpin/ylw-pushpin.png</href>
                    </Icon>
                </IconStyle>
            </Style>
            <Style id="2319">
                <IconStyle id="2320">
                    <color>ffff0000</color>
                    <colorMode>normal</colorMode>
                    <scale>1</scale>
                    <heading>0</heading>
                    <Icon id="2321">
                        <href>http://maps.google.com/mapfiles/kml/pushpin/ylw-pushpin.png</href>
                    </Icon>
                </IconStyle>
            </Style>
            <Style id="2324">
                <IconStyle id="2325">
                    <color>ffff0000</color>
                    <colorMode>normal</colorMode>
                    <scale>1</scale>
                    <heading>0</heading>
                    <Icon id="2326">
                        <href>http://maps.google.com/mapfiles/kml/pushpin/ylw-pushpin.png</href>
                    </Icon>
                </IconStyle>
            </Style>
            <Style id="2329">
                <IconStyle id="2330">
                    <color>ffff0000</color>
                    <colorMode>normal</colorMode>
                    <scale>1</scale>
                    <heading>0</heading>
                    <Icon id="2331">
                        <href>http://maps.google.com/mapfiles/kml/pushpin/ylw-pushpin.png</href>
                    </Icon>
                </IconStyle>
            </Style>
            <Style id="2334">
                <IconStyle id="2335">
                    <color>ffff0000</color>
                    <colorMode>normal</colorMode>
                    <scale>1</scale>
                    <heading>0</heading>
                    <Icon id="2336">
                        <href>http://maps.google.com/mapfiles/kml/pushpin/ylw-pushpin.png</href>
                    </Icon>
                </IconStyle>
            </Style>
            <Style id="2339">
                <IconStyle id="2340">
                    <color>ffff0000</color>
                    <colorMode>normal</colorMode>
                    <scale>1</scale>
                    <heading>0</heading>
                    <Icon id="2341">
                        <href>http://maps.google.com/mapfiles/kml/pushpin/ylw-pushpin.png</href>
                    </Icon>
                </IconStyle>
            </Style>
            <Style id="2344">
                <IconStyle id="2345">
                    <color>ffff0000</color>
                    <colorMode>normal</colorMode>
                    <scale>1</scale>
                    <heading>0</heading>
                    <Icon id="2346">
                        <href>http://maps.google.com/mapfiles/kml/pushpin/ylw-pushpin.png</href>
                    </Icon>
                </IconStyle>
            </Style>
            <Style id="2349">
                <IconStyle id="2350">
                    <color>ffff0000</color>
                    <colorMode>normal</colorMode>
                    <scale>1</scale>
                    <heading>0</heading>
                    <Icon id="2351">
                        <href>http://maps.google.com/mapfiles/kml/pushpin/ylw-pushpin.png</href>
                    </Icon>
                </IconStyle>
            </Style>
            <Style id="2354">
                <IconStyle id="2355">
                    <color>ffff0000</color>
                    <colorMode>normal</colorMode>
                    <scale>1</scale>
                    <heading>0</heading>
                    <Icon id="2356">
                        <href>http://maps.google.com/mapfiles/kml/pushpin/ylw-pushpin.png</href>
                    </Icon>
                </IconStyle>
            </Style>
            <Style id="2359">
                <IconStyle id="2360">
                    <color>ffff0000</color>
                    <colorMode>normal</colorMode>
                    <scale>1</scale>
                    <heading>0</heading>
                    <Icon id="2361">
                        <href>http://maps.google.com/mapfiles/kml/pushpin/ylw-pushpin.png</href>
                    </Icon>
                </IconStyle>
            </Style>
            <Style id="2364">
                <IconStyle id="2365">
                    <color>ffff0000</color>
                    <colorMode>normal</colorMode>
                    <scale>1</scale>
                    <heading>0</heading>
                    <Icon id="2366">
                        <href>http://maps.google.com/mapfiles/kml/pushpin/ylw-pushpin.png</href>
                    </Icon>
                </IconStyle>
            </Style>
            <Style id="2369">
                <IconStyle id="2370">
                    <color>ffff0000</color>
                    <colorMode>normal</colorMode>
                    <scale>1</scale>
                    <heading>0</heading>
                    <Icon id="2371">
                        <href>http://maps.google.com/mapfiles/kml/pushpin/ylw-pushpin.png</href>
                    </Icon>
                </IconStyle>
            </Style>
            <Style id="2374">
                <IconStyle id="2375">
                    <color>ffff0000</color>
                    <colorMode>normal</colorMode>
                    <scale>1</scale>
                    <heading>0</heading>
                    <Icon id="2376">
                        <href>http://maps.google.com/mapfiles/kml/pushpin/ylw-pushpin.png</href>
                    </Icon>
                </IconStyle>
            </Style>
            <Style id="2379">
                <IconStyle id="2380">
                    <color>ffff0000</color>
                    <colorMode>normal</colorMode>
                    <scale>1</scale>
                    <heading>0</heading>
                    <Icon id="2381">
                        <href>http://maps.google.com/mapfiles/kml/pushpin/ylw-pushpin.png</href>
                    </Icon>
                </IconStyle>
            </Style>
            <Style id="2384">
                <IconStyle id="2385">
                    <color>ffff0000</color>
                    <colorMode>normal</colorMode>
                    <scale>1</scale>
                    <heading>0</heading>
                    <Icon id="2386">
                        <href>http://maps.google.com/mapfiles/kml/pushpin/ylw-pushpin.png</href>
                    </Icon>
                </IconStyle>
            </Style>
            <Style id="2389">
                <IconStyle id="2390">
                    <color>ffff0000</color>
                    <colorMode>normal</colorMode>
                    <scale>1</scale>
                    <heading>0</heading>
                    <Icon id="2391">
                        <href>http://maps.google.com/mapfiles/kml/pushpin/ylw-pushpin.png</href>
                    </Icon>
                </IconStyle>
            </Style>
            <Style id="2394">
                <IconStyle id="2395">
                    <color>ffff0000</color>
                    <colorMode>normal</colorMode>
                    <scale>1</scale>
                    <heading>0</heading>
                    <Icon id="2396">
                        <href>http://maps.google.com/mapfiles/kml/pushpin/ylw-pushpin.png</href>
                    </Icon>
                </IconStyle>
            </Style>
            <Style id="2399">
                <IconStyle id="2400">
                    <color>ffff0000</color>
                    <colorMode>normal</colorMode>
                    <scale>1</scale>
                    <heading>0</heading>
                    <Icon id="2401">
                        <href>http://maps.google.com/mapfiles/kml/pushpin/ylw-pushpin.png</href>
                    </Icon>
                </IconStyle>
            </Style>
            <Style id="2404">
                <IconStyle id="2405">
                    <color>ffff0000</color>
                    <colorMode>normal</colorMode>
                    <scale>1</scale>
                    <heading>0</heading>
                    <Icon id="2406">
                        <href>http://maps.google.com/mapfiles/kml/pushpin/ylw-pushpin.png</href>
                    </Icon>
                </IconStyle>
            </Style>
            <Style id="2409">
                <IconStyle id="2410">
                    <color>ffff0000</color>
                    <colorMode>normal</colorMode>
                    <scale>1</scale>
                    <heading>0</heading>
                    <Icon id="2411">
                        <href>http://maps.google.com/mapfiles/kml/pushpin/ylw-pushpin.png</href>
                    </Icon>
                </IconStyle>
            </Style>
            <Style id="2414">
                <IconStyle id="2415">
                    <color>ffff0000</color>
                    <colorMode>normal</colorMode>
                    <scale>1</scale>
                    <heading>0</heading>
                    <Icon id="2416">
                        <href>http://maps.google.com/mapfiles/kml/pushpin/ylw-pushpin.png</href>
                    </Icon>
                </IconStyle>
            </Style>
            <Style id="2419">
                <IconStyle id="2420">
                    <color>ffff0000</color>
                    <colorMode>normal</colorMode>
                    <scale>1</scale>
                    <heading>0</heading>
                    <Icon id="2421">
                        <href>http://maps.google.com/mapfiles/kml/pushpin/ylw-pushpin.png</href>
                    </Icon>
                </IconStyle>
            </Style>
            <Style id="2424">
                <IconStyle id="2425">
                    <color>ffff0000</color>
                    <colorMode>normal</colorMode>
                    <scale>1</scale>
                    <heading>0</heading>
                    <Icon id="2426">
                        <href>http://maps.google.com/mapfiles/kml/pushpin/ylw-pushpin.png</href>
                    </Icon>
                </IconStyle>
            </Style>
            <Style id="2429">
                <IconStyle id="2430">
                    <color>ffff0000</color>
                    <colorMode>normal</colorMode>
                    <scale>1</scale>
                    <heading>0</heading>
                    <Icon id="2431">
                        <href>http://maps.google.com/mapfiles/kml/pushpin/ylw-pushpin.png</href>
                    </Icon>
                </IconStyle>
            </Style>
            <Style id="2434">
                <IconStyle id="2435">
                    <color>ffff0000</color>
                    <colorMode>normal</colorMode>
                    <scale>1</scale>
                    <heading>0</heading>
                    <Icon id="2436">
                        <href>http://maps.google.com/mapfiles/kml/pushpin/ylw-pushpin.png</href>
                    </Icon>
                </IconStyle>
            </Style>
            <Style id="2439">
                <IconStyle id="2440">
                    <color>ffff0000</color>
                    <colorMode>normal</colorMode>
                    <scale>1</scale>
                    <heading>0</heading>
                    <Icon id="2441">
                        <href>http://maps.google.com/mapfiles/kml/pushpin/ylw-pushpin.png</href>
                    </Icon>
                </IconStyle>
            </Style>
            <Style id="2444">
                <IconStyle id="2445">
                    <color>ffff0000</color>
                    <colorMode>normal</colorMode>
                    <scale>1</scale>
                    <heading>0</heading>
                    <Icon id="2446">
                        <href>http://maps.google.com/mapfiles/kml/pushpin/ylw-pushpin.png</href>
                    </Icon>
                </IconStyle>
            </Style>
            <Style id="2449">
                <IconStyle id="2450">
                    <color>ffff0000</color>
                    <colorMode>normal</colorMode>
                    <scale>1</scale>
                    <heading>0</heading>
                    <Icon id="2451">
                        <href>http://maps.google.com/mapfiles/kml/pushpin/ylw-pushpin.png</href>
                    </Icon>
                </IconStyle>
            </Style>
            <Style id="2454">
                <IconStyle id="2455">
                    <color>ffff0000</color>
                    <colorMode>normal</colorMode>
                    <scale>1</scale>
                    <heading>0</heading>
                    <Icon id="2456">
                        <href>http://maps.google.com/mapfiles/kml/pushpin/ylw-pushpin.png</href>
                    </Icon>
                </IconStyle>
            </Style>
            <Style id="2459">
                <IconStyle id="2460">
                    <color>ffff0000</color>
                    <colorMode>normal</colorMode>
                    <scale>1</scale>
                    <heading>0</heading>
                    <Icon id="2461">
                        <href>http://maps.google.com/mapfiles/kml/pushpin/ylw-pushpin.png</href>
                    </Icon>
                </IconStyle>
            </Style>
            <Style id="2464">
                <IconStyle id="2465">
                    <color>ffff0000</color>
                    <colorMode>normal</colorMode>
                    <scale>1</scale>
                    <heading>0</heading>
                    <Icon id="2466">
                        <href>http://maps.google.com/mapfiles/kml/pushpin/ylw-pushpin.png</href>
                    </Icon>
                </IconStyle>
            </Style>
            <name>WILLIAN ALEJANDRO HERRERA MORAN</name>
            <Placemark id="2218">
                <name>SALDARRIAGA RAMIREZ SANTOS CONCEPCION</name>
                <description>SALDARRIAGA RAMIREZ SANTOS CONCEPCION
Calle Miguel Grau 029 Caserío Monteron
Marcavelica
Marcavelica
Piura
Perú</description>
                <styleUrl>#2219</styleUrl>
                <Point id="2217">
                    <coordinates>-80.800241,-4.8788287,0.0</coordinates>
                </Point>
            </Placemark>
            <Placemark id="2223">
                <name>CLARA TEODORA PAULINI HUANCA</name>
                <description>BARRIO LA VICTORIA SULLANA-SULLANA
Marcavelica
Marcavelica
Piura
Perú</description>
                <styleUrl>#2224</styleUrl>
                <Point id="2222">
                    <coordinates>-80.7260881,-4.8514098,0.0</coordinates>
                </Point>
            </Placemark>
            <Placemark id="2228">
                <name>ELKI CELI HIDALGO</name>
                <description>EXT MCDO S N POR CASTILLO
Sullana
Sullana
Piura
Perú</description>
                <styleUrl>#2229</styleUrl>
                <Point id="2227">
                    <coordinates>-80.68144,-4.8956366,0.0</coordinates>
                </Point>
            </Placemark>
            <Placemark id="2233">
                <name>ISABEL DIOSES CORREA DE VITE</name>
                <description>AV SAN MARTIN S/N SANTA SOFIA SULLANA-SULLANA
Ignacio Escudero
Ignacio Escudero
Piura
Perú</description>
                <styleUrl>#2234</styleUrl>
                <Point id="2232">
                    <coordinates>-80.8397712,-4.8858645,0.0</coordinates>
                </Point>
            </Placemark>
            <Placemark id="2238">
                <name>ZAIDA DIOSES ROA</name>
                <description>Av.Grau#03 santa Sofía
Ignacio Escudero

Piura
Perú</description>
                <styleUrl>#2239</styleUrl>
                <Point id="2237">
                    <coordinates>-80.839996,-4.885523,0.0</coordinates>
                </Point>
            </Placemark>
            <Placemark id="2243">
                <name>RENY SILVA CANOVA</name>
                <description>AV.GRAU N°21-A-SANTA SOFIA-SULLANA-SULLANA
Ignacio Escudero
Ignacio Escudero
Piura
Perú</description>
                <styleUrl>#2244</styleUrl>
                <Point id="2242">
                    <coordinates>-80.8393763,-4.8851343,0.0</coordinates>
                </Point>
            </Placemark>
            <Placemark id="2248">
                <name>MONICA DEL PILAR ARCA FERNANDEZ</name>
                <description>Pasaje estadio S/N santa Sofía
Ignacio Escudero
Sullana
Piura
Perú</description>
                <styleUrl>#2249</styleUrl>
                <Point id="2247">
                    <coordinates>-80.8374966,-4.8830347,0.0</coordinates>
                </Point>
            </Placemark>
            <Placemark id="2253">
                <name>MONICA DEL PILAR ARCA FERNANDEZ</name>
                <description>Pasaje estadio S/N santa Sofía
Ignacio Escudero
Sullana
Piura
Perú</description>
                <styleUrl>#2254</styleUrl>
                <Point id="2252">
                    <coordinates>-80.8374966,-4.8830347,0.0</coordinates>
                </Point>
            </Placemark>
            <Placemark id="2258">
                <name>VIVIANA DIOSES CORREA</name>
                <description>Av Grau # 117 - Santa Sofía
Ignacio Escudero
Ignacio Escudero
Piura
Perú</description>
                <styleUrl>#2259</styleUrl>
                <Point id="2257">
                    <coordinates>-80.8356617,-4.8826806,0.0</coordinates>
                </Point>
            </Placemark>
            <Placemark id="2263">
                <name>DORIS DIAZ OQUENDO</name>
                <description>Calle Grau 43 santa Sofía
Marcavelica

Piura
Perú</description>
                <styleUrl>#2264</styleUrl>
                <Point id="2262">
                    <coordinates>-80.8385701,-4.88471,0.0</coordinates>
                </Point>
            </Placemark>
            <Placemark id="2268">
                <name>MARIA REYNA PEÑA LEJABO</name>
                <description>SANCHE SERRO 09 - Santa Sofía
Ignacio Escudero
Ignacio Escudero
Piura
Perú</description>
                <styleUrl>#2269</styleUrl>
                <Point id="2267">
                    <coordinates>-80.8389668,-4.8856372,0.0</coordinates>
                </Point>
            </Placemark>
            <Placemark id="2273">
                <name>LEYLA ANGELINA PEÑA SANDOVAL</name>
                <description>CALLE SANCHEZ CERRO S/N SANTA SOFIA
Ignacio Escudero
Ignacio Escudero
Piura
Perú</description>
                <styleUrl>#2274</styleUrl>
                <Point id="2272">
                    <coordinates>-80.8351649,-4.8834283,0.0</coordinates>
                </Point>
            </Placemark>
            <Placemark id="2278">
                <name>SANTOS ALICIA ZAPATA ELIZALDE</name>
                <description>Calle Francisco Pizarro S/N - Tangarara
Marcavelica
Marcavelica
Piura
Perú</description>
                <styleUrl>#2279</styleUrl>
                <Point id="2277">
                    <coordinates>-80.8242346,-4.8870411,0.0</coordinates>
                </Point>
            </Placemark>
            <Placemark id="2283">
                <name>LUZ EMERITA CASTILLO LEJABO</name>
                <description>Av La Conquista 179 Caserío Tangarara
Marcavelica
Marcavelica
Piura
Perú</description>
                <styleUrl>#2284</styleUrl>
                <Point id="2282">
                    <coordinates>-80.8242491,-4.8861926,0.0</coordinates>
                </Point>
            </Placemark>
            <Placemark id="2288">
                <name>JOSE SANTOS RUIZ CRUZ</name>
                <description>Av Pizarro MZ A LT 49 caserío Tangarara
Marcavelica
Marcavelica
Piura
Perú</description>
                <styleUrl>#2289</styleUrl>
                <Point id="2287">
                    <coordinates>-80.8231212,-4.8861478,0.0</coordinates>
                </Point>
            </Placemark>
            <Placemark id="2293">
                <name>OFELIA LISSETH SOCOLA GUTIERREZ</name>
                <description>RICARDO PALMA S/N MONTERON SULLANA-SULLANA
Marcavelica
Marcavelica
Piura
Perú</description>
                <styleUrl>#2294</styleUrl>
                <Point id="2292">
                    <coordinates>-80.7974823,-4.874767,0.0</coordinates>
                </Point>
            </Placemark>
            <Placemark id="2298">
                <name>JUANA ESMERALDA ARCA SANDOVAL</name>
                <description>AV ALFONSO UGARTE #02 MONTERON SULLANA-SULLANA
Marcavelica
Marcavelica
Piura
Perú</description>
                <styleUrl>#2299</styleUrl>
                <Point id="2297">
                    <coordinates>-80.7992663,-4.878782,0.0</coordinates>
                </Point>
            </Placemark>
            <Placemark id="2303">
                <name>KIARA CELINA SALAZAR GONZALES</name>
                <description>CALLE MIGUEL GRAU 029 - Monteron
Marcavelica
Marcavelica
Piura
Perú</description>
                <styleUrl>#2304</styleUrl>
                <Point id="2302">
                    <coordinates>-80.7996508,-4.8781383,0.0</coordinates>
                </Point>
            </Placemark>
            <Placemark id="2308">
                <name>MIRTHA ALICIA SAAVEDRA GONZALES</name>
                <description>AVELARDO QUIÑONES S/N CASERÍO MONTERON SULLANA-SULLANA
Marcavelica
Marcavelica
Piura
Perú</description>
                <styleUrl>#2309</styleUrl>
                <Point id="2307">
                    <coordinates>-80.8009905,-4.8789191,0.0</coordinates>
                </Point>
            </Placemark>
            <Placemark id="2313">
                <name>ELISA SALDARRIAGA MEJIAS</name>
                <description>Calle Miguel Grau 07-B Caserío Monteron
Marcavelica
Marcavelica
Piura
Perú</description>
                <styleUrl>#2314</styleUrl>
                <Point id="2312">
                    <coordinates>-80.8019473,-4.8793056,0.0</coordinates>
                </Point>
            </Placemark>
            <Placemark id="2318">
                <name>LAURA CANOVA DE CHAVEZ</name>
                <description>Av Miguel Grau 057 Caserío Monteron
Marcavelica
Marcavelica
Piura
Perú</description>
                <styleUrl>#2319</styleUrl>
                <Point id="2317">
                    <coordinates>-80.7985066,-4.8749384,0.0</coordinates>
                </Point>
            </Placemark>
            <Placemark id="2323">
                <name>LOURDES ATOCHE SANDOVAL</name>
                <description>Av Miguel Grau 066 Monteron
Marcavelica
Marcavelica
Piura
Perú</description>
                <styleUrl>#2324</styleUrl>
                <Point id="2322">
                    <coordinates>-80.7985862,-4.8748585,0.0</coordinates>
                </Point>
            </Placemark>
            <Placemark id="2328">
                <name>TAVARA SANCHEZ LEYLI</name>
                <description>Psj colon s/n
Marcavelica
Marcavelica
Piura
Perú</description>
                <styleUrl>#2329</styleUrl>
                <Point id="2327">
                    <coordinates>-80.775215,-4.8631046,0.0</coordinates>
                </Point>
            </Placemark>
            <Placemark id="2333">
                <name>CORREA TABOADA VÍCTOR</name>
                <description>San Martín 128 - Mallares
Marcavelica
Marcavelica
Piura
Perú</description>
                <styleUrl>#2334</styleUrl>
                <Point id="2332">
                    <coordinates>-80.7728408,-4.864708,0.0</coordinates>
                </Point>
            </Placemark>
            <Placemark id="2338">
                <name>PAULA IPANAQUE PRIETO DE RODRIGUEZ</name>
                <description>PLAZA SAN MARTIN 126 MALLARES
Marcavelica
Marcavelica
Piura
Perú</description>
                <styleUrl>#2339</styleUrl>
                <Point id="2337">
                    <coordinates>-80.7728067,-4.8647737,0.0</coordinates>
                </Point>
            </Placemark>
            <Placemark id="2343">
                <name>JUANA ELIZABET VILELA REYES DE LUNA</name>
                <description>PSJE JOSE OLAYA 120 CP.MALLARES - Q
Mallaritos
Sullana
Piura
Perú</description>
                <styleUrl>#2344</styleUrl>
                <Point id="2342">
                    <coordinates>-80.7722677,-4.8651829,0.0</coordinates>
                </Point>
            </Placemark>
            <Placemark id="2348">
                <name>SANTOS TERESA SILVA FLORES</name>
                <description>Av Perú 134
Marcavelica
Marcavelica
Piura
Perú</description>
                <styleUrl>#2349</styleUrl>
                <Point id="2347">
                    <coordinates>-80.7702794,-4.8639375,0.0</coordinates>
                </Point>
            </Placemark>
            <Placemark id="2353">
                <name>CARMEN DEL PILAR SILVA SANDOVAL DE CARRASCO</name>
                <description>BARRIO EL CENTRO S/N SULLANA-SULLANA
Sullana

Piura
Perú</description>
                <styleUrl>#2354</styleUrl>
                <Point id="2352">
                    <coordinates>-80.686844,-4.890093,0.0</coordinates>
                </Point>
            </Placemark>
            <Placemark id="2358">
                <name>GARCIA CORONADO WILLIAN A.</name>
                <description>CAS LA QUINTA 169
Marcavelica
Marcavelica
Piura
Perú</description>
                <styleUrl>#2359</styleUrl>
                <Point id="2357">
                    <coordinates>-80.7226611,-4.849269,0.0</coordinates>
                </Point>
            </Placemark>
            <Placemark id="2363">
                <name>PAULINI HUANCA JOSE</name>
                <description>AV.LA PERUANIDAD S/N CAS LA QU
Marcavelica
Marcavelica
Piura
Perú</description>
                <styleUrl>#2364</styleUrl>
                <Point id="2362">
                    <coordinates>-80.7261127,-4.8514369,0.0</coordinates>
                </Point>
            </Placemark>
            <Placemark id="2368">
                <name>CLARA TEODORA PAULINI HUANCA</name>
                <description>BARRIO LA VICTORIA SULLANA-SULLANA
Marcavelica
Marcavelica
Piura
Perú</description>
                <styleUrl>#2369</styleUrl>
                <Point id="2367">
                    <coordinates>-80.7260881,-4.8514098,0.0</coordinates>
                </Point>
            </Placemark>
            <Placemark id="2373">
                <name>MARIA ELENA SANDOVAL CASTRO</name>
                <description>BARRIO LA VICTOTIA S/N CAS. LA QUIN
Marcavelica
Marcavelica
Piura
Perú</description>
                <styleUrl>#2374</styleUrl>
                <Point id="2372">
                    <coordinates>-80.7260733,-4.8514247,0.0</coordinates>
                </Point>
            </Placemark>
            <Placemark id="2378">
                <name>GISELL CARO SUAREZ</name>
                <description>LAQUINTA S/N SULLANA-PIURA
Marcavelica
Marcavelica
Piura
Perú</description>
                <styleUrl>#2379</styleUrl>
                <Point id="2377">
                    <coordinates>-80.724951,-4.8546116,0.0</coordinates>
                </Point>
            </Placemark>
            <Placemark id="2383">
                <name>TERESITA VELASQUEZ PURIZACA</name>
                <description>La quinta
Marcavelica
Marcavelica
Piura
Perú</description>
                <styleUrl>#2384</styleUrl>
                <Point id="2382">
                    <coordinates>-80.7253552,-4.8546622,0.0</coordinates>
                </Point>
            </Placemark>
            <Placemark id="2388">
                <name>ROXANA OLIVARES CARRASCO</name>
                <description>Barrio el puente al costado del colegio san Francisco - la quinta
Sullana

Piura
Perú</description>
                <styleUrl>#2389</styleUrl>
                <Point id="2387">
                    <coordinates>-80.7249216,-4.8558966,0.0</coordinates>
                </Point>
            </Placemark>
            <Placemark id="2393">
                <name>VALLADARES CARRASCO ROSAURA</name>
                <description>CA.LA QUINTA SN MALLARITO
Marcavelica
Marcavelica
Piura
Perú</description>
                <styleUrl>#2394</styleUrl>
                <Point id="2392">
                    <coordinates>-80.7255779,-4.8560366,0.0</coordinates>
                </Point>
            </Placemark>
            <Placemark id="2398">
                <name>ROSA ELVIRA CASTILLO ENCALADA</name>
                <description>ROSA ELVIRA CASTILLO ENCALADA
AV EL PUENTE SN
Marcavelica
Marcavelica
Piura
Perú</description>
                <styleUrl>#2399</styleUrl>
                <Point id="2397">
                    <coordinates>-80.7259245,-4.8575504,0.0</coordinates>
                </Point>
            </Placemark>
            <Placemark id="2403">
                <name>CESPEDES SANDOVAL URSULINA</name>
                <description>BOLOGNESI Nº 105 MALLA
Marcavelica
Marcavelica
Piura
Perú</description>
                <styleUrl>#2404</styleUrl>
                <Point id="2402">
                    <coordinates>-80.7176073,-4.8690464,0.0</coordinates>
                </Point>
            </Placemark>
            <Placemark id="2408">
                <name>CORREA OJEDA ANYELA VERONICA</name>
                <description>AV.PANAMERICANA MZ.G3-15
Marcavelica
Marcavelica
Piura
Perú</description>
                <styleUrl>#2409</styleUrl>
                <Point id="2407">
                    <coordinates>-80.7191811,-4.8686128,0.0</coordinates>
                </Point>
            </Placemark>
            <Placemark id="2413">
                <name>ACUÑA GOYCOCHEA   BREMILDA</name>
                <description>PSJ.CHAVEZ 203 MALLARITO
Marcavelica
Marcavelica
Piura
Perú</description>
                <styleUrl>#2414</styleUrl>
                <Point id="2412">
                    <coordinates>-80.7177189,-4.8670875,0.0</coordinates>
                </Point>
            </Placemark>
            <Placemark id="2418">
                <name>MAURICIO PALOMINO TEMPORA</name>
                <description>LAS MERCEDES N118
Marcavelica
Marcavelica
Piura
Perú</description>
                <styleUrl>#2419</styleUrl>
                <Point id="2417">
                    <coordinates>-80.718095,-4.868412,0.0</coordinates>
                </Point>
            </Placemark>
            <Placemark id="2423">
                <name>VICTORIA PAZ ORTIZ AGURTO</name>
                <description>VICTORIA PAZ ORTIZ AGURTO
CAL.LIBERTAD NRO. 129 CAS. MALLARIT
Marcavelica
Marcavelica
Piura
Perú</description>
                <styleUrl>#2424</styleUrl>
                <Point id="2422">
                    <coordinates>-80.7170847,-4.8683335,0.0</coordinates>
                </Point>
            </Placemark>
            <Placemark id="2428">
                <name>KERLY YARITZA PALOMINO ESPINOZA</name>
                <description>Calle Grau tercera cuadra Por la plataforma de mayaritos
Marcavelica
Marcavelica
Piura
Perú</description>
                <styleUrl>#2429</styleUrl>
                <Point id="2427">
                    <coordinates>-80.7171431,-4.8653439,0.0</coordinates>
                </Point>
            </Placemark>
            <Placemark id="2433">
                <name>ESTEFANI JANNETT GARCIA CARRILLO</name>
                <description>Calle libertad 169
Marcavelica
Marcavelica
Piura
Perú</description>
                <styleUrl>#2434</styleUrl>
                <Point id="2432">
                    <coordinates>-80.7204397,-4.865726,0.0</coordinates>
                </Point>
            </Placemark>
            <Placemark id="2438">
                <name>SERNAQUE PAULINI KARINA</name>
                <description>CA.VISTA FLORIDA M-37
Marcavelica
Marcavelica
Piura
Perú</description>
                <styleUrl>#2439</styleUrl>
                <Point id="2437">
                    <coordinates>-80.7382231,-4.8781103,0.0</coordinates>
                </Point>
            </Placemark>
            <Placemark id="2443">
                <name>REYES TORRES SILVIA</name>
                <description>JUAN VELASCO S/N VISTA FLORIDA
Marcavelica
Sullana vista floridaMarcavelica
Piura
Perú</description>
                <styleUrl>#2444</styleUrl>
                <Point id="2442">
                    <coordinates>-80.7379035,-4.877174,0.0</coordinates>
                </Point>
            </Placemark>
            <Placemark id="2448">
                <name>MELIZA ISABEL CORREA CIEZA</name>
                <description>Calle 10 de marzo
Marcavelica

Piura
Perú</description>
                <styleUrl>#2449</styleUrl>
                <Point id="2447">
                    <coordinates>-80.7372784,-4.8764006,0.0</coordinates>
                </Point>
            </Placemark>
            <Placemark id="2453">
                <name>MAURICIO CASTRO SOFIA M.</name>
                <description>CA.SAN MIGUEL 123 MALLARITOS
Marcavelica
Marcavelica
Piura
Perú</description>
                <styleUrl>#2454</styleUrl>
                <Point id="2452">
                    <coordinates>-80.7181154,-4.8713635,0.0</coordinates>
                </Point>
            </Placemark>
            <Placemark id="2458">
                <name>ATOCHE INGA CAROL ESTEFANY</name>
                <description>SAN MIGUEL 109 MALLARITOS
Marcavelica
Marcavelica
Piura
Perú</description>
                <styleUrl>#2459</styleUrl>
                <Point id="2457">
                    <coordinates>-80.718183,-4.867719,0.0</coordinates>
                </Point>
            </Placemark>
            <Placemark id="2463">
                <name>LUZMARINA SANCHEZ SANCHEZ</name>
                <description>PANAMERIC NÂ¬117 MALLARITOS
Marcavelica
Marcavelica
Piura
Perú</description>
                <styleUrl>#2464</styleUrl>
                <Point id="2462">
                    <coordinates>-80.7160441,-4.8709385,0.0</coordinates>
                </Point>
            </Placemark>
        </Folder>
    </Document>
</kml>
