<?xml version="1.0" encoding="UTF-8"?>
<kml xmlns="http://www.opengis.net/kml/2.2" xmlns:gx="http://www.google.com/kml/ext/2.2">
    <Document id="1818">
        <Folder id="1819">
            <Style id="1822">
                <IconStyle id="1823">
                    <color>ff0000ff</color>
                    <colorMode>normal</colorMode>
                    <scale>1</scale>
                    <heading>0</heading>
                    <Icon id="1824">
                        <href>http://maps.google.com/mapfiles/kml/pushpin/ylw-pushpin.png</href>
                    </Icon>
                </IconStyle>
            </Style>
            <Style id="1827">
                <IconStyle id="1828">
                    <color>ff0000ff</color>
                    <colorMode>normal</colorMode>
                    <scale>1</scale>
                    <heading>0</heading>
                    <Icon id="1829">
                        <href>http://maps.google.com/mapfiles/kml/pushpin/ylw-pushpin.png</href>
                    </Icon>
                </IconStyle>
            </Style>
            <Style id="1832">
                <IconStyle id="1833">
                    <color>ff0000ff</color>
                    <colorMode>normal</colorMode>
                    <scale>1</scale>
                    <heading>0</heading>
                    <Icon id="1834">
                        <href>http://maps.google.com/mapfiles/kml/pushpin/ylw-pushpin.png</href>
                    </Icon>
                </IconStyle>
            </Style>
            <Style id="1837">
                <IconStyle id="1838">
                    <color>ff0000ff</color>
                    <colorMode>normal</colorMode>
                    <scale>1</scale>
                    <heading>0</heading>
                    <Icon id="1839">
                        <href>http://maps.google.com/mapfiles/kml/pushpin/ylw-pushpin.png</href>
                    </Icon>
                </IconStyle>
            </Style>
            <Style id="1842">
                <IconStyle id="1843">
                    <color>ff0000ff</color>
                    <colorMode>normal</colorMode>
                    <scale>1</scale>
                    <heading>0</heading>
                    <Icon id="1844">
                        <href>http://maps.google.com/mapfiles/kml/pushpin/ylw-pushpin.png</href>
                    </Icon>
                </IconStyle>
            </Style>
            <Style id="1847">
                <IconStyle id="1848">
                    <color>ff0000ff</color>
                    <colorMode>normal</colorMode>
                    <scale>1</scale>
                    <heading>0</heading>
                    <Icon id="1849">
                        <href>http://maps.google.com/mapfiles/kml/pushpin/ylw-pushpin.png</href>
                    </Icon>
                </IconStyle>
            </Style>
            <Style id="1852">
                <IconStyle id="1853">
                    <color>ff0000ff</color>
                    <colorMode>normal</colorMode>
                    <scale>1</scale>
                    <heading>0</heading>
                    <Icon id="1854">
                        <href>http://maps.google.com/mapfiles/kml/pushpin/ylw-pushpin.png</href>
                    </Icon>
                </IconStyle>
            </Style>
            <Style id="1857">
                <IconStyle id="1858">
                    <color>ff0000ff</color>
                    <colorMode>normal</colorMode>
                    <scale>1</scale>
                    <heading>0</heading>
                    <Icon id="1859">
                        <href>http://maps.google.com/mapfiles/kml/pushpin/ylw-pushpin.png</href>
                    </Icon>
                </IconStyle>
            </Style>
            <Style id="1862">
                <IconStyle id="1863">
                    <color>ff0000ff</color>
                    <colorMode>normal</colorMode>
                    <scale>1</scale>
                    <heading>0</heading>
                    <Icon id="1864">
                        <href>http://maps.google.com/mapfiles/kml/pushpin/ylw-pushpin.png</href>
                    </Icon>
                </IconStyle>
            </Style>
            <Style id="1867">
                <IconStyle id="1868">
                    <color>ff0000ff</color>
                    <colorMode>normal</colorMode>
                    <scale>1</scale>
                    <heading>0</heading>
                    <Icon id="1869">
                        <href>http://maps.google.com/mapfiles/kml/pushpin/ylw-pushpin.png</href>
                    </Icon>
                </IconStyle>
            </Style>
            <Style id="1872">
                <IconStyle id="1873">
                    <color>ff0000ff</color>
                    <colorMode>normal</colorMode>
                    <scale>1</scale>
                    <heading>0</heading>
                    <Icon id="1874">
                        <href>http://maps.google.com/mapfiles/kml/pushpin/ylw-pushpin.png</href>
                    </Icon>
                </IconStyle>
            </Style>
            <Style id="1877">
                <IconStyle id="1878">
                    <color>ff0000ff</color>
                    <colorMode>normal</colorMode>
                    <scale>1</scale>
                    <heading>0</heading>
                    <Icon id="1879">
                        <href>http://maps.google.com/mapfiles/kml/pushpin/ylw-pushpin.png</href>
                    </Icon>
                </IconStyle>
            </Style>
            <Style id="1882">
                <IconStyle id="1883">
                    <color>ff0000ff</color>
                    <colorMode>normal</colorMode>
                    <scale>1</scale>
                    <heading>0</heading>
                    <Icon id="1884">
                        <href>http://maps.google.com/mapfiles/kml/pushpin/ylw-pushpin.png</href>
                    </Icon>
                </IconStyle>
            </Style>
            <Style id="1887">
                <IconStyle id="1888">
                    <color>ff0000ff</color>
                    <colorMode>normal</colorMode>
                    <scale>1</scale>
                    <heading>0</heading>
                    <Icon id="1889">
                        <href>http://maps.google.com/mapfiles/kml/pushpin/ylw-pushpin.png</href>
                    </Icon>
                </IconStyle>
            </Style>
            <Style id="1892">
                <IconStyle id="1893">
                    <color>ff0000ff</color>
                    <colorMode>normal</colorMode>
                    <scale>1</scale>
                    <heading>0</heading>
                    <Icon id="1894">
                        <href>http://maps.google.com/mapfiles/kml/pushpin/ylw-pushpin.png</href>
                    </Icon>
                </IconStyle>
            </Style>
            <Style id="1897">
                <IconStyle id="1898">
                    <color>ff0000ff</color>
                    <colorMode>normal</colorMode>
                    <scale>1</scale>
                    <heading>0</heading>
                    <Icon id="1899">
                        <href>http://maps.google.com/mapfiles/kml/pushpin/ylw-pushpin.png</href>
                    </Icon>
                </IconStyle>
            </Style>
            <Style id="1902">
                <IconStyle id="1903">
                    <color>ff0000ff</color>
                    <colorMode>normal</colorMode>
                    <scale>1</scale>
                    <heading>0</heading>
                    <Icon id="1904">
                        <href>http://maps.google.com/mapfiles/kml/pushpin/ylw-pushpin.png</href>
                    </Icon>
                </IconStyle>
            </Style>
            <Style id="1907">
                <IconStyle id="1908">
                    <color>ff0000ff</color>
                    <colorMode>normal</colorMode>
                    <scale>1</scale>
                    <heading>0</heading>
                    <Icon id="1909">
                        <href>http://maps.google.com/mapfiles/kml/pushpin/ylw-pushpin.png</href>
                    </Icon>
                </IconStyle>
            </Style>
            <Style id="1912">
                <IconStyle id="1913">
                    <color>ff0000ff</color>
                    <colorMode>normal</colorMode>
                    <scale>1</scale>
                    <heading>0</heading>
                    <Icon id="1914">
                        <href>http://maps.google.com/mapfiles/kml/pushpin/ylw-pushpin.png</href>
                    </Icon>
                </IconStyle>
            </Style>
            <Style id="1917">
                <IconStyle id="1918">
                    <color>ff0000ff</color>
                    <colorMode>normal</colorMode>
                    <scale>1</scale>
                    <heading>0</heading>
                    <Icon id="1919">
                        <href>http://maps.google.com/mapfiles/kml/pushpin/ylw-pushpin.png</href>
                    </Icon>
                </IconStyle>
            </Style>
            <Style id="1922">
                <IconStyle id="1923">
                    <color>ff0000ff</color>
                    <colorMode>normal</colorMode>
                    <scale>1</scale>
                    <heading>0</heading>
                    <Icon id="1924">
                        <href>http://maps.google.com/mapfiles/kml/pushpin/ylw-pushpin.png</href>
                    </Icon>
                </IconStyle>
            </Style>
            <Style id="1927">
                <IconStyle id="1928">
                    <color>ff0000ff</color>
                    <colorMode>normal</colorMode>
                    <scale>1</scale>
                    <heading>0</heading>
                    <Icon id="1929">
                        <href>http://maps.google.com/mapfiles/kml/pushpin/ylw-pushpin.png</href>
                    </Icon>
                </IconStyle>
            </Style>
            <Style id="1932">
                <IconStyle id="1933">
                    <color>ff0000ff</color>
                    <colorMode>normal</colorMode>
                    <scale>1</scale>
                    <heading>0</heading>
                    <Icon id="1934">
                        <href>http://maps.google.com/mapfiles/kml/pushpin/ylw-pushpin.png</href>
                    </Icon>
                </IconStyle>
            </Style>
            <Style id="1937">
                <IconStyle id="1938">
                    <color>ff0000ff</color>
                    <colorMode>normal</colorMode>
                    <scale>1</scale>
                    <heading>0</heading>
                    <Icon id="1939">
                        <href>http://maps.google.com/mapfiles/kml/pushpin/ylw-pushpin.png</href>
                    </Icon>
                </IconStyle>
            </Style>
            <Style id="1942">
                <IconStyle id="1943">
                    <color>ff0000ff</color>
                    <colorMode>normal</colorMode>
                    <scale>1</scale>
                    <heading>0</heading>
                    <Icon id="1944">
                        <href>http://maps.google.com/mapfiles/kml/pushpin/ylw-pushpin.png</href>
                    </Icon>
                </IconStyle>
            </Style>
            <Style id="1947">
                <IconStyle id="1948">
                    <color>ff0000ff</color>
                    <colorMode>normal</colorMode>
                    <scale>1</scale>
                    <heading>0</heading>
                    <Icon id="1949">
                        <href>http://maps.google.com/mapfiles/kml/pushpin/ylw-pushpin.png</href>
                    </Icon>
                </IconStyle>
            </Style>
            <Style id="1952">
                <IconStyle id="1953">
                    <color>ff0000ff</color>
                    <colorMode>normal</colorMode>
                    <scale>1</scale>
                    <heading>0</heading>
                    <Icon id="1954">
                        <href>http://maps.google.com/mapfiles/kml/pushpin/ylw-pushpin.png</href>
                    </Icon>
                </IconStyle>
            </Style>
            <Style id="1957">
                <IconStyle id="1958">
                    <color>ff0000ff</color>
                    <colorMode>normal</colorMode>
                    <scale>1</scale>
                    <heading>0</heading>
                    <Icon id="1959">
                        <href>http://maps.google.com/mapfiles/kml/pushpin/ylw-pushpin.png</href>
                    </Icon>
                </IconStyle>
            </Style>
            <Style id="1962">
                <IconStyle id="1963">
                    <color>ff0000ff</color>
                    <colorMode>normal</colorMode>
                    <scale>1</scale>
                    <heading>0</heading>
                    <Icon id="1964">
                        <href>http://maps.google.com/mapfiles/kml/pushpin/ylw-pushpin.png</href>
                    </Icon>
                </IconStyle>
            </Style>
            <Style id="1967">
                <IconStyle id="1968">
                    <color>ff0000ff</color>
                    <colorMode>normal</colorMode>
                    <scale>1</scale>
                    <heading>0</heading>
                    <Icon id="1969">
                        <href>http://maps.google.com/mapfiles/kml/pushpin/ylw-pushpin.png</href>
                    </Icon>
                </IconStyle>
            </Style>
            <Style id="1972">
                <IconStyle id="1973">
                    <color>ff0000ff</color>
                    <colorMode>normal</colorMode>
                    <scale>1</scale>
                    <heading>0</heading>
                    <Icon id="1974">
                        <href>http://maps.google.com/mapfiles/kml/pushpin/ylw-pushpin.png</href>
                    </Icon>
                </IconStyle>
            </Style>
            <Style id="1977">
                <IconStyle id="1978">
                    <color>ff0000ff</color>
                    <colorMode>normal</colorMode>
                    <scale>1</scale>
                    <heading>0</heading>
                    <Icon id="1979">
                        <href>http://maps.google.com/mapfiles/kml/pushpin/ylw-pushpin.png</href>
                    </Icon>
                </IconStyle>
            </Style>
            <Style id="1982">
                <IconStyle id="1983">
                    <color>ff0000ff</color>
                    <colorMode>normal</colorMode>
                    <scale>1</scale>
                    <heading>0</heading>
                    <Icon id="1984">
                        <href>http://maps.google.com/mapfiles/kml/pushpin/ylw-pushpin.png</href>
                    </Icon>
                </IconStyle>
            </Style>
            <Style id="1987">
                <IconStyle id="1988">
                    <color>ff0000ff</color>
                    <colorMode>normal</colorMode>
                    <scale>1</scale>
                    <heading>0</heading>
                    <Icon id="1989">
                        <href>http://maps.google.com/mapfiles/kml/pushpin/ylw-pushpin.png</href>
                    </Icon>
                </IconStyle>
            </Style>
            <Style id="1992">
                <IconStyle id="1993">
                    <color>ff0000ff</color>
                    <colorMode>normal</colorMode>
                    <scale>1</scale>
                    <heading>0</heading>
                    <Icon id="1994">
                        <href>http://maps.google.com/mapfiles/kml/pushpin/ylw-pushpin.png</href>
                    </Icon>
                </IconStyle>
            </Style>
            <Style id="1997">
                <IconStyle id="1998">
                    <color>ff0000ff</color>
                    <colorMode>normal</colorMode>
                    <scale>1</scale>
                    <heading>0</heading>
                    <Icon id="1999">
                        <href>http://maps.google.com/mapfiles/kml/pushpin/ylw-pushpin.png</href>
                    </Icon>
                </IconStyle>
            </Style>
            <Style id="2002">
                <IconStyle id="2003">
                    <color>ff0000ff</color>
                    <colorMode>normal</colorMode>
                    <scale>1</scale>
                    <heading>0</heading>
                    <Icon id="2004">
                        <href>http://maps.google.com/mapfiles/kml/pushpin/ylw-pushpin.png</href>
                    </Icon>
                </IconStyle>
            </Style>
            <Style id="2007">
                <IconStyle id="2008">
                    <color>ff0000ff</color>
                    <colorMode>normal</colorMode>
                    <scale>1</scale>
                    <heading>0</heading>
                    <Icon id="2009">
                        <href>http://maps.google.com/mapfiles/kml/pushpin/ylw-pushpin.png</href>
                    </Icon>
                </IconStyle>
            </Style>
            <Style id="2012">
                <IconStyle id="2013">
                    <color>ff0000ff</color>
                    <colorMode>normal</colorMode>
                    <scale>1</scale>
                    <heading>0</heading>
                    <Icon id="2014">
                        <href>http://maps.google.com/mapfiles/kml/pushpin/ylw-pushpin.png</href>
                    </Icon>
                </IconStyle>
            </Style>
            <Style id="2017">
                <IconStyle id="2018">
                    <color>ff0000ff</color>
                    <colorMode>normal</colorMode>
                    <scale>1</scale>
                    <heading>0</heading>
                    <Icon id="2019">
                        <href>http://maps.google.com/mapfiles/kml/pushpin/ylw-pushpin.png</href>
                    </Icon>
                </IconStyle>
            </Style>
            <Style id="2022">
                <IconStyle id="2023">
                    <color>ff0000ff</color>
                    <colorMode>normal</colorMode>
                    <scale>1</scale>
                    <heading>0</heading>
                    <Icon id="2024">
                        <href>http://maps.google.com/mapfiles/kml/pushpin/ylw-pushpin.png</href>
                    </Icon>
                </IconStyle>
            </Style>
            <Style id="2027">
                <IconStyle id="2028">
                    <color>ff0000ff</color>
                    <colorMode>normal</colorMode>
                    <scale>1</scale>
                    <heading>0</heading>
                    <Icon id="2029">
                        <href>http://maps.google.com/mapfiles/kml/pushpin/ylw-pushpin.png</href>
                    </Icon>
                </IconStyle>
            </Style>
            <name>JACIEL MOGOLLON ALVARADO</name>
            <Placemark id="1821">
                <name>DUBER HILDEBRANDO QUEVEDO PONCE</name>
                <description>Calle Bernaldo alcedo
Sullana
Sullana
Piura
Perú</description>
                <styleUrl>#1822</styleUrl>
                <Point id="1820">
                    <coordinates>-80.6829911,-4.8918878,0.0</coordinates>
                </Point>
            </Placemark>
            <Placemark id="1826">
                <name>VASQUEZ REYES YESSICA PATRICIA</name>
                <description>VASQUEZ REYES YESSICA PATRICIA
MZA. DLOTE 01 PARQUE INDUSTRIAL ( EX TERMINAL PESQUERO ) PIURA - SULLANA 
Sullana
-Sullana
Piura
Perú</description>
                <styleUrl>#1827</styleUrl>
                <Point id="1825">
                    <coordinates>-80.678827,-4.9152949,0.0</coordinates>
                </Point>
            </Placemark>
            <Placemark id="1831">
                <name>THALIA YASMIN CALDERON ABAD</name>
                <description>THALIA YASMIN CALDERON ABAD
MCDO MAYORISTA CEBOLLERO(X PALOMINO)
Sullana
Sullana
Piura
Perú</description>
                <styleUrl>#1832</styleUrl>
                <Point id="1830">
                    <coordinates>-80.679097,-4.9153202,0.0</coordinates>
                </Point>
            </Placemark>
            <Placemark id="1836">
                <name>JUANA EMILIA SALES VILLALTA</name>
                <description>Victor Raúl MZ e lote 8 Olivos
Sullana
Sullana
Piura
Perú</description>
                <styleUrl>#1837</styleUrl>
                <Point id="1835">
                    <coordinates>-80.6623921,-4.9192258,0.0</coordinates>
                </Point>
            </Placemark>
            <Placemark id="1841">
                <name>GODOS ALMESTAR MARIA JUANA</name>
                <description>Ah 9 de octubre
Sullana
Sullana
Piura
Perú</description>
                <styleUrl>#1842</styleUrl>
                <Point id="1840">
                    <coordinates>-80.6803415,-4.903177,0.0</coordinates>
                </Point>
            </Placemark>
            <Placemark id="1846">
                <name>BERTHA MARINA BURNEO ARIAS</name>
                <description>BERTHA MARINA BURNEO ARIAS
CA. JOSE MARIA RAYGADA N.189 CA.9 D
Sullana
Sullana
Piura
Perú</description>
                <styleUrl>#1847</styleUrl>
                <Point id="1845">
                    <coordinates>-80.6800951,-4.9031067,0.0</coordinates>
                </Point>
            </Placemark>
            <Placemark id="1851">
                <name>ASCENCIO NAVELIZA ROJAS VDA.DE</name>
                <description>ASCENCIO NAVELIZA ROJAS VDA.DE
JOSE M. RAYGADA 368-9 DE OCTUBRE
Sullana
Sullana
Piura
Perú</description>
                <styleUrl>#1852</styleUrl>
                <Point id="1850">
                    <coordinates>-80.6783791,-4.9028581,0.0</coordinates>
                </Point>
            </Placemark>
            <Placemark id="1856">
                <name>LUISA RAMIREZ FLORES</name>
                <description>CA.JOSE MARIA RAYGADA 497 SULLANA
Sullana
Sullana
Piura
Perú</description>
                <styleUrl>#1857</styleUrl>
                <Point id="1855">
                    <coordinates>-80.6773505,-4.9026756,0.0</coordinates>
                </Point>
            </Placemark>
            <Placemark id="1861">
                <name>CYNTHIA SUSAN GASPAR TORRES</name>
                <description>Calle Pardiñas cuadra dos 249
Sullana
Sullana
Piura
Perú</description>
                <styleUrl>#1862</styleUrl>
                <Point id="1860">
                    <coordinates>-80.6769163,-4.9030307,0.0</coordinates>
                </Point>
            </Placemark>
            <Placemark id="1866">
                <name>DORA ALICIA REYES AVALOS</name>
                <description>Calle San Pedro 315 9 de octubre sullana
Sullana
Sullana
Piura
Perú</description>
                <styleUrl>#1867</styleUrl>
                <Point id="1865">
                    <coordinates>-80.6740686,-4.9031617,0.0</coordinates>
                </Point>
            </Placemark>
            <Placemark id="1871">
                <name>FANNY SANTUR ABAD</name>
                <description>FANNY SANTUR ABAD
CA.SAN PEDRO 300 AA. HH9 DE OCTUBRE
Sullana
Sullana
Piura
Perú</description>
                <styleUrl>#1872</styleUrl>
                <Point id="1870">
                    <coordinates>-80.6742851,-4.9027935,0.0</coordinates>
                </Point>
            </Placemark>
            <Placemark id="1876">
                <name>ADELAIDA CASTILLO CRUZ</name>
                <description>CA.SAN JUAN N269 AA. HH 09 DE OCTUB
Sullana
Sullana
Piura
Perú</description>
                <styleUrl>#1877</styleUrl>
                <Point id="1875">
                    <coordinates>-80.6751431,-4.9029557,0.0</coordinates>
                </Point>
            </Placemark>
            <Placemark id="1881">
                <name>ROSA YSABEL SIANCAS GUZMAN</name>
                <description>ROSA YSABEL SIANCAS GUZMAN
CA.SAN JOSE 381 9 DE OCTUBRE SULLAN
Sullana
Sullana
Piura
Perú</description>
                <styleUrl>#1882</styleUrl>
                <Point id="1880">
                    <coordinates>-80.6753957,-4.9038171,0.0</coordinates>
                </Point>
            </Placemark>
            <Placemark id="1886">
                <name>CARMEN PUGA FLORES</name>
                <description>Calle Agusto belegia 442
Sullana
Sullana
Piura
Perú</description>
                <styleUrl>#1887</styleUrl>
                <Point id="1885">
                    <coordinates>-80.6772852,-4.9043534,0.0</coordinates>
                </Point>
            </Placemark>
            <Placemark id="1891">
                <name>JUAN MANUEL GIRON CARMEN</name>
                <description>JUAN MANUEL GIRON CARMEN
CA.AUGUSTO B LEGUIA 445
Sullana
Sullana
Piura
Perú</description>
                <styleUrl>#1892</styleUrl>
                <Point id="1890">
                    <coordinates>-80.6773783,-4.904575,0.0</coordinates>
                </Point>
            </Placemark>
            <Placemark id="1896">
                <name>NANCY URBINA YACILA</name>
                <description>NANCY URBINA YACILA
CA.A.B. LEGUIA 333 9 DE OCTUBRE S
Sullana
Sullana
Piura
Perú</description>
                <styleUrl>#1897</styleUrl>
                <Point id="1895">
                    <coordinates>-80.6782644,-4.9046767,0.0</coordinates>
                </Point>
            </Placemark>
            <Placemark id="1901">
                <name>YENI DEL ROCIO MENDOZA RODRIGUEZ</name>
                <description>CA.AMOTAPE 499 AA. HH 9 DE OCTUBRE
Sullana
Sullana
Piura
Perú</description>
                <styleUrl>#1902</styleUrl>
                <Point id="1900">
                    <coordinates>-80.6791164,-4.9052701,0.0</coordinates>
                </Point>
            </Placemark>
            <Placemark id="1906">
                <name>ROSA ANITA RODRIGUEZ UBILLUS</name>
                <description>Santa cruz 213 nueve de octubre
Sullana
Sullana
Piura
Perú</description>
                <styleUrl>#1907</styleUrl>
                <Point id="1905">
                    <coordinates>-80.6789185,-4.9053031,0.0</coordinates>
                </Point>
            </Placemark>
            <Placemark id="1911">
                <name>RUTH ESTHER BENITES AÑAZCO</name>
                <description>CA.AMOTAPE N697 AA. HH 09 DE OCTUBR
Sullana
Sullana
Piura
Perú</description>
                <styleUrl>#1912</styleUrl>
                <Point id="1910">
                    <coordinates>-80.6790437,-4.9065088,0.0</coordinates>
                </Point>
            </Placemark>
            <Placemark id="1916">
                <name>MARIA HAYDEE AGUIRRE MORALES</name>
                <description>Túpac Amaru 406
Sullana
Sullana
Piura
Perú</description>
                <styleUrl>#1917</styleUrl>
                <Point id="1915">
                    <coordinates>-80.676876,-4.9062497,0.0</coordinates>
                </Point>
            </Placemark>
            <Placemark id="1921">
                <name>SANTOS ELIZABETH GONZALES HIDALGO</name>
                <description>SANTOS ELIZABETH GONZALES HIDALGO
CA.SAN JOSE 1519 AA. HH 9 DE OCTUBRE-SULLANA
Sullana
Sullana
Piura
Perú</description>
                <styleUrl>#1922</styleUrl>
                <Point id="1920">
                    <coordinates>-80.6738774,-4.911261,0.0</coordinates>
                </Point>
            </Placemark>
            <Placemark id="1926">
                <name>MELISA DEL ROCIO CASQUERO CARMEN</name>
                <description>TRANSV.13 DICIEMBRE 425 9 DE OCTUBRE
Sullana
Sullana
Piura
Perú</description>
                <styleUrl>#1927</styleUrl>
                <Point id="1925">
                    <coordinates>-80.6771363,-4.9098495,0.0</coordinates>
                </Point>
            </Placemark>
            <Placemark id="1931">
                <name>MARIA IMELDA JARAMILLO NONAJULCA</name>
                <description>CA.SAN ISIDRO 912 AA. HH 09 DE OCTUBRE
Sullana
Sullana
Piura
Perú</description>
                <styleUrl>#1932</styleUrl>
                <Point id="1930">
                    <coordinates>-80.6741173,-4.9074518,0.0</coordinates>
                </Point>
            </Placemark>
            <Placemark id="1936">
                <name>SILVIA JANET VALDIVIESO GARCIA</name>
                <description>CA.SAN ISIDRO MZ D LT 1 AAA. HHH
Sullana
Sullana
Piura
Perú</description>
                <styleUrl>#1937</styleUrl>
                <Point id="1935">
                    <coordinates>-80.6730716,-4.9092628,0.0</coordinates>
                </Point>
            </Placemark>
            <Placemark id="1941">
                <name>LEYSI ALVARADO CALLE</name>
                <description>CALLE SAN PEDRO MZ B2 LOTE 28
Sullana
Sullana
Piura
Perú</description>
                <styleUrl>#1942</styleUrl>
                <Point id="1940">
                    <coordinates>-80.6723977,-4.9105973,0.0</coordinates>
                </Point>
            </Placemark>
            <Placemark id="1946">
                <name>GLADIS MULATILLO ABAD</name>
                <description>CA.LOS PINOS MZ 0E LT 02
Sullana

Piura
Perú</description>
                <styleUrl>#1947</styleUrl>
                <Point id="1945">
                    <coordinates>-80.668401,-4.912024,0.0</coordinates>
                </Point>
            </Placemark>
            <Placemark id="1951">
                <name>ESPINOZA REYES REYNA</name>
                <description>CA.EL ANGEL D4 1 LOS OLIVOS
Sullana
Sullana
Piura
Perú</description>
                <styleUrl>#1952</styleUrl>
                <Point id="1950">
                    <coordinates>-80.663622,-4.919541,0.0</coordinates>
                </Point>
            </Placemark>
            <Placemark id="1956">
                <name>LUZ EDILCIA CHUQUIHUANCA BERRU</name>
                <description>Calle los Ángeles MZ 5 LOTE 8 los olivos
Sullana
Sullana
Piura
Perú</description>
                <styleUrl>#1957</styleUrl>
                <Point id="1955">
                    <coordinates>-80.6628458,-4.9206851,0.0</coordinates>
                </Point>
            </Placemark>
            <Placemark id="1961">
                <name>JAJAIRA ALESSANDRA DEL AGUILA PRADO</name>
                <description>Luz y vida mzE lote2
Sullana
Sullana
Piura
Perú</description>
                <styleUrl>#1962</styleUrl>
                <Point id="1960">
                    <coordinates>-80.6618972,-4.927245,0.0</coordinates>
                </Point>
            </Placemark>
            <Placemark id="1966">
                <name>JULIO CESAR LIZANO ACARO</name>
                <description>Av Jaime Bardales MZ G1 LT 15 AA.HH los Olivos
Sullana
Sullana
Piura
Perú</description>
                <styleUrl>#1967</styleUrl>
                <Point id="1965">
                    <coordinates>-80.6618689,-4.9200727,0.0</coordinates>
                </Point>
            </Placemark>
            <Placemark id="1971">
                <name>RUBEN MESTANZA TAPIA</name>
                <description>CA.RICARDO PALMA N909 AA. HH JESUSMARIA - SULLANA
Sullana
Sullana
Piura
Perú</description>
                <styleUrl>#1972</styleUrl>
                <Point id="1970">
                    <coordinates>-80.6726599,-4.9069218,0.0</coordinates>
                </Point>
            </Placemark>
            <Placemark id="1976">
                <name>JUANITA MAZA NIMA</name>
                <description>CA.SAN PEDRO 920 AA. HH9 DE OCTUBRE
Sullana
Sullana
Piura
Perú</description>
                <styleUrl>#1977</styleUrl>
                <Point id="1975">
                    <coordinates>-80.6731826,-4.9073513,0.0</coordinates>
                </Point>
            </Placemark>
            <Placemark id="1981">
                <name>GLADIS ELENA ENCALADA ALVARADO</name>
                <description>GLADIS ELENA ENCALADA ALVARADO
CA.VICHALLAL 708 AA. HH9 DE OCTUBRE
Sullana
Sullana
Piura
Perú</description>
                <styleUrl>#1982</styleUrl>
                <Point id="1980">
                    <coordinates>-80.6759993,-4.906362,0.0</coordinates>
                </Point>
            </Placemark>
            <Placemark id="1986">
                <name>REINA ROSSANA PULACHE PULACHE</name>
                <description>CA.VICHAYAL 844 AA. HH 9 DE OCTUBRE-SULLANA
Sullana
Sullana
Piura
Perú</description>
                <styleUrl>#1987</styleUrl>
                <Point id="1985">
                    <coordinates>-80.6758287,-4.9068468,0.0</coordinates>
                </Point>
            </Placemark>
            <Placemark id="1991">
                <name>MARCHENA TACURE CRISTINO</name>
                <description>MARCHENA TACURE CRISTINO
Calle amotape 1093 9 de octubre
Sullana
Sullana
Piura
Perú</description>
                <styleUrl>#1992</styleUrl>
                <Point id="1990">
                    <coordinates>-80.678857,-4.9088799,0.0</coordinates>
                </Point>
            </Placemark>
            <Placemark id="1996">
                <name>ANDREA SANCHEZ SARANGO</name>
                <description>ANDREA SANCHEZ SARANGO
CA.SAENZ PEÑA 584 AA. HH 9 DE OCTUB
Sullana
Sullana
Piura
Perú</description>
                <styleUrl>#1997</styleUrl>
                <Point id="1995">
                    <coordinates>-80.6759235,-4.9102055,0.0</coordinates>
                </Point>
            </Placemark>
            <Placemark id="2001">
                <name>NIÑO ABAD LAURENTINA</name>
                <description>NIÑO ABAD LAURENTINA
PRO AV BUENOS AIRES / ZONA INDUSTRIAL FRENTE AL CEBOLLERO
Sullana
Sullana
Piura
Perú</description>
                <styleUrl>#2002</styleUrl>
                <Point id="2000">
                    <coordinates>-80.6786219,-4.9155829,0.0</coordinates>
                </Point>
            </Placemark>
            <Placemark id="2006">
                <name>MESONES VALDERA GUADALUPE SOFIA</name>
                <description>CA. CARR TAMBOGRANDE 101
Sullana
Sullana
Piura
Perú</description>
                <styleUrl>#2007</styleUrl>
                <Point id="2005">
                    <coordinates>-80.6753253,-4.9112918,0.0</coordinates>
                </Point>
            </Placemark>
            <Placemark id="2011">
                <name>MARIA CALLE CORDOVA</name>
                <description>Calle San Juan 1420
Sullana
Sullana
Piura
Perú</description>
                <styleUrl>#2012</styleUrl>
                <Point id="2010">
                    <coordinates>-80.6735603,-4.9106668,0.0</coordinates>
                </Point>
            </Placemark>
            <Placemark id="2016">
                <name>MARIA AIDEE TAVARA CALDERON</name>
                <description>Zona industrial, carretera sullana-tambogrande, delante de la maderera Camila
Sullana
Sullana
Piura
Perú</description>
                <styleUrl>#2017</styleUrl>
                <Point id="2015">
                    <coordinates>-80.6807905,-4.9124127,0.0</coordinates>
                </Point>
            </Placemark>
            <Placemark id="2021">
                <name>NIÑO ABAD LAURENTINA</name>
                <description>NIÑO ABAD LAURENTINA
PRO AV BUENOS AIRES / ZONA INDUSTRIAL FRENTE AL CEBOLLERO
Sullana
Sullana
Piura
Perú</description>
                <styleUrl>#2022</styleUrl>
                <Point id="2020">
                    <coordinates>-80.6786219,-4.9155829,0.0</coordinates>
                </Point>
            </Placemark>
            <Placemark id="2026">
                <name>COMERCIAL F &amp; S DEL NORTE E.I.R.L.</name>
                <description>COMERCIAL F &amp; S DEL NORTE E.I.R.L.
MCDO B.AIRES 13 CEBOLLERO
Sullana
200601Sullana
Piura
Perú</description>
                <styleUrl>#2027</styleUrl>
                <Point id="2025">
                    <coordinates>-80.6774123,-4.9156459,0.0</coordinates>
                </Point>
            </Placemark>
        </Folder>
        <Folder id="2030">
            <Style id="2033">
                <IconStyle id="2034">
                    <color>ffff0000</color>
                    <colorMode>normal</colorMode>
                    <scale>1</scale>
                    <heading>0</heading>
                    <Icon id="2035">
                        <href>http://maps.google.com/mapfiles/kml/pushpin/ylw-pushpin.png</href>
                    </Icon>
                </IconStyle>
            </Style>
            <Style id="2038">
                <IconStyle id="2039">
                    <color>ffff0000</color>
                    <colorMode>normal</colorMode>
                    <scale>1</scale>
                    <heading>0</heading>
                    <Icon id="2040">
                        <href>http://maps.google.com/mapfiles/kml/pushpin/ylw-pushpin.png</href>
                    </Icon>
                </IconStyle>
            </Style>
            <Style id="2043">
                <IconStyle id="2044">
                    <color>ffff0000</color>
                    <colorMode>normal</colorMode>
                    <scale>1</scale>
                    <heading>0</heading>
                    <Icon id="2045">
                        <href>http://maps.google.com/mapfiles/kml/pushpin/ylw-pushpin.png</href>
                    </Icon>
                </IconStyle>
            </Style>
            <Style id="2048">
                <IconStyle id="2049">
                    <color>ffff0000</color>
                    <colorMode>normal</colorMode>
                    <scale>1</scale>
                    <heading>0</heading>
                    <Icon id="2050">
                        <href>http://maps.google.com/mapfiles/kml/pushpin/ylw-pushpin.png</href>
                    </Icon>
                </IconStyle>
            </Style>
            <Style id="2053">
                <IconStyle id="2054">
                    <color>ffff0000</color>
                    <colorMode>normal</colorMode>
                    <scale>1</scale>
                    <heading>0</heading>
                    <Icon id="2055">
                        <href>http://maps.google.com/mapfiles/kml/pushpin/ylw-pushpin.png</href>
                    </Icon>
                </IconStyle>
            </Style>
            <Style id="2058">
                <IconStyle id="2059">
                    <color>ffff0000</color>
                    <colorMode>normal</colorMode>
                    <scale>1</scale>
                    <heading>0</heading>
                    <Icon id="2060">
                        <href>http://maps.google.com/mapfiles/kml/pushpin/ylw-pushpin.png</href>
                    </Icon>
                </IconStyle>
            </Style>
            <Style id="2063">
                <IconStyle id="2064">
                    <color>ffff0000</color>
                    <colorMode>normal</colorMode>
                    <scale>1</scale>
                    <heading>0</heading>
                    <Icon id="2065">
                        <href>http://maps.google.com/mapfiles/kml/pushpin/ylw-pushpin.png</href>
                    </Icon>
                </IconStyle>
            </Style>
            <Style id="2068">
                <IconStyle id="2069">
                    <color>ffff0000</color>
                    <colorMode>normal</colorMode>
                    <scale>1</scale>
                    <heading>0</heading>
                    <Icon id="2070">
                        <href>http://maps.google.com/mapfiles/kml/pushpin/ylw-pushpin.png</href>
                    </Icon>
                </IconStyle>
            </Style>
            <Style id="2073">
                <IconStyle id="2074">
                    <color>ffff0000</color>
                    <colorMode>normal</colorMode>
                    <scale>1</scale>
                    <heading>0</heading>
                    <Icon id="2075">
                        <href>http://maps.google.com/mapfiles/kml/pushpin/ylw-pushpin.png</href>
                    </Icon>
                </IconStyle>
            </Style>
            <Style id="2078">
                <IconStyle id="2079">
                    <color>ffff0000</color>
                    <colorMode>normal</colorMode>
                    <scale>1</scale>
                    <heading>0</heading>
                    <Icon id="2080">
                        <href>http://maps.google.com/mapfiles/kml/pushpin/ylw-pushpin.png</href>
                    </Icon>
                </IconStyle>
            </Style>
            <Style id="2083">
                <IconStyle id="2084">
                    <color>ffff0000</color>
                    <colorMode>normal</colorMode>
                    <scale>1</scale>
                    <heading>0</heading>
                    <Icon id="2085">
                        <href>http://maps.google.com/mapfiles/kml/pushpin/ylw-pushpin.png</href>
                    </Icon>
                </IconStyle>
            </Style>
            <Style id="2088">
                <IconStyle id="2089">
                    <color>ffff0000</color>
                    <colorMode>normal</colorMode>
                    <scale>1</scale>
                    <heading>0</heading>
                    <Icon id="2090">
                        <href>http://maps.google.com/mapfiles/kml/pushpin/ylw-pushpin.png</href>
                    </Icon>
                </IconStyle>
            </Style>
            <Style id="2093">
                <IconStyle id="2094">
                    <color>ffff0000</color>
                    <colorMode>normal</colorMode>
                    <scale>1</scale>
                    <heading>0</heading>
                    <Icon id="2095">
                        <href>http://maps.google.com/mapfiles/kml/pushpin/ylw-pushpin.png</href>
                    </Icon>
                </IconStyle>
            </Style>
            <Style id="2098">
                <IconStyle id="2099">
                    <color>ffff0000</color>
                    <colorMode>normal</colorMode>
                    <scale>1</scale>
                    <heading>0</heading>
                    <Icon id="2100">
                        <href>http://maps.google.com/mapfiles/kml/pushpin/ylw-pushpin.png</href>
                    </Icon>
                </IconStyle>
            </Style>
            <Style id="2103">
                <IconStyle id="2104">
                    <color>ffff0000</color>
                    <colorMode>normal</colorMode>
                    <scale>1</scale>
                    <heading>0</heading>
                    <Icon id="2105">
                        <href>http://maps.google.com/mapfiles/kml/pushpin/ylw-pushpin.png</href>
                    </Icon>
                </IconStyle>
            </Style>
            <Style id="2108">
                <IconStyle id="2109">
                    <color>ffff0000</color>
                    <colorMode>normal</colorMode>
                    <scale>1</scale>
                    <heading>0</heading>
                    <Icon id="2110">
                        <href>http://maps.google.com/mapfiles/kml/pushpin/ylw-pushpin.png</href>
                    </Icon>
                </IconStyle>
            </Style>
            <Style id="2113">
                <IconStyle id="2114">
                    <color>ffff0000</color>
                    <colorMode>normal</colorMode>
                    <scale>1</scale>
                    <heading>0</heading>
                    <Icon id="2115">
                        <href>http://maps.google.com/mapfiles/kml/pushpin/ylw-pushpin.png</href>
                    </Icon>
                </IconStyle>
            </Style>
            <Style id="2118">
                <IconStyle id="2119">
                    <color>ffff0000</color>
                    <colorMode>normal</colorMode>
                    <scale>1</scale>
                    <heading>0</heading>
                    <Icon id="2120">
                        <href>http://maps.google.com/mapfiles/kml/pushpin/ylw-pushpin.png</href>
                    </Icon>
                </IconStyle>
            </Style>
            <Style id="2123">
                <IconStyle id="2124">
                    <color>ffff0000</color>
                    <colorMode>normal</colorMode>
                    <scale>1</scale>
                    <heading>0</heading>
                    <Icon id="2125">
                        <href>http://maps.google.com/mapfiles/kml/pushpin/ylw-pushpin.png</href>
                    </Icon>
                </IconStyle>
            </Style>
            <Style id="2128">
                <IconStyle id="2129">
                    <color>ffff0000</color>
                    <colorMode>normal</colorMode>
                    <scale>1</scale>
                    <heading>0</heading>
                    <Icon id="2130">
                        <href>http://maps.google.com/mapfiles/kml/pushpin/ylw-pushpin.png</href>
                    </Icon>
                </IconStyle>
            </Style>
            <Style id="2133">
                <IconStyle id="2134">
                    <color>ffff0000</color>
                    <colorMode>normal</colorMode>
                    <scale>1</scale>
                    <heading>0</heading>
                    <Icon id="2135">
                        <href>http://maps.google.com/mapfiles/kml/pushpin/ylw-pushpin.png</href>
                    </Icon>
                </IconStyle>
            </Style>
            <Style id="2138">
                <IconStyle id="2139">
                    <color>ffff0000</color>
                    <colorMode>normal</colorMode>
                    <scale>1</scale>
                    <heading>0</heading>
                    <Icon id="2140">
                        <href>http://maps.google.com/mapfiles/kml/pushpin/ylw-pushpin.png</href>
                    </Icon>
                </IconStyle>
            </Style>
            <Style id="2143">
                <IconStyle id="2144">
                    <color>ffff0000</color>
                    <colorMode>normal</colorMode>
                    <scale>1</scale>
                    <heading>0</heading>
                    <Icon id="2145">
                        <href>http://maps.google.com/mapfiles/kml/pushpin/ylw-pushpin.png</href>
                    </Icon>
                </IconStyle>
            </Style>
            <Style id="2148">
                <IconStyle id="2149">
                    <color>ffff0000</color>
                    <colorMode>normal</colorMode>
                    <scale>1</scale>
                    <heading>0</heading>
                    <Icon id="2150">
                        <href>http://maps.google.com/mapfiles/kml/pushpin/ylw-pushpin.png</href>
                    </Icon>
                </IconStyle>
            </Style>
            <Style id="2153">
                <IconStyle id="2154">
                    <color>ffff0000</color>
                    <colorMode>normal</colorMode>
                    <scale>1</scale>
                    <heading>0</heading>
                    <Icon id="2155">
                        <href>http://maps.google.com/mapfiles/kml/pushpin/ylw-pushpin.png</href>
                    </Icon>
                </IconStyle>
            </Style>
            <Style id="2158">
                <IconStyle id="2159">
                    <color>ffff0000</color>
                    <colorMode>normal</colorMode>
                    <scale>1</scale>
                    <heading>0</heading>
                    <Icon id="2160">
                        <href>http://maps.google.com/mapfiles/kml/pushpin/ylw-pushpin.png</href>
                    </Icon>
                </IconStyle>
            </Style>
            <Style id="2163">
                <IconStyle id="2164">
                    <color>ffff0000</color>
                    <colorMode>normal</colorMode>
                    <scale>1</scale>
                    <heading>0</heading>
                    <Icon id="2165">
                        <href>http://maps.google.com/mapfiles/kml/pushpin/ylw-pushpin.png</href>
                    </Icon>
                </IconStyle>
            </Style>
            <Style id="2168">
                <IconStyle id="2169">
                    <color>ffff0000</color>
                    <colorMode>normal</colorMode>
                    <scale>1</scale>
                    <heading>0</heading>
                    <Icon id="2170">
                        <href>http://maps.google.com/mapfiles/kml/pushpin/ylw-pushpin.png</href>
                    </Icon>
                </IconStyle>
            </Style>
            <Style id="2173">
                <IconStyle id="2174">
                    <color>ffff0000</color>
                    <colorMode>normal</colorMode>
                    <scale>1</scale>
                    <heading>0</heading>
                    <Icon id="2175">
                        <href>http://maps.google.com/mapfiles/kml/pushpin/ylw-pushpin.png</href>
                    </Icon>
                </IconStyle>
            </Style>
            <Style id="2178">
                <IconStyle id="2179">
                    <color>ffff0000</color>
                    <colorMode>normal</colorMode>
                    <scale>1</scale>
                    <heading>0</heading>
                    <Icon id="2180">
                        <href>http://maps.google.com/mapfiles/kml/pushpin/ylw-pushpin.png</href>
                    </Icon>
                </IconStyle>
            </Style>
            <Style id="2183">
                <IconStyle id="2184">
                    <color>ffff0000</color>
                    <colorMode>normal</colorMode>
                    <scale>1</scale>
                    <heading>0</heading>
                    <Icon id="2185">
                        <href>http://maps.google.com/mapfiles/kml/pushpin/ylw-pushpin.png</href>
                    </Icon>
                </IconStyle>
            </Style>
            <Style id="2188">
                <IconStyle id="2189">
                    <color>ffff0000</color>
                    <colorMode>normal</colorMode>
                    <scale>1</scale>
                    <heading>0</heading>
                    <Icon id="2190">
                        <href>http://maps.google.com/mapfiles/kml/pushpin/ylw-pushpin.png</href>
                    </Icon>
                </IconStyle>
            </Style>
            <Style id="2193">
                <IconStyle id="2194">
                    <color>ffff0000</color>
                    <colorMode>normal</colorMode>
                    <scale>1</scale>
                    <heading>0</heading>
                    <Icon id="2195">
                        <href>http://maps.google.com/mapfiles/kml/pushpin/ylw-pushpin.png</href>
                    </Icon>
                </IconStyle>
            </Style>
            <Style id="2198">
                <IconStyle id="2199">
                    <color>ffff0000</color>
                    <colorMode>normal</colorMode>
                    <scale>1</scale>
                    <heading>0</heading>
                    <Icon id="2200">
                        <href>http://maps.google.com/mapfiles/kml/pushpin/ylw-pushpin.png</href>
                    </Icon>
                </IconStyle>
            </Style>
            <Style id="2203">
                <IconStyle id="2204">
                    <color>ffff0000</color>
                    <colorMode>normal</colorMode>
                    <scale>1</scale>
                    <heading>0</heading>
                    <Icon id="2205">
                        <href>http://maps.google.com/mapfiles/kml/pushpin/ylw-pushpin.png</href>
                    </Icon>
                </IconStyle>
            </Style>
            <Style id="2208">
                <IconStyle id="2209">
                    <color>ffff0000</color>
                    <colorMode>normal</colorMode>
                    <scale>1</scale>
                    <heading>0</heading>
                    <Icon id="2210">
                        <href>http://maps.google.com/mapfiles/kml/pushpin/ylw-pushpin.png</href>
                    </Icon>
                </IconStyle>
            </Style>
            <Style id="2213">
                <IconStyle id="2214">
                    <color>ffff0000</color>
                    <colorMode>normal</colorMode>
                    <scale>1</scale>
                    <heading>0</heading>
                    <Icon id="2215">
                        <href>http://maps.google.com/mapfiles/kml/pushpin/ylw-pushpin.png</href>
                    </Icon>
                </IconStyle>
            </Style>
            <Style id="2218">
                <IconStyle id="2219">
                    <color>ffff0000</color>
                    <colorMode>normal</colorMode>
                    <scale>1</scale>
                    <heading>0</heading>
                    <Icon id="2220">
                        <href>http://maps.google.com/mapfiles/kml/pushpin/ylw-pushpin.png</href>
                    </Icon>
                </IconStyle>
            </Style>
            <Style id="2223">
                <IconStyle id="2224">
                    <color>ffff0000</color>
                    <colorMode>normal</colorMode>
                    <scale>1</scale>
                    <heading>0</heading>
                    <Icon id="2225">
                        <href>http://maps.google.com/mapfiles/kml/pushpin/ylw-pushpin.png</href>
                    </Icon>
                </IconStyle>
            </Style>
            <Style id="2228">
                <IconStyle id="2229">
                    <color>ffff0000</color>
                    <colorMode>normal</colorMode>
                    <scale>1</scale>
                    <heading>0</heading>
                    <Icon id="2230">
                        <href>http://maps.google.com/mapfiles/kml/pushpin/ylw-pushpin.png</href>
                    </Icon>
                </IconStyle>
            </Style>
            <Style id="2233">
                <IconStyle id="2234">
                    <color>ffff0000</color>
                    <colorMode>normal</colorMode>
                    <scale>1</scale>
                    <heading>0</heading>
                    <Icon id="2235">
                        <href>http://maps.google.com/mapfiles/kml/pushpin/ylw-pushpin.png</href>
                    </Icon>
                </IconStyle>
            </Style>
            <Style id="2238">
                <IconStyle id="2239">
                    <color>ffff0000</color>
                    <colorMode>normal</colorMode>
                    <scale>1</scale>
                    <heading>0</heading>
                    <Icon id="2240">
                        <href>http://maps.google.com/mapfiles/kml/pushpin/ylw-pushpin.png</href>
                    </Icon>
                </IconStyle>
            </Style>
            <Style id="2243">
                <IconStyle id="2244">
                    <color>ffff0000</color>
                    <colorMode>normal</colorMode>
                    <scale>1</scale>
                    <heading>0</heading>
                    <Icon id="2245">
                        <href>http://maps.google.com/mapfiles/kml/pushpin/ylw-pushpin.png</href>
                    </Icon>
                </IconStyle>
            </Style>
            <Style id="2248">
                <IconStyle id="2249">
                    <color>ffff0000</color>
                    <colorMode>normal</colorMode>
                    <scale>1</scale>
                    <heading>0</heading>
                    <Icon id="2250">
                        <href>http://maps.google.com/mapfiles/kml/pushpin/ylw-pushpin.png</href>
                    </Icon>
                </IconStyle>
            </Style>
            <Style id="2253">
                <IconStyle id="2254">
                    <color>ffff0000</color>
                    <colorMode>normal</colorMode>
                    <scale>1</scale>
                    <heading>0</heading>
                    <Icon id="2255">
                        <href>http://maps.google.com/mapfiles/kml/pushpin/ylw-pushpin.png</href>
                    </Icon>
                </IconStyle>
            </Style>
            <Style id="2258">
                <IconStyle id="2259">
                    <color>ffff0000</color>
                    <colorMode>normal</colorMode>
                    <scale>1</scale>
                    <heading>0</heading>
                    <Icon id="2260">
                        <href>http://maps.google.com/mapfiles/kml/pushpin/ylw-pushpin.png</href>
                    </Icon>
                </IconStyle>
            </Style>
            <Style id="2263">
                <IconStyle id="2264">
                    <color>ffff0000</color>
                    <colorMode>normal</colorMode>
                    <scale>1</scale>
                    <heading>0</heading>
                    <Icon id="2265">
                        <href>http://maps.google.com/mapfiles/kml/pushpin/ylw-pushpin.png</href>
                    </Icon>
                </IconStyle>
            </Style>
            <name>WILLIAN ALEJANDRO HERRERA MORAN</name>
            <Placemark id="2032">
                <name>SANTOS JESSICA CASTILLO CORREA</name>
                <description>AV. BUENOS AIRES CUADRA LT 2 MCDO.7
Sullana
Sullana
Piura
Perú</description>
                <styleUrl>#2033</styleUrl>
                <Point id="2031">
                    <coordinates>-80.6823289,-4.8947052,0.0</coordinates>
                </Point>
            </Placemark>
            <Placemark id="2037">
                <name>PAREDES AGUIRRE ELIAS DANY</name>
                <description>Mercado buenos aires 100 ref al lado del pollo ricoton
Sullana
Sullana
Piura
Perú</description>
                <styleUrl>#2038</styleUrl>
                <Point id="2036">
                    <coordinates>-80.6823574,-4.894405,0.0</coordinates>
                </Point>
            </Placemark>
            <Placemark id="2042">
                <name>ESTEFANY BRICHELLY PEÑA SOSA</name>
                <description>Cqllebel rosal 104 - mallares
Marcavelica

Piura
Perú</description>
                <styleUrl>#2043</styleUrl>
                <Point id="2041">
                    <coordinates>-80.7690667,-4.8596921,0.0</coordinates>
                </Point>
            </Placemark>
            <Placemark id="2047">
                <name>GINA ROXANA PALOMINO ADANAQUE</name>
                <description>Calle 3 Mayo #100 Barrio Fe y Alegría
Marcavelica
Marcavelica
Piura
Perú</description>
                <styleUrl>#2048</styleUrl>
                <Point id="2046">
                    <coordinates>-80.7721587,-4.8616441,0.0</coordinates>
                </Point>
            </Placemark>
            <Placemark id="2052">
                <name>ISABEL DIOSES CORREA DE VITE</name>
                <description>AV SAN MARTIN S/N SANTA SOFIA SULLANA-SULLANA
Ignacio Escudero
Ignacio Escudero
Piura
Perú</description>
                <styleUrl>#2053</styleUrl>
                <Point id="2051">
                    <coordinates>-80.8397712,-4.8858645,0.0</coordinates>
                </Point>
            </Placemark>
            <Placemark id="2057">
                <name>ZAIDA DIOSES ROA</name>
                <description>Av.Grau#03 santa Sofía
Ignacio Escudero

Piura
Perú</description>
                <styleUrl>#2058</styleUrl>
                <Point id="2056">
                    <coordinates>-80.839996,-4.885523,0.0</coordinates>
                </Point>
            </Placemark>
            <Placemark id="2062">
                <name>RENY SILVA CANOVA</name>
                <description>AV.GRAU N°21-A-SANTA SOFIA-SULLANA-SULLANA
Ignacio Escudero
Ignacio Escudero
Piura
Perú</description>
                <styleUrl>#2063</styleUrl>
                <Point id="2061">
                    <coordinates>-80.8393763,-4.8851343,0.0</coordinates>
                </Point>
            </Placemark>
            <Placemark id="2067">
                <name>DORIS DIAZ OQUENDO</name>
                <description>Calle Grau 43 santa Sofía
Marcavelica

Piura
Perú</description>
                <styleUrl>#2068</styleUrl>
                <Point id="2066">
                    <coordinates>-80.8385701,-4.88471,0.0</coordinates>
                </Point>
            </Placemark>
            <Placemark id="2072">
                <name>ETELVINA JAQUELINE NAVARRO GIRON</name>
                <description>Psje Estadio NRO 4 CP Santa Sofía
Ignacio Escudero
Sullana
Piura
Perú</description>
                <styleUrl>#2073</styleUrl>
                <Point id="2071">
                    <coordinates>-80.8369589,-4.8831308,0.0</coordinates>
                </Point>
            </Placemark>
            <Placemark id="2077">
                <name>MONICA DEL PILAR ARCA FERNANDEZ</name>
                <description>Pasaje estadio S/N santa Sofía
Ignacio Escudero
Sullana
Piura
Perú</description>
                <styleUrl>#2078</styleUrl>
                <Point id="2076">
                    <coordinates>-80.8374966,-4.8830347,0.0</coordinates>
                </Point>
            </Placemark>
            <Placemark id="2082">
                <name>CHAVEZ FERIA CRUZ CARMEN</name>
                <description>CHAVEZ FERIA CRUZ CARMEN
Calle Miguel Grau # 133 Santa Sofía
Ignacio Escudero
Ignacio Escudero
Piura
Perú</description>
                <styleUrl>#2083</styleUrl>
                <Point id="2081">
                    <coordinates>-80.8353628,-4.8822494,0.0</coordinates>
                </Point>
            </Placemark>
            <Placemark id="2087">
                <name>VIVIANA DIOSES CORREA</name>
                <description>Av Grau # 117 - Santa Sofía
Ignacio Escudero
Ignacio Escudero
Piura
Perú</description>
                <styleUrl>#2088</styleUrl>
                <Point id="2086">
                    <coordinates>-80.8356617,-4.8826806,0.0</coordinates>
                </Point>
            </Placemark>
            <Placemark id="2092">
                <name>KARINA VALDIVIEZO CORREA</name>
                <description>AV GRAU #85 SANTA SOFIA
Ignacio Escudero
Ignacio Escudero
Piura
Perú</description>
                <styleUrl>#2093</styleUrl>
                <Point id="2091">
                    <coordinates>-80.8368977,-4.8835452,0.0</coordinates>
                </Point>
            </Placemark>
            <Placemark id="2097">
                <name>NELLY FREDELINDA ZAPATA CARRANZA</name>
                <description>CALLE GRAU 81 - Santa Sofía
Ignacio Escudero
Ignacio Escudero
Piura
Perú</description>
                <styleUrl>#2098</styleUrl>
                <Point id="2096">
                    <coordinates>-80.8369019,-4.8835701,0.0</coordinates>
                </Point>
            </Placemark>
            <Placemark id="2102">
                <name>MARIA REYNA PEÑA LEJABO</name>
                <description>SANCHE SERRO 09 - Santa Sofía
Ignacio Escudero
Ignacio Escudero
Piura
Perú</description>
                <styleUrl>#2103</styleUrl>
                <Point id="2101">
                    <coordinates>-80.8389668,-4.8856372,0.0</coordinates>
                </Point>
            </Placemark>
            <Placemark id="2107">
                <name>MARIA MAGDALENA ZAPATA CHERO</name>
                <description>Av Sánchez Cerro 46 - Santa Sofía
Ignacio Escudero
Ignacio Escudero
Piura
Perú</description>
                <styleUrl>#2108</styleUrl>
                <Point id="2106">
                    <coordinates>-80.8372494,-4.8843136,0.0</coordinates>
                </Point>
            </Placemark>
            <Placemark id="2112">
                <name>CRISTINA VALDIVIEZO CORREA</name>
                <description>Calle Sanchez cerro s/n - Santa Sofía
Ignacio Escudero
Ignacio Escudero
Piura
Perú</description>
                <styleUrl>#2113</styleUrl>
                <Point id="2111">
                    <coordinates>-80.8363913,-4.8838448,0.0</coordinates>
                </Point>
            </Placemark>
            <Placemark id="2117">
                <name>BETTY ELIANA ALBURQUEQUE NIZAMA</name>
                <description>Pampa nueva S/N Santa Sofía
Ignacio Escudero
Ignacio Escudero
Piura
Perú</description>
                <styleUrl>#2118</styleUrl>
                <Point id="2116">
                    <coordinates>-80.8338371,-4.883799,0.0</coordinates>
                </Point>
            </Placemark>
            <Placemark id="2122">
                <name>SANTOS ALICIA ZAPATA ELIZALDE</name>
                <description>Calle Francisco Pizarro S/N - Tangarara
Marcavelica
Marcavelica
Piura
Perú</description>
                <styleUrl>#2123</styleUrl>
                <Point id="2121">
                    <coordinates>-80.8242346,-4.8870411,0.0</coordinates>
                </Point>
            </Placemark>
            <Placemark id="2127">
                <name>JOSE SANTOS RUIZ CRUZ</name>
                <description>Av Pizarro MZ A LT 49 caserío Tangarara
Marcavelica
Marcavelica
Piura
Perú</description>
                <styleUrl>#2128</styleUrl>
                <Point id="2126">
                    <coordinates>-80.8231212,-4.8861478,0.0</coordinates>
                </Point>
            </Placemark>
            <Placemark id="2132">
                <name>DIANA MARIELA GUTIERREZ LLOCLLA</name>
                <description>PEAJE RICARDO PALMA  01-SULLANA-Monteron
Marcavelica
Marcavelica
Piura
Perú</description>
                <styleUrl>#2133</styleUrl>
                <Point id="2131">
                    <coordinates>-80.7990048,-4.8767106,0.0</coordinates>
                </Point>
            </Placemark>
            <Placemark id="2137">
                <name>JUANA ESMERALDA ARCA SANDOVAL</name>
                <description>AV ALFONSO UGARTE #02 MONTERON SULLANA-SULLANA
Marcavelica
Marcavelica
Piura
Perú</description>
                <styleUrl>#2138</styleUrl>
                <Point id="2136">
                    <coordinates>-80.7992663,-4.878782,0.0</coordinates>
                </Point>
            </Placemark>
            <Placemark id="2142">
                <name>KIARA CELINA SALAZAR GONZALES</name>
                <description>CALLE MIGUEL GRAU 029 - Monteron
Marcavelica
Marcavelica
Piura
Perú</description>
                <styleUrl>#2143</styleUrl>
                <Point id="2141">
                    <coordinates>-80.7996508,-4.8781383,0.0</coordinates>
                </Point>
            </Placemark>
            <Placemark id="2147">
                <name>SALDARRIAGA RAMIREZ SANTOS CONCEPCION</name>
                <description>SALDARRIAGA RAMIREZ SANTOS CONCEPCION
Calle Miguel Grau 029 Caserío Monteron
Marcavelica
Marcavelica
Piura
Perú</description>
                <styleUrl>#2148</styleUrl>
                <Point id="2146">
                    <coordinates>-80.800241,-4.8788287,0.0</coordinates>
                </Point>
            </Placemark>
            <Placemark id="2152">
                <name>MIRTHA ALICIA SAAVEDRA GONZALES</name>
                <description>AVELARDO QUIÑONES S/N CASERÍO MONTERON SULLANA-SULLANA
Marcavelica
Marcavelica
Piura
Perú</description>
                <styleUrl>#2153</styleUrl>
                <Point id="2151">
                    <coordinates>-80.8009905,-4.8789191,0.0</coordinates>
                </Point>
            </Placemark>
            <Placemark id="2157">
                <name>ELISA SALDARRIAGA MEJIAS</name>
                <description>Calle Miguel Grau 07-B Caserío Monteron
Marcavelica
Marcavelica
Piura
Perú</description>
                <styleUrl>#2158</styleUrl>
                <Point id="2156">
                    <coordinates>-80.8019473,-4.8793056,0.0</coordinates>
                </Point>
            </Placemark>
            <Placemark id="2162">
                <name>Natividad Pascuala Suárez Ojeda</name>
                <description>Av Miguel Grau 049 - Monteron
Marcavelica
Marcavelica
Piura
Perú</description>
                <styleUrl>#2163</styleUrl>
                <Point id="2161">
                    <coordinates>-80.7993094,-4.8757853,0.0</coordinates>
                </Point>
            </Placemark>
            <Placemark id="2167">
                <name>LAURA CANOVA DE CHAVEZ</name>
                <description>Av Miguel Grau 057 Caserío Monteron
Marcavelica
Marcavelica
Piura
Perú</description>
                <styleUrl>#2168</styleUrl>
                <Point id="2166">
                    <coordinates>-80.7985066,-4.8749384,0.0</coordinates>
                </Point>
            </Placemark>
            <Placemark id="2172">
                <name>LOURDES ATOCHE SANDOVAL</name>
                <description>Av Miguel Grau 066 Monteron
Marcavelica
Marcavelica
Piura
Perú</description>
                <styleUrl>#2173</styleUrl>
                <Point id="2171">
                    <coordinates>-80.7985862,-4.8748585,0.0</coordinates>
                </Point>
            </Placemark>
            <Placemark id="2177">
                <name>CHARITO ISABEL GONZALES SALDARRIAGA</name>
                <description>QPASAJE LOS JAMINES 109 - A MALLARES
Mallaritos
Mallaritos
Piura
Perú</description>
                <styleUrl>#2178</styleUrl>
                <Point id="2176">
                    <coordinates>-80.7706911,-4.861548,0.0</coordinates>
                </Point>
            </Placemark>
            <Placemark id="2182">
                <name>SERNAQUE PAULINI KARINA</name>
                <description>CA.VISTA FLORIDA M-37
Marcavelica
Marcavelica
Piura
Perú</description>
                <styleUrl>#2183</styleUrl>
                <Point id="2181">
                    <coordinates>-80.7382231,-4.8781103,0.0</coordinates>
                </Point>
            </Placemark>
            <Placemark id="2187">
                <name>MELIZA ISABEL CORREA CIEZA</name>
                <description>Calle 10 de marzo
Marcavelica

Piura
Perú</description>
                <styleUrl>#2188</styleUrl>
                <Point id="2186">
                    <coordinates>-80.7372784,-4.8764006,0.0</coordinates>
                </Point>
            </Placemark>
            <Placemark id="2192">
                <name>CESPEDES SANDOVAL URSULINA</name>
                <description>BOLOGNESI Nº 105 MALLA
Marcavelica
Marcavelica
Piura
Perú</description>
                <styleUrl>#2193</styleUrl>
                <Point id="2191">
                    <coordinates>-80.7176073,-4.8690464,0.0</coordinates>
                </Point>
            </Placemark>
            <Placemark id="2197">
                <name>CORREA OJEDA ANYELA VERONICA</name>
                <description>AV.PANAMERICANA MZ.G3-15
Marcavelica
Marcavelica
Piura
Perú</description>
                <styleUrl>#2198</styleUrl>
                <Point id="2196">
                    <coordinates>-80.7191811,-4.8686128,0.0</coordinates>
                </Point>
            </Placemark>
            <Placemark id="2202">
                <name>ALBURQUEQUE SILVA JESUS</name>
                <description>CA.BOLIVAR MALLARITOS LL2.12
Marcavelica
Marcavelica
Piura
Perú</description>
                <styleUrl>#2203</styleUrl>
                <Point id="2201">
                    <coordinates>-80.7203797,-4.8664842,0.0</coordinates>
                </Point>
            </Placemark>
            <Placemark id="2207">
                <name>VICTORIA GARCIA CORDOVA</name>
                <description>CA. PIURA 105 - QUERECOTILLO
Marcavelica
Marcavelica
Piura
Perú</description>
                <styleUrl>#2208</styleUrl>
                <Point id="2206">
                    <coordinates>-80.7196993,-4.8672129,0.0</coordinates>
                </Point>
            </Placemark>
            <Placemark id="2212">
                <name>ACUÑA GOYCOCHEA   BREMILDA</name>
                <description>PSJ.CHAVEZ 203 MALLARITO
Marcavelica
Marcavelica
Piura
Perú</description>
                <styleUrl>#2213</styleUrl>
                <Point id="2211">
                    <coordinates>-80.7177189,-4.8670875,0.0</coordinates>
                </Point>
            </Placemark>
            <Placemark id="2217">
                <name>LILIAN PAOLA CASTILLO MAURICIO</name>
                <description>ASENTAMIENTO HUMANO 2
Marcavelica
Marcavelica
Piura
Perú</description>
                <styleUrl>#2218</styleUrl>
                <Point id="2216">
                    <coordinates>-80.7180942,-4.8677275,0.0</coordinates>
                </Point>
            </Placemark>
            <Placemark id="2222">
                <name>VICTORIA PAZ ORTIZ AGURTO</name>
                <description>VICTORIA PAZ ORTIZ AGURTO
CAL.LIBERTAD NRO. 129 CAS. MALLARIT
Marcavelica
Marcavelica
Piura
Perú</description>
                <styleUrl>#2223</styleUrl>
                <Point id="2221">
                    <coordinates>-80.7170847,-4.8683335,0.0</coordinates>
                </Point>
            </Placemark>
            <Placemark id="2227">
                <name>CESPEDES OLAYA ELIDA</name>
                <description>SALAVERRY 161 MALLARITOS
Marcavelica
Marcavelica
Piura
Perú</description>
                <styleUrl>#2228</styleUrl>
                <Point id="2226">
                    <coordinates>-80.7175564,-4.8663399,0.0</coordinates>
                </Point>
            </Placemark>
            <Placemark id="2232">
                <name>GONZALES MORAN DIANA</name>
                <description>CA.M.CHECA.104 MALLARITOS
Marcavelica
Marcavelica
Piura
Perú</description>
                <styleUrl>#2233</styleUrl>
                <Point id="2231">
                    <coordinates>-80.7196076,-4.8663029,0.0</coordinates>
                </Point>
            </Placemark>
            <Placemark id="2237">
                <name>ROSA ELVIRA CASTILLO ENCALADA</name>
                <description>ROSA ELVIRA CASTILLO ENCALADA
AV EL PUENTE SN
Marcavelica
Marcavelica
Piura
Perú</description>
                <styleUrl>#2238</styleUrl>
                <Point id="2236">
                    <coordinates>-80.7259245,-4.8575504,0.0</coordinates>
                </Point>
            </Placemark>
            <Placemark id="2242">
                <name>VALLADARES CARRASCO ROSAURA</name>
                <description>CA.LA QUINTA SN MALLARITO
Marcavelica
Marcavelica
Piura
Perú</description>
                <styleUrl>#2243</styleUrl>
                <Point id="2241">
                    <coordinates>-80.7255779,-4.8560366,0.0</coordinates>
                </Point>
            </Placemark>
            <Placemark id="2247">
                <name>TERESITA VELASQUEZ PURIZACA</name>
                <description>La quinta
Marcavelica
Marcavelica
Piura
Perú</description>
                <styleUrl>#2248</styleUrl>
                <Point id="2246">
                    <coordinates>-80.7253552,-4.8546622,0.0</coordinates>
                </Point>
            </Placemark>
            <Placemark id="2252">
                <name>SANDOVAL DE OJEDA SANTOS</name>
                <description>R.CASTILLA 138 MALLARITOS
Marcavelica
Marcavelica
Piura
Perú</description>
                <styleUrl>#2253</styleUrl>
                <Point id="2251">
                    <coordinates>-80.7185688,-4.8708361,0.0</coordinates>
                </Point>
            </Placemark>
            <Placemark id="2257">
                <name>MAURICIO CASTRO SOFIA M.</name>
                <description>CA.SAN MIGUEL 123 MALLARITOS
Marcavelica
Marcavelica
Piura
Perú</description>
                <styleUrl>#2258</styleUrl>
                <Point id="2256">
                    <coordinates>-80.7181154,-4.8713635,0.0</coordinates>
                </Point>
            </Placemark>
            <Placemark id="2262">
                <name>LUZMARINA SANCHEZ SANCHEZ</name>
                <description>PANAMERIC NÂ¬117 MALLARITOS
Marcavelica
Marcavelica
Piura
Perú</description>
                <styleUrl>#2263</styleUrl>
                <Point id="2261">
                    <coordinates>-80.7160441,-4.8709385,0.0</coordinates>
                </Point>
            </Placemark>
        </Folder>
    </Document>
</kml>
