<?xml version="1.0" encoding="UTF-8"?>
<kml xmlns="http://www.opengis.net/kml/2.2" xmlns:gx="http://www.google.com/kml/ext/2.2">
    <Document id="1421">
        <Folder id="1422">
            <Style id="1425">
                <IconStyle id="1426">
                    <color>ff0000ff</color>
                    <colorMode>normal</colorMode>
                    <scale>1</scale>
                    <heading>0</heading>
                    <Icon id="1427">
                        <href>http://maps.google.com/mapfiles/kml/pushpin/ylw-pushpin.png</href>
                    </Icon>
                </IconStyle>
            </Style>
            <Style id="1430">
                <IconStyle id="1431">
                    <color>ff0000ff</color>
                    <colorMode>normal</colorMode>
                    <scale>1</scale>
                    <heading>0</heading>
                    <Icon id="1432">
                        <href>http://maps.google.com/mapfiles/kml/pushpin/ylw-pushpin.png</href>
                    </Icon>
                </IconStyle>
            </Style>
            <Style id="1435">
                <IconStyle id="1436">
                    <color>ff0000ff</color>
                    <colorMode>normal</colorMode>
                    <scale>1</scale>
                    <heading>0</heading>
                    <Icon id="1437">
                        <href>http://maps.google.com/mapfiles/kml/pushpin/ylw-pushpin.png</href>
                    </Icon>
                </IconStyle>
            </Style>
            <Style id="1440">
                <IconStyle id="1441">
                    <color>ff0000ff</color>
                    <colorMode>normal</colorMode>
                    <scale>1</scale>
                    <heading>0</heading>
                    <Icon id="1442">
                        <href>http://maps.google.com/mapfiles/kml/pushpin/ylw-pushpin.png</href>
                    </Icon>
                </IconStyle>
            </Style>
            <Style id="1445">
                <IconStyle id="1446">
                    <color>ff0000ff</color>
                    <colorMode>normal</colorMode>
                    <scale>1</scale>
                    <heading>0</heading>
                    <Icon id="1447">
                        <href>http://maps.google.com/mapfiles/kml/pushpin/ylw-pushpin.png</href>
                    </Icon>
                </IconStyle>
            </Style>
            <Style id="1450">
                <IconStyle id="1451">
                    <color>ff0000ff</color>
                    <colorMode>normal</colorMode>
                    <scale>1</scale>
                    <heading>0</heading>
                    <Icon id="1452">
                        <href>http://maps.google.com/mapfiles/kml/pushpin/ylw-pushpin.png</href>
                    </Icon>
                </IconStyle>
            </Style>
            <Style id="1455">
                <IconStyle id="1456">
                    <color>ff0000ff</color>
                    <colorMode>normal</colorMode>
                    <scale>1</scale>
                    <heading>0</heading>
                    <Icon id="1457">
                        <href>http://maps.google.com/mapfiles/kml/pushpin/ylw-pushpin.png</href>
                    </Icon>
                </IconStyle>
            </Style>
            <Style id="1460">
                <IconStyle id="1461">
                    <color>ff0000ff</color>
                    <colorMode>normal</colorMode>
                    <scale>1</scale>
                    <heading>0</heading>
                    <Icon id="1462">
                        <href>http://maps.google.com/mapfiles/kml/pushpin/ylw-pushpin.png</href>
                    </Icon>
                </IconStyle>
            </Style>
            <Style id="1465">
                <IconStyle id="1466">
                    <color>ff0000ff</color>
                    <colorMode>normal</colorMode>
                    <scale>1</scale>
                    <heading>0</heading>
                    <Icon id="1467">
                        <href>http://maps.google.com/mapfiles/kml/pushpin/ylw-pushpin.png</href>
                    </Icon>
                </IconStyle>
            </Style>
            <Style id="1470">
                <IconStyle id="1471">
                    <color>ff0000ff</color>
                    <colorMode>normal</colorMode>
                    <scale>1</scale>
                    <heading>0</heading>
                    <Icon id="1472">
                        <href>http://maps.google.com/mapfiles/kml/pushpin/ylw-pushpin.png</href>
                    </Icon>
                </IconStyle>
            </Style>
            <Style id="1475">
                <IconStyle id="1476">
                    <color>ff0000ff</color>
                    <colorMode>normal</colorMode>
                    <scale>1</scale>
                    <heading>0</heading>
                    <Icon id="1477">
                        <href>http://maps.google.com/mapfiles/kml/pushpin/ylw-pushpin.png</href>
                    </Icon>
                </IconStyle>
            </Style>
            <Style id="1480">
                <IconStyle id="1481">
                    <color>ff0000ff</color>
                    <colorMode>normal</colorMode>
                    <scale>1</scale>
                    <heading>0</heading>
                    <Icon id="1482">
                        <href>http://maps.google.com/mapfiles/kml/pushpin/ylw-pushpin.png</href>
                    </Icon>
                </IconStyle>
            </Style>
            <Style id="1485">
                <IconStyle id="1486">
                    <color>ff0000ff</color>
                    <colorMode>normal</colorMode>
                    <scale>1</scale>
                    <heading>0</heading>
                    <Icon id="1487">
                        <href>http://maps.google.com/mapfiles/kml/pushpin/ylw-pushpin.png</href>
                    </Icon>
                </IconStyle>
            </Style>
            <Style id="1490">
                <IconStyle id="1491">
                    <color>ff0000ff</color>
                    <colorMode>normal</colorMode>
                    <scale>1</scale>
                    <heading>0</heading>
                    <Icon id="1492">
                        <href>http://maps.google.com/mapfiles/kml/pushpin/ylw-pushpin.png</href>
                    </Icon>
                </IconStyle>
            </Style>
            <Style id="1495">
                <IconStyle id="1496">
                    <color>ff0000ff</color>
                    <colorMode>normal</colorMode>
                    <scale>1</scale>
                    <heading>0</heading>
                    <Icon id="1497">
                        <href>http://maps.google.com/mapfiles/kml/pushpin/ylw-pushpin.png</href>
                    </Icon>
                </IconStyle>
            </Style>
            <Style id="1500">
                <IconStyle id="1501">
                    <color>ff0000ff</color>
                    <colorMode>normal</colorMode>
                    <scale>1</scale>
                    <heading>0</heading>
                    <Icon id="1502">
                        <href>http://maps.google.com/mapfiles/kml/pushpin/ylw-pushpin.png</href>
                    </Icon>
                </IconStyle>
            </Style>
            <Style id="1505">
                <IconStyle id="1506">
                    <color>ff0000ff</color>
                    <colorMode>normal</colorMode>
                    <scale>1</scale>
                    <heading>0</heading>
                    <Icon id="1507">
                        <href>http://maps.google.com/mapfiles/kml/pushpin/ylw-pushpin.png</href>
                    </Icon>
                </IconStyle>
            </Style>
            <Style id="1510">
                <IconStyle id="1511">
                    <color>ff0000ff</color>
                    <colorMode>normal</colorMode>
                    <scale>1</scale>
                    <heading>0</heading>
                    <Icon id="1512">
                        <href>http://maps.google.com/mapfiles/kml/pushpin/ylw-pushpin.png</href>
                    </Icon>
                </IconStyle>
            </Style>
            <Style id="1515">
                <IconStyle id="1516">
                    <color>ff0000ff</color>
                    <colorMode>normal</colorMode>
                    <scale>1</scale>
                    <heading>0</heading>
                    <Icon id="1517">
                        <href>http://maps.google.com/mapfiles/kml/pushpin/ylw-pushpin.png</href>
                    </Icon>
                </IconStyle>
            </Style>
            <Style id="1520">
                <IconStyle id="1521">
                    <color>ff0000ff</color>
                    <colorMode>normal</colorMode>
                    <scale>1</scale>
                    <heading>0</heading>
                    <Icon id="1522">
                        <href>http://maps.google.com/mapfiles/kml/pushpin/ylw-pushpin.png</href>
                    </Icon>
                </IconStyle>
            </Style>
            <Style id="1525">
                <IconStyle id="1526">
                    <color>ff0000ff</color>
                    <colorMode>normal</colorMode>
                    <scale>1</scale>
                    <heading>0</heading>
                    <Icon id="1527">
                        <href>http://maps.google.com/mapfiles/kml/pushpin/ylw-pushpin.png</href>
                    </Icon>
                </IconStyle>
            </Style>
            <Style id="1530">
                <IconStyle id="1531">
                    <color>ff0000ff</color>
                    <colorMode>normal</colorMode>
                    <scale>1</scale>
                    <heading>0</heading>
                    <Icon id="1532">
                        <href>http://maps.google.com/mapfiles/kml/pushpin/ylw-pushpin.png</href>
                    </Icon>
                </IconStyle>
            </Style>
            <Style id="1535">
                <IconStyle id="1536">
                    <color>ff0000ff</color>
                    <colorMode>normal</colorMode>
                    <scale>1</scale>
                    <heading>0</heading>
                    <Icon id="1537">
                        <href>http://maps.google.com/mapfiles/kml/pushpin/ylw-pushpin.png</href>
                    </Icon>
                </IconStyle>
            </Style>
            <Style id="1540">
                <IconStyle id="1541">
                    <color>ff0000ff</color>
                    <colorMode>normal</colorMode>
                    <scale>1</scale>
                    <heading>0</heading>
                    <Icon id="1542">
                        <href>http://maps.google.com/mapfiles/kml/pushpin/ylw-pushpin.png</href>
                    </Icon>
                </IconStyle>
            </Style>
            <Style id="1545">
                <IconStyle id="1546">
                    <color>ff0000ff</color>
                    <colorMode>normal</colorMode>
                    <scale>1</scale>
                    <heading>0</heading>
                    <Icon id="1547">
                        <href>http://maps.google.com/mapfiles/kml/pushpin/ylw-pushpin.png</href>
                    </Icon>
                </IconStyle>
            </Style>
            <Style id="1550">
                <IconStyle id="1551">
                    <color>ff0000ff</color>
                    <colorMode>normal</colorMode>
                    <scale>1</scale>
                    <heading>0</heading>
                    <Icon id="1552">
                        <href>http://maps.google.com/mapfiles/kml/pushpin/ylw-pushpin.png</href>
                    </Icon>
                </IconStyle>
            </Style>
            <Style id="1555">
                <IconStyle id="1556">
                    <color>ff0000ff</color>
                    <colorMode>normal</colorMode>
                    <scale>1</scale>
                    <heading>0</heading>
                    <Icon id="1557">
                        <href>http://maps.google.com/mapfiles/kml/pushpin/ylw-pushpin.png</href>
                    </Icon>
                </IconStyle>
            </Style>
            <Style id="1560">
                <IconStyle id="1561">
                    <color>ff0000ff</color>
                    <colorMode>normal</colorMode>
                    <scale>1</scale>
                    <heading>0</heading>
                    <Icon id="1562">
                        <href>http://maps.google.com/mapfiles/kml/pushpin/ylw-pushpin.png</href>
                    </Icon>
                </IconStyle>
            </Style>
            <Style id="1565">
                <IconStyle id="1566">
                    <color>ff0000ff</color>
                    <colorMode>normal</colorMode>
                    <scale>1</scale>
                    <heading>0</heading>
                    <Icon id="1567">
                        <href>http://maps.google.com/mapfiles/kml/pushpin/ylw-pushpin.png</href>
                    </Icon>
                </IconStyle>
            </Style>
            <Style id="1570">
                <IconStyle id="1571">
                    <color>ff0000ff</color>
                    <colorMode>normal</colorMode>
                    <scale>1</scale>
                    <heading>0</heading>
                    <Icon id="1572">
                        <href>http://maps.google.com/mapfiles/kml/pushpin/ylw-pushpin.png</href>
                    </Icon>
                </IconStyle>
            </Style>
            <Style id="1575">
                <IconStyle id="1576">
                    <color>ff0000ff</color>
                    <colorMode>normal</colorMode>
                    <scale>1</scale>
                    <heading>0</heading>
                    <Icon id="1577">
                        <href>http://maps.google.com/mapfiles/kml/pushpin/ylw-pushpin.png</href>
                    </Icon>
                </IconStyle>
            </Style>
            <Style id="1580">
                <IconStyle id="1581">
                    <color>ff0000ff</color>
                    <colorMode>normal</colorMode>
                    <scale>1</scale>
                    <heading>0</heading>
                    <Icon id="1582">
                        <href>http://maps.google.com/mapfiles/kml/pushpin/ylw-pushpin.png</href>
                    </Icon>
                </IconStyle>
            </Style>
            <Style id="1585">
                <IconStyle id="1586">
                    <color>ff0000ff</color>
                    <colorMode>normal</colorMode>
                    <scale>1</scale>
                    <heading>0</heading>
                    <Icon id="1587">
                        <href>http://maps.google.com/mapfiles/kml/pushpin/ylw-pushpin.png</href>
                    </Icon>
                </IconStyle>
            </Style>
            <Style id="1590">
                <IconStyle id="1591">
                    <color>ff0000ff</color>
                    <colorMode>normal</colorMode>
                    <scale>1</scale>
                    <heading>0</heading>
                    <Icon id="1592">
                        <href>http://maps.google.com/mapfiles/kml/pushpin/ylw-pushpin.png</href>
                    </Icon>
                </IconStyle>
            </Style>
            <Style id="1595">
                <IconStyle id="1596">
                    <color>ff0000ff</color>
                    <colorMode>normal</colorMode>
                    <scale>1</scale>
                    <heading>0</heading>
                    <Icon id="1597">
                        <href>http://maps.google.com/mapfiles/kml/pushpin/ylw-pushpin.png</href>
                    </Icon>
                </IconStyle>
            </Style>
            <name>JACIEL MOGOLLON ALVARADO</name>
            <Placemark id="1424">
                <name>JUANA VITALICIA QUINTANA SERNAQUE</name>
                <description>CA.BERNARDO ALCEDO 221
Sullana
Sullana
Piura
Perú</description>
                <styleUrl>#1425</styleUrl>
                <Point id="1423">
                    <coordinates>-80.6830872,-4.892073,0.0</coordinates>
                </Point>
            </Placemark>
            <Placemark id="1429">
                <name>ASTUDILLO MAZA LUIS EDGARDO</name>
                <description>CA LA SETENTA S N
Sullana
Sullana
Piura
Perú</description>
                <styleUrl>#1430</styleUrl>
                <Point id="1428">
                    <coordinates>-80.572966,-4.7866982,0.0</coordinates>
                </Point>
            </Placemark>
            <Placemark id="1434">
                <name>YUDITZA VICTORIA RETO NUÑEZ</name>
                <description>Sector Santa Mónica detrás de la antena que está por la clienta Jimenez García felicita carretera zomate bajo
Sullana
Sullana
Piura
Perú</description>
                <styleUrl>#1435</styleUrl>
                <Point id="1433">
                    <coordinates>-80.5187273,-4.7325336,0.0</coordinates>
                </Point>
            </Placemark>
            <Placemark id="1439">
                <name>DUBER HILDEBRANDO QUEVEDO PONCE</name>
                <description>Calle Bernaldo alcedo
Sullana
Sullana
Piura
Perú</description>
                <styleUrl>#1440</styleUrl>
                <Point id="1438">
                    <coordinates>-80.6829911,-4.8918878,0.0</coordinates>
                </Point>
            </Placemark>
            <Placemark id="1444">
                <name>YACKELINE DEL PILAR ABAD GIRON</name>
                <description>CA.PANAMERICANA  S/N
Sullana
Sullana
Piura
Perú</description>
                <styleUrl>#1445</styleUrl>
                <Point id="1443">
                    <coordinates>-80.5707643,-4.7900189,0.0</coordinates>
                </Point>
            </Placemark>
            <Placemark id="1449">
                <name>Ana castro juarez</name>
                <description>Panamericana chalacala baja
Sullana
Sullana
Piura
Perú</description>
                <styleUrl>#1450</styleUrl>
                <Point id="1448">
                    <coordinates>-80.5714841,-4.7913209,0.0</coordinates>
                </Point>
            </Placemark>
            <Placemark id="1454">
                <name>ASTUDILLO MAZA LUIS EDGARDO</name>
                <description>CA LA SETENTA S N
Sullana
Sullana
Piura
Perú</description>
                <styleUrl>#1455</styleUrl>
                <Point id="1453">
                    <coordinates>-80.572966,-4.7866982,0.0</coordinates>
                </Point>
            </Placemark>
            <Placemark id="1459">
                <name>PALACIOS CHIQUIHUANGA O</name>
                <description>AV.PANAMERICANA SN CHALACALA B
Sullana
Sullana
Piura
Perú</description>
                <styleUrl>#1460</styleUrl>
                <Point id="1458">
                    <coordinates>-80.571182,-4.789898,0.0</coordinates>
                </Point>
            </Placemark>
            <Placemark id="1464">
                <name>ROSA VIRGINIA SEVERINO CANALES</name>
                <description>Av las mercedes somate bajo
Bellavista
Bellavista
Piura
Perú</description>
                <styleUrl>#1465</styleUrl>
                <Point id="1463">
                    <coordinates>-80.5353325,-4.74537,0.0</coordinates>
                </Point>
            </Placemark>
            <Placemark id="1469">
                <name>SANDOVAL ZAPATA DEYSI EDITH</name>
                <description>CA.SOMATE BAJO S/N
Sullana
Sullana
Piura
Perú</description>
                <styleUrl>#1470</styleUrl>
                <Point id="1468">
                    <coordinates>-80.5318111,-4.7454359,0.0</coordinates>
                </Point>
            </Placemark>
            <Placemark id="1474">
                <name>CARREÑO FLORES ROSA</name>
                <description>CA.C.LEIGH S/N SOMATE BAJO
Sullana
Sullana
Piura
Perú</description>
                <styleUrl>#1475</styleUrl>
                <Point id="1473">
                    <coordinates>-80.5316053,-4.7453033,0.0</coordinates>
                </Point>
            </Placemark>
            <Placemark id="1479">
                <name>GLICERIA HUACCHILLO PEÑA</name>
                <description>Av Carlos ligh Somate bajo
Sullana
Sullana
Piura
Perú</description>
                <styleUrl>#1480</styleUrl>
                <Point id="1478">
                    <coordinates>-80.532426,-4.7447744,0.0</coordinates>
                </Point>
            </Placemark>
            <Placemark id="1484">
                <name>MILTON AVILA JARAMILLO</name>
                <description>Av las Mercedes somate bajo
Sullana
Sullana
Piura
Perú</description>
                <styleUrl>#1485</styleUrl>
                <Point id="1483">
                    <coordinates>-80.5328239,-4.7435379,0.0</coordinates>
                </Point>
            </Placemark>
            <Placemark id="1489">
                <name>HUAMAN QUISPE FLOR DE LINDA</name>
                <description>CAS. SOMATE BAJO
Sullana
Sullana
Piura
Perú</description>
                <styleUrl>#1490</styleUrl>
                <Point id="1488">
                    <coordinates>-80.5299124,-4.7413008,0.0</coordinates>
                </Point>
            </Placemark>
            <Placemark id="1494">
                <name>SULLON MENDOZA CINTHIA MARIBEL</name>
                <description>CALLE LAS MERCEDES SOMATE BAJO
Sullana
Sullana
Piura
Perú</description>
                <styleUrl>#1495</styleUrl>
                <Point id="1493">
                    <coordinates>-80.5295685,-4.7403753,0.0</coordinates>
                </Point>
            </Placemark>
            <Placemark id="1499">
                <name>SULLON MENDOZA CINTHIA MARIBEL</name>
                <description>CALLE LAS MERCEDES SOMATE BAJO
Sullana
Sullana
Piura
Perú</description>
                <styleUrl>#1500</styleUrl>
                <Point id="1498">
                    <coordinates>-80.5295685,-4.7403753,0.0</coordinates>
                </Point>
            </Placemark>
            <Placemark id="1504">
                <name>JONATHAN ALEXIS CRUZ SOTO</name>
                <description>Av las Mercedes al costado de la señor Antonio Ojeda  somate bajo
Sullana

Piura
Perú</description>
                <styleUrl>#1505</styleUrl>
                <Point id="1503">
                    <coordinates>-80.5286406,-4.7388821,0.0</coordinates>
                </Point>
            </Placemark>
            <Placemark id="1509">
                <name>MARIA DOLORES ALVARES GUERRERO</name>
                <description>Carretera latina avenida las Mercedez San Jorge somate bajo
Sullana
Sullana
Piura
Perú</description>
                <styleUrl>#1510</styleUrl>
                <Point id="1508">
                    <coordinates>-80.5237912,-4.7357744,0.0</coordinates>
                </Point>
            </Placemark>
            <Placemark id="1514">
                <name>DELFINA MARGOT RAMIREZ OLAYA</name>
                <description>Sector San Jorge al costado de colegio
Sullana
Sullana
Piura
Perú</description>
                <styleUrl>#1515</styleUrl>
                <Point id="1513">
                    <coordinates>-80.5212403,-4.7343855,0.0</coordinates>
                </Point>
            </Placemark>
            <Placemark id="1519">
                <name>SANDOVAL ZAPATA DEYSI EDITH</name>
                <description>CA.SOMATE BAJO S/N
Sullana
Sullana
Piura
Perú</description>
                <styleUrl>#1520</styleUrl>
                <Point id="1518">
                    <coordinates>-80.5318111,-4.7454359,0.0</coordinates>
                </Point>
            </Placemark>
            <Placemark id="1524">
                <name>GUTIERREZ DOMINGUEZ MARISELLA</name>
                <description>CA.SOMATE BAJO S/N
Sullana
Sullana
Piura
Perú</description>
                <styleUrl>#1525</styleUrl>
                <Point id="1523">
                    <coordinates>-80.5235281,-4.7352619,0.0</coordinates>
                </Point>
            </Placemark>
            <Placemark id="1529">
                <name>RODRIGUEZ RODRIGUEZ JOSEFA</name>
                <description>CA.SOMATE BAJO SAN JORGE
Sullana
Sullana
Piura
Perú</description>
                <styleUrl>#1530</styleUrl>
                <Point id="1528">
                    <coordinates>-80.5214344,-4.7327006,0.0</coordinates>
                </Point>
            </Placemark>
            <Placemark id="1534">
                <name>Maria del Pilar Mena cruz</name>
                <description>Caserio chilaco sur
Sullana
Sullana
Piura
Perú</description>
                <styleUrl>#1535</styleUrl>
                <Point id="1533">
                    <coordinates>-80.5049114,-4.7073766,0.0</coordinates>
                </Point>
            </Placemark>
            <Placemark id="1539">
                <name>SILVA PRADO MARIA SANTOS</name>
                <description>CA.CHILACO SUR S/N CAS CHILACO
Sullana
Sullana
Piura
Perú</description>
                <styleUrl>#1540</styleUrl>
                <Point id="1538">
                    <coordinates>-80.4964222,-4.7022741,0.0</coordinates>
                </Point>
            </Placemark>
            <Placemark id="1544">
                <name>JUANA ANDREA ZAPATA CAMACHO</name>
                <description>CHILACO S/N-SULLANA-SULLANA
Sullana
Sullana
Piura
Perú</description>
                <styleUrl>#1545</styleUrl>
                <Point id="1543">
                    <coordinates>-80.4964383,-4.7012371,0.0</coordinates>
                </Point>
            </Placemark>
            <Placemark id="1549">
                <name>JANNINA JOSVINDA CASTILLO TORRES</name>
                <description>CASERIO CHILACO PELADOS S/N SULLANA-SULLANA
Sullana

Piura
Perú</description>
                <styleUrl>#1550</styleUrl>
                <Point id="1548">
                    <coordinates>-80.492244,-4.701278,0.0</coordinates>
                </Point>
            </Placemark>
            <Placemark id="1554">
                <name>ELENA ARCELA SALES</name>
                <description>PUENTE CHILACO PELADOS
Sullana
Sullana
Piura
Perú</description>
                <styleUrl>#1555</styleUrl>
                <Point id="1553">
                    <coordinates>-80.4962068,-4.7024601,0.0</coordinates>
                </Point>
            </Placemark>
            <Placemark id="1559">
                <name>CESAR AUGUSTO FLORES VALDIVIEZO</name>
                <description>CHILACO SUR S/N SULLANA-SULLANA
Sullana
Sullana
Piura
Perú</description>
                <styleUrl>#1560</styleUrl>
                <Point id="1558">
                    <coordinates>-80.4964181,-4.7019653,0.0</coordinates>
                </Point>
            </Placemark>
            <Placemark id="1564">
                <name>HURTADO NUÑEZ NOELIA PAOLA.</name>
                <description>CHILACOPELADOS
Sullana
Sullana
Piura
Perú</description>
                <styleUrl>#1565</styleUrl>
                <Point id="1563">
                    <coordinates>-80.4901151,-4.7015204,0.0</coordinates>
                </Point>
            </Placemark>
            <Placemark id="1569">
                <name>KAREN FIORELLA NUÑEZ VILLAREYES</name>
                <description>Chilaco pelados
Sullana
Sullana
Piura
Perú</description>
                <styleUrl>#1570</styleUrl>
                <Point id="1568">
                    <coordinates>-80.490246,-4.7011676,0.0</coordinates>
                </Point>
            </Placemark>
            <Placemark id="1574">
                <name>GISELA NUÑEZ TORRES</name>
                <description>Chilaco pelados por la cancha
Sullana
Sullana
Piura
Perú</description>
                <styleUrl>#1575</styleUrl>
                <Point id="1573">
                    <coordinates>-80.4898157,-4.7015355,0.0</coordinates>
                </Point>
            </Placemark>
            <Placemark id="1579">
                <name>BYMSHOP SOCIEDAD ANONIMA CERRADA, C.P. El Cucho</name>
                <description>BYMSHOP SOCIEDAD ANONIMA CERRADA
Carretera Bellavista Huangala - Sullana
Bellavista
Bellavista
Piura
Perú</description>
                <styleUrl>#1580</styleUrl>
                <Point id="1578">
                    <coordinates>-80.6535032,-4.8679435,0.0</coordinates>
                </Point>
            </Placemark>
            <Placemark id="1584">
                <name>JUANA YSABEL JIMENEZ DELGADO</name>
                <description>CARRETERA LATINA S/N CP EL CUCHO CASTILLA-PIURA
Sullana
Sullana
Piura
Perú</description>
                <styleUrl>#1585</styleUrl>
                <Point id="1583">
                    <coordinates>-80.654816,-4.8682159,0.0</coordinates>
                </Point>
            </Placemark>
            <Placemark id="1589">
                <name>JESUS FELIPE PLASENCIA REGALADO</name>
                <description>MERCADO MAYORISTA CEBOLLERO
Sullana
Sullana
Piura
Perú</description>
                <styleUrl>#1590</styleUrl>
                <Point id="1588">
                    <coordinates>-80.6794409,-4.9130793,0.0</coordinates>
                </Point>
            </Placemark>
            <Placemark id="1594">
                <name>JESUS FELIPE PLASENCIA REGALADO</name>
                <description>MERCADO MAYORISTA CEBOLLERO
Sullana
Sullana
Piura
Perú</description>
                <styleUrl>#1595</styleUrl>
                <Point id="1593">
                    <coordinates>-80.6794409,-4.9130793,0.0</coordinates>
                </Point>
            </Placemark>
        </Folder>
    </Document>
</kml>
