<?xml version="1.0" encoding="UTF-8"?>
<kml xmlns="http://www.opengis.net/kml/2.2" xmlns:gx="http://www.google.com/kml/ext/2.2">
    <Document id="1299">
        <Folder id="1300">
            <Style id="1303">
                <IconStyle id="1304">
                    <color>ff0000ff</color>
                    <colorMode>normal</colorMode>
                    <scale>1</scale>
                    <heading>0</heading>
                    <Icon id="1305">
                        <href>http://maps.google.com/mapfiles/kml/pushpin/ylw-pushpin.png</href>
                    </Icon>
                </IconStyle>
            </Style>
            <Style id="1308">
                <IconStyle id="1309">
                    <color>ff0000ff</color>
                    <colorMode>normal</colorMode>
                    <scale>1</scale>
                    <heading>0</heading>
                    <Icon id="1310">
                        <href>http://maps.google.com/mapfiles/kml/pushpin/ylw-pushpin.png</href>
                    </Icon>
                </IconStyle>
            </Style>
            <Style id="1313">
                <IconStyle id="1314">
                    <color>ff0000ff</color>
                    <colorMode>normal</colorMode>
                    <scale>1</scale>
                    <heading>0</heading>
                    <Icon id="1315">
                        <href>http://maps.google.com/mapfiles/kml/pushpin/ylw-pushpin.png</href>
                    </Icon>
                </IconStyle>
            </Style>
            <Style id="1318">
                <IconStyle id="1319">
                    <color>ff0000ff</color>
                    <colorMode>normal</colorMode>
                    <scale>1</scale>
                    <heading>0</heading>
                    <Icon id="1320">
                        <href>http://maps.google.com/mapfiles/kml/pushpin/ylw-pushpin.png</href>
                    </Icon>
                </IconStyle>
            </Style>
            <Style id="1323">
                <IconStyle id="1324">
                    <color>ff0000ff</color>
                    <colorMode>normal</colorMode>
                    <scale>1</scale>
                    <heading>0</heading>
                    <Icon id="1325">
                        <href>http://maps.google.com/mapfiles/kml/pushpin/ylw-pushpin.png</href>
                    </Icon>
                </IconStyle>
            </Style>
            <Style id="1328">
                <IconStyle id="1329">
                    <color>ff0000ff</color>
                    <colorMode>normal</colorMode>
                    <scale>1</scale>
                    <heading>0</heading>
                    <Icon id="1330">
                        <href>http://maps.google.com/mapfiles/kml/pushpin/ylw-pushpin.png</href>
                    </Icon>
                </IconStyle>
            </Style>
            <Style id="1333">
                <IconStyle id="1334">
                    <color>ff0000ff</color>
                    <colorMode>normal</colorMode>
                    <scale>1</scale>
                    <heading>0</heading>
                    <Icon id="1335">
                        <href>http://maps.google.com/mapfiles/kml/pushpin/ylw-pushpin.png</href>
                    </Icon>
                </IconStyle>
            </Style>
            <Style id="1338">
                <IconStyle id="1339">
                    <color>ff0000ff</color>
                    <colorMode>normal</colorMode>
                    <scale>1</scale>
                    <heading>0</heading>
                    <Icon id="1340">
                        <href>http://maps.google.com/mapfiles/kml/pushpin/ylw-pushpin.png</href>
                    </Icon>
                </IconStyle>
            </Style>
            <Style id="1343">
                <IconStyle id="1344">
                    <color>ff0000ff</color>
                    <colorMode>normal</colorMode>
                    <scale>1</scale>
                    <heading>0</heading>
                    <Icon id="1345">
                        <href>http://maps.google.com/mapfiles/kml/pushpin/ylw-pushpin.png</href>
                    </Icon>
                </IconStyle>
            </Style>
            <Style id="1348">
                <IconStyle id="1349">
                    <color>ff0000ff</color>
                    <colorMode>normal</colorMode>
                    <scale>1</scale>
                    <heading>0</heading>
                    <Icon id="1350">
                        <href>http://maps.google.com/mapfiles/kml/pushpin/ylw-pushpin.png</href>
                    </Icon>
                </IconStyle>
            </Style>
            <Style id="1353">
                <IconStyle id="1354">
                    <color>ff0000ff</color>
                    <colorMode>normal</colorMode>
                    <scale>1</scale>
                    <heading>0</heading>
                    <Icon id="1355">
                        <href>http://maps.google.com/mapfiles/kml/pushpin/ylw-pushpin.png</href>
                    </Icon>
                </IconStyle>
            </Style>
            <Style id="1358">
                <IconStyle id="1359">
                    <color>ff0000ff</color>
                    <colorMode>normal</colorMode>
                    <scale>1</scale>
                    <heading>0</heading>
                    <Icon id="1360">
                        <href>http://maps.google.com/mapfiles/kml/pushpin/ylw-pushpin.png</href>
                    </Icon>
                </IconStyle>
            </Style>
            <Style id="1363">
                <IconStyle id="1364">
                    <color>ff0000ff</color>
                    <colorMode>normal</colorMode>
                    <scale>1</scale>
                    <heading>0</heading>
                    <Icon id="1365">
                        <href>http://maps.google.com/mapfiles/kml/pushpin/ylw-pushpin.png</href>
                    </Icon>
                </IconStyle>
            </Style>
            <Style id="1368">
                <IconStyle id="1369">
                    <color>ff0000ff</color>
                    <colorMode>normal</colorMode>
                    <scale>1</scale>
                    <heading>0</heading>
                    <Icon id="1370">
                        <href>http://maps.google.com/mapfiles/kml/pushpin/ylw-pushpin.png</href>
                    </Icon>
                </IconStyle>
            </Style>
            <Style id="1373">
                <IconStyle id="1374">
                    <color>ff0000ff</color>
                    <colorMode>normal</colorMode>
                    <scale>1</scale>
                    <heading>0</heading>
                    <Icon id="1375">
                        <href>http://maps.google.com/mapfiles/kml/pushpin/ylw-pushpin.png</href>
                    </Icon>
                </IconStyle>
            </Style>
            <Style id="1378">
                <IconStyle id="1379">
                    <color>ff0000ff</color>
                    <colorMode>normal</colorMode>
                    <scale>1</scale>
                    <heading>0</heading>
                    <Icon id="1380">
                        <href>http://maps.google.com/mapfiles/kml/pushpin/ylw-pushpin.png</href>
                    </Icon>
                </IconStyle>
            </Style>
            <Style id="1383">
                <IconStyle id="1384">
                    <color>ff0000ff</color>
                    <colorMode>normal</colorMode>
                    <scale>1</scale>
                    <heading>0</heading>
                    <Icon id="1385">
                        <href>http://maps.google.com/mapfiles/kml/pushpin/ylw-pushpin.png</href>
                    </Icon>
                </IconStyle>
            </Style>
            <Style id="1388">
                <IconStyle id="1389">
                    <color>ff0000ff</color>
                    <colorMode>normal</colorMode>
                    <scale>1</scale>
                    <heading>0</heading>
                    <Icon id="1390">
                        <href>http://maps.google.com/mapfiles/kml/pushpin/ylw-pushpin.png</href>
                    </Icon>
                </IconStyle>
            </Style>
            <Style id="1393">
                <IconStyle id="1394">
                    <color>ff0000ff</color>
                    <colorMode>normal</colorMode>
                    <scale>1</scale>
                    <heading>0</heading>
                    <Icon id="1395">
                        <href>http://maps.google.com/mapfiles/kml/pushpin/ylw-pushpin.png</href>
                    </Icon>
                </IconStyle>
            </Style>
            <Style id="1398">
                <IconStyle id="1399">
                    <color>ff0000ff</color>
                    <colorMode>normal</colorMode>
                    <scale>1</scale>
                    <heading>0</heading>
                    <Icon id="1400">
                        <href>http://maps.google.com/mapfiles/kml/pushpin/ylw-pushpin.png</href>
                    </Icon>
                </IconStyle>
            </Style>
            <Style id="1403">
                <IconStyle id="1404">
                    <color>ff0000ff</color>
                    <colorMode>normal</colorMode>
                    <scale>1</scale>
                    <heading>0</heading>
                    <Icon id="1405">
                        <href>http://maps.google.com/mapfiles/kml/pushpin/ylw-pushpin.png</href>
                    </Icon>
                </IconStyle>
            </Style>
            <Style id="1408">
                <IconStyle id="1409">
                    <color>ff0000ff</color>
                    <colorMode>normal</colorMode>
                    <scale>1</scale>
                    <heading>0</heading>
                    <Icon id="1410">
                        <href>http://maps.google.com/mapfiles/kml/pushpin/ylw-pushpin.png</href>
                    </Icon>
                </IconStyle>
            </Style>
            <Style id="1413">
                <IconStyle id="1414">
                    <color>ff0000ff</color>
                    <colorMode>normal</colorMode>
                    <scale>1</scale>
                    <heading>0</heading>
                    <Icon id="1415">
                        <href>http://maps.google.com/mapfiles/kml/pushpin/ylw-pushpin.png</href>
                    </Icon>
                </IconStyle>
            </Style>
            <Style id="1418">
                <IconStyle id="1419">
                    <color>ff0000ff</color>
                    <colorMode>normal</colorMode>
                    <scale>1</scale>
                    <heading>0</heading>
                    <Icon id="1420">
                        <href>http://maps.google.com/mapfiles/kml/pushpin/ylw-pushpin.png</href>
                    </Icon>
                </IconStyle>
            </Style>
            <Style id="1423">
                <IconStyle id="1424">
                    <color>ff0000ff</color>
                    <colorMode>normal</colorMode>
                    <scale>1</scale>
                    <heading>0</heading>
                    <Icon id="1425">
                        <href>http://maps.google.com/mapfiles/kml/pushpin/ylw-pushpin.png</href>
                    </Icon>
                </IconStyle>
            </Style>
            <Style id="1428">
                <IconStyle id="1429">
                    <color>ff0000ff</color>
                    <colorMode>normal</colorMode>
                    <scale>1</scale>
                    <heading>0</heading>
                    <Icon id="1430">
                        <href>http://maps.google.com/mapfiles/kml/pushpin/ylw-pushpin.png</href>
                    </Icon>
                </IconStyle>
            </Style>
            <Style id="1433">
                <IconStyle id="1434">
                    <color>ff0000ff</color>
                    <colorMode>normal</colorMode>
                    <scale>1</scale>
                    <heading>0</heading>
                    <Icon id="1435">
                        <href>http://maps.google.com/mapfiles/kml/pushpin/ylw-pushpin.png</href>
                    </Icon>
                </IconStyle>
            </Style>
            <Style id="1438">
                <IconStyle id="1439">
                    <color>ff0000ff</color>
                    <colorMode>normal</colorMode>
                    <scale>1</scale>
                    <heading>0</heading>
                    <Icon id="1440">
                        <href>http://maps.google.com/mapfiles/kml/pushpin/ylw-pushpin.png</href>
                    </Icon>
                </IconStyle>
            </Style>
            <Style id="1443">
                <IconStyle id="1444">
                    <color>ff0000ff</color>
                    <colorMode>normal</colorMode>
                    <scale>1</scale>
                    <heading>0</heading>
                    <Icon id="1445">
                        <href>http://maps.google.com/mapfiles/kml/pushpin/ylw-pushpin.png</href>
                    </Icon>
                </IconStyle>
            </Style>
            <Style id="1448">
                <IconStyle id="1449">
                    <color>ff0000ff</color>
                    <colorMode>normal</colorMode>
                    <scale>1</scale>
                    <heading>0</heading>
                    <Icon id="1450">
                        <href>http://maps.google.com/mapfiles/kml/pushpin/ylw-pushpin.png</href>
                    </Icon>
                </IconStyle>
            </Style>
            <name>WILLIAN ALEJANDRO HERRERA MORAN</name>
            <Placemark id="1302">
                <name>CHAMBA YANAYACO RUBEN YERSON</name>
                <description>CA.CINCO 130
Sullana
Sullana
Piura
Perú</description>
                <styleUrl>#1303</styleUrl>
                <Point id="1301">
                    <coordinates>-80.6823511,-4.8945964,0.0</coordinates>
                </Point>
            </Placemark>
            <Placemark id="1307">
                <name>FIORELLA YACQUELINE VALDEZ PEÑA</name>
                <description>AV BUENOS AIRES MERCADO SULLANA
Sullana
Sullana
Piura
Perú</description>
                <styleUrl>#1308</styleUrl>
                <Point id="1306">
                    <coordinates>-80.6817839,-4.8961652,0.0</coordinates>
                </Point>
            </Placemark>
            <Placemark id="1312">
                <name>MARIA VICTORIA RIVAS VARGAS</name>
                <description>MERCADO SULLANA
Sullana
Sullana
Piura
Perú</description>
                <styleUrl>#1313</styleUrl>
                <Point id="1311">
                    <coordinates>-80.682041,-4.8961139,0.0</coordinates>
                </Point>
            </Placemark>
            <Placemark id="1317">
                <name>MIRTHA CRISANTO CORDOVA DE MORE</name>
                <description>MIRTHA CRISANTO CORDOVA DE MORE
PSTO 106 MCDO BUENOS AIRES
Sullana
Sullana
Piura
Perú</description>
                <styleUrl>#1318</styleUrl>
                <Point id="1316">
                    <coordinates>-80.6823474,-4.8933505,0.0</coordinates>
                </Point>
            </Placemark>
            <Placemark id="1322">
                <name>MARIA VICTORIA RIVAS VARGAS</name>
                <description>MERCADO SULLANA
Sullana
Sullana
Piura
Perú</description>
                <styleUrl>#1323</styleUrl>
                <Point id="1321">
                    <coordinates>-80.682041,-4.8961139,0.0</coordinates>
                </Point>
            </Placemark>
            <Placemark id="1327">
                <name>JULIO CESAR NAVARRO MENA</name>
                <description>Santa cruz 109 - El obrero
Sullana
Sullana
Piura
Perú</description>
                <styleUrl>#1328</styleUrl>
                <Point id="1326">
                    <coordinates>-80.6807487,-4.9056501,0.0</coordinates>
                </Point>
            </Placemark>
            <Placemark id="1332">
                <name>NANCY DEL PERICHE RAMOS DE SANCHEZ</name>
                <description>CA.L.ALBUJAR 350 EL OBRERO
Sullana
Sullana
Piura
Perú</description>
                <styleUrl>#1333</styleUrl>
                <Point id="1331">
                    <coordinates>-80.6821479,-4.9077215,0.0</coordinates>
                </Point>
            </Placemark>
            <Placemark id="1337">
                <name>YARIXA ZAPATA NORES</name>
                <description>YARIXA ZAPATA NORES
CA.LOPEZ ALBUJAR 450 AA. HH EL OBRERO MZ J3 LT.05
Sullana
Sullana
Piura
Perú</description>
                <styleUrl>#1338</styleUrl>
                <Point id="1336">
                    <coordinates>-80.6830227,-4.9078262,0.0</coordinates>
                </Point>
            </Placemark>
            <Placemark id="1342">
                <name>PILAR  PACHERREZ ANASTACIO DE GOMEZ</name>
                <description>PILAR  PACHERREZ ANASTACIO DE GOMEZ
CA. EMILIO ESPINOZA NRO. 307 AA. HHEL OBRERO
Sullana
Sullana
Piura
Perú</description>
                <styleUrl>#1343</styleUrl>
                <Point id="1341">
                    <coordinates>-80.6819381,-4.9094001,0.0</coordinates>
                </Point>
            </Placemark>
            <Placemark id="1347">
                <name>BRENDA TATIANA NAVARRO PALACIOS</name>
                <description>Calle Andrés razuri MZ a lote 01
Sullana
Sullana
Piura
Perú</description>
                <styleUrl>#1348</styleUrl>
                <Point id="1346">
                    <coordinates>-80.6805136,-4.9114854,0.0</coordinates>
                </Point>
            </Placemark>
            <Placemark id="1352">
                <name>DALINDA AURORA OJEDA IZAGUIRRE</name>
                <description>ACALVO PEREZ 600 OBRERO SULLANA-SULLANA
Sullana
Sullana
Piura
Perú</description>
                <styleUrl>#1353</styleUrl>
                <Point id="1351">
                    <coordinates>-80.6831337,-4.9100678,0.0</coordinates>
                </Point>
            </Placemark>
            <Placemark id="1357">
                <name>SANTOS FRANCISCA PEÑA CASTRO</name>
                <description>SANTOS FRANCISCA PEÑA CASTRO
CA. TRISTITIA MZ O LT 14 AH.CESAR VALLEJO-SULLANA
Sullana
Sullana
Piura
Perú</description>
                <styleUrl>#1358</styleUrl>
                <Point id="1356">
                    <coordinates>-80.6833904,-4.9117254,0.0</coordinates>
                </Point>
            </Placemark>
            <Placemark id="1362">
                <name>DEYSI VIERA NAVARRO DE NAVARRO</name>
                <description>NISTITI MZ 0 LT 12 SULLANA-SULLANA
Sullana
Sullana
Piura
Perú</description>
                <styleUrl>#1363</styleUrl>
                <Point id="1361">
                    <coordinates>-80.68335,-4.9116971,0.0</coordinates>
                </Point>
            </Placemark>
            <Placemark id="1367">
                <name>DIANA CAROLINA DEL CASTILLO CORNEJO</name>
                <description>MZ G lote 1 transversal Santiago de chuco obrero
Sullana
Sullana
Piura
Perú</description>
                <styleUrl>#1368</styleUrl>
                <Point id="1366">
                    <coordinates>-80.6846563,-4.9106623,0.0</coordinates>
                </Point>
            </Placemark>
            <Placemark id="1372">
                <name>MARIA ALICIA AVILA SUAREZ</name>
                <description>Calle Ciro Alegría 724 El Obrero
Sullana
Sullana
Piura
Perú</description>
                <styleUrl>#1373</styleUrl>
                <Point id="1371">
                    <coordinates>-80.68409,-4.9086126,0.0</coordinates>
                </Point>
            </Placemark>
            <Placemark id="1377">
                <name>MARIA NAVARRO NOLE</name>
                <description>CA.IGNACIO SANCHEZ MZ-H LT-17 AH.ELOBRERO
Sullana
Sullana
Piura
Perú</description>
                <styleUrl>#1378</styleUrl>
                <Point id="1376">
                    <coordinates>-80.6851721,-4.9095734,0.0</coordinates>
                </Point>
            </Placemark>
            <Placemark id="1382">
                <name>WINDY ESTEFANI VILCHEZ SANDOVAL</name>
                <description>CIRO ALEGRIA MZ B LOTE 22-SULLANA-SULLANA
Sullana
Sullana
Piura
Perú</description>
                <styleUrl>#1383</styleUrl>
                <Point id="1381">
                    <coordinates>-80.686255,-4.909125,0.0</coordinates>
                </Point>
            </Placemark>
            <Placemark id="1387">
                <name>ROSA ELENA CHERO LECARNAQUE</name>
                <description>Calle López albujar 901 el obrero
Sullana
Sullana
Piura
Perú</description>
                <styleUrl>#1388</styleUrl>
                <Point id="1386">
                    <coordinates>-80.686017,-4.9083978,0.0</coordinates>
                </Point>
            </Placemark>
            <Placemark id="1392">
                <name>MARLON ALONSO SEMINARIO ZEGARRA</name>
                <description>Calle Túpac Amaru 610 b
Sullana
Sullana
Piura
Perú</description>
                <styleUrl>#1393</styleUrl>
                <Point id="1391">
                    <coordinates>-80.6842914,-4.9075017,0.0</coordinates>
                </Point>
            </Placemark>
            <Placemark id="1397">
                <name>CARMEN TERESA BARBA DE MARTINEZ</name>
                <description>CA.TUPAC AMARU 600 AA. HH EL OBRERO-SULLANA
Sullana
Sullana
Piura
Perú</description>
                <styleUrl>#1398</styleUrl>
                <Point id="1396">
                    <coordinates>-80.6836055,-4.9073302,0.0</coordinates>
                </Point>
            </Placemark>
            <Placemark id="1402">
                <name>CRISTINA BORRERO</name>
                <description>CA.MARISCAL ORBEGOSO 610 AA. HH EL
Sullana
Sullana
Piura
Perú</description>
                <styleUrl>#1403</styleUrl>
                <Point id="1401">
                    <coordinates>-80.6840661,-4.9067021,0.0</coordinates>
                </Point>
            </Placemark>
            <Placemark id="1407">
                <name>MARTHA VIERA DE GALLO</name>
                <description>CA.MARISCAL ORBEGOSO 801 AA. HH EL Obrero
Sullana
Sullana
Piura
Perú</description>
                <styleUrl>#1408</styleUrl>
                <Point id="1406">
                    <coordinates>-80.6851561,-4.9071107,0.0</coordinates>
                </Point>
            </Placemark>
            <Placemark id="1412">
                <name>MERCEDES MELINA AREVALO GARCIA</name>
                <description>Orbegozo 913 Ah el obrero
Sullana
Sullana
Piura
Perú</description>
                <styleUrl>#1413</styleUrl>
                <Point id="1411">
                    <coordinates>-80.6865493,-4.9073411,0.0</coordinates>
                </Point>
            </Placemark>
            <Placemark id="1417">
                <name>MARIA CHAVEZ ZAPATA</name>
                <description>Santa cruz 905 el obrero
Sullana
Sullana
Piura
Perú</description>
                <styleUrl>#1418</styleUrl>
                <Point id="1416">
                    <coordinates>-80.6864956,-4.9067446,0.0</coordinates>
                </Point>
            </Placemark>
            <Placemark id="1422">
                <name>ORFELINDA QUISPE CHUQUIHUANGA</name>
                <description>ORFELINDA QUISPE CHUQUIHUANGA
CA. SANTA CRUZ 912 AA. HH EL OBRERO- SULLANA
Sullana
Sullana
Piura
Perú</description>
                <styleUrl>#1423</styleUrl>
                <Point id="1421">
                    <coordinates>-80.6869265,-4.9067337,0.0</coordinates>
                </Point>
            </Placemark>
            <Placemark id="1427">
                <name>MILAGROS DEL PILAR SANDOVAL LACHIRA</name>
                <description>CA. FELIX JARAMILLO 935 EL OBRERO
Sullana
Sullana
Piura
Perú</description>
                <styleUrl>#1428</styleUrl>
                <Point id="1426">
                    <coordinates>-80.6877152,-4.9053134,0.0</coordinates>
                </Point>
            </Placemark>
            <Placemark id="1432">
                <name>MENA SUAREZ ROSA</name>
                <description>TOMAS ARELLANO  803 EL OBRERO
Sullana
Sullana
Piura
Perú</description>
                <styleUrl>#1433</styleUrl>
                <Point id="1431">
                    <coordinates>-80.6858221,-4.9049451,0.0</coordinates>
                </Point>
            </Placemark>
            <Placemark id="1437">
                <name>AREVALO CORNEJO MARIA</name>
                <description>CA TORRES ARELLANO 897 AH EL O
Sullana
Sullana
Piura
Perú</description>
                <styleUrl>#1438</styleUrl>
                <Point id="1436">
                    <coordinates>-80.6858557,-4.9051117,0.0</coordinates>
                </Point>
            </Placemark>
            <Placemark id="1442">
                <name>ROCIO ESMIT CORDOVA NAVARRO</name>
                <description>transv Salaverry 416 el obrero
Sullana
Sullana
Piura
Perú</description>
                <styleUrl>#1443</styleUrl>
                <Point id="1441">
                    <coordinates>-80.6832765,-4.9040465,0.0</coordinates>
                </Point>
            </Placemark>
            <Placemark id="1447">
                <name>JIMENEZ CAMPOS ANTONIO</name>
                <description>JIMENEZ CAMPOS ANTONIO
FELIX JARAMILLO 130 EL OBRERO
Sullana
Sullana
Piura
Perú</description>
                <styleUrl>#1448</styleUrl>
                <Point id="1446">
                    <coordinates>-80.6820611,-4.9016018,0.0</coordinates>
                </Point>
            </Placemark>
        </Folder>
    </Document>
</kml>
