<?xml version="1.0" encoding="UTF-8"?>
<kml xmlns="http://www.opengis.net/kml/2.2" xmlns:gx="http://www.google.com/kml/ext/2.2">
    <Document id="2175">
        <Folder id="2176">
            <Style id="2179">
                <IconStyle id="2180">
                    <color>ff0000ff</color>
                    <colorMode>normal</colorMode>
                    <scale>1</scale>
                    <heading>0</heading>
                    <Icon id="2181">
                        <href>http://maps.google.com/mapfiles/kml/pushpin/ylw-pushpin.png</href>
                    </Icon>
                </IconStyle>
            </Style>
            <Style id="2184">
                <IconStyle id="2185">
                    <color>ff0000ff</color>
                    <colorMode>normal</colorMode>
                    <scale>1</scale>
                    <heading>0</heading>
                    <Icon id="2186">
                        <href>http://maps.google.com/mapfiles/kml/pushpin/ylw-pushpin.png</href>
                    </Icon>
                </IconStyle>
            </Style>
            <Style id="2189">
                <IconStyle id="2190">
                    <color>ff0000ff</color>
                    <colorMode>normal</colorMode>
                    <scale>1</scale>
                    <heading>0</heading>
                    <Icon id="2191">
                        <href>http://maps.google.com/mapfiles/kml/pushpin/ylw-pushpin.png</href>
                    </Icon>
                </IconStyle>
            </Style>
            <Style id="2194">
                <IconStyle id="2195">
                    <color>ff0000ff</color>
                    <colorMode>normal</colorMode>
                    <scale>1</scale>
                    <heading>0</heading>
                    <Icon id="2196">
                        <href>http://maps.google.com/mapfiles/kml/pushpin/ylw-pushpin.png</href>
                    </Icon>
                </IconStyle>
            </Style>
            <Style id="2199">
                <IconStyle id="2200">
                    <color>ff0000ff</color>
                    <colorMode>normal</colorMode>
                    <scale>1</scale>
                    <heading>0</heading>
                    <Icon id="2201">
                        <href>http://maps.google.com/mapfiles/kml/pushpin/ylw-pushpin.png</href>
                    </Icon>
                </IconStyle>
            </Style>
            <Style id="2204">
                <IconStyle id="2205">
                    <color>ff0000ff</color>
                    <colorMode>normal</colorMode>
                    <scale>1</scale>
                    <heading>0</heading>
                    <Icon id="2206">
                        <href>http://maps.google.com/mapfiles/kml/pushpin/ylw-pushpin.png</href>
                    </Icon>
                </IconStyle>
            </Style>
            <Style id="2209">
                <IconStyle id="2210">
                    <color>ff0000ff</color>
                    <colorMode>normal</colorMode>
                    <scale>1</scale>
                    <heading>0</heading>
                    <Icon id="2211">
                        <href>http://maps.google.com/mapfiles/kml/pushpin/ylw-pushpin.png</href>
                    </Icon>
                </IconStyle>
            </Style>
            <Style id="2214">
                <IconStyle id="2215">
                    <color>ff0000ff</color>
                    <colorMode>normal</colorMode>
                    <scale>1</scale>
                    <heading>0</heading>
                    <Icon id="2216">
                        <href>http://maps.google.com/mapfiles/kml/pushpin/ylw-pushpin.png</href>
                    </Icon>
                </IconStyle>
            </Style>
            <Style id="2219">
                <IconStyle id="2220">
                    <color>ff0000ff</color>
                    <colorMode>normal</colorMode>
                    <scale>1</scale>
                    <heading>0</heading>
                    <Icon id="2221">
                        <href>http://maps.google.com/mapfiles/kml/pushpin/ylw-pushpin.png</href>
                    </Icon>
                </IconStyle>
            </Style>
            <Style id="2224">
                <IconStyle id="2225">
                    <color>ff0000ff</color>
                    <colorMode>normal</colorMode>
                    <scale>1</scale>
                    <heading>0</heading>
                    <Icon id="2226">
                        <href>http://maps.google.com/mapfiles/kml/pushpin/ylw-pushpin.png</href>
                    </Icon>
                </IconStyle>
            </Style>
            <Style id="2229">
                <IconStyle id="2230">
                    <color>ff0000ff</color>
                    <colorMode>normal</colorMode>
                    <scale>1</scale>
                    <heading>0</heading>
                    <Icon id="2231">
                        <href>http://maps.google.com/mapfiles/kml/pushpin/ylw-pushpin.png</href>
                    </Icon>
                </IconStyle>
            </Style>
            <Style id="2234">
                <IconStyle id="2235">
                    <color>ff0000ff</color>
                    <colorMode>normal</colorMode>
                    <scale>1</scale>
                    <heading>0</heading>
                    <Icon id="2236">
                        <href>http://maps.google.com/mapfiles/kml/pushpin/ylw-pushpin.png</href>
                    </Icon>
                </IconStyle>
            </Style>
            <Style id="2239">
                <IconStyle id="2240">
                    <color>ff0000ff</color>
                    <colorMode>normal</colorMode>
                    <scale>1</scale>
                    <heading>0</heading>
                    <Icon id="2241">
                        <href>http://maps.google.com/mapfiles/kml/pushpin/ylw-pushpin.png</href>
                    </Icon>
                </IconStyle>
            </Style>
            <Style id="2244">
                <IconStyle id="2245">
                    <color>ff0000ff</color>
                    <colorMode>normal</colorMode>
                    <scale>1</scale>
                    <heading>0</heading>
                    <Icon id="2246">
                        <href>http://maps.google.com/mapfiles/kml/pushpin/ylw-pushpin.png</href>
                    </Icon>
                </IconStyle>
            </Style>
            <Style id="2249">
                <IconStyle id="2250">
                    <color>ff0000ff</color>
                    <colorMode>normal</colorMode>
                    <scale>1</scale>
                    <heading>0</heading>
                    <Icon id="2251">
                        <href>http://maps.google.com/mapfiles/kml/pushpin/ylw-pushpin.png</href>
                    </Icon>
                </IconStyle>
            </Style>
            <Style id="2254">
                <IconStyle id="2255">
                    <color>ff0000ff</color>
                    <colorMode>normal</colorMode>
                    <scale>1</scale>
                    <heading>0</heading>
                    <Icon id="2256">
                        <href>http://maps.google.com/mapfiles/kml/pushpin/ylw-pushpin.png</href>
                    </Icon>
                </IconStyle>
            </Style>
            <Style id="2259">
                <IconStyle id="2260">
                    <color>ff0000ff</color>
                    <colorMode>normal</colorMode>
                    <scale>1</scale>
                    <heading>0</heading>
                    <Icon id="2261">
                        <href>http://maps.google.com/mapfiles/kml/pushpin/ylw-pushpin.png</href>
                    </Icon>
                </IconStyle>
            </Style>
            <Style id="2264">
                <IconStyle id="2265">
                    <color>ff0000ff</color>
                    <colorMode>normal</colorMode>
                    <scale>1</scale>
                    <heading>0</heading>
                    <Icon id="2266">
                        <href>http://maps.google.com/mapfiles/kml/pushpin/ylw-pushpin.png</href>
                    </Icon>
                </IconStyle>
            </Style>
            <Style id="2269">
                <IconStyle id="2270">
                    <color>ff0000ff</color>
                    <colorMode>normal</colorMode>
                    <scale>1</scale>
                    <heading>0</heading>
                    <Icon id="2271">
                        <href>http://maps.google.com/mapfiles/kml/pushpin/ylw-pushpin.png</href>
                    </Icon>
                </IconStyle>
            </Style>
            <Style id="2274">
                <IconStyle id="2275">
                    <color>ff0000ff</color>
                    <colorMode>normal</colorMode>
                    <scale>1</scale>
                    <heading>0</heading>
                    <Icon id="2276">
                        <href>http://maps.google.com/mapfiles/kml/pushpin/ylw-pushpin.png</href>
                    </Icon>
                </IconStyle>
            </Style>
            <Style id="2279">
                <IconStyle id="2280">
                    <color>ff0000ff</color>
                    <colorMode>normal</colorMode>
                    <scale>1</scale>
                    <heading>0</heading>
                    <Icon id="2281">
                        <href>http://maps.google.com/mapfiles/kml/pushpin/ylw-pushpin.png</href>
                    </Icon>
                </IconStyle>
            </Style>
            <Style id="2284">
                <IconStyle id="2285">
                    <color>ff0000ff</color>
                    <colorMode>normal</colorMode>
                    <scale>1</scale>
                    <heading>0</heading>
                    <Icon id="2286">
                        <href>http://maps.google.com/mapfiles/kml/pushpin/ylw-pushpin.png</href>
                    </Icon>
                </IconStyle>
            </Style>
            <Style id="2289">
                <IconStyle id="2290">
                    <color>ff0000ff</color>
                    <colorMode>normal</colorMode>
                    <scale>1</scale>
                    <heading>0</heading>
                    <Icon id="2291">
                        <href>http://maps.google.com/mapfiles/kml/pushpin/ylw-pushpin.png</href>
                    </Icon>
                </IconStyle>
            </Style>
            <Style id="2294">
                <IconStyle id="2295">
                    <color>ff0000ff</color>
                    <colorMode>normal</colorMode>
                    <scale>1</scale>
                    <heading>0</heading>
                    <Icon id="2296">
                        <href>http://maps.google.com/mapfiles/kml/pushpin/ylw-pushpin.png</href>
                    </Icon>
                </IconStyle>
            </Style>
            <Style id="2299">
                <IconStyle id="2300">
                    <color>ff0000ff</color>
                    <colorMode>normal</colorMode>
                    <scale>1</scale>
                    <heading>0</heading>
                    <Icon id="2301">
                        <href>http://maps.google.com/mapfiles/kml/pushpin/ylw-pushpin.png</href>
                    </Icon>
                </IconStyle>
            </Style>
            <Style id="2304">
                <IconStyle id="2305">
                    <color>ff0000ff</color>
                    <colorMode>normal</colorMode>
                    <scale>1</scale>
                    <heading>0</heading>
                    <Icon id="2306">
                        <href>http://maps.google.com/mapfiles/kml/pushpin/ylw-pushpin.png</href>
                    </Icon>
                </IconStyle>
            </Style>
            <Style id="2309">
                <IconStyle id="2310">
                    <color>ff0000ff</color>
                    <colorMode>normal</colorMode>
                    <scale>1</scale>
                    <heading>0</heading>
                    <Icon id="2311">
                        <href>http://maps.google.com/mapfiles/kml/pushpin/ylw-pushpin.png</href>
                    </Icon>
                </IconStyle>
            </Style>
            <Style id="2314">
                <IconStyle id="2315">
                    <color>ff0000ff</color>
                    <colorMode>normal</colorMode>
                    <scale>1</scale>
                    <heading>0</heading>
                    <Icon id="2316">
                        <href>http://maps.google.com/mapfiles/kml/pushpin/ylw-pushpin.png</href>
                    </Icon>
                </IconStyle>
            </Style>
            <Style id="2319">
                <IconStyle id="2320">
                    <color>ff0000ff</color>
                    <colorMode>normal</colorMode>
                    <scale>1</scale>
                    <heading>0</heading>
                    <Icon id="2321">
                        <href>http://maps.google.com/mapfiles/kml/pushpin/ylw-pushpin.png</href>
                    </Icon>
                </IconStyle>
            </Style>
            <Style id="2324">
                <IconStyle id="2325">
                    <color>ff0000ff</color>
                    <colorMode>normal</colorMode>
                    <scale>1</scale>
                    <heading>0</heading>
                    <Icon id="2326">
                        <href>http://maps.google.com/mapfiles/kml/pushpin/ylw-pushpin.png</href>
                    </Icon>
                </IconStyle>
            </Style>
            <Style id="2329">
                <IconStyle id="2330">
                    <color>ff0000ff</color>
                    <colorMode>normal</colorMode>
                    <scale>1</scale>
                    <heading>0</heading>
                    <Icon id="2331">
                        <href>http://maps.google.com/mapfiles/kml/pushpin/ylw-pushpin.png</href>
                    </Icon>
                </IconStyle>
            </Style>
            <Style id="2334">
                <IconStyle id="2335">
                    <color>ff0000ff</color>
                    <colorMode>normal</colorMode>
                    <scale>1</scale>
                    <heading>0</heading>
                    <Icon id="2336">
                        <href>http://maps.google.com/mapfiles/kml/pushpin/ylw-pushpin.png</href>
                    </Icon>
                </IconStyle>
            </Style>
            <Style id="2339">
                <IconStyle id="2340">
                    <color>ff0000ff</color>
                    <colorMode>normal</colorMode>
                    <scale>1</scale>
                    <heading>0</heading>
                    <Icon id="2341">
                        <href>http://maps.google.com/mapfiles/kml/pushpin/ylw-pushpin.png</href>
                    </Icon>
                </IconStyle>
            </Style>
            <Style id="2344">
                <IconStyle id="2345">
                    <color>ff0000ff</color>
                    <colorMode>normal</colorMode>
                    <scale>1</scale>
                    <heading>0</heading>
                    <Icon id="2346">
                        <href>http://maps.google.com/mapfiles/kml/pushpin/ylw-pushpin.png</href>
                    </Icon>
                </IconStyle>
            </Style>
            <Style id="2349">
                <IconStyle id="2350">
                    <color>ff0000ff</color>
                    <colorMode>normal</colorMode>
                    <scale>1</scale>
                    <heading>0</heading>
                    <Icon id="2351">
                        <href>http://maps.google.com/mapfiles/kml/pushpin/ylw-pushpin.png</href>
                    </Icon>
                </IconStyle>
            </Style>
            <Style id="2354">
                <IconStyle id="2355">
                    <color>ff0000ff</color>
                    <colorMode>normal</colorMode>
                    <scale>1</scale>
                    <heading>0</heading>
                    <Icon id="2356">
                        <href>http://maps.google.com/mapfiles/kml/pushpin/ylw-pushpin.png</href>
                    </Icon>
                </IconStyle>
            </Style>
            <Style id="2359">
                <IconStyle id="2360">
                    <color>ff0000ff</color>
                    <colorMode>normal</colorMode>
                    <scale>1</scale>
                    <heading>0</heading>
                    <Icon id="2361">
                        <href>http://maps.google.com/mapfiles/kml/pushpin/ylw-pushpin.png</href>
                    </Icon>
                </IconStyle>
            </Style>
            <Style id="2364">
                <IconStyle id="2365">
                    <color>ff0000ff</color>
                    <colorMode>normal</colorMode>
                    <scale>1</scale>
                    <heading>0</heading>
                    <Icon id="2366">
                        <href>http://maps.google.com/mapfiles/kml/pushpin/ylw-pushpin.png</href>
                    </Icon>
                </IconStyle>
            </Style>
            <Style id="2369">
                <IconStyle id="2370">
                    <color>ff0000ff</color>
                    <colorMode>normal</colorMode>
                    <scale>1</scale>
                    <heading>0</heading>
                    <Icon id="2371">
                        <href>http://maps.google.com/mapfiles/kml/pushpin/ylw-pushpin.png</href>
                    </Icon>
                </IconStyle>
            </Style>
            <Style id="2374">
                <IconStyle id="2375">
                    <color>ff0000ff</color>
                    <colorMode>normal</colorMode>
                    <scale>1</scale>
                    <heading>0</heading>
                    <Icon id="2376">
                        <href>http://maps.google.com/mapfiles/kml/pushpin/ylw-pushpin.png</href>
                    </Icon>
                </IconStyle>
            </Style>
            <Style id="2379">
                <IconStyle id="2380">
                    <color>ff0000ff</color>
                    <colorMode>normal</colorMode>
                    <scale>1</scale>
                    <heading>0</heading>
                    <Icon id="2381">
                        <href>http://maps.google.com/mapfiles/kml/pushpin/ylw-pushpin.png</href>
                    </Icon>
                </IconStyle>
            </Style>
            <Style id="2384">
                <IconStyle id="2385">
                    <color>ff0000ff</color>
                    <colorMode>normal</colorMode>
                    <scale>1</scale>
                    <heading>0</heading>
                    <Icon id="2386">
                        <href>http://maps.google.com/mapfiles/kml/pushpin/ylw-pushpin.png</href>
                    </Icon>
                </IconStyle>
            </Style>
            <Style id="2389">
                <IconStyle id="2390">
                    <color>ff0000ff</color>
                    <colorMode>normal</colorMode>
                    <scale>1</scale>
                    <heading>0</heading>
                    <Icon id="2391">
                        <href>http://maps.google.com/mapfiles/kml/pushpin/ylw-pushpin.png</href>
                    </Icon>
                </IconStyle>
            </Style>
            <name>CRISTHIAN ALEXANDER ALVARADO GONZALES</name>
            <Placemark id="2178">
                <name>ANGELITA DEL CARMEN CASTRO MORAN</name>
                <description>ALFONSO UGARTE S/N
Viviate
Viviate
Piura
Perú</description>
                <styleUrl>#2179</styleUrl>
                <Point id="2177">
                    <coordinates>-80.9597847,-4.9148375,0.0</coordinates>
                </Point>
            </Placemark>
            <Placemark id="2183">
                <name>CARLA FABIOLA CRUZ GUERRA</name>
                <description>CALLE MANZANARES S/N VIVIATE
Viviate
Viviate
Piura
Perú</description>
                <styleUrl>#2184</styleUrl>
                <Point id="2182">
                    <coordinates>-80.9286128,-4.9227565,0.0</coordinates>
                </Point>
            </Placemark>
            <Placemark id="2188">
                <name>CURAY DEL ROSARIO CLOTILDE</name>
                <description>CP.NORMA MZ.E LT.150 LA HUACA
Viviate
Viviate
Piura
Perú</description>
                <styleUrl>#2189</styleUrl>
                <Point id="2187">
                    <coordinates>-80.8833819,-4.9144437,0.0</coordinates>
                </Point>
            </Placemark>
            <Placemark id="2193">
                <name>ANGELITA DEL CARMEN CASTRO MORAN</name>
                <description>ALFONSO UGARTE S/N
Viviate
Viviate
Piura
Perú</description>
                <styleUrl>#2194</styleUrl>
                <Point id="2192">
                    <coordinates>-80.9597847,-4.9148375,0.0</coordinates>
                </Point>
            </Placemark>
            <Placemark id="2198">
                <name>JENNY AURORA GUZMAN SEMINARIO</name>
                <description>JR. FERREYROS NÂ°543 - LA HUACA
Viviate
Viviate
Piura
Perú</description>
                <styleUrl>#2199</styleUrl>
                <Point id="2197">
                    <coordinates>-80.9622612,-4.9122119,0.0</coordinates>
                </Point>
            </Placemark>
            <Placemark id="2203">
                <name>KATTY MURIEL VICTORIA PANDURO REYNA</name>
                <description>Calle Ferreyros S/N detrás de mercado
Viviate

Piura
Perú</description>
                <styleUrl>#2204</styleUrl>
                <Point id="2202">
                    <coordinates>-80.9621842,-4.9125049,0.0</coordinates>
                </Point>
            </Placemark>
            <Placemark id="2208">
                <name>MARLENY DEL SOCORRO SOSA ESTRADA</name>
                <description>BOLOGNESI ALTURA DEL TANQUE AGUA POTABLE -HUACA-PAITA
Paita
Paita
Piura
Perú</description>
                <styleUrl>#2209</styleUrl>
                <Point id="2207">
                    <coordinates>-80.9579658,-4.9108617,0.0</coordinates>
                </Point>
            </Placemark>
            <Placemark id="2213">
                <name>ADELAIDA TRELLES FLORES</name>
                <description>CALLE BOLOGNESI 239
Viviate
Viviate
Piura
Perú</description>
                <styleUrl>#2214</styleUrl>
                <Point id="2212">
                    <coordinates>-80.9585372,-4.910991,0.0</coordinates>
                </Point>
            </Placemark>
            <Placemark id="2218">
                <name>ANGELITA ARALY AGUIRRE AGUILAR</name>
                <description>Calle Bolognesi s/n
Viviate
Viviate
Piura
Perú</description>
                <styleUrl>#2219</styleUrl>
                <Point id="2217">
                    <coordinates>-80.9591617,-4.9109017,0.0</coordinates>
                </Point>
            </Placemark>
            <Placemark id="2223">
                <name>CATHERINE DEL CARMEN HERRERA VARGAS</name>
                <description>JR INCLAN 157
Viviate
Viviate
Piura
Perú</description>
                <styleUrl>#2224</styleUrl>
                <Point id="2222">
                    <coordinates>-80.9585709,-4.9115704,0.0</coordinates>
                </Point>
            </Placemark>
            <Placemark id="2228">
                <name>VELMA RAMOS SILVA</name>
                <description>Calle ferrocarril s/n (frente el pio)
Paita
Paita
Piura
Perú</description>
                <styleUrl>#2229</styleUrl>
                <Point id="2227">
                    <coordinates>-80.9568856,-4.9131461,0.0</coordinates>
                </Point>
            </Placemark>
            <Placemark id="2233">
                <name>ANNY ELIZABETH IMAN MENDOZA</name>
                <description>Calle ferrocarril 306 la huaca
Viviate
Viviate
Piura
Perú</description>
                <styleUrl>#2234</styleUrl>
                <Point id="2232">
                    <coordinates>-80.9604976,-4.9134742,0.0</coordinates>
                </Point>
            </Placemark>
            <Placemark id="2238">
                <name>IMAN MENDOZA MARIA LOURDES</name>
                <description>GUILLERMO TALLEDO GYMNASIO
Viviate
Viviate
Piura
Perú</description>
                <styleUrl>#2239</styleUrl>
                <Point id="2237">
                    <coordinates>-80.926827,-4.922643,0.0</coordinates>
                </Point>
            </Placemark>
            <Placemark id="2243">
                <name>MARTHA ESTRADA MARTINEZ</name>
                <description>Av. Alonso prado s/n La huaca
Viviate
Viviate
Piura
Perú</description>
                <styleUrl>#2244</styleUrl>
                <Point id="2242">
                    <coordinates>-80.9609752,-4.913044,0.0</coordinates>
                </Point>
            </Placemark>
            <Placemark id="2248">
                <name>DONNA DEL PILAR CASTILLO RAMIREZ</name>
                <description>Calle Pedro Lara costado del colegio cautivo
Viviate
Viviate
Piura
Perú</description>
                <styleUrl>#2249</styleUrl>
                <Point id="2247">
                    <coordinates>-80.9216119,-4.9234614,0.0</coordinates>
                </Point>
            </Placemark>
            <Placemark id="2253">
                <name>RONALD RADICH MONTERROSO MOGOLLON</name>
                <description>SECTOR CONCHAL CA JOSE AGURTO MZ SLT 4 - 5
Viviate
Viviate
Piura
Perú</description>
                <styleUrl>#2254</styleUrl>
                <Point id="2252">
                    <coordinates>-80.9190319,-4.9219704,0.0</coordinates>
                </Point>
            </Placemark>
            <Placemark id="2258">
                <name>GLADIS NILDA PUCHULAN DE REYES</name>
                <description>VIVIATE PLAZA GRAU LA HUACA PAITA-PIURA
Viviate
Viviate
Piura
Perú</description>
                <styleUrl>#2259</styleUrl>
                <Point id="2257">
                    <coordinates>-80.9221998,-4.9229364,0.0</coordinates>
                </Point>
            </Placemark>
            <Placemark id="2263">
                <name>KELLY DIANA CARRASCO NAVARRO</name>
                <description>CA.UNION MZ J LT 138 BARRIO LA CHIR
Viviate
Viviate
Piura
Perú</description>
                <styleUrl>#2264</styleUrl>
                <Point id="2262">
                    <coordinates>-80.9247595,-4.9240359,0.0</coordinates>
                </Point>
            </Placemark>
            <Placemark id="2268">
                <name>KARYN ADELA CARRASCO NAVARRO</name>
                <description>Calle dora yarleque Lote 06 viviate
Viviate
Viviate
Piura
Perú</description>
                <styleUrl>#2269</styleUrl>
                <Point id="2267">
                    <coordinates>-80.9194599,-4.9229314,0.0</coordinates>
                </Point>
            </Placemark>
            <Placemark id="2273">
                <name>PUCHULAN VERONICA CASTILLO DE</name>
                <description>CA.AMBROSIO CASTRO MZ I LT 20 CP. V
Paita
Paita
Piura
Perú</description>
                <styleUrl>#2274</styleUrl>
                <Point id="2272">
                    <coordinates>-80.92346,-4.923942,0.0</coordinates>
                </Point>
            </Placemark>
            <Placemark id="2278">
                <name>YESICA AZUCENA ROJAS NAVARRO</name>
                <description>SECT. CENTRO SN - VIVIATE (CAL. AMB
Viviate
Viviate
Piura
Perú</description>
                <styleUrl>#2279</styleUrl>
                <Point id="2277">
                    <coordinates>-80.9238165,-4.9248117,0.0</coordinates>
                </Point>
            </Placemark>
            <Placemark id="2283">
                <name>ANALI GARCIA ASTUDILLO</name>
                <description>AMBROSIO CASTRO S/N VIVIATE
Viviate
Viviate
Piura
Perú</description>
                <styleUrl>#2284</styleUrl>
                <Point id="2282">
                    <coordinates>-80.9256663,-4.9242911,0.0</coordinates>
                </Point>
            </Placemark>
            <Placemark id="2288">
                <name>MORAN DE CORONADO BERTHA ELENA</name>
                <description>MORAN DE CORONADO BERTHA ELENA
CAR. PANAMERICANA KM27 CAS. VIVIATE
Viviate
Viviate
Piura
Perú</description>
                <styleUrl>#2289</styleUrl>
                <Point id="2287">
                    <coordinates>-80.9249295,-4.922352,0.0</coordinates>
                </Point>
            </Placemark>
            <Placemark id="2293">
                <name>CRUZ MILAGROS CORONADO CORONADO DE CARRASCO</name>
                <description>Dora Yarleque Viviate S/N
Viviate
Viviate
Piura
Perú</description>
                <styleUrl>#2294</styleUrl>
                <Point id="2292">
                    <coordinates>-80.9269729,-4.9236932,0.0</coordinates>
                </Point>
            </Placemark>
            <Placemark id="2298">
                <name>PATRICIA DEL ROSARIO CASTILLO DE CURIPUMA</name>
                <description>Calle Carmen alemán MZ 85 lt 3 - viviate
Viviate
Viviate
Piura
Perú</description>
                <styleUrl>#2299</styleUrl>
                <Point id="2297">
                    <coordinates>-80.9256797,-4.9232415,0.0</coordinates>
                </Point>
            </Placemark>
            <Placemark id="2303">
                <name>MARIA DE LOS MILAGROS CASTILLO CORONADO</name>
                <description>Sector la chira Jose Agurto S/N
Viviate
Viviate
Piura
Perú</description>
                <styleUrl>#2304</styleUrl>
                <Point id="2302">
                    <coordinates>-80.9250274,-4.9225588,0.0</coordinates>
                </Point>
            </Placemark>
            <Placemark id="2308">
                <name>SONIA ACARO DE HERRERA</name>
                <description>Calle 24 de setiembre MZ E LOTE 45 viviate
Viviate
Viviate
Piura
Perú</description>
                <styleUrl>#2309</styleUrl>
                <Point id="2307">
                    <coordinates>-80.9249074,-4.9222814,0.0</coordinates>
                </Point>
            </Placemark>
            <Placemark id="2313">
                <name>MARIA MAGDALENA FLORES DE MOSCOL</name>
                <description>SECT.LA CHIRA CAL.GUILLERMO TALLEDO
Viviate
Viviate
Piura
Perú</description>
                <styleUrl>#2314</styleUrl>
                <Point id="2312">
                    <coordinates>-80.925056,-4.9221418,0.0</coordinates>
                </Point>
            </Placemark>
            <Placemark id="2318">
                <name>LUCY RONDOY PUCHULAN</name>
                <description>SECT.LA CHIRA CAL. GUILLERMO TALLED
Viviate
Viviate
Piura
Perú</description>
                <styleUrl>#2319</styleUrl>
                <Point id="2317">
                    <coordinates>-80.9250909,-4.9221297,0.0</coordinates>
                </Point>
            </Placemark>
            <Placemark id="2323">
                <name>PEDRO PABLO PANTA NUÑEZ</name>
                <description>PEDRO PABLO PANTA NUÑEZ
AV. PANAMERICANA MZ 26 LT 3 C.P. VI
Viviate
Viviate
Piura
Perú</description>
                <styleUrl>#2324</styleUrl>
                <Point id="2322">
                    <coordinates>-80.9227302,-4.9215627,0.0</coordinates>
                </Point>
            </Placemark>
            <Placemark id="2328">
                <name>ZAPATA BARRIENTOS ELIDA</name>
                <description>CAS NOMARA E-3 LA HUACA PAITA
Viviate
Viviate
Piura
Perú</description>
                <styleUrl>#2329</styleUrl>
                <Point id="2327">
                    <coordinates>-80.8822715,-4.913841,0.0</coordinates>
                </Point>
            </Placemark>
            <Placemark id="2333">
                <name>ALBURQUEQUE RUIZ FELICITA</name>
                <description>CAS.NOMARA A-21 LA HUACA PAITA
Sullana
Sullana
Piura
Perú</description>
                <styleUrl>#2334</styleUrl>
                <Point id="2332">
                    <coordinates>-80.882088,-4.913889,0.0</coordinates>
                </Point>
            </Placemark>
            <Placemark id="2338">
                <name>DURAND CASTRO DE OBLEA BILMA</name>
                <description>PANAM.NOMARA MZ-E LT.0145
Viviate
Viviate
Piura
Perú</description>
                <styleUrl>#2339</styleUrl>
                <Point id="2337">
                    <coordinates>-80.8834118,-4.9140982,0.0</coordinates>
                </Point>
            </Placemark>
            <Placemark id="2343">
                <name>LAURA OTERO FREYRE</name>
                <description>CA. 06 DE ENERO SN CP.FATIMA - SULL
Viviate
Viviate
Piura
Perú</description>
                <styleUrl>#2344</styleUrl>
                <Point id="2342">
                    <coordinates>-80.8842894,-4.9192997,0.0</coordinates>
                </Point>
            </Placemark>
            <Placemark id="2348">
                <name>FANNY JUDITH ROSILLO RIVERA</name>
                <description>CP FÁTIMA  CALLE 6 enero atrás de la antena
Viviate
Viviate
Piura
Perú</description>
                <styleUrl>#2349</styleUrl>
                <Point id="2347">
                    <coordinates>-80.8842823,-4.919334,0.0</coordinates>
                </Point>
            </Placemark>
            <Placemark id="2353">
                <name>FAUSTINO SOTO NAVARRO</name>
                <description>FATIMA MZ CLT 0010
Viviate
Viviate
Piura
Perú</description>
                <styleUrl>#2354</styleUrl>
                <Point id="2352">
                    <coordinates>-80.8819042,-4.9196739,0.0</coordinates>
                </Point>
            </Placemark>
            <Placemark id="2358">
                <name>TERESA DEL PILAR CASTILLO RUIZ</name>
                <description>CAS. SANTA ROSA MZ 24 LT 1
Viviate
Viviate
Piura
Perú</description>
                <styleUrl>#2359</styleUrl>
                <Point id="2357">
                    <coordinates>-80.8673649,-4.9231509,0.0</coordinates>
                </Point>
            </Placemark>
            <Placemark id="2363">
                <name>MARYURY YSBETT MEDINA ROJAS</name>
                <description>calle Buenos Aires AAHH 31 de Octubre MZ B LT 15 Caserío Nomara
Viviate
Viviate
Piura
Perú</description>
                <styleUrl>#2364</styleUrl>
                <Point id="2362">
                    <coordinates>-80.8823109,-4.9232127,0.0</coordinates>
                </Point>
            </Placemark>
            <Placemark id="2368">
                <name>ROSARIO CHIROQUE CARRASCO</name>
                <description>CP 31 DE OCTUBRE LA HUACA
Viviate
Viviate
Piura
Perú</description>
                <styleUrl>#2369</styleUrl>
                <Point id="2367">
                    <coordinates>-80.8815704,-4.9206509,0.0</coordinates>
                </Point>
            </Placemark>
            <Placemark id="2373">
                <name>CHIROQUE PERALTA CARMELA</name>
                <description>31 DE OCTUBRE 005 VIVIATE
Viviate
Viviate
Piura
Perú</description>
                <styleUrl>#2374</styleUrl>
                <Point id="2372">
                    <coordinates>-80.8807144,-4.9205973,0.0</coordinates>
                </Point>
            </Placemark>
            <Placemark id="2378">
                <name>ROSANY CARRASCO DE PERALTA</name>
                <description>CAS. EL 31 DE OCTUBRE - NOMARA
Viviate
Viviate
Piura
Perú</description>
                <styleUrl>#2379</styleUrl>
                <Point id="2377">
                    <coordinates>-80.8801928,-4.9204695,0.0</coordinates>
                </Point>
            </Placemark>
            <Placemark id="2383">
                <name>CHIROQUE SANDOVAL PLACIDA</name>
                <description>CASERIO MIRAFLORES MZ A LT 21
Sullana
Sullana
Piura
Perú</description>
                <styleUrl>#2384</styleUrl>
                <Point id="2382">
                    <coordinates>-80.881971,-4.918512,0.0</coordinates>
                </Point>
            </Placemark>
            <Placemark id="2388">
                <name>PERALTA OTERO DE CHIROQUE MARTHA</name>
                <description>SUBIDA AL COLEGIO LUCIANO C-05
Viviate
Viviate
Piura
Perú</description>
                <styleUrl>#2389</styleUrl>
                <Point id="2387">
                    <coordinates>-80.8773566,-4.9165709,0.0</coordinates>
                </Point>
            </Placemark>
        </Folder>
    </Document>
</kml>
