<?xml version="1.0" encoding="UTF-8"?>
<kml xmlns="http://www.opengis.net/kml/2.2" xmlns:gx="http://www.google.com/kml/ext/2.2">
    <Document id="3080">
        <Folder id="3081">
            <Style id="3084">
                <IconStyle id="3085">
                    <color>ff0000ff</color>
                    <colorMode>normal</colorMode>
                    <scale>1</scale>
                    <heading>0</heading>
                    <Icon id="3086">
                        <href>http://maps.google.com/mapfiles/kml/pushpin/ylw-pushpin.png</href>
                    </Icon>
                </IconStyle>
            </Style>
            <Style id="3089">
                <IconStyle id="3090">
                    <color>ff0000ff</color>
                    <colorMode>normal</colorMode>
                    <scale>1</scale>
                    <heading>0</heading>
                    <Icon id="3091">
                        <href>http://maps.google.com/mapfiles/kml/pushpin/ylw-pushpin.png</href>
                    </Icon>
                </IconStyle>
            </Style>
            <Style id="3094">
                <IconStyle id="3095">
                    <color>ff0000ff</color>
                    <colorMode>normal</colorMode>
                    <scale>1</scale>
                    <heading>0</heading>
                    <Icon id="3096">
                        <href>http://maps.google.com/mapfiles/kml/pushpin/ylw-pushpin.png</href>
                    </Icon>
                </IconStyle>
            </Style>
            <Style id="3099">
                <IconStyle id="3100">
                    <color>ff0000ff</color>
                    <colorMode>normal</colorMode>
                    <scale>1</scale>
                    <heading>0</heading>
                    <Icon id="3101">
                        <href>http://maps.google.com/mapfiles/kml/pushpin/ylw-pushpin.png</href>
                    </Icon>
                </IconStyle>
            </Style>
            <Style id="3104">
                <IconStyle id="3105">
                    <color>ff0000ff</color>
                    <colorMode>normal</colorMode>
                    <scale>1</scale>
                    <heading>0</heading>
                    <Icon id="3106">
                        <href>http://maps.google.com/mapfiles/kml/pushpin/ylw-pushpin.png</href>
                    </Icon>
                </IconStyle>
            </Style>
            <Style id="3109">
                <IconStyle id="3110">
                    <color>ff0000ff</color>
                    <colorMode>normal</colorMode>
                    <scale>1</scale>
                    <heading>0</heading>
                    <Icon id="3111">
                        <href>http://maps.google.com/mapfiles/kml/pushpin/ylw-pushpin.png</href>
                    </Icon>
                </IconStyle>
            </Style>
            <Style id="3114">
                <IconStyle id="3115">
                    <color>ff0000ff</color>
                    <colorMode>normal</colorMode>
                    <scale>1</scale>
                    <heading>0</heading>
                    <Icon id="3116">
                        <href>http://maps.google.com/mapfiles/kml/pushpin/ylw-pushpin.png</href>
                    </Icon>
                </IconStyle>
            </Style>
            <Style id="3119">
                <IconStyle id="3120">
                    <color>ff0000ff</color>
                    <colorMode>normal</colorMode>
                    <scale>1</scale>
                    <heading>0</heading>
                    <Icon id="3121">
                        <href>http://maps.google.com/mapfiles/kml/pushpin/ylw-pushpin.png</href>
                    </Icon>
                </IconStyle>
            </Style>
            <Style id="3124">
                <IconStyle id="3125">
                    <color>ff0000ff</color>
                    <colorMode>normal</colorMode>
                    <scale>1</scale>
                    <heading>0</heading>
                    <Icon id="3126">
                        <href>http://maps.google.com/mapfiles/kml/pushpin/ylw-pushpin.png</href>
                    </Icon>
                </IconStyle>
            </Style>
            <Style id="3129">
                <IconStyle id="3130">
                    <color>ff0000ff</color>
                    <colorMode>normal</colorMode>
                    <scale>1</scale>
                    <heading>0</heading>
                    <Icon id="3131">
                        <href>http://maps.google.com/mapfiles/kml/pushpin/ylw-pushpin.png</href>
                    </Icon>
                </IconStyle>
            </Style>
            <Style id="3134">
                <IconStyle id="3135">
                    <color>ff0000ff</color>
                    <colorMode>normal</colorMode>
                    <scale>1</scale>
                    <heading>0</heading>
                    <Icon id="3136">
                        <href>http://maps.google.com/mapfiles/kml/pushpin/ylw-pushpin.png</href>
                    </Icon>
                </IconStyle>
            </Style>
            <Style id="3139">
                <IconStyle id="3140">
                    <color>ff0000ff</color>
                    <colorMode>normal</colorMode>
                    <scale>1</scale>
                    <heading>0</heading>
                    <Icon id="3141">
                        <href>http://maps.google.com/mapfiles/kml/pushpin/ylw-pushpin.png</href>
                    </Icon>
                </IconStyle>
            </Style>
            <Style id="3144">
                <IconStyle id="3145">
                    <color>ff0000ff</color>
                    <colorMode>normal</colorMode>
                    <scale>1</scale>
                    <heading>0</heading>
                    <Icon id="3146">
                        <href>http://maps.google.com/mapfiles/kml/pushpin/ylw-pushpin.png</href>
                    </Icon>
                </IconStyle>
            </Style>
            <Style id="3149">
                <IconStyle id="3150">
                    <color>ff0000ff</color>
                    <colorMode>normal</colorMode>
                    <scale>1</scale>
                    <heading>0</heading>
                    <Icon id="3151">
                        <href>http://maps.google.com/mapfiles/kml/pushpin/ylw-pushpin.png</href>
                    </Icon>
                </IconStyle>
            </Style>
            <Style id="3154">
                <IconStyle id="3155">
                    <color>ff0000ff</color>
                    <colorMode>normal</colorMode>
                    <scale>1</scale>
                    <heading>0</heading>
                    <Icon id="3156">
                        <href>http://maps.google.com/mapfiles/kml/pushpin/ylw-pushpin.png</href>
                    </Icon>
                </IconStyle>
            </Style>
            <Style id="3159">
                <IconStyle id="3160">
                    <color>ff0000ff</color>
                    <colorMode>normal</colorMode>
                    <scale>1</scale>
                    <heading>0</heading>
                    <Icon id="3161">
                        <href>http://maps.google.com/mapfiles/kml/pushpin/ylw-pushpin.png</href>
                    </Icon>
                </IconStyle>
            </Style>
            <Style id="3164">
                <IconStyle id="3165">
                    <color>ff0000ff</color>
                    <colorMode>normal</colorMode>
                    <scale>1</scale>
                    <heading>0</heading>
                    <Icon id="3166">
                        <href>http://maps.google.com/mapfiles/kml/pushpin/ylw-pushpin.png</href>
                    </Icon>
                </IconStyle>
            </Style>
            <Style id="3169">
                <IconStyle id="3170">
                    <color>ff0000ff</color>
                    <colorMode>normal</colorMode>
                    <scale>1</scale>
                    <heading>0</heading>
                    <Icon id="3171">
                        <href>http://maps.google.com/mapfiles/kml/pushpin/ylw-pushpin.png</href>
                    </Icon>
                </IconStyle>
            </Style>
            <Style id="3174">
                <IconStyle id="3175">
                    <color>ff0000ff</color>
                    <colorMode>normal</colorMode>
                    <scale>1</scale>
                    <heading>0</heading>
                    <Icon id="3176">
                        <href>http://maps.google.com/mapfiles/kml/pushpin/ylw-pushpin.png</href>
                    </Icon>
                </IconStyle>
            </Style>
            <Style id="3179">
                <IconStyle id="3180">
                    <color>ff0000ff</color>
                    <colorMode>normal</colorMode>
                    <scale>1</scale>
                    <heading>0</heading>
                    <Icon id="3181">
                        <href>http://maps.google.com/mapfiles/kml/pushpin/ylw-pushpin.png</href>
                    </Icon>
                </IconStyle>
            </Style>
            <Style id="3184">
                <IconStyle id="3185">
                    <color>ff0000ff</color>
                    <colorMode>normal</colorMode>
                    <scale>1</scale>
                    <heading>0</heading>
                    <Icon id="3186">
                        <href>http://maps.google.com/mapfiles/kml/pushpin/ylw-pushpin.png</href>
                    </Icon>
                </IconStyle>
            </Style>
            <Style id="3189">
                <IconStyle id="3190">
                    <color>ff0000ff</color>
                    <colorMode>normal</colorMode>
                    <scale>1</scale>
                    <heading>0</heading>
                    <Icon id="3191">
                        <href>http://maps.google.com/mapfiles/kml/pushpin/ylw-pushpin.png</href>
                    </Icon>
                </IconStyle>
            </Style>
            <Style id="3194">
                <IconStyle id="3195">
                    <color>ff0000ff</color>
                    <colorMode>normal</colorMode>
                    <scale>1</scale>
                    <heading>0</heading>
                    <Icon id="3196">
                        <href>http://maps.google.com/mapfiles/kml/pushpin/ylw-pushpin.png</href>
                    </Icon>
                </IconStyle>
            </Style>
            <Style id="3199">
                <IconStyle id="3200">
                    <color>ff0000ff</color>
                    <colorMode>normal</colorMode>
                    <scale>1</scale>
                    <heading>0</heading>
                    <Icon id="3201">
                        <href>http://maps.google.com/mapfiles/kml/pushpin/ylw-pushpin.png</href>
                    </Icon>
                </IconStyle>
            </Style>
            <Style id="3204">
                <IconStyle id="3205">
                    <color>ff0000ff</color>
                    <colorMode>normal</colorMode>
                    <scale>1</scale>
                    <heading>0</heading>
                    <Icon id="3206">
                        <href>http://maps.google.com/mapfiles/kml/pushpin/ylw-pushpin.png</href>
                    </Icon>
                </IconStyle>
            </Style>
            <Style id="3209">
                <IconStyle id="3210">
                    <color>ff0000ff</color>
                    <colorMode>normal</colorMode>
                    <scale>1</scale>
                    <heading>0</heading>
                    <Icon id="3211">
                        <href>http://maps.google.com/mapfiles/kml/pushpin/ylw-pushpin.png</href>
                    </Icon>
                </IconStyle>
            </Style>
            <Style id="3214">
                <IconStyle id="3215">
                    <color>ff0000ff</color>
                    <colorMode>normal</colorMode>
                    <scale>1</scale>
                    <heading>0</heading>
                    <Icon id="3216">
                        <href>http://maps.google.com/mapfiles/kml/pushpin/ylw-pushpin.png</href>
                    </Icon>
                </IconStyle>
            </Style>
            <Style id="3219">
                <IconStyle id="3220">
                    <color>ff0000ff</color>
                    <colorMode>normal</colorMode>
                    <scale>1</scale>
                    <heading>0</heading>
                    <Icon id="3221">
                        <href>http://maps.google.com/mapfiles/kml/pushpin/ylw-pushpin.png</href>
                    </Icon>
                </IconStyle>
            </Style>
            <Style id="3224">
                <IconStyle id="3225">
                    <color>ff0000ff</color>
                    <colorMode>normal</colorMode>
                    <scale>1</scale>
                    <heading>0</heading>
                    <Icon id="3226">
                        <href>http://maps.google.com/mapfiles/kml/pushpin/ylw-pushpin.png</href>
                    </Icon>
                </IconStyle>
            </Style>
            <Style id="3229">
                <IconStyle id="3230">
                    <color>ff0000ff</color>
                    <colorMode>normal</colorMode>
                    <scale>1</scale>
                    <heading>0</heading>
                    <Icon id="3231">
                        <href>http://maps.google.com/mapfiles/kml/pushpin/ylw-pushpin.png</href>
                    </Icon>
                </IconStyle>
            </Style>
            <Style id="3234">
                <IconStyle id="3235">
                    <color>ff0000ff</color>
                    <colorMode>normal</colorMode>
                    <scale>1</scale>
                    <heading>0</heading>
                    <Icon id="3236">
                        <href>http://maps.google.com/mapfiles/kml/pushpin/ylw-pushpin.png</href>
                    </Icon>
                </IconStyle>
            </Style>
            <Style id="3239">
                <IconStyle id="3240">
                    <color>ff0000ff</color>
                    <colorMode>normal</colorMode>
                    <scale>1</scale>
                    <heading>0</heading>
                    <Icon id="3241">
                        <href>http://maps.google.com/mapfiles/kml/pushpin/ylw-pushpin.png</href>
                    </Icon>
                </IconStyle>
            </Style>
            <Style id="3244">
                <IconStyle id="3245">
                    <color>ff0000ff</color>
                    <colorMode>normal</colorMode>
                    <scale>1</scale>
                    <heading>0</heading>
                    <Icon id="3246">
                        <href>http://maps.google.com/mapfiles/kml/pushpin/ylw-pushpin.png</href>
                    </Icon>
                </IconStyle>
            </Style>
            <Style id="3249">
                <IconStyle id="3250">
                    <color>ff0000ff</color>
                    <colorMode>normal</colorMode>
                    <scale>1</scale>
                    <heading>0</heading>
                    <Icon id="3251">
                        <href>http://maps.google.com/mapfiles/kml/pushpin/ylw-pushpin.png</href>
                    </Icon>
                </IconStyle>
            </Style>
            <Style id="3254">
                <IconStyle id="3255">
                    <color>ff0000ff</color>
                    <colorMode>normal</colorMode>
                    <scale>1</scale>
                    <heading>0</heading>
                    <Icon id="3256">
                        <href>http://maps.google.com/mapfiles/kml/pushpin/ylw-pushpin.png</href>
                    </Icon>
                </IconStyle>
            </Style>
            <Style id="3259">
                <IconStyle id="3260">
                    <color>ff0000ff</color>
                    <colorMode>normal</colorMode>
                    <scale>1</scale>
                    <heading>0</heading>
                    <Icon id="3261">
                        <href>http://maps.google.com/mapfiles/kml/pushpin/ylw-pushpin.png</href>
                    </Icon>
                </IconStyle>
            </Style>
            <name>CINTHYA FABIOLA CASTRO FARIAS</name>
            <Placemark id="3083">
                <name>MERCEDES MARITZA PAIVA PAZOS</name>
                <description>Luis Alberto Sanchez C-4
Pariñas
Pariñas
Piura
Perú</description>
                <styleUrl>#3084</styleUrl>
                <Point id="3082">
                    <coordinates>-81.2610027,-4.5971733,0.0</coordinates>
                </Point>
            </Placemark>
            <Placemark id="3088">
                <name>APONTE ORTIZ MARITA</name>
                <description>APONTE ORTIZ MARITA
MZ. D LT. 02 A.H. JOSE GALVEZ - TAL
Talara
Talara
Piura
Perú</description>
                <styleUrl>#3089</styleUrl>
                <Point id="3087">
                    <coordinates>-81.2572333,-4.5983058,0.0</coordinates>
                </Point>
            </Placemark>
            <Placemark id="3093">
                <name>ESTEFANY CHARIN CORONADO CHIROQUE</name>
                <description>AH 2 de mayo A-31 B esquina
Talara
Talara
Piura
Perú</description>
                <styleUrl>#3094</styleUrl>
                <Point id="3092">
                    <coordinates>-81.2605845,-4.5991031,0.0</coordinates>
                </Point>
            </Placemark>
            <Placemark id="3098">
                <name>MARIZA RUIZ GUERRERO</name>
                <description>28 de julio G -31
Talara

Piura
Perú</description>
                <styleUrl>#3099</styleUrl>
                <Point id="3097">
                    <coordinates>-81.261477,-4.592923,0.0</coordinates>
                </Point>
            </Placemark>
            <Placemark id="3103">
                <name>NELLY DUQUE DE GUERRERO</name>
                <description>Maria Auxiliadora de los cristianos B 12
Talara

Piura
Perú</description>
                <styleUrl>#3104</styleUrl>
                <Point id="3102">
                    <coordinates>-81.261701,-4.592727,0.0</coordinates>
                </Point>
            </Placemark>
            <Placemark id="3108">
                <name>FABIOLA DEL PILAR ORDINOLA PEÑA</name>
                <description>AMPLIACION FICUS D_8
Talara
Talara
Piura
Perú</description>
                <styleUrl>#3109</styleUrl>
                <Point id="3107">
                    <coordinates>-81.2587552,-4.6005937,0.0</coordinates>
                </Point>
            </Placemark>
            <Placemark id="3113">
                <name>VERONICA YULISA GOMEZ OTOYA</name>
                <description>AAHH AMPLIACION JOSE GALVEZ C-1
Talara
Talara
Piura
Perú</description>
                <styleUrl>#3114</styleUrl>
                <Point id="3112">
                    <coordinates>-81.2570894,-4.5996484,0.0</coordinates>
                </Point>
            </Placemark>
            <Placemark id="3118">
                <name>DOMINGA LOPEZ MEDINA DE LOPEZ</name>
                <description>ASOC.M.AUXILIADORA A-5
Talara
Talara
Piura
Perú</description>
                <styleUrl>#3119</styleUrl>
                <Point id="3117">
                    <coordinates>-81.2615065,-4.5923282,0.0</coordinates>
                </Point>
            </Placemark>
            <Placemark id="3123">
                <name>KATHERINE KIMBERLI SEMINARIO RUIZ</name>
                <description>Elian car E-2
Talara
Talara
Piura
Perú</description>
                <styleUrl>#3124</styleUrl>
                <Point id="3122">
                    <coordinates>-81.262235,-4.593536,0.0</coordinates>
                </Point>
            </Placemark>
            <Placemark id="3128">
                <name>PACHERRES RETO DE ESPINOZA ELVA MARIA</name>
                <description>PACHERRES RETO DE ESPINOZA ELVA MARIA
28 de julio c-9
Talara
Talara
Piura
Perú</description>
                <styleUrl>#3129</styleUrl>
                <Point id="3127">
                    <coordinates>-81.2613888,-4.5936337,0.0</coordinates>
                </Point>
            </Placemark>
            <Placemark id="3133">
                <name>LUIS ENRIQUE NIMA MOGOLLON</name>
                <description>AAHH 28 DE JULIO D-13
Talara
Talara
Piura
Perú</description>
                <styleUrl>#3134</styleUrl>
                <Point id="3132">
                    <coordinates>-81.2583929,-4.5985127,0.0</coordinates>
                </Point>
            </Placemark>
            <Placemark id="3138">
                <name>SONIA ZAPATA NOLE</name>
                <description>LAS AMERICAS A-4 TALARA
Talara
Talara
Piura
Perú</description>
                <styleUrl>#3139</styleUrl>
                <Point id="3137">
                    <coordinates>-81.262428,-4.594193,0.0</coordinates>
                </Point>
            </Placemark>
            <Placemark id="3143">
                <name>ELDA MARIA PALACIOS HURTADO</name>
                <description>Las Américas A-8
Talara
Talara
Piura
Perú</description>
                <styleUrl>#3144</styleUrl>
                <Point id="3142">
                    <coordinates>-81.26231,-4.594545,0.0</coordinates>
                </Point>
            </Placemark>
            <Placemark id="3148">
                <name>Lopez timana susana</name>
                <description>AAHH José Carlos Mariátegui A-16
Talara
Talara
Piura
Perú</description>
                <styleUrl>#3149</styleUrl>
                <Point id="3147">
                    <coordinates>-81.2632655,-4.5952084,0.0</coordinates>
                </Point>
            </Placemark>
            <Placemark id="3153">
                <name>DELIA HERLINDA PINTADO JIMENEZ</name>
                <description>JOSE CARLOS MARIATEGUI B 13
Talara
Talara
Piura
Perú</description>
                <styleUrl>#3154</styleUrl>
                <Point id="3152">
                    <coordinates>-81.2641031,-4.5959737,0.0</coordinates>
                </Point>
            </Placemark>
            <Placemark id="3158">
                <name>VANESSA MARGARET SANCHEZ SANCHEZ</name>
                <description>AAHH LOS ROBLESC-19
Talara
Talara
Piura
Perú</description>
                <styleUrl>#3159</styleUrl>
                <Point id="3157">
                    <coordinates>-81.2640763,-4.5970012,0.0</coordinates>
                </Point>
            </Placemark>
            <Placemark id="3163">
                <name>SAIRA VANESSA ALVARADO PALACIOS</name>
                <description>AAHH 7 DE FEBRERO C-13
Talara
Talara
Piura
Perú</description>
                <styleUrl>#3164</styleUrl>
                <Point id="3162">
                    <coordinates>-81.2630265,-4.5968106,0.0</coordinates>
                </Point>
            </Placemark>
            <Placemark id="3168">
                <name>RUTH ARACELLY CANALES CASTRO</name>
                <description>AAHH 7 DE FEBRERO A 23
Talara
Talara
Piura
Perú</description>
                <styleUrl>#3169</styleUrl>
                <Point id="3167">
                    <coordinates>-81.2626164,-4.5968655,0.0</coordinates>
                </Point>
            </Placemark>
            <Placemark id="3173">
                <name>ALBERTO GONZALES CORNEJO</name>
                <description>A.H.07 DE JUNIO C-2 
Talara
Talara
Piura
Perú</description>
                <styleUrl>#3174</styleUrl>
                <Point id="3172">
                    <coordinates>-81.2611838,-4.595069,0.0</coordinates>
                </Point>
            </Placemark>
            <Placemark id="3178">
                <name>OLGA NIZAMA DE SILVA</name>
                <description>AAHH 7 DE JUNIO C1-A
Talara
Talara
Piura
Perú</description>
                <styleUrl>#3179</styleUrl>
                <Point id="3177">
                    <coordinates>-81.2610331,-4.5950917,0.0</coordinates>
                </Point>
            </Placemark>
            <Placemark id="3183">
                <name>WILBERTO VILELA CARRENO</name>
                <description>CA.C42 A.H.7 DE JULIO
Talara
Talara
Piura
Perú</description>
                <styleUrl>#3184</styleUrl>
                <Point id="3182">
                    <coordinates>-81.261269,-4.5957921,0.0</coordinates>
                </Point>
            </Placemark>
            <Placemark id="3188">
                <name>ALEXANDER BRAYAN SERNAQUE ESPINOZA</name>
                <description>MZ D-01 AH 07 DE JUNIO
Talara
Talara
Piura
Perú</description>
                <styleUrl>#3189</styleUrl>
                <Point id="3187">
                    <coordinates>-81.2609126,-4.5954369,0.0</coordinates>
                </Point>
            </Placemark>
            <Placemark id="3193">
                <name>ERNESTINA MENDOZA DE CAVERO</name>
                <description>MZ.G LTE.4 A.H.2 DE FEBRERO TALARA
Talara
Talara
Piura
Perú</description>
                <styleUrl>#3194</styleUrl>
                <Point id="3192">
                    <coordinates>-81.2610384,-4.5968741,0.0</coordinates>
                </Point>
            </Placemark>
            <Placemark id="3198">
                <name>ELEAZAR GONZA SANTUR</name>
                <description>ELEAZAR GONZA SANTUR
AAHH ALAN GARCIA J_29
Talara
Talara
Piura
Perú</description>
                <styleUrl>#3199</styleUrl>
                <Point id="3197">
                    <coordinates>-81.2606102,-4.5972546,0.0</coordinates>
                </Point>
            </Placemark>
            <Placemark id="3203">
                <name>CHERYL DAYANA ANTON AGURTO</name>
                <description>AAHH Martha Chávez B-8. TALARA
Talara
Talara
Piura
Perú</description>
                <styleUrl>#3204</styleUrl>
                <Point id="3202">
                    <coordinates>-81.2600442,-4.5981183,0.0</coordinates>
                </Point>
            </Placemark>
            <Placemark id="3208">
                <name>YAJAIRA PASACHE GIRON</name>
                <description>Nuevo paraíso A-6
Pariñas
Pariñas
Piura
Perú</description>
                <styleUrl>#3209</styleUrl>
                <Point id="3207">
                    <coordinates>-81.2609794,-4.5981211,0.0</coordinates>
                </Point>
            </Placemark>
            <Placemark id="3213">
                <name>BETY MARISOL RIVERA VALLE</name>
                <description>CESAR VALLEJO D_17
Talara
Talara
Piura
Perú</description>
                <styleUrl>#3214</styleUrl>
                <Point id="3212">
                    <coordinates>-81.2614274,-4.5988973,0.0</coordinates>
                </Point>
            </Placemark>
            <Placemark id="3218">
                <name>NELLY DIANA SILVA FLORES</name>
                <description>NELLY DIANA SILVA FLORES
ALAN GARCIA MZ.A1 LTE.1 TALARA ALTA
Talara
Talara
Piura
Perú</description>
                <styleUrl>#3219</styleUrl>
                <Point id="3217">
                    <coordinates>-81.2575666,-4.5983567,0.0</coordinates>
                </Point>
            </Placemark>
            <Placemark id="3223">
                <name>EVANGELINA CASTRO HIDALGO</name>
                <description>EVANGELINA CASTRO HIDALGO
MZA. F LOTE. 4 A.H. ALAN GARCIA PAR
Talara
Talara
Piura
Perú</description>
                <styleUrl>#3224</styleUrl>
                <Point id="3222">
                    <coordinates>-81.2587905,-4.598451,0.0</coordinates>
                </Point>
            </Placemark>
            <Placemark id="3228">
                <name>DEYSI MORALES PEÑA DE VILLALTA</name>
                <description>AMPLIACION ALAN GARCIA A-8 TALARA A
Talara
Talara
Piura
Perú</description>
                <styleUrl>#3229</styleUrl>
                <Point id="3227">
                    <coordinates>-81.2578146,-4.5985278,0.0</coordinates>
                </Point>
            </Placemark>
            <Placemark id="3233">
                <name>YENIFFER PULACHE PACHERRES</name>
                <description>JOSE GALVEZ F_13
Talara
Talara
Piura
Perú</description>
                <styleUrl>#3234</styleUrl>
                <Point id="3232">
                    <coordinates>-81.2577213,-4.599428,0.0</coordinates>
                </Point>
            </Placemark>
            <Placemark id="3238">
                <name>MARITZA LOURDES CORONADO ESTRADA</name>
                <description>AAHH AMPLIACIÓN LOS FICUS A-22
Talara
Talara
Piura
Perú</description>
                <styleUrl>#3239</styleUrl>
                <Point id="3237">
                    <coordinates>-81.2582865,-4.6001694,0.0</coordinates>
                </Point>
            </Placemark>
            <Placemark id="3243">
                <name>JESSY PAOLA ALBURQUEQUE PEÑA</name>
                <description>AAHH JOSE GALVEZ B-1
Talara
Talara
Piura
Perú</description>
                <styleUrl>#3244</styleUrl>
                <Point id="3242">
                    <coordinates>-81.2565294,-4.5975105,0.0</coordinates>
                </Point>
            </Placemark>
            <Placemark id="3248">
                <name>MONDRAGON ERASO SANTOS</name>
                <description>MONDRAGON ERASO SANTOS
ALAN GARCIA D-17
Talara
Talara
Piura
Perú</description>
                <styleUrl>#3249</styleUrl>
                <Point id="3247">
                    <coordinates>-81.2578478,-4.5976141,0.0</coordinates>
                </Point>
            </Placemark>
            <Placemark id="3253">
                <name>JULIO ROMERO IPANAQUE</name>
                <description>AAHH ALAN GARCIA MZ C LT 12 PARIÑAS
Talara
Talara
Piura
Perú</description>
                <styleUrl>#3254</styleUrl>
                <Point id="3252">
                    <coordinates>-81.2588208,-4.5986298,0.0</coordinates>
                </Point>
            </Placemark>
            <Placemark id="3258">
                <name>LUCRECIA CHIROQUE RUIZ DE AMAYA</name>
                <description>A.H 2 DE FEBRERO MZ B LOTE 35 TALAR
Talara
Talara
Piura
Perú</description>
                <styleUrl>#3259</styleUrl>
                <Point id="3257">
                    <coordinates>-81.2584866,-4.5956187,0.0</coordinates>
                </Point>
            </Placemark>
        </Folder>
        <Folder id="3262">
            <Style id="3265">
                <IconStyle id="3266">
                    <color>ffff0000</color>
                    <colorMode>normal</colorMode>
                    <scale>1</scale>
                    <heading>0</heading>
                    <Icon id="3267">
                        <href>http://maps.google.com/mapfiles/kml/pushpin/ylw-pushpin.png</href>
                    </Icon>
                </IconStyle>
            </Style>
            <Style id="3270">
                <IconStyle id="3271">
                    <color>ffff0000</color>
                    <colorMode>normal</colorMode>
                    <scale>1</scale>
                    <heading>0</heading>
                    <Icon id="3272">
                        <href>http://maps.google.com/mapfiles/kml/pushpin/ylw-pushpin.png</href>
                    </Icon>
                </IconStyle>
            </Style>
            <Style id="3275">
                <IconStyle id="3276">
                    <color>ffff0000</color>
                    <colorMode>normal</colorMode>
                    <scale>1</scale>
                    <heading>0</heading>
                    <Icon id="3277">
                        <href>http://maps.google.com/mapfiles/kml/pushpin/ylw-pushpin.png</href>
                    </Icon>
                </IconStyle>
            </Style>
            <Style id="3280">
                <IconStyle id="3281">
                    <color>ffff0000</color>
                    <colorMode>normal</colorMode>
                    <scale>1</scale>
                    <heading>0</heading>
                    <Icon id="3282">
                        <href>http://maps.google.com/mapfiles/kml/pushpin/ylw-pushpin.png</href>
                    </Icon>
                </IconStyle>
            </Style>
            <Style id="3285">
                <IconStyle id="3286">
                    <color>ffff0000</color>
                    <colorMode>normal</colorMode>
                    <scale>1</scale>
                    <heading>0</heading>
                    <Icon id="3287">
                        <href>http://maps.google.com/mapfiles/kml/pushpin/ylw-pushpin.png</href>
                    </Icon>
                </IconStyle>
            </Style>
            <Style id="3290">
                <IconStyle id="3291">
                    <color>ffff0000</color>
                    <colorMode>normal</colorMode>
                    <scale>1</scale>
                    <heading>0</heading>
                    <Icon id="3292">
                        <href>http://maps.google.com/mapfiles/kml/pushpin/ylw-pushpin.png</href>
                    </Icon>
                </IconStyle>
            </Style>
            <Style id="3295">
                <IconStyle id="3296">
                    <color>ffff0000</color>
                    <colorMode>normal</colorMode>
                    <scale>1</scale>
                    <heading>0</heading>
                    <Icon id="3297">
                        <href>http://maps.google.com/mapfiles/kml/pushpin/ylw-pushpin.png</href>
                    </Icon>
                </IconStyle>
            </Style>
            <Style id="3300">
                <IconStyle id="3301">
                    <color>ffff0000</color>
                    <colorMode>normal</colorMode>
                    <scale>1</scale>
                    <heading>0</heading>
                    <Icon id="3302">
                        <href>http://maps.google.com/mapfiles/kml/pushpin/ylw-pushpin.png</href>
                    </Icon>
                </IconStyle>
            </Style>
            <Style id="3305">
                <IconStyle id="3306">
                    <color>ffff0000</color>
                    <colorMode>normal</colorMode>
                    <scale>1</scale>
                    <heading>0</heading>
                    <Icon id="3307">
                        <href>http://maps.google.com/mapfiles/kml/pushpin/ylw-pushpin.png</href>
                    </Icon>
                </IconStyle>
            </Style>
            <Style id="3310">
                <IconStyle id="3311">
                    <color>ffff0000</color>
                    <colorMode>normal</colorMode>
                    <scale>1</scale>
                    <heading>0</heading>
                    <Icon id="3312">
                        <href>http://maps.google.com/mapfiles/kml/pushpin/ylw-pushpin.png</href>
                    </Icon>
                </IconStyle>
            </Style>
            <Style id="3315">
                <IconStyle id="3316">
                    <color>ffff0000</color>
                    <colorMode>normal</colorMode>
                    <scale>1</scale>
                    <heading>0</heading>
                    <Icon id="3317">
                        <href>http://maps.google.com/mapfiles/kml/pushpin/ylw-pushpin.png</href>
                    </Icon>
                </IconStyle>
            </Style>
            <Style id="3320">
                <IconStyle id="3321">
                    <color>ffff0000</color>
                    <colorMode>normal</colorMode>
                    <scale>1</scale>
                    <heading>0</heading>
                    <Icon id="3322">
                        <href>http://maps.google.com/mapfiles/kml/pushpin/ylw-pushpin.png</href>
                    </Icon>
                </IconStyle>
            </Style>
            <Style id="3325">
                <IconStyle id="3326">
                    <color>ffff0000</color>
                    <colorMode>normal</colorMode>
                    <scale>1</scale>
                    <heading>0</heading>
                    <Icon id="3327">
                        <href>http://maps.google.com/mapfiles/kml/pushpin/ylw-pushpin.png</href>
                    </Icon>
                </IconStyle>
            </Style>
            <Style id="3330">
                <IconStyle id="3331">
                    <color>ffff0000</color>
                    <colorMode>normal</colorMode>
                    <scale>1</scale>
                    <heading>0</heading>
                    <Icon id="3332">
                        <href>http://maps.google.com/mapfiles/kml/pushpin/ylw-pushpin.png</href>
                    </Icon>
                </IconStyle>
            </Style>
            <Style id="3335">
                <IconStyle id="3336">
                    <color>ffff0000</color>
                    <colorMode>normal</colorMode>
                    <scale>1</scale>
                    <heading>0</heading>
                    <Icon id="3337">
                        <href>http://maps.google.com/mapfiles/kml/pushpin/ylw-pushpin.png</href>
                    </Icon>
                </IconStyle>
            </Style>
            <Style id="3340">
                <IconStyle id="3341">
                    <color>ffff0000</color>
                    <colorMode>normal</colorMode>
                    <scale>1</scale>
                    <heading>0</heading>
                    <Icon id="3342">
                        <href>http://maps.google.com/mapfiles/kml/pushpin/ylw-pushpin.png</href>
                    </Icon>
                </IconStyle>
            </Style>
            <Style id="3345">
                <IconStyle id="3346">
                    <color>ffff0000</color>
                    <colorMode>normal</colorMode>
                    <scale>1</scale>
                    <heading>0</heading>
                    <Icon id="3347">
                        <href>http://maps.google.com/mapfiles/kml/pushpin/ylw-pushpin.png</href>
                    </Icon>
                </IconStyle>
            </Style>
            <Style id="3350">
                <IconStyle id="3351">
                    <color>ffff0000</color>
                    <colorMode>normal</colorMode>
                    <scale>1</scale>
                    <heading>0</heading>
                    <Icon id="3352">
                        <href>http://maps.google.com/mapfiles/kml/pushpin/ylw-pushpin.png</href>
                    </Icon>
                </IconStyle>
            </Style>
            <Style id="3355">
                <IconStyle id="3356">
                    <color>ffff0000</color>
                    <colorMode>normal</colorMode>
                    <scale>1</scale>
                    <heading>0</heading>
                    <Icon id="3357">
                        <href>http://maps.google.com/mapfiles/kml/pushpin/ylw-pushpin.png</href>
                    </Icon>
                </IconStyle>
            </Style>
            <Style id="3360">
                <IconStyle id="3361">
                    <color>ffff0000</color>
                    <colorMode>normal</colorMode>
                    <scale>1</scale>
                    <heading>0</heading>
                    <Icon id="3362">
                        <href>http://maps.google.com/mapfiles/kml/pushpin/ylw-pushpin.png</href>
                    </Icon>
                </IconStyle>
            </Style>
            <Style id="3365">
                <IconStyle id="3366">
                    <color>ffff0000</color>
                    <colorMode>normal</colorMode>
                    <scale>1</scale>
                    <heading>0</heading>
                    <Icon id="3367">
                        <href>http://maps.google.com/mapfiles/kml/pushpin/ylw-pushpin.png</href>
                    </Icon>
                </IconStyle>
            </Style>
            <Style id="3370">
                <IconStyle id="3371">
                    <color>ffff0000</color>
                    <colorMode>normal</colorMode>
                    <scale>1</scale>
                    <heading>0</heading>
                    <Icon id="3372">
                        <href>http://maps.google.com/mapfiles/kml/pushpin/ylw-pushpin.png</href>
                    </Icon>
                </IconStyle>
            </Style>
            <Style id="3375">
                <IconStyle id="3376">
                    <color>ffff0000</color>
                    <colorMode>normal</colorMode>
                    <scale>1</scale>
                    <heading>0</heading>
                    <Icon id="3377">
                        <href>http://maps.google.com/mapfiles/kml/pushpin/ylw-pushpin.png</href>
                    </Icon>
                </IconStyle>
            </Style>
            <Style id="3380">
                <IconStyle id="3381">
                    <color>ffff0000</color>
                    <colorMode>normal</colorMode>
                    <scale>1</scale>
                    <heading>0</heading>
                    <Icon id="3382">
                        <href>http://maps.google.com/mapfiles/kml/pushpin/ylw-pushpin.png</href>
                    </Icon>
                </IconStyle>
            </Style>
            <Style id="3385">
                <IconStyle id="3386">
                    <color>ffff0000</color>
                    <colorMode>normal</colorMode>
                    <scale>1</scale>
                    <heading>0</heading>
                    <Icon id="3387">
                        <href>http://maps.google.com/mapfiles/kml/pushpin/ylw-pushpin.png</href>
                    </Icon>
                </IconStyle>
            </Style>
            <Style id="3390">
                <IconStyle id="3391">
                    <color>ffff0000</color>
                    <colorMode>normal</colorMode>
                    <scale>1</scale>
                    <heading>0</heading>
                    <Icon id="3392">
                        <href>http://maps.google.com/mapfiles/kml/pushpin/ylw-pushpin.png</href>
                    </Icon>
                </IconStyle>
            </Style>
            <Style id="3395">
                <IconStyle id="3396">
                    <color>ffff0000</color>
                    <colorMode>normal</colorMode>
                    <scale>1</scale>
                    <heading>0</heading>
                    <Icon id="3397">
                        <href>http://maps.google.com/mapfiles/kml/pushpin/ylw-pushpin.png</href>
                    </Icon>
                </IconStyle>
            </Style>
            <Style id="3400">
                <IconStyle id="3401">
                    <color>ffff0000</color>
                    <colorMode>normal</colorMode>
                    <scale>1</scale>
                    <heading>0</heading>
                    <Icon id="3402">
                        <href>http://maps.google.com/mapfiles/kml/pushpin/ylw-pushpin.png</href>
                    </Icon>
                </IconStyle>
            </Style>
            <Style id="3405">
                <IconStyle id="3406">
                    <color>ffff0000</color>
                    <colorMode>normal</colorMode>
                    <scale>1</scale>
                    <heading>0</heading>
                    <Icon id="3407">
                        <href>http://maps.google.com/mapfiles/kml/pushpin/ylw-pushpin.png</href>
                    </Icon>
                </IconStyle>
            </Style>
            <Style id="3410">
                <IconStyle id="3411">
                    <color>ffff0000</color>
                    <colorMode>normal</colorMode>
                    <scale>1</scale>
                    <heading>0</heading>
                    <Icon id="3412">
                        <href>http://maps.google.com/mapfiles/kml/pushpin/ylw-pushpin.png</href>
                    </Icon>
                </IconStyle>
            </Style>
            <Style id="3415">
                <IconStyle id="3416">
                    <color>ffff0000</color>
                    <colorMode>normal</colorMode>
                    <scale>1</scale>
                    <heading>0</heading>
                    <Icon id="3417">
                        <href>http://maps.google.com/mapfiles/kml/pushpin/ylw-pushpin.png</href>
                    </Icon>
                </IconStyle>
            </Style>
            <Style id="3420">
                <IconStyle id="3421">
                    <color>ffff0000</color>
                    <colorMode>normal</colorMode>
                    <scale>1</scale>
                    <heading>0</heading>
                    <Icon id="3422">
                        <href>http://maps.google.com/mapfiles/kml/pushpin/ylw-pushpin.png</href>
                    </Icon>
                </IconStyle>
            </Style>
            <name>FRANCISCO JAVIER TALLEDO VALDIVIEZO</name>
            <Placemark id="3264">
                <name>FARFAN MONTERO ORALIA FROILANDA</name>
                <description>A.H.ABELARDO QUIÑONES CH-15
Talara
Talara
Piura
Perú</description>
                <styleUrl>#3265</styleUrl>
                <Point id="3263">
                    <coordinates>-81.2572561,-4.5980411,0.0</coordinates>
                </Point>
            </Placemark>
            <Placemark id="3269">
                <name>JUAN HENRY VALENCIA ZARATE</name>
                <description>CA.01 0002 TALARA ALTA INT.2P
Talara
Talara
Piura
Perú</description>
                <styleUrl>#3270</styleUrl>
                <Point id="3268">
                    <coordinates>-81.2583358,-4.5904277,0.0</coordinates>
                </Point>
            </Placemark>
            <Placemark id="3274">
                <name>INVE.&amp; DISTRIB.MI JULITA SRL</name>
                <description>INVE.&amp; DISTRIB.MI JULITA SRL
CA.4 46
Talara
Talara
Piura
Perú</description>
                <styleUrl>#3275</styleUrl>
                <Point id="3273">
                    <coordinates>-81.25652,-4.590817,0.0</coordinates>
                </Point>
            </Placemark>
            <Placemark id="3279">
                <name>FARFAN MONTERO ORALIA FROILANDA</name>
                <description>A.H.ABELARDO QUIÑONES CH-15
Talara
Talara
Piura
Perú</description>
                <styleUrl>#3280</styleUrl>
                <Point id="3278">
                    <coordinates>-81.2572561,-4.5980411,0.0</coordinates>
                </Point>
            </Placemark>
            <Placemark id="3284">
                <name>ORTIZ SEMINARIO  EXEQUIEL</name>
                <description>ORTIZ SEMINARIO  EXEQUIEL
A.H.QUIÑONES MZ.CH-19 SECT 17
Talara
Talara
Piura
Perú</description>
                <styleUrl>#3285</styleUrl>
                <Point id="3283">
                    <coordinates>-81.2572869,-4.5978142,0.0</coordinates>
                </Point>
            </Placemark>
            <Placemark id="3289">
                <name>FERNANDO ALBURQUEQUE CHINGA</name>
                <description>FERNANDO ALBURQUEQUE CHINGA
MZ.W LTE.14 A.H.JOSE QUIÑONES - TAL
Talara
Talara
Piura
Perú</description>
                <styleUrl>#3290</styleUrl>
                <Point id="3288">
                    <coordinates>-81.2570202,-4.597546,0.0</coordinates>
                </Point>
            </Placemark>
            <Placemark id="3294">
                <name>SOCORRO CECILIA CARCAMO ECHE</name>
                <description>AAHH JOSE ABELARDO QUIÑONES Ñ-18
Talara
Talara
Piura
Perú</description>
                <styleUrl>#3295</styleUrl>
                <Point id="3293">
                    <coordinates>-81.2568001,-4.5957501,0.0</coordinates>
                </Point>
            </Placemark>
            <Placemark id="3299">
                <name>MARLENE CHIROQUE CASTILLO</name>
                <description>A.H.QUIÑONES MZ.M LT.3
Talara
Talara
Piura
Perú</description>
                <styleUrl>#3300</styleUrl>
                <Point id="3298">
                    <coordinates>-81.2563761,-4.5945741,0.0</coordinates>
                </Point>
            </Placemark>
            <Placemark id="3304">
                <name>PETRONILA VANISI VALLADARES CRUZ</name>
                <description>AAHH JORGE BASADRE E-19
Talara
Talara
Piura
Perú</description>
                <styleUrl>#3305</styleUrl>
                <Point id="3303">
                    <coordinates>-81.2568316,-4.5942069,0.0</coordinates>
                </Point>
            </Placemark>
            <Placemark id="3309">
                <name>MARIA VERENA PEÑA ANGELDONIS</name>
                <description>AAHH JORGE BASADRE A-02
Talara
Talara
Piura
Perú</description>
                <styleUrl>#3310</styleUrl>
                <Point id="3308">
                    <coordinates>-81.256241,-4.5941671,0.0</coordinates>
                </Point>
            </Placemark>
            <Placemark id="3314">
                <name>MADELEYNE RUNCIMAN SAQUIRAY</name>
                <description>Abelardo Quiñonez G-13
Talara
Talara
Piura
Perú</description>
                <styleUrl>#3315</styleUrl>
                <Point id="3313">
                    <coordinates>-81.2532525,-4.5947169,0.0</coordinates>
                </Point>
            </Placemark>
            <Placemark id="3319">
                <name>DORIS FARIAS PAICO</name>
                <description>AAHH JOSE ABELARDO QUIÑONES G-22
Talara
Talara
Piura
Perú</description>
                <styleUrl>#3320</styleUrl>
                <Point id="3318">
                    <coordinates>-81.2536946,-4.5953612,0.0</coordinates>
                </Point>
            </Placemark>
            <Placemark id="3324">
                <name>SANTOS SILVA ROSALES</name>
                <description>SANCHEZ CERRO B-18 T/ALTA
Talara
Talara
Piura
Perú</description>
                <styleUrl>#3325</styleUrl>
                <Point id="3323">
                    <coordinates>-81.254636,-4.596594,0.0</coordinates>
                </Point>
            </Placemark>
            <Placemark id="3329">
                <name>NERY DEL CARMEN MORAN INFANTE</name>
                <description>Sánchez cerro G 11
Pariñas
Pariñas
Piura
Perú</description>
                <styleUrl>#3330</styleUrl>
                <Point id="3328">
                    <coordinates>-81.2534739,-4.5965114,0.0</coordinates>
                </Point>
            </Placemark>
            <Placemark id="3334">
                <name>JUANA ROSA CORREA BENITES DE AGUILAR</name>
                <description>AAHH BUENOS AIRES M-1
Talara
Talara
Piura
Perú</description>
                <styleUrl>#3335</styleUrl>
                <Point id="3333">
                    <coordinates>-81.2516342,-4.5969864,0.0</coordinates>
                </Point>
            </Placemark>
            <Placemark id="3339">
                <name>CYNTHIA JANINA TAVARA FLORES</name>
                <description>AA. HH AMPLIACION SAN SEBASTIAN MZ
Talara
Talara
Piura
Perú</description>
                <styleUrl>#3340</styleUrl>
                <Point id="3338">
                    <coordinates>-81.2507447,-4.5966369,0.0</coordinates>
                </Point>
            </Placemark>
            <Placemark id="3344">
                <name>CARMEN MARITZA MOGOLLON DE MENDOZA</name>
                <description>AAHH nueva esperanza D3-5
Talara
Talara
Piura
Perú</description>
                <styleUrl>#3345</styleUrl>
                <Point id="3343">
                    <coordinates>-81.2517921,-4.5949971,0.0</coordinates>
                </Point>
            </Placemark>
            <Placemark id="3349">
                <name>SANTIAGO AYALA SANTOS</name>
                <description>AAHH SAN SEBASTIÁN H1-1
Talara
Talara
Áncash
Perú</description>
                <styleUrl>#3350</styleUrl>
                <Point id="3348">
                    <coordinates>-81.2508052,-4.5951519,0.0</coordinates>
                </Point>
            </Placemark>
            <Placemark id="3354">
                <name>KATTY MAITE GIRON TALLEDO</name>
                <description>A.H.9 DE OCTUBRE MZ.N LT.9
Talara
Talara
Piura
Perú</description>
                <styleUrl>#3355</styleUrl>
                <Point id="3353">
                    <coordinates>-81.254998,-4.593346,0.0</coordinates>
                </Point>
            </Placemark>
            <Placemark id="3359">
                <name>YOLANDA CHUICA DE ESTRADA</name>
                <description>San Sebastián  G1-4
Talara
Talara
Piura
Perú</description>
                <styleUrl>#3360</styleUrl>
                <Point id="3358">
                    <coordinates>-81.250459,-4.594913,0.0</coordinates>
                </Point>
            </Placemark>
            <Placemark id="3364">
                <name>LIZAMA DE_MARTINEZ VILMA</name>
                <description>LIZAMA DE_MARTINEZ VILMA
A.H.SAN SEBASTIAN F1 28 T.ALTA
Talara
Talara
Piura
Perú</description>
                <styleUrl>#3365</styleUrl>
                <Point id="3363">
                    <coordinates>-81.252394,-4.593069,0.0</coordinates>
                </Point>
            </Placemark>
            <Placemark id="3369">
                <name>SYLVANA FLORES BRAVO</name>
                <description>MZ G01 - 02 AH SAN SEBASTIAN
Talara
Talara
Piura
Perú</description>
                <styleUrl>#3370</styleUrl>
                <Point id="3368">
                    <coordinates>-81.250646,-4.594884,0.0</coordinates>
                </Point>
            </Placemark>
            <Placemark id="3374">
                <name>CRUZ ELERA JOSE TEOFILO</name>
                <description>CRUZ ELERA JOSE TEOFILO
A.H.SAN SEBASTIAN MZ.C1 LT.4
Talara
Talara
Piura
Perú</description>
                <styleUrl>#3375</styleUrl>
                <Point id="3373">
                    <coordinates>-81.251071,-4.593862,0.0</coordinates>
                </Point>
            </Placemark>
            <Placemark id="3379">
                <name>LUIS GONZAGA AYALA SANTOS</name>
                <description>MZ.F LT.1 AH.QUIÑONES TALARA A
Talara
Talara
Piura
Perú</description>
                <styleUrl>#3380</styleUrl>
                <Point id="3378">
                    <coordinates>-81.2538116,-4.5938564,0.0</coordinates>
                </Point>
            </Placemark>
            <Placemark id="3384">
                <name>SEGUNDO ESPINOZA CRISANTO</name>
                <description>A - 12 -D AA. HH 9 DE OCTUBRE - TAL
Talara
Talara
Piura
Perú</description>
                <styleUrl>#3385</styleUrl>
                <Point id="3383">
                    <coordinates>-81.253857,-4.5918122,0.0</coordinates>
                </Point>
            </Placemark>
            <Placemark id="3389">
                <name>PIEDRA MARTINEZ SANTOS FILOMENA</name>
                <description>C.P.9 DE OCTUBRE MZ-K LT-01
Talara
Talara
Piura
Perú</description>
                <styleUrl>#3390</styleUrl>
                <Point id="3388">
                    <coordinates>-81.2522088,-4.5926341,0.0</coordinates>
                </Point>
            </Placemark>
            <Placemark id="3394">
                <name>MERCEDES SANDOVAL ALMESTAR</name>
                <description>MZ M - 06 AH 09 DE OCTUBRE
Talara
Talara
Piura
Perú</description>
                <styleUrl>#3395</styleUrl>
                <Point id="3393">
                    <coordinates>-81.2534046,-4.5907461,0.0</coordinates>
                </Point>
            </Placemark>
            <Placemark id="3399">
                <name>ZIPPERLESS CATERING SERVICE E.I.R.L.</name>
                <description>ZIPPERLESS CATERING SERVICE E.I.R.L.
PQ. 22 NRO. 03 C.H.  TALARA
Talara
200701Talara
Piura
Perú</description>
                <styleUrl>#3400</styleUrl>
                <Point id="3398">
                    <coordinates>-81.2724617,-4.5785747,0.0</coordinates>
                </Point>
            </Placemark>
            <Placemark id="3404">
                <name>VARGAS DE NAMUCHE EULALIA</name>
                <description>Cristo rey A8
Talara
Talara
Piura
Perú</description>
                <styleUrl>#3405</styleUrl>
                <Point id="3403">
                    <coordinates>-81.2539099,-4.5899916,0.0</coordinates>
                </Point>
            </Placemark>
            <Placemark id="3409">
                <name>JOSE ARTURO VILELA MORE</name>
                <description>Tienda NRO 5 mercado Talara alta
Talara
Talara
Piura
Perú</description>
                <styleUrl>#3410</styleUrl>
                <Point id="3408">
                    <coordinates>-81.2559588,-4.5911737,0.0</coordinates>
                </Point>
            </Placemark>
            <Placemark id="3414">
                <name>JUAN HENRY VALENCIA ZARATE</name>
                <description>CA.01 0002 TALARA ALTA INT.2P
Talara
Talara
Piura
Perú</description>
                <styleUrl>#3415</styleUrl>
                <Point id="3413">
                    <coordinates>-81.2583358,-4.5904277,0.0</coordinates>
                </Point>
            </Placemark>
            <Placemark id="3419">
                <name>IRINA GABRIELA MARTINEZ LIZARRAGA</name>
                <description>Ampliación Micaela bastidas B-07, referencia frente al mercado serpetro
Talara
Talara
Piura
Perú</description>
                <styleUrl>#3420</styleUrl>
                <Point id="3418">
                    <coordinates>-81.2590732,-4.5913115,0.0</coordinates>
                </Point>
            </Placemark>
        </Folder>
    </Document>
</kml>
