<?xml version="1.0" encoding="UTF-8"?>
<kml xmlns="http://www.opengis.net/kml/2.2" xmlns:gx="http://www.google.com/kml/ext/2.2">
    <Document id="2155">
        <Folder id="2156">
            <Style id="2159">
                <IconStyle id="2160">
                    <color>ff0000ff</color>
                    <colorMode>normal</colorMode>
                    <scale>1</scale>
                    <heading>0</heading>
                    <Icon id="2161">
                        <href>http://maps.google.com/mapfiles/kml/pushpin/ylw-pushpin.png</href>
                    </Icon>
                </IconStyle>
            </Style>
            <Style id="2164">
                <IconStyle id="2165">
                    <color>ff0000ff</color>
                    <colorMode>normal</colorMode>
                    <scale>1</scale>
                    <heading>0</heading>
                    <Icon id="2166">
                        <href>http://maps.google.com/mapfiles/kml/pushpin/ylw-pushpin.png</href>
                    </Icon>
                </IconStyle>
            </Style>
            <Style id="2169">
                <IconStyle id="2170">
                    <color>ff0000ff</color>
                    <colorMode>normal</colorMode>
                    <scale>1</scale>
                    <heading>0</heading>
                    <Icon id="2171">
                        <href>http://maps.google.com/mapfiles/kml/pushpin/ylw-pushpin.png</href>
                    </Icon>
                </IconStyle>
            </Style>
            <Style id="2174">
                <IconStyle id="2175">
                    <color>ff0000ff</color>
                    <colorMode>normal</colorMode>
                    <scale>1</scale>
                    <heading>0</heading>
                    <Icon id="2176">
                        <href>http://maps.google.com/mapfiles/kml/pushpin/ylw-pushpin.png</href>
                    </Icon>
                </IconStyle>
            </Style>
            <Style id="2179">
                <IconStyle id="2180">
                    <color>ff0000ff</color>
                    <colorMode>normal</colorMode>
                    <scale>1</scale>
                    <heading>0</heading>
                    <Icon id="2181">
                        <href>http://maps.google.com/mapfiles/kml/pushpin/ylw-pushpin.png</href>
                    </Icon>
                </IconStyle>
            </Style>
            <Style id="2184">
                <IconStyle id="2185">
                    <color>ff0000ff</color>
                    <colorMode>normal</colorMode>
                    <scale>1</scale>
                    <heading>0</heading>
                    <Icon id="2186">
                        <href>http://maps.google.com/mapfiles/kml/pushpin/ylw-pushpin.png</href>
                    </Icon>
                </IconStyle>
            </Style>
            <Style id="2189">
                <IconStyle id="2190">
                    <color>ff0000ff</color>
                    <colorMode>normal</colorMode>
                    <scale>1</scale>
                    <heading>0</heading>
                    <Icon id="2191">
                        <href>http://maps.google.com/mapfiles/kml/pushpin/ylw-pushpin.png</href>
                    </Icon>
                </IconStyle>
            </Style>
            <Style id="2194">
                <IconStyle id="2195">
                    <color>ff0000ff</color>
                    <colorMode>normal</colorMode>
                    <scale>1</scale>
                    <heading>0</heading>
                    <Icon id="2196">
                        <href>http://maps.google.com/mapfiles/kml/pushpin/ylw-pushpin.png</href>
                    </Icon>
                </IconStyle>
            </Style>
            <Style id="2199">
                <IconStyle id="2200">
                    <color>ff0000ff</color>
                    <colorMode>normal</colorMode>
                    <scale>1</scale>
                    <heading>0</heading>
                    <Icon id="2201">
                        <href>http://maps.google.com/mapfiles/kml/pushpin/ylw-pushpin.png</href>
                    </Icon>
                </IconStyle>
            </Style>
            <Style id="2204">
                <IconStyle id="2205">
                    <color>ff0000ff</color>
                    <colorMode>normal</colorMode>
                    <scale>1</scale>
                    <heading>0</heading>
                    <Icon id="2206">
                        <href>http://maps.google.com/mapfiles/kml/pushpin/ylw-pushpin.png</href>
                    </Icon>
                </IconStyle>
            </Style>
            <Style id="2209">
                <IconStyle id="2210">
                    <color>ff0000ff</color>
                    <colorMode>normal</colorMode>
                    <scale>1</scale>
                    <heading>0</heading>
                    <Icon id="2211">
                        <href>http://maps.google.com/mapfiles/kml/pushpin/ylw-pushpin.png</href>
                    </Icon>
                </IconStyle>
            </Style>
            <Style id="2214">
                <IconStyle id="2215">
                    <color>ff0000ff</color>
                    <colorMode>normal</colorMode>
                    <scale>1</scale>
                    <heading>0</heading>
                    <Icon id="2216">
                        <href>http://maps.google.com/mapfiles/kml/pushpin/ylw-pushpin.png</href>
                    </Icon>
                </IconStyle>
            </Style>
            <Style id="2219">
                <IconStyle id="2220">
                    <color>ff0000ff</color>
                    <colorMode>normal</colorMode>
                    <scale>1</scale>
                    <heading>0</heading>
                    <Icon id="2221">
                        <href>http://maps.google.com/mapfiles/kml/pushpin/ylw-pushpin.png</href>
                    </Icon>
                </IconStyle>
            </Style>
            <Style id="2224">
                <IconStyle id="2225">
                    <color>ff0000ff</color>
                    <colorMode>normal</colorMode>
                    <scale>1</scale>
                    <heading>0</heading>
                    <Icon id="2226">
                        <href>http://maps.google.com/mapfiles/kml/pushpin/ylw-pushpin.png</href>
                    </Icon>
                </IconStyle>
            </Style>
            <Style id="2229">
                <IconStyle id="2230">
                    <color>ff0000ff</color>
                    <colorMode>normal</colorMode>
                    <scale>1</scale>
                    <heading>0</heading>
                    <Icon id="2231">
                        <href>http://maps.google.com/mapfiles/kml/pushpin/ylw-pushpin.png</href>
                    </Icon>
                </IconStyle>
            </Style>
            <Style id="2234">
                <IconStyle id="2235">
                    <color>ff0000ff</color>
                    <colorMode>normal</colorMode>
                    <scale>1</scale>
                    <heading>0</heading>
                    <Icon id="2236">
                        <href>http://maps.google.com/mapfiles/kml/pushpin/ylw-pushpin.png</href>
                    </Icon>
                </IconStyle>
            </Style>
            <Style id="2239">
                <IconStyle id="2240">
                    <color>ff0000ff</color>
                    <colorMode>normal</colorMode>
                    <scale>1</scale>
                    <heading>0</heading>
                    <Icon id="2241">
                        <href>http://maps.google.com/mapfiles/kml/pushpin/ylw-pushpin.png</href>
                    </Icon>
                </IconStyle>
            </Style>
            <Style id="2244">
                <IconStyle id="2245">
                    <color>ff0000ff</color>
                    <colorMode>normal</colorMode>
                    <scale>1</scale>
                    <heading>0</heading>
                    <Icon id="2246">
                        <href>http://maps.google.com/mapfiles/kml/pushpin/ylw-pushpin.png</href>
                    </Icon>
                </IconStyle>
            </Style>
            <Style id="2249">
                <IconStyle id="2250">
                    <color>ff0000ff</color>
                    <colorMode>normal</colorMode>
                    <scale>1</scale>
                    <heading>0</heading>
                    <Icon id="2251">
                        <href>http://maps.google.com/mapfiles/kml/pushpin/ylw-pushpin.png</href>
                    </Icon>
                </IconStyle>
            </Style>
            <Style id="2254">
                <IconStyle id="2255">
                    <color>ff0000ff</color>
                    <colorMode>normal</colorMode>
                    <scale>1</scale>
                    <heading>0</heading>
                    <Icon id="2256">
                        <href>http://maps.google.com/mapfiles/kml/pushpin/ylw-pushpin.png</href>
                    </Icon>
                </IconStyle>
            </Style>
            <Style id="2259">
                <IconStyle id="2260">
                    <color>ff0000ff</color>
                    <colorMode>normal</colorMode>
                    <scale>1</scale>
                    <heading>0</heading>
                    <Icon id="2261">
                        <href>http://maps.google.com/mapfiles/kml/pushpin/ylw-pushpin.png</href>
                    </Icon>
                </IconStyle>
            </Style>
            <Style id="2264">
                <IconStyle id="2265">
                    <color>ff0000ff</color>
                    <colorMode>normal</colorMode>
                    <scale>1</scale>
                    <heading>0</heading>
                    <Icon id="2266">
                        <href>http://maps.google.com/mapfiles/kml/pushpin/ylw-pushpin.png</href>
                    </Icon>
                </IconStyle>
            </Style>
            <Style id="2269">
                <IconStyle id="2270">
                    <color>ff0000ff</color>
                    <colorMode>normal</colorMode>
                    <scale>1</scale>
                    <heading>0</heading>
                    <Icon id="2271">
                        <href>http://maps.google.com/mapfiles/kml/pushpin/ylw-pushpin.png</href>
                    </Icon>
                </IconStyle>
            </Style>
            <Style id="2274">
                <IconStyle id="2275">
                    <color>ff0000ff</color>
                    <colorMode>normal</colorMode>
                    <scale>1</scale>
                    <heading>0</heading>
                    <Icon id="2276">
                        <href>http://maps.google.com/mapfiles/kml/pushpin/ylw-pushpin.png</href>
                    </Icon>
                </IconStyle>
            </Style>
            <Style id="2279">
                <IconStyle id="2280">
                    <color>ff0000ff</color>
                    <colorMode>normal</colorMode>
                    <scale>1</scale>
                    <heading>0</heading>
                    <Icon id="2281">
                        <href>http://maps.google.com/mapfiles/kml/pushpin/ylw-pushpin.png</href>
                    </Icon>
                </IconStyle>
            </Style>
            <Style id="2284">
                <IconStyle id="2285">
                    <color>ff0000ff</color>
                    <colorMode>normal</colorMode>
                    <scale>1</scale>
                    <heading>0</heading>
                    <Icon id="2286">
                        <href>http://maps.google.com/mapfiles/kml/pushpin/ylw-pushpin.png</href>
                    </Icon>
                </IconStyle>
            </Style>
            <Style id="2289">
                <IconStyle id="2290">
                    <color>ff0000ff</color>
                    <colorMode>normal</colorMode>
                    <scale>1</scale>
                    <heading>0</heading>
                    <Icon id="2291">
                        <href>http://maps.google.com/mapfiles/kml/pushpin/ylw-pushpin.png</href>
                    </Icon>
                </IconStyle>
            </Style>
            <Style id="2294">
                <IconStyle id="2295">
                    <color>ff0000ff</color>
                    <colorMode>normal</colorMode>
                    <scale>1</scale>
                    <heading>0</heading>
                    <Icon id="2296">
                        <href>http://maps.google.com/mapfiles/kml/pushpin/ylw-pushpin.png</href>
                    </Icon>
                </IconStyle>
            </Style>
            <Style id="2299">
                <IconStyle id="2300">
                    <color>ff0000ff</color>
                    <colorMode>normal</colorMode>
                    <scale>1</scale>
                    <heading>0</heading>
                    <Icon id="2301">
                        <href>http://maps.google.com/mapfiles/kml/pushpin/ylw-pushpin.png</href>
                    </Icon>
                </IconStyle>
            </Style>
            <Style id="2304">
                <IconStyle id="2305">
                    <color>ff0000ff</color>
                    <colorMode>normal</colorMode>
                    <scale>1</scale>
                    <heading>0</heading>
                    <Icon id="2306">
                        <href>http://maps.google.com/mapfiles/kml/pushpin/ylw-pushpin.png</href>
                    </Icon>
                </IconStyle>
            </Style>
            <Style id="2309">
                <IconStyle id="2310">
                    <color>ff0000ff</color>
                    <colorMode>normal</colorMode>
                    <scale>1</scale>
                    <heading>0</heading>
                    <Icon id="2311">
                        <href>http://maps.google.com/mapfiles/kml/pushpin/ylw-pushpin.png</href>
                    </Icon>
                </IconStyle>
            </Style>
            <Style id="2314">
                <IconStyle id="2315">
                    <color>ff0000ff</color>
                    <colorMode>normal</colorMode>
                    <scale>1</scale>
                    <heading>0</heading>
                    <Icon id="2316">
                        <href>http://maps.google.com/mapfiles/kml/pushpin/ylw-pushpin.png</href>
                    </Icon>
                </IconStyle>
            </Style>
            <Style id="2319">
                <IconStyle id="2320">
                    <color>ff0000ff</color>
                    <colorMode>normal</colorMode>
                    <scale>1</scale>
                    <heading>0</heading>
                    <Icon id="2321">
                        <href>http://maps.google.com/mapfiles/kml/pushpin/ylw-pushpin.png</href>
                    </Icon>
                </IconStyle>
            </Style>
            <Style id="2324">
                <IconStyle id="2325">
                    <color>ff0000ff</color>
                    <colorMode>normal</colorMode>
                    <scale>1</scale>
                    <heading>0</heading>
                    <Icon id="2326">
                        <href>http://maps.google.com/mapfiles/kml/pushpin/ylw-pushpin.png</href>
                    </Icon>
                </IconStyle>
            </Style>
            <Style id="2329">
                <IconStyle id="2330">
                    <color>ff0000ff</color>
                    <colorMode>normal</colorMode>
                    <scale>1</scale>
                    <heading>0</heading>
                    <Icon id="2331">
                        <href>http://maps.google.com/mapfiles/kml/pushpin/ylw-pushpin.png</href>
                    </Icon>
                </IconStyle>
            </Style>
            <Style id="2334">
                <IconStyle id="2335">
                    <color>ff0000ff</color>
                    <colorMode>normal</colorMode>
                    <scale>1</scale>
                    <heading>0</heading>
                    <Icon id="2336">
                        <href>http://maps.google.com/mapfiles/kml/pushpin/ylw-pushpin.png</href>
                    </Icon>
                </IconStyle>
            </Style>
            <Style id="2339">
                <IconStyle id="2340">
                    <color>ff0000ff</color>
                    <colorMode>normal</colorMode>
                    <scale>1</scale>
                    <heading>0</heading>
                    <Icon id="2341">
                        <href>http://maps.google.com/mapfiles/kml/pushpin/ylw-pushpin.png</href>
                    </Icon>
                </IconStyle>
            </Style>
            <Style id="2344">
                <IconStyle id="2345">
                    <color>ff0000ff</color>
                    <colorMode>normal</colorMode>
                    <scale>1</scale>
                    <heading>0</heading>
                    <Icon id="2346">
                        <href>http://maps.google.com/mapfiles/kml/pushpin/ylw-pushpin.png</href>
                    </Icon>
                </IconStyle>
            </Style>
            <Style id="2349">
                <IconStyle id="2350">
                    <color>ff0000ff</color>
                    <colorMode>normal</colorMode>
                    <scale>1</scale>
                    <heading>0</heading>
                    <Icon id="2351">
                        <href>http://maps.google.com/mapfiles/kml/pushpin/ylw-pushpin.png</href>
                    </Icon>
                </IconStyle>
            </Style>
            <Style id="2354">
                <IconStyle id="2355">
                    <color>ff0000ff</color>
                    <colorMode>normal</colorMode>
                    <scale>1</scale>
                    <heading>0</heading>
                    <Icon id="2356">
                        <href>http://maps.google.com/mapfiles/kml/pushpin/ylw-pushpin.png</href>
                    </Icon>
                </IconStyle>
            </Style>
            <Style id="2359">
                <IconStyle id="2360">
                    <color>ff0000ff</color>
                    <colorMode>normal</colorMode>
                    <scale>1</scale>
                    <heading>0</heading>
                    <Icon id="2361">
                        <href>http://maps.google.com/mapfiles/kml/pushpin/ylw-pushpin.png</href>
                    </Icon>
                </IconStyle>
            </Style>
            <Style id="2364">
                <IconStyle id="2365">
                    <color>ff0000ff</color>
                    <colorMode>normal</colorMode>
                    <scale>1</scale>
                    <heading>0</heading>
                    <Icon id="2366">
                        <href>http://maps.google.com/mapfiles/kml/pushpin/ylw-pushpin.png</href>
                    </Icon>
                </IconStyle>
            </Style>
            <Style id="2369">
                <IconStyle id="2370">
                    <color>ff0000ff</color>
                    <colorMode>normal</colorMode>
                    <scale>1</scale>
                    <heading>0</heading>
                    <Icon id="2371">
                        <href>http://maps.google.com/mapfiles/kml/pushpin/ylw-pushpin.png</href>
                    </Icon>
                </IconStyle>
            </Style>
            <name>CINTHYA FABIOLA CASTRO FARIAS</name>
            <Placemark id="2158">
                <name>ROSA NELY MOGOLLON AYALA DE FARIAS</name>
                <description>AA. HH NVO VILLA. HERMOSA MZ A - 6- PARIÑA
La Brea
La Brea
Piura
Perú</description>
                <styleUrl>#2159</styleUrl>
                <Point id="2157">
                    <coordinates>-81.3066878,-4.6647405,0.0</coordinates>
                </Point>
            </Placemark>
            <Placemark id="2163">
                <name>OFELIA TORRES DE TINEDO</name>
                <description>AV.JOSE GALVEZ 504
La Brea
La Brea
Piura
Perú</description>
                <styleUrl>#2164</styleUrl>
                <Point id="2162">
                    <coordinates>-81.3068789,-4.6628551,0.0</coordinates>
                </Point>
            </Placemark>
            <Placemark id="2168">
                <name>ALFREDO TORRES IPANAQUE</name>
                <description>CALLE CAJAMARCA 108
Talara
Talara
Piura
Perú</description>
                <styleUrl>#2169</styleUrl>
                <Point id="2167">
                    <coordinates>-81.3034087,-4.6576905,0.0</coordinates>
                </Point>
            </Placemark>
            <Placemark id="2173">
                <name>AURORA CAMPOS MECA DE MORE</name>
                <description>LAMBAYEQUE 151 Nº s/n.NEGRIT
La Brea
La Brea
Piura
Perú</description>
                <styleUrl>#2174</styleUrl>
                <Point id="2172">
                    <coordinates>-81.3033752,-4.6576614,0.0</coordinates>
                </Point>
            </Placemark>
            <Placemark id="2178">
                <name>OSCAR EDUARDO ROJAS MENDOZA</name>
                <description>Calle mercado 110 Negritos
La Brea
La Brea
Piura
Perú</description>
                <styleUrl>#2179</styleUrl>
                <Point id="2177">
                    <coordinates>-81.3038146,-4.6526329,0.0</coordinates>
                </Point>
            </Placemark>
            <Placemark id="2183">
                <name>MARIA DEL ROSARIO YAYPEN AMAYA</name>
                <description>BUENOS AIRES #184 NEGRITOS TALARA-TALARA
La Brea
Talara
Piura
Perú</description>
                <styleUrl>#2184</styleUrl>
                <Point id="2182">
                    <coordinates>-81.3026264,-4.6528572,0.0</coordinates>
                </Point>
            </Placemark>
            <Placemark id="2188">
                <name>MARIA GLORIA PARRILLA BRUNO DE JIMENEZ</name>
                <description>CALLE CAJAMARCA 118 NEGRITOS
La Brea
La Brea
Piura
Perú</description>
                <styleUrl>#2189</styleUrl>
                <Point id="2187">
                    <coordinates>-81.3032302,-4.659301,0.0</coordinates>
                </Point>
            </Placemark>
            <Placemark id="2193">
                <name>JOHANY PATRICIA ALVAREZ SILVA</name>
                <description>José Olaya c-13 La Brea
La Brea
Talara
Piura
Perú</description>
                <styleUrl>#2194</styleUrl>
                <Point id="2192">
                    <coordinates>-81.3115437,-4.6677558,0.0</coordinates>
                </Point>
            </Placemark>
            <Placemark id="2198">
                <name>ANA LORENA URBINA CRUZ</name>
                <description>Calle cusco s/n San Cristóbal bajo
La Brea
La Brea

Perú</description>
                <styleUrl>#2199</styleUrl>
                <Point id="2197">
                    <coordinates>-81.3026833,-4.6585546,0.0</coordinates>
                </Point>
            </Placemark>
            <Placemark id="2203">
                <name>SUGEYDI EDITH CORDOVA RUIZ</name>
                <description>Calle California B -07
La Brea
La Brea
Piura
Perú</description>
                <styleUrl>#2204</styleUrl>
                <Point id="2202">
                    <coordinates>-81.3015889,-4.6597545,0.0</coordinates>
                </Point>
            </Placemark>
            <Placemark id="2208">
                <name>MARIA MERCEDES MORALES FARFAN</name>
                <description>Calle Piura 101
La Brea
La Brea
Piura
Perú</description>
                <styleUrl>#2209</styleUrl>
                <Point id="2207">
                    <coordinates>-81.3025175,-4.6534959,0.0</coordinates>
                </Point>
            </Placemark>
            <Placemark id="2213">
                <name>NEGOCIOS E INVER.MARCESEV SAC</name>
                <description>NEGOCIOS E INVER.MARCESEV SAC
AV.GRAU 160
La Brea
200703La Brea
Piura
Perú</description>
                <styleUrl>#2214</styleUrl>
                <Point id="2212">
                    <coordinates>-81.3048013,-4.6528945,0.0</coordinates>
                </Point>
            </Placemark>
            <Placemark id="2218">
                <name>NEGOCIOS E INVER.MARCESEV SAC</name>
                <description>NEGOCIOS E INVER.MARCESEV SAC
AV.GRAU 160
La Brea
200703La Brea
Piura
Perú</description>
                <styleUrl>#2219</styleUrl>
                <Point id="2217">
                    <coordinates>-81.3048013,-4.6528945,0.0</coordinates>
                </Point>
            </Placemark>
            <Placemark id="2223">
                <name>MIRTA PALACIOS JUAREZ</name>
                <description>CAJAMARCA #102 NEGRITOS TALARA-TALARA
La Brea
La Brea
Piura
Perú</description>
                <styleUrl>#2224</styleUrl>
                <Point id="2222">
                    <coordinates>-81.3034,-4.657936,0.0</coordinates>
                </Point>
            </Placemark>
            <Placemark id="2228">
                <name>OFELIA TORRES DE TINEDO</name>
                <description>AV.JOSE GALVEZ 504
La Brea
La Brea
Piura
Perú</description>
                <styleUrl>#2229</styleUrl>
                <Point id="2227">
                    <coordinates>-81.3068789,-4.6628551,0.0</coordinates>
                </Point>
            </Placemark>
            <Placemark id="2233">
                <name>YOLANDA RUIZ GUTIERREZ</name>
                <description>AV.GRAU 299 LA BREA PARIÑAS
La Brea
La Brea
Piura
Perú</description>
                <styleUrl>#2234</styleUrl>
                <Point id="2232">
                    <coordinates>-81.3049366,-4.6537702,0.0</coordinates>
                </Point>
            </Placemark>
            <Placemark id="2238">
                <name>JESSICA MIRIAN LLIUYA ORTEGA</name>
                <description>Mercado #12
La Brea
La Brea
Piura
Perú</description>
                <styleUrl>#2239</styleUrl>
                <Point id="2237">
                    <coordinates>-81.3041262,-4.6527579,0.0</coordinates>
                </Point>
            </Placemark>
            <Placemark id="2243">
                <name>JESSICA MIRIAN LLIUYA ORTEGA</name>
                <description>Mercado #12
La Brea
La Brea
Piura
Perú</description>
                <styleUrl>#2244</styleUrl>
                <Point id="2242">
                    <coordinates>-81.3041262,-4.6527579,0.0</coordinates>
                </Point>
            </Placemark>
            <Placemark id="2248">
                <name>OSCAR EDUARDO ROJAS MENDOZA</name>
                <description>Calle mercado 110 Negritos
La Brea
La Brea
Piura
Perú</description>
                <styleUrl>#2249</styleUrl>
                <Point id="2247">
                    <coordinates>-81.3038146,-4.6526329,0.0</coordinates>
                </Point>
            </Placemark>
            <Placemark id="2253">
                <name>RONDOY CAMPOS WILMER FAUSTINO</name>
                <description>Calle Cajamarca 106
La Brea
La Brea
Piura
Perú</description>
                <styleUrl>#2254</styleUrl>
                <Point id="2252">
                    <coordinates>-81.3033883,-4.6577764,0.0</coordinates>
                </Point>
            </Placemark>
            <Placemark id="2258">
                <name>HERRERA ARMESTAR RONNIE ERICK</name>
                <description>HERRERA ARMESTAR RONNIE ERICK
CA.MERCADO N°231
La Brea
La Brea
Piura
Perú</description>
                <styleUrl>#2259</styleUrl>
                <Point id="2257">
                    <coordinates>-81.3039889,-4.6532526,0.0</coordinates>
                </Point>
            </Placemark>
            <Placemark id="2263">
                <name>HERRERA ARMESTAR RONNIE ERICK</name>
                <description>HERRERA ARMESTAR RONNIE ERICK
CA.MERCADO N°231
La Brea
La Brea
Piura
Perú</description>
                <styleUrl>#2264</styleUrl>
                <Point id="2262">
                    <coordinates>-81.3039889,-4.6532526,0.0</coordinates>
                </Point>
            </Placemark>
            <Placemark id="2268">
                <name>ALEXANDER JIMMY DIOSES CAMPOS</name>
                <description>CA.MERCADO 149 NGTS
La Brea
La Brea
Piura
Perú</description>
                <styleUrl>#2269</styleUrl>
                <Point id="2267">
                    <coordinates>-81.3038998,-4.6526335,0.0</coordinates>
                </Point>
            </Placemark>
            <Placemark id="2273">
                <name>MERCEDES MORAN RAMIREZ DE DOMINGUEZ</name>
                <description>MERCEDES MORAN RAMIREZ DE DOMINGUEZ
CA.ALEJANDRO TABOADA 312 - LA BREA
La Brea
Talara
Piura
Perú</description>
                <styleUrl>#2274</styleUrl>
                <Point id="2272">
                    <coordinates>-81.3040225,-4.6559699,0.0</coordinates>
                </Point>
            </Placemark>
            <Placemark id="2278">
                <name>MARITZA CRUZ SAENZ</name>
                <description>Junín 151 negritos ,frente el arco
Pariñas
Pariñas
Piura
Perú</description>
                <styleUrl>#2279</styleUrl>
                <Point id="2277">
                    <coordinates>-81.3032626,-4.6551683,0.0</coordinates>
                </Point>
            </Placemark>
            <Placemark id="2283">
                <name>CAMPOS  DE DIOSES  ELEODORA</name>
                <description>CAMPOS  DE DIOSES  ELEODORA
CA.PIURA 212-NEGRITOS
La Brea
La Brea
Piura
Perú</description>
                <styleUrl>#2284</styleUrl>
                <Point id="2282">
                    <coordinates>-81.3027577,-4.6553028,0.0</coordinates>
                </Point>
            </Placemark>
            <Placemark id="2288">
                <name>CLAROLINDA MOSCOSO MORAN</name>
                <description>SAN CRISTOBAL BAJO 100
La Brea
La Brea
Piura
Perú</description>
                <styleUrl>#2289</styleUrl>
                <Point id="2287">
                    <coordinates>-81.3027773,-4.6573617,0.0</coordinates>
                </Point>
            </Placemark>
            <Placemark id="2293">
                <name>AURORA CAMPOS MECA DE MORE</name>
                <description>LAMBAYEQUE 151 Nº s/n.NEGRIT
La Brea
La Brea
Piura
Perú</description>
                <styleUrl>#2294</styleUrl>
                <Point id="2292">
                    <coordinates>-81.3033752,-4.6576614,0.0</coordinates>
                </Point>
            </Placemark>
            <Placemark id="2298">
                <name>ALFREDO TORRES IPANAQUE</name>
                <description>CALLE CAJAMARCA 108
Talara
Talara
Piura
Perú</description>
                <styleUrl>#2299</styleUrl>
                <Point id="2297">
                    <coordinates>-81.3034087,-4.6576905,0.0</coordinates>
                </Point>
            </Placemark>
            <Placemark id="2303">
                <name>RONDOY CAMPOS WILMER FAUSTINO</name>
                <description>Calle Cajamarca 106
La Brea
La Brea
Piura
Perú</description>
                <styleUrl>#2304</styleUrl>
                <Point id="2302">
                    <coordinates>-81.3033883,-4.6577764,0.0</coordinates>
                </Point>
            </Placemark>
            <Placemark id="2308">
                <name>GASTON GARRIDO QUEZADA</name>
                <description>AV JORGE CHAVEZ N° 1,
La Brea
La Brea
Piura
Perú</description>
                <styleUrl>#2309</styleUrl>
                <Point id="2307">
                    <coordinates>-81.3051323,-4.6573461,0.0</coordinates>
                </Point>
            </Placemark>
            <Placemark id="2313">
                <name>MARLENE ATOCHE RAMIREZ</name>
                <description>URB.BELCO A-6 NEGRITOS
La Brea
La Brea
Piura
Perú</description>
                <styleUrl>#2314</styleUrl>
                <Point id="2312">
                    <coordinates>-81.3060561,-4.6596368,0.0</coordinates>
                </Point>
            </Placemark>
            <Placemark id="2318">
                <name>ALEXIS FARIAS CASTILLO</name>
                <description>
La Brea

Piura
Perú</description>
                <styleUrl>#2319</styleUrl>
                <Point id="2317">
                    <coordinates>-81.306219,-4.661902,0.0</coordinates>
                </Point>
            </Placemark>
            <Placemark id="2323">
                <name>OFELIA TORRES DE TINEDO</name>
                <description>AV.JOSE GALVEZ 504
La Brea
La Brea
Piura
Perú</description>
                <styleUrl>#2324</styleUrl>
                <Point id="2322">
                    <coordinates>-81.3068789,-4.6628551,0.0</coordinates>
                </Point>
            </Placemark>
            <Placemark id="2328">
                <name>ROSA ABAD SERNAQUE</name>
                <description>A.H.VILLA HERMOSA D-16 LA BREA
La Brea
La Brea
Piura
Perú</description>
                <styleUrl>#2329</styleUrl>
                <Point id="2327">
                    <coordinates>-81.3060764,-4.6639536,0.0</coordinates>
                </Point>
            </Placemark>
            <Placemark id="2333">
                <name>ROSA ABAD SERNAQUE</name>
                <description>A.H.VILLA HERMOSA D-16 LA BREA
La Brea
La Brea
Piura
Perú</description>
                <styleUrl>#2334</styleUrl>
                <Point id="2332">
                    <coordinates>-81.3060764,-4.6639536,0.0</coordinates>
                </Point>
            </Placemark>
            <Placemark id="2338">
                <name>BERTHA ARACELY GUERRERO REGALADO</name>
                <description>Villa hermosa F-6
La Brea
La Brea
Piura
Perú</description>
                <styleUrl>#2339</styleUrl>
                <Point id="2337">
                    <coordinates>-81.3063181,-4.6642727,0.0</coordinates>
                </Point>
            </Placemark>
            <Placemark id="2343">
                <name>ROSA NELY MOGOLLON AYALA DE FARIAS</name>
                <description>AA. HH NVO VILLA. HERMOSA MZ A - 6- PARIÑA
La Brea
La Brea
Piura
Perú</description>
                <styleUrl>#2344</styleUrl>
                <Point id="2342">
                    <coordinates>-81.3066878,-4.6647405,0.0</coordinates>
                </Point>
            </Placemark>
            <Placemark id="2348">
                <name>JUANA CIELO SANDOVAL DE ESPINOZA</name>
                <description>INDOAME.107 CALETA S.PAB.NGTOS
La Brea
La Brea
Piura
Perú</description>
                <styleUrl>#2349</styleUrl>
                <Point id="2347">
                    <coordinates>-81.3099129,-4.6663543,0.0</coordinates>
                </Point>
            </Placemark>
            <Placemark id="2353">
                <name>IRIS LILIANA ALVAREZ QUEREVALU</name>
                <description>AMPLIACION JOSE OLAYA A-11
Talara
Talara
Piura
Perú</description>
                <styleUrl>#2354</styleUrl>
                <Point id="2352">
                    <coordinates>-81.3113106,-4.6679203,0.0</coordinates>
                </Point>
            </Placemark>
            <Placemark id="2358">
                <name>KELY BEATRIZ CASTRO QUEREVALU</name>
                <description>Ampliación bahía José Olaya c-6
La Brea
La Brea
Piura
Perú</description>
                <styleUrl>#2359</styleUrl>
                <Point id="2357">
                    <coordinates>-81.311408,-4.668459,0.0</coordinates>
                </Point>
            </Placemark>
            <Placemark id="2363">
                <name>AURIA VILLEGAS MORE</name>
                <description>AAHH CALLE JOSÉ OLAYA A-03
Talara
Talara
Piura
Perú</description>
                <styleUrl>#2364</styleUrl>
                <Point id="2362">
                    <coordinates>-81.3115988,-4.6672588,0.0</coordinates>
                </Point>
            </Placemark>
            <Placemark id="2368">
                <name>CARY MARILU ALEMAN VALLADARES</name>
                <description>La Caleta calle grau#34_B espaldas del restaurante puerta del sabor
La Brea
La Brea
Piura
Perú</description>
                <styleUrl>#2369</styleUrl>
                <Point id="2367">
                    <coordinates>-81.3107132,-4.6659811,0.0</coordinates>
                </Point>
            </Placemark>
        </Folder>
        <Folder id="2372">
            <Style id="2375">
                <IconStyle id="2376">
                    <color>ffff0000</color>
                    <colorMode>normal</colorMode>
                    <scale>1</scale>
                    <heading>0</heading>
                    <Icon id="2377">
                        <href>http://maps.google.com/mapfiles/kml/pushpin/ylw-pushpin.png</href>
                    </Icon>
                </IconStyle>
            </Style>
            <Style id="2380">
                <IconStyle id="2381">
                    <color>ffff0000</color>
                    <colorMode>normal</colorMode>
                    <scale>1</scale>
                    <heading>0</heading>
                    <Icon id="2382">
                        <href>http://maps.google.com/mapfiles/kml/pushpin/ylw-pushpin.png</href>
                    </Icon>
                </IconStyle>
            </Style>
            <Style id="2385">
                <IconStyle id="2386">
                    <color>ffff0000</color>
                    <colorMode>normal</colorMode>
                    <scale>1</scale>
                    <heading>0</heading>
                    <Icon id="2387">
                        <href>http://maps.google.com/mapfiles/kml/pushpin/ylw-pushpin.png</href>
                    </Icon>
                </IconStyle>
            </Style>
            <Style id="2390">
                <IconStyle id="2391">
                    <color>ffff0000</color>
                    <colorMode>normal</colorMode>
                    <scale>1</scale>
                    <heading>0</heading>
                    <Icon id="2392">
                        <href>http://maps.google.com/mapfiles/kml/pushpin/ylw-pushpin.png</href>
                    </Icon>
                </IconStyle>
            </Style>
            <Style id="2395">
                <IconStyle id="2396">
                    <color>ffff0000</color>
                    <colorMode>normal</colorMode>
                    <scale>1</scale>
                    <heading>0</heading>
                    <Icon id="2397">
                        <href>http://maps.google.com/mapfiles/kml/pushpin/ylw-pushpin.png</href>
                    </Icon>
                </IconStyle>
            </Style>
            <Style id="2400">
                <IconStyle id="2401">
                    <color>ffff0000</color>
                    <colorMode>normal</colorMode>
                    <scale>1</scale>
                    <heading>0</heading>
                    <Icon id="2402">
                        <href>http://maps.google.com/mapfiles/kml/pushpin/ylw-pushpin.png</href>
                    </Icon>
                </IconStyle>
            </Style>
            <Style id="2405">
                <IconStyle id="2406">
                    <color>ffff0000</color>
                    <colorMode>normal</colorMode>
                    <scale>1</scale>
                    <heading>0</heading>
                    <Icon id="2407">
                        <href>http://maps.google.com/mapfiles/kml/pushpin/ylw-pushpin.png</href>
                    </Icon>
                </IconStyle>
            </Style>
            <Style id="2410">
                <IconStyle id="2411">
                    <color>ffff0000</color>
                    <colorMode>normal</colorMode>
                    <scale>1</scale>
                    <heading>0</heading>
                    <Icon id="2412">
                        <href>http://maps.google.com/mapfiles/kml/pushpin/ylw-pushpin.png</href>
                    </Icon>
                </IconStyle>
            </Style>
            <Style id="2415">
                <IconStyle id="2416">
                    <color>ffff0000</color>
                    <colorMode>normal</colorMode>
                    <scale>1</scale>
                    <heading>0</heading>
                    <Icon id="2417">
                        <href>http://maps.google.com/mapfiles/kml/pushpin/ylw-pushpin.png</href>
                    </Icon>
                </IconStyle>
            </Style>
            <Style id="2420">
                <IconStyle id="2421">
                    <color>ffff0000</color>
                    <colorMode>normal</colorMode>
                    <scale>1</scale>
                    <heading>0</heading>
                    <Icon id="2422">
                        <href>http://maps.google.com/mapfiles/kml/pushpin/ylw-pushpin.png</href>
                    </Icon>
                </IconStyle>
            </Style>
            <Style id="2425">
                <IconStyle id="2426">
                    <color>ffff0000</color>
                    <colorMode>normal</colorMode>
                    <scale>1</scale>
                    <heading>0</heading>
                    <Icon id="2427">
                        <href>http://maps.google.com/mapfiles/kml/pushpin/ylw-pushpin.png</href>
                    </Icon>
                </IconStyle>
            </Style>
            <Style id="2430">
                <IconStyle id="2431">
                    <color>ffff0000</color>
                    <colorMode>normal</colorMode>
                    <scale>1</scale>
                    <heading>0</heading>
                    <Icon id="2432">
                        <href>http://maps.google.com/mapfiles/kml/pushpin/ylw-pushpin.png</href>
                    </Icon>
                </IconStyle>
            </Style>
            <Style id="2435">
                <IconStyle id="2436">
                    <color>ffff0000</color>
                    <colorMode>normal</colorMode>
                    <scale>1</scale>
                    <heading>0</heading>
                    <Icon id="2437">
                        <href>http://maps.google.com/mapfiles/kml/pushpin/ylw-pushpin.png</href>
                    </Icon>
                </IconStyle>
            </Style>
            <name>FRANCISCO JAVIER TALLEDO VALDIVIEZO</name>
            <Placemark id="2374">
                <name>ANGELA JUDITH AVILA AMAYA DE ANTON</name>
                <description>Prolongación Grau SN
La Brea
La Brea
Piura
Perú</description>
                <styleUrl>#2375</styleUrl>
                <Point id="2373">
                    <coordinates>-81.304244,-4.6510414,0.0</coordinates>
                </Point>
            </Placemark>
            <Placemark id="2379">
                <name>JACQUELINE DEL MILAGRO LIZAMA ALVARADO</name>
                <description>Los pinos F 22
La Brea
La Brea
Piura
Perú</description>
                <styleUrl>#2380</styleUrl>
                <Point id="2378">
                    <coordinates>-81.3015594,-4.6477075,0.0</coordinates>
                </Point>
            </Placemark>
            <Placemark id="2384">
                <name>MIRIAN LORENA CARRILLO NIZAMA</name>
                <description>Micaela Bastidas calle Túpac Amaru c-10
La Brea
La Brea
Piura
Perú</description>
                <styleUrl>#2385</styleUrl>
                <Point id="2383">
                    <coordinates>-81.3017705,-4.6488745,0.0</coordinates>
                </Point>
            </Placemark>
            <Placemark id="2389">
                <name>JUAN ELIBERTO SUPO NAMUCHE</name>
                <description>CA.AYACUCHO 584
La Brea
La Brea
Piura
Perú</description>
                <styleUrl>#2390</styleUrl>
                <Point id="2388">
                    <coordinates>-81.303722,-4.64773,0.0</coordinates>
                </Point>
            </Placemark>
            <Placemark id="2394">
                <name>RAQUEL ROQUE MOGOLLON</name>
                <description>AREQUIPA 665 NGTOS
La Brea
El Alto
Piura
Perú</description>
                <styleUrl>#2395</styleUrl>
                <Point id="2393">
                    <coordinates>-81.30357,-4.646189,0.0</coordinates>
                </Point>
            </Placemark>
            <Placemark id="2399">
                <name>CHRISTY MULATILLO SARAY DE ORTIZ</name>
                <description>CA.AMAZONAS 249
La Brea
La Brea
Piura
Perú</description>
                <styleUrl>#2400</styleUrl>
                <Point id="2398">
                    <coordinates>-81.304885,-4.646526,0.0</coordinates>
                </Point>
            </Placemark>
            <Placemark id="2404">
                <name>KEVIN JUNIOR MARTINEZ MOGOLLON</name>
                <description>Calle Apurímac 224
La Brea
La Brea
Piura
Perú</description>
                <styleUrl>#2405</styleUrl>
                <Point id="2403">
                    <coordinates>-81.3043964,-4.6466208,0.0</coordinates>
                </Point>
            </Placemark>
            <Placemark id="2409">
                <name>RIVERA ZAVALA GUALBERTO</name>
                <description>AYACUCHO 317 LA DRAGA NGTOS.
La Brea
La Brea
Piura
Perú</description>
                <styleUrl>#2410</styleUrl>
                <Point id="2408">
                    <coordinates>-81.3034133,-4.6469898,0.0</coordinates>
                </Point>
            </Placemark>
            <Placemark id="2414">
                <name>MARGOT ISABEL GARRIDO SUPO</name>
                <description>CA.AYACUCHO 173 NEGRITOS
La Brea
La Brea
Piura
Perú</description>
                <styleUrl>#2415</styleUrl>
                <Point id="2413">
                    <coordinates>-81.3029478,-4.6458789,0.0</coordinates>
                </Point>
            </Placemark>
            <Placemark id="2419">
                <name>LUCY GARCIA CHERO DE ROQUE</name>
                <description>CA.AYACUCHO 95 LA DRAGA
La Brea
La Brea
Piura
Perú</description>
                <styleUrl>#2420</styleUrl>
                <Point id="2418">
                    <coordinates>-81.3027771,-4.6453034,0.0</coordinates>
                </Point>
            </Placemark>
            <Placemark id="2424">
                <name>LUCY VILLEGAS PURIZACA</name>
                <description>JOSE GALVEZ E_8 LA CAPILLA
La Brea
La Brea
Piura
Perú</description>
                <styleUrl>#2425</styleUrl>
                <Point id="2423">
                    <coordinates>-81.3029477,-4.6442782,0.0</coordinates>
                </Point>
            </Placemark>
            <Placemark id="2429">
                <name>ESTELA COVEÑAS CALDERON</name>
                <description>Calle Tupac amaru A - 22 (capilla negritos)
La Brea
La Brea
Piura
Perú</description>
                <styleUrl>#2430</styleUrl>
                <Point id="2428">
                    <coordinates>-81.3020337,-4.6436317,0.0</coordinates>
                </Point>
            </Placemark>
            <Placemark id="2434">
                <name>LILLY MILAGROS MORALES FARIAS</name>
                <description>1 de junio A-33
La Brea

Piura
Perú</description>
                <styleUrl>#2435</styleUrl>
                <Point id="2433">
                    <coordinates>-81.300203,-4.642356,0.0</coordinates>
                </Point>
            </Placemark>
        </Folder>
    </Document>
</kml>
