<?xml version="1.0" encoding="UTF-8"?>
<kml xmlns="http://www.opengis.net/kml/2.2" xmlns:gx="http://www.google.com/kml/ext/2.2">
    <Document id="2969">
        <Folder id="2970">
            <Style id="2973">
                <IconStyle id="2974">
                    <color>ff0000ff</color>
                    <colorMode>normal</colorMode>
                    <scale>1</scale>
                    <heading>0</heading>
                    <Icon id="2975">
                        <href>http://maps.google.com/mapfiles/kml/pushpin/ylw-pushpin.png</href>
                    </Icon>
                </IconStyle>
            </Style>
            <Style id="2978">
                <IconStyle id="2979">
                    <color>ff0000ff</color>
                    <colorMode>normal</colorMode>
                    <scale>1</scale>
                    <heading>0</heading>
                    <Icon id="2980">
                        <href>http://maps.google.com/mapfiles/kml/pushpin/ylw-pushpin.png</href>
                    </Icon>
                </IconStyle>
            </Style>
            <Style id="2983">
                <IconStyle id="2984">
                    <color>ff0000ff</color>
                    <colorMode>normal</colorMode>
                    <scale>1</scale>
                    <heading>0</heading>
                    <Icon id="2985">
                        <href>http://maps.google.com/mapfiles/kml/pushpin/ylw-pushpin.png</href>
                    </Icon>
                </IconStyle>
            </Style>
            <Style id="2988">
                <IconStyle id="2989">
                    <color>ff0000ff</color>
                    <colorMode>normal</colorMode>
                    <scale>1</scale>
                    <heading>0</heading>
                    <Icon id="2990">
                        <href>http://maps.google.com/mapfiles/kml/pushpin/ylw-pushpin.png</href>
                    </Icon>
                </IconStyle>
            </Style>
            <Style id="2993">
                <IconStyle id="2994">
                    <color>ff0000ff</color>
                    <colorMode>normal</colorMode>
                    <scale>1</scale>
                    <heading>0</heading>
                    <Icon id="2995">
                        <href>http://maps.google.com/mapfiles/kml/pushpin/ylw-pushpin.png</href>
                    </Icon>
                </IconStyle>
            </Style>
            <Style id="2998">
                <IconStyle id="2999">
                    <color>ff0000ff</color>
                    <colorMode>normal</colorMode>
                    <scale>1</scale>
                    <heading>0</heading>
                    <Icon id="3000">
                        <href>http://maps.google.com/mapfiles/kml/pushpin/ylw-pushpin.png</href>
                    </Icon>
                </IconStyle>
            </Style>
            <Style id="3003">
                <IconStyle id="3004">
                    <color>ff0000ff</color>
                    <colorMode>normal</colorMode>
                    <scale>1</scale>
                    <heading>0</heading>
                    <Icon id="3005">
                        <href>http://maps.google.com/mapfiles/kml/pushpin/ylw-pushpin.png</href>
                    </Icon>
                </IconStyle>
            </Style>
            <Style id="3008">
                <IconStyle id="3009">
                    <color>ff0000ff</color>
                    <colorMode>normal</colorMode>
                    <scale>1</scale>
                    <heading>0</heading>
                    <Icon id="3010">
                        <href>http://maps.google.com/mapfiles/kml/pushpin/ylw-pushpin.png</href>
                    </Icon>
                </IconStyle>
            </Style>
            <Style id="3013">
                <IconStyle id="3014">
                    <color>ff0000ff</color>
                    <colorMode>normal</colorMode>
                    <scale>1</scale>
                    <heading>0</heading>
                    <Icon id="3015">
                        <href>http://maps.google.com/mapfiles/kml/pushpin/ylw-pushpin.png</href>
                    </Icon>
                </IconStyle>
            </Style>
            <Style id="3018">
                <IconStyle id="3019">
                    <color>ff0000ff</color>
                    <colorMode>normal</colorMode>
                    <scale>1</scale>
                    <heading>0</heading>
                    <Icon id="3020">
                        <href>http://maps.google.com/mapfiles/kml/pushpin/ylw-pushpin.png</href>
                    </Icon>
                </IconStyle>
            </Style>
            <Style id="3023">
                <IconStyle id="3024">
                    <color>ff0000ff</color>
                    <colorMode>normal</colorMode>
                    <scale>1</scale>
                    <heading>0</heading>
                    <Icon id="3025">
                        <href>http://maps.google.com/mapfiles/kml/pushpin/ylw-pushpin.png</href>
                    </Icon>
                </IconStyle>
            </Style>
            <Style id="3028">
                <IconStyle id="3029">
                    <color>ff0000ff</color>
                    <colorMode>normal</colorMode>
                    <scale>1</scale>
                    <heading>0</heading>
                    <Icon id="3030">
                        <href>http://maps.google.com/mapfiles/kml/pushpin/ylw-pushpin.png</href>
                    </Icon>
                </IconStyle>
            </Style>
            <Style id="3033">
                <IconStyle id="3034">
                    <color>ff0000ff</color>
                    <colorMode>normal</colorMode>
                    <scale>1</scale>
                    <heading>0</heading>
                    <Icon id="3035">
                        <href>http://maps.google.com/mapfiles/kml/pushpin/ylw-pushpin.png</href>
                    </Icon>
                </IconStyle>
            </Style>
            <Style id="3038">
                <IconStyle id="3039">
                    <color>ff0000ff</color>
                    <colorMode>normal</colorMode>
                    <scale>1</scale>
                    <heading>0</heading>
                    <Icon id="3040">
                        <href>http://maps.google.com/mapfiles/kml/pushpin/ylw-pushpin.png</href>
                    </Icon>
                </IconStyle>
            </Style>
            <Style id="3043">
                <IconStyle id="3044">
                    <color>ff0000ff</color>
                    <colorMode>normal</colorMode>
                    <scale>1</scale>
                    <heading>0</heading>
                    <Icon id="3045">
                        <href>http://maps.google.com/mapfiles/kml/pushpin/ylw-pushpin.png</href>
                    </Icon>
                </IconStyle>
            </Style>
            <Style id="3048">
                <IconStyle id="3049">
                    <color>ff0000ff</color>
                    <colorMode>normal</colorMode>
                    <scale>1</scale>
                    <heading>0</heading>
                    <Icon id="3050">
                        <href>http://maps.google.com/mapfiles/kml/pushpin/ylw-pushpin.png</href>
                    </Icon>
                </IconStyle>
            </Style>
            <Style id="3053">
                <IconStyle id="3054">
                    <color>ff0000ff</color>
                    <colorMode>normal</colorMode>
                    <scale>1</scale>
                    <heading>0</heading>
                    <Icon id="3055">
                        <href>http://maps.google.com/mapfiles/kml/pushpin/ylw-pushpin.png</href>
                    </Icon>
                </IconStyle>
            </Style>
            <Style id="3058">
                <IconStyle id="3059">
                    <color>ff0000ff</color>
                    <colorMode>normal</colorMode>
                    <scale>1</scale>
                    <heading>0</heading>
                    <Icon id="3060">
                        <href>http://maps.google.com/mapfiles/kml/pushpin/ylw-pushpin.png</href>
                    </Icon>
                </IconStyle>
            </Style>
            <Style id="3063">
                <IconStyle id="3064">
                    <color>ff0000ff</color>
                    <colorMode>normal</colorMode>
                    <scale>1</scale>
                    <heading>0</heading>
                    <Icon id="3065">
                        <href>http://maps.google.com/mapfiles/kml/pushpin/ylw-pushpin.png</href>
                    </Icon>
                </IconStyle>
            </Style>
            <Style id="3068">
                <IconStyle id="3069">
                    <color>ff0000ff</color>
                    <colorMode>normal</colorMode>
                    <scale>1</scale>
                    <heading>0</heading>
                    <Icon id="3070">
                        <href>http://maps.google.com/mapfiles/kml/pushpin/ylw-pushpin.png</href>
                    </Icon>
                </IconStyle>
            </Style>
            <Style id="3073">
                <IconStyle id="3074">
                    <color>ff0000ff</color>
                    <colorMode>normal</colorMode>
                    <scale>1</scale>
                    <heading>0</heading>
                    <Icon id="3075">
                        <href>http://maps.google.com/mapfiles/kml/pushpin/ylw-pushpin.png</href>
                    </Icon>
                </IconStyle>
            </Style>
            <Style id="3078">
                <IconStyle id="3079">
                    <color>ff0000ff</color>
                    <colorMode>normal</colorMode>
                    <scale>1</scale>
                    <heading>0</heading>
                    <Icon id="3080">
                        <href>http://maps.google.com/mapfiles/kml/pushpin/ylw-pushpin.png</href>
                    </Icon>
                </IconStyle>
            </Style>
            <Style id="3083">
                <IconStyle id="3084">
                    <color>ff0000ff</color>
                    <colorMode>normal</colorMode>
                    <scale>1</scale>
                    <heading>0</heading>
                    <Icon id="3085">
                        <href>http://maps.google.com/mapfiles/kml/pushpin/ylw-pushpin.png</href>
                    </Icon>
                </IconStyle>
            </Style>
            <Style id="3088">
                <IconStyle id="3089">
                    <color>ff0000ff</color>
                    <colorMode>normal</colorMode>
                    <scale>1</scale>
                    <heading>0</heading>
                    <Icon id="3090">
                        <href>http://maps.google.com/mapfiles/kml/pushpin/ylw-pushpin.png</href>
                    </Icon>
                </IconStyle>
            </Style>
            <Style id="3093">
                <IconStyle id="3094">
                    <color>ff0000ff</color>
                    <colorMode>normal</colorMode>
                    <scale>1</scale>
                    <heading>0</heading>
                    <Icon id="3095">
                        <href>http://maps.google.com/mapfiles/kml/pushpin/ylw-pushpin.png</href>
                    </Icon>
                </IconStyle>
            </Style>
            <Style id="3098">
                <IconStyle id="3099">
                    <color>ff0000ff</color>
                    <colorMode>normal</colorMode>
                    <scale>1</scale>
                    <heading>0</heading>
                    <Icon id="3100">
                        <href>http://maps.google.com/mapfiles/kml/pushpin/ylw-pushpin.png</href>
                    </Icon>
                </IconStyle>
            </Style>
            <Style id="3103">
                <IconStyle id="3104">
                    <color>ff0000ff</color>
                    <colorMode>normal</colorMode>
                    <scale>1</scale>
                    <heading>0</heading>
                    <Icon id="3105">
                        <href>http://maps.google.com/mapfiles/kml/pushpin/ylw-pushpin.png</href>
                    </Icon>
                </IconStyle>
            </Style>
            <Style id="3108">
                <IconStyle id="3109">
                    <color>ff0000ff</color>
                    <colorMode>normal</colorMode>
                    <scale>1</scale>
                    <heading>0</heading>
                    <Icon id="3110">
                        <href>http://maps.google.com/mapfiles/kml/pushpin/ylw-pushpin.png</href>
                    </Icon>
                </IconStyle>
            </Style>
            <Style id="3113">
                <IconStyle id="3114">
                    <color>ff0000ff</color>
                    <colorMode>normal</colorMode>
                    <scale>1</scale>
                    <heading>0</heading>
                    <Icon id="3115">
                        <href>http://maps.google.com/mapfiles/kml/pushpin/ylw-pushpin.png</href>
                    </Icon>
                </IconStyle>
            </Style>
            <Style id="3118">
                <IconStyle id="3119">
                    <color>ff0000ff</color>
                    <colorMode>normal</colorMode>
                    <scale>1</scale>
                    <heading>0</heading>
                    <Icon id="3120">
                        <href>http://maps.google.com/mapfiles/kml/pushpin/ylw-pushpin.png</href>
                    </Icon>
                </IconStyle>
            </Style>
            <Style id="3123">
                <IconStyle id="3124">
                    <color>ff0000ff</color>
                    <colorMode>normal</colorMode>
                    <scale>1</scale>
                    <heading>0</heading>
                    <Icon id="3125">
                        <href>http://maps.google.com/mapfiles/kml/pushpin/ylw-pushpin.png</href>
                    </Icon>
                </IconStyle>
            </Style>
            <Style id="3128">
                <IconStyle id="3129">
                    <color>ff0000ff</color>
                    <colorMode>normal</colorMode>
                    <scale>1</scale>
                    <heading>0</heading>
                    <Icon id="3130">
                        <href>http://maps.google.com/mapfiles/kml/pushpin/ylw-pushpin.png</href>
                    </Icon>
                </IconStyle>
            </Style>
            <Style id="3133">
                <IconStyle id="3134">
                    <color>ff0000ff</color>
                    <colorMode>normal</colorMode>
                    <scale>1</scale>
                    <heading>0</heading>
                    <Icon id="3135">
                        <href>http://maps.google.com/mapfiles/kml/pushpin/ylw-pushpin.png</href>
                    </Icon>
                </IconStyle>
            </Style>
            <Style id="3138">
                <IconStyle id="3139">
                    <color>ff0000ff</color>
                    <colorMode>normal</colorMode>
                    <scale>1</scale>
                    <heading>0</heading>
                    <Icon id="3140">
                        <href>http://maps.google.com/mapfiles/kml/pushpin/ylw-pushpin.png</href>
                    </Icon>
                </IconStyle>
            </Style>
            <Style id="3143">
                <IconStyle id="3144">
                    <color>ff0000ff</color>
                    <colorMode>normal</colorMode>
                    <scale>1</scale>
                    <heading>0</heading>
                    <Icon id="3145">
                        <href>http://maps.google.com/mapfiles/kml/pushpin/ylw-pushpin.png</href>
                    </Icon>
                </IconStyle>
            </Style>
            <Style id="3148">
                <IconStyle id="3149">
                    <color>ff0000ff</color>
                    <colorMode>normal</colorMode>
                    <scale>1</scale>
                    <heading>0</heading>
                    <Icon id="3150">
                        <href>http://maps.google.com/mapfiles/kml/pushpin/ylw-pushpin.png</href>
                    </Icon>
                </IconStyle>
            </Style>
            <Style id="3153">
                <IconStyle id="3154">
                    <color>ff0000ff</color>
                    <colorMode>normal</colorMode>
                    <scale>1</scale>
                    <heading>0</heading>
                    <Icon id="3155">
                        <href>http://maps.google.com/mapfiles/kml/pushpin/ylw-pushpin.png</href>
                    </Icon>
                </IconStyle>
            </Style>
            <Style id="3158">
                <IconStyle id="3159">
                    <color>ff0000ff</color>
                    <colorMode>normal</colorMode>
                    <scale>1</scale>
                    <heading>0</heading>
                    <Icon id="3160">
                        <href>http://maps.google.com/mapfiles/kml/pushpin/ylw-pushpin.png</href>
                    </Icon>
                </IconStyle>
            </Style>
            <Style id="3163">
                <IconStyle id="3164">
                    <color>ff0000ff</color>
                    <colorMode>normal</colorMode>
                    <scale>1</scale>
                    <heading>0</heading>
                    <Icon id="3165">
                        <href>http://maps.google.com/mapfiles/kml/pushpin/ylw-pushpin.png</href>
                    </Icon>
                </IconStyle>
            </Style>
            <Style id="3168">
                <IconStyle id="3169">
                    <color>ff0000ff</color>
                    <colorMode>normal</colorMode>
                    <scale>1</scale>
                    <heading>0</heading>
                    <Icon id="3170">
                        <href>http://maps.google.com/mapfiles/kml/pushpin/ylw-pushpin.png</href>
                    </Icon>
                </IconStyle>
            </Style>
            <name>CINTHYA FABIOLA CASTRO FARIAS</name>
            <Placemark id="2972">
                <name>JIMENEZ ZAPATA DE COELLO PETRONILA</name>
                <description>JIMENEZ ZAPATA DE COELLO PETRONILA
Urb los pinos E-10
Talara
Talara
Piura
Perú</description>
                <styleUrl>#2973</styleUrl>
                <Point id="2971">
                    <coordinates>-81.2577126,-4.5814713,0.0</coordinates>
                </Point>
            </Placemark>
            <Placemark id="2977">
                <name>JIMENEZ ZAPATA DE COELLO PETRONILA</name>
                <description>JIMENEZ ZAPATA DE COELLO PETRONILA
Urb los pinos E-10
Talara
Talara
Piura
Perú</description>
                <styleUrl>#2978</styleUrl>
                <Point id="2976">
                    <coordinates>-81.2577126,-4.5814713,0.0</coordinates>
                </Point>
            </Placemark>
            <Placemark id="2982">
                <name>VERONICA YULISA GOMEZ OTOYA</name>
                <description>AAHH AMPLIACION JOSE GALVEZ C-1
Talara
Talara
Piura
Perú</description>
                <styleUrl>#2983</styleUrl>
                <Point id="2981">
                    <coordinates>-81.2570894,-4.5996484,0.0</coordinates>
                </Point>
            </Placemark>
            <Placemark id="2987">
                <name>VERONICA YULISA GOMEZ OTOYA</name>
                <description>AAHH AMPLIACION JOSE GALVEZ C-1
Talara
Talara
Piura
Perú</description>
                <styleUrl>#2988</styleUrl>
                <Point id="2986">
                    <coordinates>-81.2570894,-4.5996484,0.0</coordinates>
                </Point>
            </Placemark>
            <Placemark id="2992">
                <name>CARMEN CECILIA OREJUELA CHIRINOS</name>
                <description>Parque 42 -39
Talara
Talara
Piura
Perú</description>
                <styleUrl>#2993</styleUrl>
                <Point id="2991">
                    <coordinates>-81.2710936,-4.5830441,0.0</coordinates>
                </Point>
            </Placemark>
            <Placemark id="2997">
                <name>CARMELA DEL ROCIO LIVIAPOMA CUNYA DE RENTERIA</name>
                <description>MZ.I-19 MARIO AGUIRRE
Talara
Talara
Piura
Perú</description>
                <styleUrl>#2998</styleUrl>
                <Point id="2996">
                    <coordinates>-81.2486225,-4.5884322,0.0</coordinates>
                </Point>
            </Placemark>
            <Placemark id="3002">
                <name>FRANKLIN KEINER VILLARREYES OSORIA</name>
                <description>En maruja sullon E-29
Talara

Piura
Perú</description>
                <styleUrl>#3003</styleUrl>
                <Point id="3001">
                    <coordinates>-81.250223,-4.59098,0.0</coordinates>
                </Point>
            </Placemark>
            <Placemark id="3007">
                <name>SINAI YESSENIA VILLARREYES MEJIA</name>
                <description>AAHH NUEVO HORIZONTE MZ B1 LT 22 PARIÑAS
Talara
Talara
Piura
Perú</description>
                <styleUrl>#3008</styleUrl>
                <Point id="3006">
                    <coordinates>-81.247327,-4.586072,0.0</coordinates>
                </Point>
            </Placemark>
            <Placemark id="3012">
                <name>FANNY DANITZA AMAYA VIVAS</name>
                <description>Jorge Chávez J-9
Pariñas
Pariñas
Piura
Perú</description>
                <styleUrl>#3013</styleUrl>
                <Point id="3011">
                    <coordinates>-81.2510228,-4.5939318,0.0</coordinates>
                </Point>
            </Placemark>
            <Placemark id="3017">
                <name>AMAYA PASACHE MANUEL ARMANDO</name>
                <description>AMAYA PASACHE MANUEL ARMANDO
A.H.PILAR NORES MZ.I LT.4
Talara
Talara
Piura
Perú</description>
                <styleUrl>#3018</styleUrl>
                <Point id="3016">
                    <coordinates>-81.2485948,-4.5982051,0.0</coordinates>
                </Point>
            </Placemark>
            <Placemark id="3022">
                <name>ROSA MARIA PEÑA CORONADO</name>
                <description>K - 10 AA. HH PILAR NURES - TALARA
Talara
Talara
Piura
Perú</description>
                <styleUrl>#3023</styleUrl>
                <Point id="3021">
                    <coordinates>-81.2485522,-4.5978862,0.0</coordinates>
                </Point>
            </Placemark>
            <Placemark id="3027">
                <name>JOEL DAVID LEON VILLARREYES</name>
                <description>AA HH Jorge Chávez  V-01 Talara
Talara
Talara
Piura
Perú</description>
                <styleUrl>#3028</styleUrl>
                <Point id="3026">
                    <coordinates>-81.2477673,-4.5949975,0.0</coordinates>
                </Point>
            </Placemark>
            <Placemark id="3032">
                <name>RAQUEL NOEMI RONDOY SANCHEZ</name>
                <description>AA. HH JORGE CHAVEZ MZ X LT 5 - PAR
Talara
Talara
Piura
Perú</description>
                <styleUrl>#3033</styleUrl>
                <Point id="3031">
                    <coordinates>-81.2471023,-4.5941753,0.0</coordinates>
                </Point>
            </Placemark>
            <Placemark id="3037">
                <name>YANETH SOLEDAD VILLARREYES VALLADARES</name>
                <description>JORGE CHAVEZ MZN-26 TALARA ALT
Talara
Talara
Piura
Perú</description>
                <styleUrl>#3038</styleUrl>
                <Point id="3036">
                    <coordinates>-81.2484187,-4.593802,0.0</coordinates>
                </Point>
            </Placemark>
            <Placemark id="3042">
                <name>ARMIJOS BALLESTEROS MANUEL ROLANDO</name>
                <description>Jorge Chávez R-11
Pariñas
Pariñas
Piura
Perú</description>
                <styleUrl>#3043</styleUrl>
                <Point id="3041">
                    <coordinates>-81.2486639,-4.5947091,0.0</coordinates>
                </Point>
            </Placemark>
            <Placemark id="3047">
                <name>DIONILA OVIEDO MOSQUITO</name>
                <description>MZ G - 13 AH JORGE CHAVEZ
Talara
Talara
Piura
Perú</description>
                <styleUrl>#3048</styleUrl>
                <Point id="3046">
                    <coordinates>-81.2489577,-4.5910339,0.0</coordinates>
                </Point>
            </Placemark>
            <Placemark id="3052">
                <name>ESTERFILIA GARCIA OGOÑA</name>
                <description>Jorge Chávez F-1
Talara
Talara
Piura
Perú</description>
                <styleUrl>#3053</styleUrl>
                <Point id="3051">
                    <coordinates>-81.2487406,-4.5922939,0.0</coordinates>
                </Point>
            </Placemark>
            <Placemark id="3057">
                <name>ESCOBEDO CUNYA EVELYN</name>
                <description>ESCOBEDO CUNYA EVELYN
MARIO AGUIRRE A-18
Talara
Talara
Piura
Perú</description>
                <styleUrl>#3058</styleUrl>
                <Point id="3056">
                    <coordinates>-81.2495766,-4.5876006,0.0</coordinates>
                </Point>
            </Placemark>
            <Placemark id="3062">
                <name>AYALA DE DURAND CEFERINA</name>
                <description>A.H.MARIO AGUIRRE MZ.P MZ.22
Talara
Talara
Piura
Perú</description>
                <styleUrl>#3063</styleUrl>
                <Point id="3061">
                    <coordinates>-81.2495006,-4.5861161,0.0</coordinates>
                </Point>
            </Placemark>
            <Placemark id="3067">
                <name>MORAIMA CUNIA CASTILLO</name>
                <description>MZ D 2 LT.4 AH NUEVO HORIZON
Talara
Talara
Piura
Perú</description>
                <styleUrl>#3068</styleUrl>
                <Point id="3066">
                    <coordinates>-81.2496284,-4.5860115,0.0</coordinates>
                </Point>
            </Placemark>
            <Placemark id="3072">
                <name>ANGELITA NORES DE AMAYA</name>
                <description>NUEVO HORIZONTE H2_13A
Talara
Talara
Piura
Perú</description>
                <styleUrl>#3073</styleUrl>
                <Point id="3071">
                    <coordinates>-81.2488574,-4.585765,0.0</coordinates>
                </Point>
            </Placemark>
            <Placemark id="3077">
                <name>RUTH LILIANA JUAREZ ORTIZ</name>
                <description>Nuevo HorizonteE2-21
Talara
Talara
Piura
Perú</description>
                <styleUrl>#3078</styleUrl>
                <Point id="3076">
                    <coordinates>-81.2485795,-4.5860641,0.0</coordinates>
                </Point>
            </Placemark>
            <Placemark id="3082">
                <name>ANA ELIZABETH CRUZ NIZAMA</name>
                <description>Nuevo horizonte F2-04
Talara
Talara
Piura
Perú</description>
                <styleUrl>#3083</styleUrl>
                <Point id="3081">
                    <coordinates>-81.2485546,-4.5860245,0.0</coordinates>
                </Point>
            </Placemark>
            <Placemark id="3087">
                <name>ANGIE YENT LINGWAY ARENAS</name>
                <description>Nuevo Horizonte P2-22
Talara
Talara
Piura
Perú</description>
                <styleUrl>#3088</styleUrl>
                <Point id="3086">
                    <coordinates>-81.247203,-4.5851742,0.0</coordinates>
                </Point>
            </Placemark>
            <Placemark id="3092">
                <name>JESÚS VERÓNICA RODRIGUEZ RODRIGUEZ</name>
                <description>AAHH Nuevo Horizonte E1-5
Talara
Talara
Piura
Perú</description>
                <styleUrl>#3093</styleUrl>
                <Point id="3091">
                    <coordinates>-81.2473257,-4.5864999,0.0</coordinates>
                </Point>
            </Placemark>
            <Placemark id="3097">
                <name>DANITZA PAOLA AMAYA NORES</name>
                <description>MZ.B1 LT.18 AH.NVO HORIZONTE
Talara
Talara
Piura
Perú</description>
                <styleUrl>#3098</styleUrl>
                <Point id="3096">
                    <coordinates>-81.2472793,-4.5862812,0.0</coordinates>
                </Point>
            </Placemark>
            <Placemark id="3102">
                <name>SARA DE LOS MILAGROS PERALTA MORENO</name>
                <description>Mario Aguirre B_23
Pariñas
Talara
Piura
Perú</description>
                <styleUrl>#3103</styleUrl>
                <Point id="3101">
                    <coordinates>-81.2489686,-4.5874586,0.0</coordinates>
                </Point>
            </Placemark>
            <Placemark id="3107">
                <name>GONZALES ORDINOLA DE SUNCION</name>
                <description>MARRIO AGUIRRE F-17
Talara
Talara
Piura
Perú</description>
                <styleUrl>#3108</styleUrl>
                <Point id="3106">
                    <coordinates>-81.2479165,-4.5871341,0.0</coordinates>
                </Point>
            </Placemark>
            <Placemark id="3112">
                <name>MONICA CHARITO VALLADARES DE IMAN</name>
                <description>N. HORIZONTE F1-26
Talara
Talara
Piura
Perú</description>
                <styleUrl>#3113</styleUrl>
                <Point id="3111">
                    <coordinates>-81.2465527,-4.586821,0.0</coordinates>
                </Point>
            </Placemark>
            <Placemark id="3117">
                <name>AMELIA RUESTAS VILLEGAS</name>
                <description>AMELIA RUESTAS VILLEGAS
MZ.G1 LTE.20 NUEVO HORIZONTE - TALA
Talara
Talara
Piura
Perú</description>
                <styleUrl>#3118</styleUrl>
                <Point id="3116">
                    <coordinates>-81.2466102,-4.5871277,0.0</coordinates>
                </Point>
            </Placemark>
            <Placemark id="3122">
                <name>MIGUEL ANTONIO OCHOA ZAPATA</name>
                <description>NUEVO HORIZONTE J1_18
Talara
Talara
Piura
Perú</description>
                <styleUrl>#3123</styleUrl>
                <Point id="3121">
                    <coordinates>-81.2466838,-4.5879729,0.0</coordinates>
                </Point>
            </Placemark>
            <Placemark id="3127">
                <name>JEAN CARLOS LAVADO ADANAQUE</name>
                <description>Nuevo horizonte J1-19
Talara
Talara
Piura
Perú</description>
                <styleUrl>#3128</styleUrl>
                <Point id="3126">
                    <coordinates>-81.2465305,-4.587981,0.0</coordinates>
                </Point>
            </Placemark>
            <Placemark id="3132">
                <name>NANCY MARTINEZ AVILA</name>
                <description>NVO HORIZONTE MZ N1 - 25
Talara
Talara
Piura
Perú</description>
                <styleUrl>#3133</styleUrl>
                <Point id="3131">
                    <coordinates>-81.2472722,-4.5882913,0.0</coordinates>
                </Point>
            </Placemark>
            <Placemark id="3137">
                <name>YOLANDA ESPINOZA SERNAQUE</name>
                <description>NUEVO HORIZONTE N1_16
Talara
Talara
Piura
Perú</description>
                <styleUrl>#3138</styleUrl>
                <Point id="3136">
                    <coordinates>-81.2471712,-4.5889514,0.0</coordinates>
                </Point>
            </Placemark>
            <Placemark id="3142">
                <name>ROCIO ARACELY ARMIJOS SANDOVAL</name>
                <description>AAHH NUEVO HORIZONTE E-03 LOTE 16
Talara
Talara
Piura
Perú</description>
                <styleUrl>#3143</styleUrl>
                <Point id="3141">
                    <coordinates>-81.2466288,-4.5914874,0.0</coordinates>
                </Point>
            </Placemark>
            <Placemark id="3147">
                <name>NANCY MELINA SAAVEDRA MORE</name>
                <description>Nuevo horizonte R1-1
Talara
Talara
Piura
Perú</description>
                <styleUrl>#3148</styleUrl>
                <Point id="3146">
                    <coordinates>-81.2472057,-4.5895691,0.0</coordinates>
                </Point>
            </Placemark>
            <Placemark id="3152">
                <name>MARITZA ISABEL SILVA SOSA</name>
                <description>nuevo horizonte v1-22
Talara

Piura
Perú</description>
                <styleUrl>#3153</styleUrl>
                <Point id="3151">
                    <coordinates>-81.247467,-4.589954,0.0</coordinates>
                </Point>
            </Placemark>
            <Placemark id="3157">
                <name>Jose Abraham Lescano Marcelo</name>
                <description>Los vencedores E_12
Pariñas
Pariñas
Piura
Perú</description>
                <styleUrl>#3158</styleUrl>
                <Point id="3156">
                    <coordinates>-81.2489577,-4.5910339,0.0</coordinates>
                </Point>
            </Placemark>
            <Placemark id="3162">
                <name>MARIA ROSARIO CORDOVA CORDOVA</name>
                <description>A.H.VENCEDORES MZ.C LT.13
Talara
Talara
Piura
Perú</description>
                <styleUrl>#3163</styleUrl>
                <Point id="3161">
                    <coordinates>-81.2481741,-4.5906235,0.0</coordinates>
                </Point>
            </Placemark>
            <Placemark id="3167">
                <name>DORIS MATILDE RODRIGUEZ RAMOS</name>
                <description>LOS VENCEDORES C-7 TALARA
Talara
Talara
Piura
Perú</description>
                <styleUrl>#3168</styleUrl>
                <Point id="3166">
                    <coordinates>-81.2499903,-4.5891316,0.0</coordinates>
                </Point>
            </Placemark>
        </Folder>
        <Folder id="3171">
            <Style id="3174">
                <IconStyle id="3175">
                    <color>ffff0000</color>
                    <colorMode>normal</colorMode>
                    <scale>1</scale>
                    <heading>0</heading>
                    <Icon id="3176">
                        <href>http://maps.google.com/mapfiles/kml/pushpin/ylw-pushpin.png</href>
                    </Icon>
                </IconStyle>
            </Style>
            <Style id="3179">
                <IconStyle id="3180">
                    <color>ffff0000</color>
                    <colorMode>normal</colorMode>
                    <scale>1</scale>
                    <heading>0</heading>
                    <Icon id="3181">
                        <href>http://maps.google.com/mapfiles/kml/pushpin/ylw-pushpin.png</href>
                    </Icon>
                </IconStyle>
            </Style>
            <Style id="3184">
                <IconStyle id="3185">
                    <color>ffff0000</color>
                    <colorMode>normal</colorMode>
                    <scale>1</scale>
                    <heading>0</heading>
                    <Icon id="3186">
                        <href>http://maps.google.com/mapfiles/kml/pushpin/ylw-pushpin.png</href>
                    </Icon>
                </IconStyle>
            </Style>
            <Style id="3189">
                <IconStyle id="3190">
                    <color>ffff0000</color>
                    <colorMode>normal</colorMode>
                    <scale>1</scale>
                    <heading>0</heading>
                    <Icon id="3191">
                        <href>http://maps.google.com/mapfiles/kml/pushpin/ylw-pushpin.png</href>
                    </Icon>
                </IconStyle>
            </Style>
            <Style id="3194">
                <IconStyle id="3195">
                    <color>ffff0000</color>
                    <colorMode>normal</colorMode>
                    <scale>1</scale>
                    <heading>0</heading>
                    <Icon id="3196">
                        <href>http://maps.google.com/mapfiles/kml/pushpin/ylw-pushpin.png</href>
                    </Icon>
                </IconStyle>
            </Style>
            <Style id="3199">
                <IconStyle id="3200">
                    <color>ffff0000</color>
                    <colorMode>normal</colorMode>
                    <scale>1</scale>
                    <heading>0</heading>
                    <Icon id="3201">
                        <href>http://maps.google.com/mapfiles/kml/pushpin/ylw-pushpin.png</href>
                    </Icon>
                </IconStyle>
            </Style>
            <Style id="3204">
                <IconStyle id="3205">
                    <color>ffff0000</color>
                    <colorMode>normal</colorMode>
                    <scale>1</scale>
                    <heading>0</heading>
                    <Icon id="3206">
                        <href>http://maps.google.com/mapfiles/kml/pushpin/ylw-pushpin.png</href>
                    </Icon>
                </IconStyle>
            </Style>
            <Style id="3209">
                <IconStyle id="3210">
                    <color>ffff0000</color>
                    <colorMode>normal</colorMode>
                    <scale>1</scale>
                    <heading>0</heading>
                    <Icon id="3211">
                        <href>http://maps.google.com/mapfiles/kml/pushpin/ylw-pushpin.png</href>
                    </Icon>
                </IconStyle>
            </Style>
            <Style id="3214">
                <IconStyle id="3215">
                    <color>ffff0000</color>
                    <colorMode>normal</colorMode>
                    <scale>1</scale>
                    <heading>0</heading>
                    <Icon id="3216">
                        <href>http://maps.google.com/mapfiles/kml/pushpin/ylw-pushpin.png</href>
                    </Icon>
                </IconStyle>
            </Style>
            <Style id="3219">
                <IconStyle id="3220">
                    <color>ffff0000</color>
                    <colorMode>normal</colorMode>
                    <scale>1</scale>
                    <heading>0</heading>
                    <Icon id="3221">
                        <href>http://maps.google.com/mapfiles/kml/pushpin/ylw-pushpin.png</href>
                    </Icon>
                </IconStyle>
            </Style>
            <Style id="3224">
                <IconStyle id="3225">
                    <color>ffff0000</color>
                    <colorMode>normal</colorMode>
                    <scale>1</scale>
                    <heading>0</heading>
                    <Icon id="3226">
                        <href>http://maps.google.com/mapfiles/kml/pushpin/ylw-pushpin.png</href>
                    </Icon>
                </IconStyle>
            </Style>
            <Style id="3229">
                <IconStyle id="3230">
                    <color>ffff0000</color>
                    <colorMode>normal</colorMode>
                    <scale>1</scale>
                    <heading>0</heading>
                    <Icon id="3231">
                        <href>http://maps.google.com/mapfiles/kml/pushpin/ylw-pushpin.png</href>
                    </Icon>
                </IconStyle>
            </Style>
            <Style id="3234">
                <IconStyle id="3235">
                    <color>ffff0000</color>
                    <colorMode>normal</colorMode>
                    <scale>1</scale>
                    <heading>0</heading>
                    <Icon id="3236">
                        <href>http://maps.google.com/mapfiles/kml/pushpin/ylw-pushpin.png</href>
                    </Icon>
                </IconStyle>
            </Style>
            <Style id="3239">
                <IconStyle id="3240">
                    <color>ffff0000</color>
                    <colorMode>normal</colorMode>
                    <scale>1</scale>
                    <heading>0</heading>
                    <Icon id="3241">
                        <href>http://maps.google.com/mapfiles/kml/pushpin/ylw-pushpin.png</href>
                    </Icon>
                </IconStyle>
            </Style>
            <Style id="3244">
                <IconStyle id="3245">
                    <color>ffff0000</color>
                    <colorMode>normal</colorMode>
                    <scale>1</scale>
                    <heading>0</heading>
                    <Icon id="3246">
                        <href>http://maps.google.com/mapfiles/kml/pushpin/ylw-pushpin.png</href>
                    </Icon>
                </IconStyle>
            </Style>
            <Style id="3249">
                <IconStyle id="3250">
                    <color>ffff0000</color>
                    <colorMode>normal</colorMode>
                    <scale>1</scale>
                    <heading>0</heading>
                    <Icon id="3251">
                        <href>http://maps.google.com/mapfiles/kml/pushpin/ylw-pushpin.png</href>
                    </Icon>
                </IconStyle>
            </Style>
            <Style id="3254">
                <IconStyle id="3255">
                    <color>ffff0000</color>
                    <colorMode>normal</colorMode>
                    <scale>1</scale>
                    <heading>0</heading>
                    <Icon id="3256">
                        <href>http://maps.google.com/mapfiles/kml/pushpin/ylw-pushpin.png</href>
                    </Icon>
                </IconStyle>
            </Style>
            <Style id="3259">
                <IconStyle id="3260">
                    <color>ffff0000</color>
                    <colorMode>normal</colorMode>
                    <scale>1</scale>
                    <heading>0</heading>
                    <Icon id="3261">
                        <href>http://maps.google.com/mapfiles/kml/pushpin/ylw-pushpin.png</href>
                    </Icon>
                </IconStyle>
            </Style>
            <Style id="3264">
                <IconStyle id="3265">
                    <color>ffff0000</color>
                    <colorMode>normal</colorMode>
                    <scale>1</scale>
                    <heading>0</heading>
                    <Icon id="3266">
                        <href>http://maps.google.com/mapfiles/kml/pushpin/ylw-pushpin.png</href>
                    </Icon>
                </IconStyle>
            </Style>
            <Style id="3269">
                <IconStyle id="3270">
                    <color>ffff0000</color>
                    <colorMode>normal</colorMode>
                    <scale>1</scale>
                    <heading>0</heading>
                    <Icon id="3271">
                        <href>http://maps.google.com/mapfiles/kml/pushpin/ylw-pushpin.png</href>
                    </Icon>
                </IconStyle>
            </Style>
            <Style id="3274">
                <IconStyle id="3275">
                    <color>ffff0000</color>
                    <colorMode>normal</colorMode>
                    <scale>1</scale>
                    <heading>0</heading>
                    <Icon id="3276">
                        <href>http://maps.google.com/mapfiles/kml/pushpin/ylw-pushpin.png</href>
                    </Icon>
                </IconStyle>
            </Style>
            <Style id="3279">
                <IconStyle id="3280">
                    <color>ffff0000</color>
                    <colorMode>normal</colorMode>
                    <scale>1</scale>
                    <heading>0</heading>
                    <Icon id="3281">
                        <href>http://maps.google.com/mapfiles/kml/pushpin/ylw-pushpin.png</href>
                    </Icon>
                </IconStyle>
            </Style>
            <Style id="3284">
                <IconStyle id="3285">
                    <color>ffff0000</color>
                    <colorMode>normal</colorMode>
                    <scale>1</scale>
                    <heading>0</heading>
                    <Icon id="3286">
                        <href>http://maps.google.com/mapfiles/kml/pushpin/ylw-pushpin.png</href>
                    </Icon>
                </IconStyle>
            </Style>
            <Style id="3289">
                <IconStyle id="3290">
                    <color>ffff0000</color>
                    <colorMode>normal</colorMode>
                    <scale>1</scale>
                    <heading>0</heading>
                    <Icon id="3291">
                        <href>http://maps.google.com/mapfiles/kml/pushpin/ylw-pushpin.png</href>
                    </Icon>
                </IconStyle>
            </Style>
            <Style id="3294">
                <IconStyle id="3295">
                    <color>ffff0000</color>
                    <colorMode>normal</colorMode>
                    <scale>1</scale>
                    <heading>0</heading>
                    <Icon id="3296">
                        <href>http://maps.google.com/mapfiles/kml/pushpin/ylw-pushpin.png</href>
                    </Icon>
                </IconStyle>
            </Style>
            <Style id="3299">
                <IconStyle id="3300">
                    <color>ffff0000</color>
                    <colorMode>normal</colorMode>
                    <scale>1</scale>
                    <heading>0</heading>
                    <Icon id="3301">
                        <href>http://maps.google.com/mapfiles/kml/pushpin/ylw-pushpin.png</href>
                    </Icon>
                </IconStyle>
            </Style>
            <Style id="3304">
                <IconStyle id="3305">
                    <color>ffff0000</color>
                    <colorMode>normal</colorMode>
                    <scale>1</scale>
                    <heading>0</heading>
                    <Icon id="3306">
                        <href>http://maps.google.com/mapfiles/kml/pushpin/ylw-pushpin.png</href>
                    </Icon>
                </IconStyle>
            </Style>
            <Style id="3309">
                <IconStyle id="3310">
                    <color>ffff0000</color>
                    <colorMode>normal</colorMode>
                    <scale>1</scale>
                    <heading>0</heading>
                    <Icon id="3311">
                        <href>http://maps.google.com/mapfiles/kml/pushpin/ylw-pushpin.png</href>
                    </Icon>
                </IconStyle>
            </Style>
            <Style id="3314">
                <IconStyle id="3315">
                    <color>ffff0000</color>
                    <colorMode>normal</colorMode>
                    <scale>1</scale>
                    <heading>0</heading>
                    <Icon id="3316">
                        <href>http://maps.google.com/mapfiles/kml/pushpin/ylw-pushpin.png</href>
                    </Icon>
                </IconStyle>
            </Style>
            <Style id="3319">
                <IconStyle id="3320">
                    <color>ffff0000</color>
                    <colorMode>normal</colorMode>
                    <scale>1</scale>
                    <heading>0</heading>
                    <Icon id="3321">
                        <href>http://maps.google.com/mapfiles/kml/pushpin/ylw-pushpin.png</href>
                    </Icon>
                </IconStyle>
            </Style>
            <Style id="3324">
                <IconStyle id="3325">
                    <color>ffff0000</color>
                    <colorMode>normal</colorMode>
                    <scale>1</scale>
                    <heading>0</heading>
                    <Icon id="3326">
                        <href>http://maps.google.com/mapfiles/kml/pushpin/ylw-pushpin.png</href>
                    </Icon>
                </IconStyle>
            </Style>
            <Style id="3329">
                <IconStyle id="3330">
                    <color>ffff0000</color>
                    <colorMode>normal</colorMode>
                    <scale>1</scale>
                    <heading>0</heading>
                    <Icon id="3331">
                        <href>http://maps.google.com/mapfiles/kml/pushpin/ylw-pushpin.png</href>
                    </Icon>
                </IconStyle>
            </Style>
            <Style id="3334">
                <IconStyle id="3335">
                    <color>ffff0000</color>
                    <colorMode>normal</colorMode>
                    <scale>1</scale>
                    <heading>0</heading>
                    <Icon id="3336">
                        <href>http://maps.google.com/mapfiles/kml/pushpin/ylw-pushpin.png</href>
                    </Icon>
                </IconStyle>
            </Style>
            <Style id="3339">
                <IconStyle id="3340">
                    <color>ffff0000</color>
                    <colorMode>normal</colorMode>
                    <scale>1</scale>
                    <heading>0</heading>
                    <Icon id="3341">
                        <href>http://maps.google.com/mapfiles/kml/pushpin/ylw-pushpin.png</href>
                    </Icon>
                </IconStyle>
            </Style>
            <Style id="3344">
                <IconStyle id="3345">
                    <color>ffff0000</color>
                    <colorMode>normal</colorMode>
                    <scale>1</scale>
                    <heading>0</heading>
                    <Icon id="3346">
                        <href>http://maps.google.com/mapfiles/kml/pushpin/ylw-pushpin.png</href>
                    </Icon>
                </IconStyle>
            </Style>
            <Style id="3349">
                <IconStyle id="3350">
                    <color>ffff0000</color>
                    <colorMode>normal</colorMode>
                    <scale>1</scale>
                    <heading>0</heading>
                    <Icon id="3351">
                        <href>http://maps.google.com/mapfiles/kml/pushpin/ylw-pushpin.png</href>
                    </Icon>
                </IconStyle>
            </Style>
            <Style id="3354">
                <IconStyle id="3355">
                    <color>ffff0000</color>
                    <colorMode>normal</colorMode>
                    <scale>1</scale>
                    <heading>0</heading>
                    <Icon id="3356">
                        <href>http://maps.google.com/mapfiles/kml/pushpin/ylw-pushpin.png</href>
                    </Icon>
                </IconStyle>
            </Style>
            <Style id="3359">
                <IconStyle id="3360">
                    <color>ffff0000</color>
                    <colorMode>normal</colorMode>
                    <scale>1</scale>
                    <heading>0</heading>
                    <Icon id="3361">
                        <href>http://maps.google.com/mapfiles/kml/pushpin/ylw-pushpin.png</href>
                    </Icon>
                </IconStyle>
            </Style>
            <Style id="3364">
                <IconStyle id="3365">
                    <color>ffff0000</color>
                    <colorMode>normal</colorMode>
                    <scale>1</scale>
                    <heading>0</heading>
                    <Icon id="3366">
                        <href>http://maps.google.com/mapfiles/kml/pushpin/ylw-pushpin.png</href>
                    </Icon>
                </IconStyle>
            </Style>
            <Style id="3369">
                <IconStyle id="3370">
                    <color>ffff0000</color>
                    <colorMode>normal</colorMode>
                    <scale>1</scale>
                    <heading>0</heading>
                    <Icon id="3371">
                        <href>http://maps.google.com/mapfiles/kml/pushpin/ylw-pushpin.png</href>
                    </Icon>
                </IconStyle>
            </Style>
            <Style id="3374">
                <IconStyle id="3375">
                    <color>ffff0000</color>
                    <colorMode>normal</colorMode>
                    <scale>1</scale>
                    <heading>0</heading>
                    <Icon id="3376">
                        <href>http://maps.google.com/mapfiles/kml/pushpin/ylw-pushpin.png</href>
                    </Icon>
                </IconStyle>
            </Style>
            <Style id="3379">
                <IconStyle id="3380">
                    <color>ffff0000</color>
                    <colorMode>normal</colorMode>
                    <scale>1</scale>
                    <heading>0</heading>
                    <Icon id="3381">
                        <href>http://maps.google.com/mapfiles/kml/pushpin/ylw-pushpin.png</href>
                    </Icon>
                </IconStyle>
            </Style>
            <Style id="3384">
                <IconStyle id="3385">
                    <color>ffff0000</color>
                    <colorMode>normal</colorMode>
                    <scale>1</scale>
                    <heading>0</heading>
                    <Icon id="3386">
                        <href>http://maps.google.com/mapfiles/kml/pushpin/ylw-pushpin.png</href>
                    </Icon>
                </IconStyle>
            </Style>
            <Style id="3389">
                <IconStyle id="3390">
                    <color>ffff0000</color>
                    <colorMode>normal</colorMode>
                    <scale>1</scale>
                    <heading>0</heading>
                    <Icon id="3391">
                        <href>http://maps.google.com/mapfiles/kml/pushpin/ylw-pushpin.png</href>
                    </Icon>
                </IconStyle>
            </Style>
            <Style id="3394">
                <IconStyle id="3395">
                    <color>ffff0000</color>
                    <colorMode>normal</colorMode>
                    <scale>1</scale>
                    <heading>0</heading>
                    <Icon id="3396">
                        <href>http://maps.google.com/mapfiles/kml/pushpin/ylw-pushpin.png</href>
                    </Icon>
                </IconStyle>
            </Style>
            <Style id="3399">
                <IconStyle id="3400">
                    <color>ffff0000</color>
                    <colorMode>normal</colorMode>
                    <scale>1</scale>
                    <heading>0</heading>
                    <Icon id="3401">
                        <href>http://maps.google.com/mapfiles/kml/pushpin/ylw-pushpin.png</href>
                    </Icon>
                </IconStyle>
            </Style>
            <Style id="3404">
                <IconStyle id="3405">
                    <color>ffff0000</color>
                    <colorMode>normal</colorMode>
                    <scale>1</scale>
                    <heading>0</heading>
                    <Icon id="3406">
                        <href>http://maps.google.com/mapfiles/kml/pushpin/ylw-pushpin.png</href>
                    </Icon>
                </IconStyle>
            </Style>
            <Style id="3409">
                <IconStyle id="3410">
                    <color>ffff0000</color>
                    <colorMode>normal</colorMode>
                    <scale>1</scale>
                    <heading>0</heading>
                    <Icon id="3411">
                        <href>http://maps.google.com/mapfiles/kml/pushpin/ylw-pushpin.png</href>
                    </Icon>
                </IconStyle>
            </Style>
            <Style id="3414">
                <IconStyle id="3415">
                    <color>ffff0000</color>
                    <colorMode>normal</colorMode>
                    <scale>1</scale>
                    <heading>0</heading>
                    <Icon id="3416">
                        <href>http://maps.google.com/mapfiles/kml/pushpin/ylw-pushpin.png</href>
                    </Icon>
                </IconStyle>
            </Style>
            <Style id="3419">
                <IconStyle id="3420">
                    <color>ffff0000</color>
                    <colorMode>normal</colorMode>
                    <scale>1</scale>
                    <heading>0</heading>
                    <Icon id="3421">
                        <href>http://maps.google.com/mapfiles/kml/pushpin/ylw-pushpin.png</href>
                    </Icon>
                </IconStyle>
            </Style>
            <Style id="3424">
                <IconStyle id="3425">
                    <color>ffff0000</color>
                    <colorMode>normal</colorMode>
                    <scale>1</scale>
                    <heading>0</heading>
                    <Icon id="3426">
                        <href>http://maps.google.com/mapfiles/kml/pushpin/ylw-pushpin.png</href>
                    </Icon>
                </IconStyle>
            </Style>
            <Style id="3429">
                <IconStyle id="3430">
                    <color>ffff0000</color>
                    <colorMode>normal</colorMode>
                    <scale>1</scale>
                    <heading>0</heading>
                    <Icon id="3431">
                        <href>http://maps.google.com/mapfiles/kml/pushpin/ylw-pushpin.png</href>
                    </Icon>
                </IconStyle>
            </Style>
            <Style id="3434">
                <IconStyle id="3435">
                    <color>ffff0000</color>
                    <colorMode>normal</colorMode>
                    <scale>1</scale>
                    <heading>0</heading>
                    <Icon id="3436">
                        <href>http://maps.google.com/mapfiles/kml/pushpin/ylw-pushpin.png</href>
                    </Icon>
                </IconStyle>
            </Style>
            <name>FRANCISCO JAVIER TALLEDO VALDIVIEZO</name>
            <Placemark id="3173">
                <name>ROJAS PAIVA PEDRO MIGUEL</name>
                <description>INT.j 18 MCDO.CENTRAL
Talara
Talara
Piura
Perú</description>
                <styleUrl>#3174</styleUrl>
                <Point id="3172">
                    <coordinates>-81.270525,-4.57967,0.0</coordinates>
                </Point>
            </Placemark>
            <Placemark id="3178">
                <name>EUFEMIA RAMIREZ RAMIREZ</name>
                <description>URB.VILLA LOS ANGELES A 2 TAL
Talara
Talara
Piura
Perú</description>
                <styleUrl>#3179</styleUrl>
                <Point id="3177">
                    <coordinates>-81.2568852,-4.5877034,0.0</coordinates>
                </Point>
            </Placemark>
            <Placemark id="3183">
                <name>LUISA IMAN DE NEIRA</name>
                <description>MNARIA AUXILIADORA A-10
Talara
Talara
Piura
Perú</description>
                <styleUrl>#3184</styleUrl>
                <Point id="3182">
                    <coordinates>-81.2560435,-4.5879016,0.0</coordinates>
                </Point>
            </Placemark>
            <Placemark id="3188">
                <name>GARCIA CORONADO ALFONSO</name>
                <description>C-22 Talara Alta
Talara
Talara
Piura
Perú</description>
                <styleUrl>#3189</styleUrl>
                <Point id="3187">
                    <coordinates>-81.2565863,-4.5886286,0.0</coordinates>
                </Point>
            </Placemark>
            <Placemark id="3193">
                <name>FREDDY FARIAS GALLO</name>
                <description>AV. C - 53 TALARA ALTA - TALARA
Talara
Talara
Piura
Perú</description>
                <styleUrl>#3194</styleUrl>
                <Point id="3192">
                    <coordinates>-81.2567329,-4.5886996,0.0</coordinates>
                </Point>
            </Placemark>
            <Placemark id="3198">
                <name>FERNANDO ALBURQUEQUE CHINGA</name>
                <description>FERNANDO ALBURQUEQUE CHINGA
MZ.W LTE.14 A.H.JOSE QUIÑONES - TAL
Talara
Talara
Piura
Perú</description>
                <styleUrl>#3199</styleUrl>
                <Point id="3197">
                    <coordinates>-81.2570202,-4.597546,0.0</coordinates>
                </Point>
            </Placemark>
            <Placemark id="3203">
                <name>ORTIZ SEMINARIO  EXEQUIEL</name>
                <description>ORTIZ SEMINARIO  EXEQUIEL
A.H.QUIÑONES MZ.CH-19 SECT 17
Talara
Talara
Piura
Perú</description>
                <styleUrl>#3204</styleUrl>
                <Point id="3202">
                    <coordinates>-81.2572869,-4.5978142,0.0</coordinates>
                </Point>
            </Placemark>
            <Placemark id="3208">
                <name>MOROCHO DE JUAREZ JOSEFA</name>
                <description>AA. HH JOSE ABELARDO QUIÑONES Ll-47
Talara
Talara
Piura
Perú</description>
                <styleUrl>#3209</styleUrl>
                <Point id="3207">
                    <coordinates>-81.2561484,-4.5977062,0.0</coordinates>
                </Point>
            </Placemark>
            <Placemark id="3213">
                <name>CALLE DE MARQUEZ DOLORES ENMA</name>
                <description>CALLE DE MARQUEZ DOLORES ENMA
MZ O LT. 8 AA. HH JOSE ABELARDO QUI
Talara
Talara
Piura
Perú</description>
                <styleUrl>#3214</styleUrl>
                <Point id="3212">
                    <coordinates>-81.2572879,-4.5958142,0.0</coordinates>
                </Point>
            </Placemark>
            <Placemark id="3218">
                <name>PETRONILA VANISI VALLADARES CRUZ</name>
                <description>AAHH JORGE BASADRE E-19
Talara
Talara
Piura
Perú</description>
                <styleUrl>#3219</styleUrl>
                <Point id="3217">
                    <coordinates>-81.2568316,-4.5942069,0.0</coordinates>
                </Point>
            </Placemark>
            <Placemark id="3223">
                <name>MARLENY LOURDES RUIZ GUERRERO</name>
                <description>AAHH JOSE ABELARDO QUIÑONES U-14
Talara
Talara
Piura
Perú</description>
                <styleUrl>#3224</styleUrl>
                <Point id="3222">
                    <coordinates>-81.2544082,-4.5955146,0.0</coordinates>
                </Point>
            </Placemark>
            <Placemark id="3228">
                <name>Diana Fiestas vilchez</name>
                <description>Ampliación Sánchez cerro B1 -18
Talara
Talara
Piura
Perú</description>
                <styleUrl>#3229</styleUrl>
                <Point id="3227">
                    <coordinates>-81.2543595,-4.5974941,0.0</coordinates>
                </Point>
            </Placemark>
            <Placemark id="3233">
                <name>DANNY MERCEDES NOLE COVEÑAS</name>
                <description>Sánchez cerro B-16
Talara

Piura
Perú</description>
                <styleUrl>#3234</styleUrl>
                <Point id="3232">
                    <coordinates>-81.254635,-4.596361,0.0</coordinates>
                </Point>
            </Placemark>
            <Placemark id="3238">
                <name>SANTOS SILVA ROSALES</name>
                <description>SANCHEZ CERRO B-18 T/ALTA
Talara
Talara
Piura
Perú</description>
                <styleUrl>#3239</styleUrl>
                <Point id="3237">
                    <coordinates>-81.254636,-4.596594,0.0</coordinates>
                </Point>
            </Placemark>
            <Placemark id="3243">
                <name>LUZ ADELA PASAPERA DE CEDANO</name>
                <description>AA.HH SANCHEZ CERRO D-16
Talara
Talara
Piura
Perú</description>
                <styleUrl>#3244</styleUrl>
                <Point id="3242">
                    <coordinates>-81.2539759,-4.5960118,0.0</coordinates>
                </Point>
            </Placemark>
            <Placemark id="3248">
                <name>ADRIANA MALU PEÑA CRUZ</name>
                <description>Sánchez cerro H 20
Talara
Talara
Piura
Perú</description>
                <styleUrl>#3249</styleUrl>
                <Point id="3247">
                    <coordinates>-81.2536993,-4.597388,0.0</coordinates>
                </Point>
            </Placemark>
            <Placemark id="3253">
                <name>NERY DEL CARMEN MORAN INFANTE</name>
                <description>Sánchez cerro G 11
Pariñas
Pariñas
Piura
Perú</description>
                <styleUrl>#3254</styleUrl>
                <Point id="3252">
                    <coordinates>-81.2534739,-4.5965114,0.0</coordinates>
                </Point>
            </Placemark>
            <Placemark id="3258">
                <name>ROSA ERNESTINA CASTILLO MACHARE</name>
                <description>A.H.SANCHEZ CERRO MZ.F LT.11
Talara
Talara
Piura
Perú</description>
                <styleUrl>#3259</styleUrl>
                <Point id="3257">
                    <coordinates>-81.2534884,-4.5964053,0.0</coordinates>
                </Point>
            </Placemark>
            <Placemark id="3263">
                <name>CATALINA PARDO MERINO</name>
                <description>NVA.ESPERANZA D1-7 PARIÑAS
Talara
Talara
Piura
Perú</description>
                <styleUrl>#3264</styleUrl>
                <Point id="3262">
                    <coordinates>-81.2525975,-4.5950809,0.0</coordinates>
                </Point>
            </Placemark>
            <Placemark id="3268">
                <name>DE LA CRUZ FARRO SEGUNDO</name>
                <description>DE LA CRUZ FARRO SEGUNDO
NUEVA ESPERANZA D1-10
Talara
Talara
Piura
Perú</description>
                <styleUrl>#3269</styleUrl>
                <Point id="3267">
                    <coordinates>-81.2526114,-4.5952056,0.0</coordinates>
                </Point>
            </Placemark>
            <Placemark id="3273">
                <name>DENY AMAYA VIVAS</name>
                <description>F 1-01 AH SAN SEBASTIAN TALARA
Talara
Talara
Piura
Perú</description>
                <styleUrl>#3274</styleUrl>
                <Point id="3272">
                    <coordinates>-81.2502803,-4.594829,0.0</coordinates>
                </Point>
            </Placemark>
            <Placemark id="3278">
                <name>JOSEFA LEQUERNAQUE MORE VDA DE ALAMA</name>
                <description>A.H.SANCHEZ CERRO MZ.M LT.27
Talara
Talara
Piura
Perú</description>
                <styleUrl>#3279</styleUrl>
                <Point id="3277">
                    <coordinates>-81.2520847,-4.5974869,0.0</coordinates>
                </Point>
            </Placemark>
            <Placemark id="3283">
                <name>MARTHA TAVARA BAYONA</name>
                <description>A.H.SANCHEZ CERRO MZ.P LT.5
Talara
Talara
Piura
Perú</description>
                <styleUrl>#3284</styleUrl>
                <Point id="3282">
                    <coordinates>-81.251749,-4.597164,0.0</coordinates>
                </Point>
            </Placemark>
            <Placemark id="3288">
                <name>JUANA ROSA CORREA BENITES DE AGUILAR</name>
                <description>AAHH BUENOS AIRES M-1
Talara
Talara
Piura
Perú</description>
                <styleUrl>#3289</styleUrl>
                <Point id="3287">
                    <coordinates>-81.2516342,-4.5969864,0.0</coordinates>
                </Point>
            </Placemark>
            <Placemark id="3293">
                <name>CYNTHIA JANINA TAVARA FLORES</name>
                <description>AA. HH AMPLIACION SAN SEBASTIAN MZ
Talara
Talara
Piura
Perú</description>
                <styleUrl>#3294</styleUrl>
                <Point id="3292">
                    <coordinates>-81.2507447,-4.5966369,0.0</coordinates>
                </Point>
            </Placemark>
            <Placemark id="3298">
                <name>FRANCISCA TORRES VIVAS</name>
                <description>MZ D 1 lt 47
Talara
Talara
Piura
Perú</description>
                <styleUrl>#3299</styleUrl>
                <Point id="3297">
                    <coordinates>-81.2521213,-4.5946052,0.0</coordinates>
                </Point>
            </Placemark>
            <Placemark id="3303">
                <name>CARMEN MARITZA MOGOLLON DE MENDOZA</name>
                <description>AAHH nueva esperanza D3-5
Talara
Talara
Piura
Perú</description>
                <styleUrl>#3304</styleUrl>
                <Point id="3302">
                    <coordinates>-81.2517921,-4.5949971,0.0</coordinates>
                </Point>
            </Placemark>
            <Placemark id="3308">
                <name>ELDA JOHANA TAVARA QUEZADA</name>
                <description>San Sebastián B-14
Talara
Talara
Piura
Perú</description>
                <styleUrl>#3309</styleUrl>
                <Point id="3307">
                    <coordinates>-81.2505827,-4.5962203,0.0</coordinates>
                </Point>
            </Placemark>
            <Placemark id="3313">
                <name>SANTIAGO AYALA SANTOS</name>
                <description>AAHH SAN SEBASTIÁN H1-1
Talara
Talara
Áncash
Perú</description>
                <styleUrl>#3314</styleUrl>
                <Point id="3312">
                    <coordinates>-81.2508052,-4.5951519,0.0</coordinates>
                </Point>
            </Placemark>
            <Placemark id="3318">
                <name>VILCHEZ RAMOS FILOMENA MILUSKA</name>
                <description>A.H SAN SEBASTIAN G1-23 TALARA ALTA
Talara

Piura
Perú</description>
                <styleUrl>#3319</styleUrl>
                <Point id="3317">
                    <coordinates>-81.25092,-4.594888,0.0</coordinates>
                </Point>
            </Placemark>
            <Placemark id="3323">
                <name>YOLANDA CHUICA DE ESTRADA</name>
                <description>San Sebastián  G1-4
Talara
Talara
Piura
Perú</description>
                <styleUrl>#3324</styleUrl>
                <Point id="3322">
                    <coordinates>-81.250459,-4.594913,0.0</coordinates>
                </Point>
            </Placemark>
            <Placemark id="3328">
                <name>SALDARRIAGA MEDINA FRANCIS ELIZABETH</name>
                <description>San Sebastián E1-14
Talara
Talara
Piura
Perú</description>
                <styleUrl>#3329</styleUrl>
                <Point id="3327">
                    <coordinates>-81.2500824,-4.5946715,0.0</coordinates>
                </Point>
            </Placemark>
            <Placemark id="3333">
                <name>ROLANDO GAVIRIA GRANDEZ</name>
                <description>ROLANDO GAVIRIA GRANDEZ
AA. HH SAN SEBASTIAN E1-23 TALARA A
Talara
Talara
Piura
Perú</description>
                <styleUrl>#3334</styleUrl>
                <Point id="3332">
                    <coordinates>-81.2508468,-4.59428,0.0</coordinates>
                </Point>
            </Placemark>
            <Placemark id="3338">
                <name>LUIS GONZAGA AYALA SANTOS</name>
                <description>MZ.F LT.1 AH.QUIÑONES TALARA A
Talara
Talara
Piura
Perú</description>
                <styleUrl>#3339</styleUrl>
                <Point id="3337">
                    <coordinates>-81.2538116,-4.5938564,0.0</coordinates>
                </Point>
            </Placemark>
            <Placemark id="3343">
                <name>WILMA RAMIREZ DE CHIROQUE</name>
                <description>A.H.A.QUIÑONES MZ.B-29
Talara
Talara
Piura
Perú</description>
                <styleUrl>#3344</styleUrl>
                <Point id="3342">
                    <coordinates>-81.252903,-4.595037,0.0</coordinates>
                </Point>
            </Placemark>
            <Placemark id="3348">
                <name>PIEDRA MARTINEZ SANTOS FILOMENA</name>
                <description>C.P.9 DE OCTUBRE MZ-K LT-01
Talara
Talara
Piura
Perú</description>
                <styleUrl>#3349</styleUrl>
                <Point id="3347">
                    <coordinates>-81.2522088,-4.5926341,0.0</coordinates>
                </Point>
            </Placemark>
            <Placemark id="3353">
                <name>SEGUNDO ESPINOZA CRISANTO</name>
                <description>A - 12 -D AA. HH 9 DE OCTUBRE - TAL
Talara
Talara
Piura
Perú</description>
                <styleUrl>#3354</styleUrl>
                <Point id="3352">
                    <coordinates>-81.253857,-4.5918122,0.0</coordinates>
                </Point>
            </Placemark>
            <Placemark id="3358">
                <name>KATTY MAITE GIRON TALLEDO</name>
                <description>A.H.9 DE OCTUBRE MZ.N LT.9
Talara
Talara
Piura
Perú</description>
                <styleUrl>#3359</styleUrl>
                <Point id="3357">
                    <coordinates>-81.254998,-4.593346,0.0</coordinates>
                </Point>
            </Placemark>
            <Placemark id="3363">
                <name>VARGAS DE NAMUCHE EULALIA</name>
                <description>Cristo rey A8
Talara
Talara
Piura
Perú</description>
                <styleUrl>#3364</styleUrl>
                <Point id="3362">
                    <coordinates>-81.2539099,-4.5899916,0.0</coordinates>
                </Point>
            </Placemark>
            <Placemark id="3368">
                <name>MARILY LISSETE LOPEZ YARLEQUE</name>
                <description>Z-99 Talara alta
Talara
Talara
Piura
Perú</description>
                <styleUrl>#3369</styleUrl>
                <Point id="3367">
                    <coordinates>-81.2543144,-4.5913391,0.0</coordinates>
                </Point>
            </Placemark>
            <Placemark id="3373">
                <name>GLADYS VIRGINIA GIL PAREDES DE QUEZADA</name>
                <description>Mercadillo  interior  juegueria referencia costado de baños
Talara

Piura
Perú</description>
                <styleUrl>#3374</styleUrl>
                <Point id="3372">
                    <coordinates>-81.25628,-4.591231,0.0</coordinates>
                </Point>
            </Placemark>
            <Placemark id="3378">
                <name>ELIZABETH SOLEDAD HUIZA SANDOVAL DE CERNA</name>
                <description>Calle 5 54
Talara
Talara
Piura
Perú</description>
                <styleUrl>#3379</styleUrl>
                <Point id="3377">
                    <coordinates>-81.2556663,-4.5915889,0.0</coordinates>
                </Point>
            </Placemark>
            <Placemark id="3383">
                <name>ELIZABETH SOLEDAD HUIZA SANDOVAL DE CERNA</name>
                <description>Calle 5 54
Talara
Talara
Piura
Perú</description>
                <styleUrl>#3384</styleUrl>
                <Point id="3382">
                    <coordinates>-81.2556663,-4.5915889,0.0</coordinates>
                </Point>
            </Placemark>
            <Placemark id="3388">
                <name>JOSE ARTURO VILELA MORE</name>
                <description>Tienda NRO 5 mercado Talara alta
Talara
Talara
Piura
Perú</description>
                <styleUrl>#3389</styleUrl>
                <Point id="3387">
                    <coordinates>-81.2559588,-4.5911737,0.0</coordinates>
                </Point>
            </Placemark>
            <Placemark id="3393">
                <name>JOSE ARTURO VILELA MORE</name>
                <description>Tienda NRO 5 mercado Talara alta
Talara
Talara
Piura
Perú</description>
                <styleUrl>#3394</styleUrl>
                <Point id="3392">
                    <coordinates>-81.2559588,-4.5911737,0.0</coordinates>
                </Point>
            </Placemark>
            <Placemark id="3398">
                <name>AMAYA PASACHE ANDRES</name>
                <description>AMAYA PASACHE ANDRES
CALLE Z Lt5 Talara Alta
Talara
Talara
Piura
Perú</description>
                <styleUrl>#3399</styleUrl>
                <Point id="3397">
                    <coordinates>-81.2567131,-4.5918761,0.0</coordinates>
                </Point>
            </Placemark>
            <Placemark id="3403">
                <name>BLANCA ELIZ VIDAL GARRIDO DE ASANZA</name>
                <description>CA.2-44 TALARA ALTA - PAñppputRIÑA
Talara
Talara
Piura
Perú</description>
                <styleUrl>#3404</styleUrl>
                <Point id="3402">
                    <coordinates>-81.2576088,-4.5912229,0.0</coordinates>
                </Point>
            </Placemark>
            <Placemark id="3408">
                <name>IRINA GABRIELA MARTINEZ LIZARRAGA</name>
                <description>Ampliación Micaela bastidas B-07, referencia frente al mercado serpetro
Talara
Talara
Piura
Perú</description>
                <styleUrl>#3409</styleUrl>
                <Point id="3407">
                    <coordinates>-81.2590732,-4.5913115,0.0</coordinates>
                </Point>
            </Placemark>
            <Placemark id="3413">
                <name>AGUSTIN SANDOVAL NOLE</name>
                <description>MERCADO SERPETRO PUESTO 12
Acapulco
Talara
Piura
Perú</description>
                <styleUrl>#3414</styleUrl>
                <Point id="3412">
                    <coordinates>-81.2591051,-4.5919652,0.0</coordinates>
                </Point>
            </Placemark>
            <Placemark id="3418">
                <name>KARINA DEL CARMEN CASTILLO ABAD</name>
                <description>AAHH LUIS ROMERO A-20 Talara Alta
Talara
Talara
Piura
Perú</description>
                <styleUrl>#3419</styleUrl>
                <Point id="3417">
                    <coordinates>-81.2578618,-4.592273,0.0</coordinates>
                </Point>
            </Placemark>
            <Placemark id="3423">
                <name>JUAN HENRY VALENCIA ZARATE</name>
                <description>CA.01 0002 TALARA ALTA INT.2P
Talara
Talara
Piura
Perú</description>
                <styleUrl>#3424</styleUrl>
                <Point id="3422">
                    <coordinates>-81.2583358,-4.5904277,0.0</coordinates>
                </Point>
            </Placemark>
            <Placemark id="3428">
                <name>SUJELI ELISBETH SILVA PASACHE</name>
                <description>Urb LOS ROBLES D-16
Talara
Talara
Piura
Perú</description>
                <styleUrl>#3429</styleUrl>
                <Point id="3427">
                    <coordinates>-81.2551167,-4.5888437,0.0</coordinates>
                </Point>
            </Placemark>
            <Placemark id="3433">
                <name>ZIPPERLESS CATERING SERVICE E.I.R.L.</name>
                <description>ZIPPERLESS CATERING SERVICE E.I.R.L.
PQ. 22 NRO. 03 C.H.  TALARA
Talara
200701Talara
Piura
Perú</description>
                <styleUrl>#3434</styleUrl>
                <Point id="3432">
                    <coordinates>-81.2724617,-4.5785747,0.0</coordinates>
                </Point>
            </Placemark>
        </Folder>
    </Document>
</kml>
