<?xml version="1.0" encoding="UTF-8"?>
<kml xmlns="http://www.opengis.net/kml/2.2" xmlns:gx="http://www.google.com/kml/ext/2.2">
    <Document id="2501">
        <Folder id="2502">
            <Style id="2505">
                <IconStyle id="2506">
                    <color>ff0000ff</color>
                    <colorMode>normal</colorMode>
                    <scale>1</scale>
                    <heading>0</heading>
                    <Icon id="2507">
                        <href>http://maps.google.com/mapfiles/kml/pushpin/ylw-pushpin.png</href>
                    </Icon>
                </IconStyle>
            </Style>
            <Style id="2510">
                <IconStyle id="2511">
                    <color>ff0000ff</color>
                    <colorMode>normal</colorMode>
                    <scale>1</scale>
                    <heading>0</heading>
                    <Icon id="2512">
                        <href>http://maps.google.com/mapfiles/kml/pushpin/ylw-pushpin.png</href>
                    </Icon>
                </IconStyle>
            </Style>
            <Style id="2515">
                <IconStyle id="2516">
                    <color>ff0000ff</color>
                    <colorMode>normal</colorMode>
                    <scale>1</scale>
                    <heading>0</heading>
                    <Icon id="2517">
                        <href>http://maps.google.com/mapfiles/kml/pushpin/ylw-pushpin.png</href>
                    </Icon>
                </IconStyle>
            </Style>
            <Style id="2520">
                <IconStyle id="2521">
                    <color>ff0000ff</color>
                    <colorMode>normal</colorMode>
                    <scale>1</scale>
                    <heading>0</heading>
                    <Icon id="2522">
                        <href>http://maps.google.com/mapfiles/kml/pushpin/ylw-pushpin.png</href>
                    </Icon>
                </IconStyle>
            </Style>
            <Style id="2525">
                <IconStyle id="2526">
                    <color>ff0000ff</color>
                    <colorMode>normal</colorMode>
                    <scale>1</scale>
                    <heading>0</heading>
                    <Icon id="2527">
                        <href>http://maps.google.com/mapfiles/kml/pushpin/ylw-pushpin.png</href>
                    </Icon>
                </IconStyle>
            </Style>
            <Style id="2530">
                <IconStyle id="2531">
                    <color>ff0000ff</color>
                    <colorMode>normal</colorMode>
                    <scale>1</scale>
                    <heading>0</heading>
                    <Icon id="2532">
                        <href>http://maps.google.com/mapfiles/kml/pushpin/ylw-pushpin.png</href>
                    </Icon>
                </IconStyle>
            </Style>
            <Style id="2535">
                <IconStyle id="2536">
                    <color>ff0000ff</color>
                    <colorMode>normal</colorMode>
                    <scale>1</scale>
                    <heading>0</heading>
                    <Icon id="2537">
                        <href>http://maps.google.com/mapfiles/kml/pushpin/ylw-pushpin.png</href>
                    </Icon>
                </IconStyle>
            </Style>
            <Style id="2540">
                <IconStyle id="2541">
                    <color>ff0000ff</color>
                    <colorMode>normal</colorMode>
                    <scale>1</scale>
                    <heading>0</heading>
                    <Icon id="2542">
                        <href>http://maps.google.com/mapfiles/kml/pushpin/ylw-pushpin.png</href>
                    </Icon>
                </IconStyle>
            </Style>
            <Style id="2545">
                <IconStyle id="2546">
                    <color>ff0000ff</color>
                    <colorMode>normal</colorMode>
                    <scale>1</scale>
                    <heading>0</heading>
                    <Icon id="2547">
                        <href>http://maps.google.com/mapfiles/kml/pushpin/ylw-pushpin.png</href>
                    </Icon>
                </IconStyle>
            </Style>
            <Style id="2550">
                <IconStyle id="2551">
                    <color>ff0000ff</color>
                    <colorMode>normal</colorMode>
                    <scale>1</scale>
                    <heading>0</heading>
                    <Icon id="2552">
                        <href>http://maps.google.com/mapfiles/kml/pushpin/ylw-pushpin.png</href>
                    </Icon>
                </IconStyle>
            </Style>
            <Style id="2555">
                <IconStyle id="2556">
                    <color>ff0000ff</color>
                    <colorMode>normal</colorMode>
                    <scale>1</scale>
                    <heading>0</heading>
                    <Icon id="2557">
                        <href>http://maps.google.com/mapfiles/kml/pushpin/ylw-pushpin.png</href>
                    </Icon>
                </IconStyle>
            </Style>
            <Style id="2560">
                <IconStyle id="2561">
                    <color>ff0000ff</color>
                    <colorMode>normal</colorMode>
                    <scale>1</scale>
                    <heading>0</heading>
                    <Icon id="2562">
                        <href>http://maps.google.com/mapfiles/kml/pushpin/ylw-pushpin.png</href>
                    </Icon>
                </IconStyle>
            </Style>
            <Style id="2565">
                <IconStyle id="2566">
                    <color>ff0000ff</color>
                    <colorMode>normal</colorMode>
                    <scale>1</scale>
                    <heading>0</heading>
                    <Icon id="2567">
                        <href>http://maps.google.com/mapfiles/kml/pushpin/ylw-pushpin.png</href>
                    </Icon>
                </IconStyle>
            </Style>
            <Style id="2570">
                <IconStyle id="2571">
                    <color>ff0000ff</color>
                    <colorMode>normal</colorMode>
                    <scale>1</scale>
                    <heading>0</heading>
                    <Icon id="2572">
                        <href>http://maps.google.com/mapfiles/kml/pushpin/ylw-pushpin.png</href>
                    </Icon>
                </IconStyle>
            </Style>
            <Style id="2575">
                <IconStyle id="2576">
                    <color>ff0000ff</color>
                    <colorMode>normal</colorMode>
                    <scale>1</scale>
                    <heading>0</heading>
                    <Icon id="2577">
                        <href>http://maps.google.com/mapfiles/kml/pushpin/ylw-pushpin.png</href>
                    </Icon>
                </IconStyle>
            </Style>
            <Style id="2580">
                <IconStyle id="2581">
                    <color>ff0000ff</color>
                    <colorMode>normal</colorMode>
                    <scale>1</scale>
                    <heading>0</heading>
                    <Icon id="2582">
                        <href>http://maps.google.com/mapfiles/kml/pushpin/ylw-pushpin.png</href>
                    </Icon>
                </IconStyle>
            </Style>
            <Style id="2585">
                <IconStyle id="2586">
                    <color>ff0000ff</color>
                    <colorMode>normal</colorMode>
                    <scale>1</scale>
                    <heading>0</heading>
                    <Icon id="2587">
                        <href>http://maps.google.com/mapfiles/kml/pushpin/ylw-pushpin.png</href>
                    </Icon>
                </IconStyle>
            </Style>
            <Style id="2590">
                <IconStyle id="2591">
                    <color>ff0000ff</color>
                    <colorMode>normal</colorMode>
                    <scale>1</scale>
                    <heading>0</heading>
                    <Icon id="2592">
                        <href>http://maps.google.com/mapfiles/kml/pushpin/ylw-pushpin.png</href>
                    </Icon>
                </IconStyle>
            </Style>
            <Style id="2595">
                <IconStyle id="2596">
                    <color>ff0000ff</color>
                    <colorMode>normal</colorMode>
                    <scale>1</scale>
                    <heading>0</heading>
                    <Icon id="2597">
                        <href>http://maps.google.com/mapfiles/kml/pushpin/ylw-pushpin.png</href>
                    </Icon>
                </IconStyle>
            </Style>
            <Style id="2600">
                <IconStyle id="2601">
                    <color>ff0000ff</color>
                    <colorMode>normal</colorMode>
                    <scale>1</scale>
                    <heading>0</heading>
                    <Icon id="2602">
                        <href>http://maps.google.com/mapfiles/kml/pushpin/ylw-pushpin.png</href>
                    </Icon>
                </IconStyle>
            </Style>
            <Style id="2605">
                <IconStyle id="2606">
                    <color>ff0000ff</color>
                    <colorMode>normal</colorMode>
                    <scale>1</scale>
                    <heading>0</heading>
                    <Icon id="2607">
                        <href>http://maps.google.com/mapfiles/kml/pushpin/ylw-pushpin.png</href>
                    </Icon>
                </IconStyle>
            </Style>
            <Style id="2610">
                <IconStyle id="2611">
                    <color>ff0000ff</color>
                    <colorMode>normal</colorMode>
                    <scale>1</scale>
                    <heading>0</heading>
                    <Icon id="2612">
                        <href>http://maps.google.com/mapfiles/kml/pushpin/ylw-pushpin.png</href>
                    </Icon>
                </IconStyle>
            </Style>
            <Style id="2615">
                <IconStyle id="2616">
                    <color>ff0000ff</color>
                    <colorMode>normal</colorMode>
                    <scale>1</scale>
                    <heading>0</heading>
                    <Icon id="2617">
                        <href>http://maps.google.com/mapfiles/kml/pushpin/ylw-pushpin.png</href>
                    </Icon>
                </IconStyle>
            </Style>
            <Style id="2620">
                <IconStyle id="2621">
                    <color>ff0000ff</color>
                    <colorMode>normal</colorMode>
                    <scale>1</scale>
                    <heading>0</heading>
                    <Icon id="2622">
                        <href>http://maps.google.com/mapfiles/kml/pushpin/ylw-pushpin.png</href>
                    </Icon>
                </IconStyle>
            </Style>
            <Style id="2625">
                <IconStyle id="2626">
                    <color>ff0000ff</color>
                    <colorMode>normal</colorMode>
                    <scale>1</scale>
                    <heading>0</heading>
                    <Icon id="2627">
                        <href>http://maps.google.com/mapfiles/kml/pushpin/ylw-pushpin.png</href>
                    </Icon>
                </IconStyle>
            </Style>
            <Style id="2630">
                <IconStyle id="2631">
                    <color>ff0000ff</color>
                    <colorMode>normal</colorMode>
                    <scale>1</scale>
                    <heading>0</heading>
                    <Icon id="2632">
                        <href>http://maps.google.com/mapfiles/kml/pushpin/ylw-pushpin.png</href>
                    </Icon>
                </IconStyle>
            </Style>
            <Style id="2635">
                <IconStyle id="2636">
                    <color>ff0000ff</color>
                    <colorMode>normal</colorMode>
                    <scale>1</scale>
                    <heading>0</heading>
                    <Icon id="2637">
                        <href>http://maps.google.com/mapfiles/kml/pushpin/ylw-pushpin.png</href>
                    </Icon>
                </IconStyle>
            </Style>
            <Style id="2640">
                <IconStyle id="2641">
                    <color>ff0000ff</color>
                    <colorMode>normal</colorMode>
                    <scale>1</scale>
                    <heading>0</heading>
                    <Icon id="2642">
                        <href>http://maps.google.com/mapfiles/kml/pushpin/ylw-pushpin.png</href>
                    </Icon>
                </IconStyle>
            </Style>
            <Style id="2645">
                <IconStyle id="2646">
                    <color>ff0000ff</color>
                    <colorMode>normal</colorMode>
                    <scale>1</scale>
                    <heading>0</heading>
                    <Icon id="2647">
                        <href>http://maps.google.com/mapfiles/kml/pushpin/ylw-pushpin.png</href>
                    </Icon>
                </IconStyle>
            </Style>
            <Style id="2650">
                <IconStyle id="2651">
                    <color>ff0000ff</color>
                    <colorMode>normal</colorMode>
                    <scale>1</scale>
                    <heading>0</heading>
                    <Icon id="2652">
                        <href>http://maps.google.com/mapfiles/kml/pushpin/ylw-pushpin.png</href>
                    </Icon>
                </IconStyle>
            </Style>
            <Style id="2655">
                <IconStyle id="2656">
                    <color>ff0000ff</color>
                    <colorMode>normal</colorMode>
                    <scale>1</scale>
                    <heading>0</heading>
                    <Icon id="2657">
                        <href>http://maps.google.com/mapfiles/kml/pushpin/ylw-pushpin.png</href>
                    </Icon>
                </IconStyle>
            </Style>
            <Style id="2660">
                <IconStyle id="2661">
                    <color>ff0000ff</color>
                    <colorMode>normal</colorMode>
                    <scale>1</scale>
                    <heading>0</heading>
                    <Icon id="2662">
                        <href>http://maps.google.com/mapfiles/kml/pushpin/ylw-pushpin.png</href>
                    </Icon>
                </IconStyle>
            </Style>
            <Style id="2665">
                <IconStyle id="2666">
                    <color>ff0000ff</color>
                    <colorMode>normal</colorMode>
                    <scale>1</scale>
                    <heading>0</heading>
                    <Icon id="2667">
                        <href>http://maps.google.com/mapfiles/kml/pushpin/ylw-pushpin.png</href>
                    </Icon>
                </IconStyle>
            </Style>
            <Style id="2670">
                <IconStyle id="2671">
                    <color>ff0000ff</color>
                    <colorMode>normal</colorMode>
                    <scale>1</scale>
                    <heading>0</heading>
                    <Icon id="2672">
                        <href>http://maps.google.com/mapfiles/kml/pushpin/ylw-pushpin.png</href>
                    </Icon>
                </IconStyle>
            </Style>
            <Style id="2675">
                <IconStyle id="2676">
                    <color>ff0000ff</color>
                    <colorMode>normal</colorMode>
                    <scale>1</scale>
                    <heading>0</heading>
                    <Icon id="2677">
                        <href>http://maps.google.com/mapfiles/kml/pushpin/ylw-pushpin.png</href>
                    </Icon>
                </IconStyle>
            </Style>
            <Style id="2680">
                <IconStyle id="2681">
                    <color>ff0000ff</color>
                    <colorMode>normal</colorMode>
                    <scale>1</scale>
                    <heading>0</heading>
                    <Icon id="2682">
                        <href>http://maps.google.com/mapfiles/kml/pushpin/ylw-pushpin.png</href>
                    </Icon>
                </IconStyle>
            </Style>
            <Style id="2685">
                <IconStyle id="2686">
                    <color>ff0000ff</color>
                    <colorMode>normal</colorMode>
                    <scale>1</scale>
                    <heading>0</heading>
                    <Icon id="2687">
                        <href>http://maps.google.com/mapfiles/kml/pushpin/ylw-pushpin.png</href>
                    </Icon>
                </IconStyle>
            </Style>
            <Style id="2690">
                <IconStyle id="2691">
                    <color>ff0000ff</color>
                    <colorMode>normal</colorMode>
                    <scale>1</scale>
                    <heading>0</heading>
                    <Icon id="2692">
                        <href>http://maps.google.com/mapfiles/kml/pushpin/ylw-pushpin.png</href>
                    </Icon>
                </IconStyle>
            </Style>
            <Style id="2695">
                <IconStyle id="2696">
                    <color>ff0000ff</color>
                    <colorMode>normal</colorMode>
                    <scale>1</scale>
                    <heading>0</heading>
                    <Icon id="2697">
                        <href>http://maps.google.com/mapfiles/kml/pushpin/ylw-pushpin.png</href>
                    </Icon>
                </IconStyle>
            </Style>
            <name>CINTHYA FABIOLA CASTRO FARIAS</name>
            <Placemark id="2504">
                <name>MARIA DE LOS ANGELES SOLANGE BENITES VARGAS</name>
                <description>Parque 29-28 lateral
Talara
Talara
Piura
Perú</description>
                <styleUrl>#2505</styleUrl>
                <Point id="2503">
                    <coordinates>-81.2747941,-4.5855663,0.0</coordinates>
                </Point>
            </Placemark>
            <Placemark id="2509">
                <name>JIMENEZ ZAPATA DE COELLO PETRONILA</name>
                <description>JIMENEZ ZAPATA DE COELLO PETRONILA
Urb los pinos E-10
Talara
Talara
Piura
Perú</description>
                <styleUrl>#2510</styleUrl>
                <Point id="2508">
                    <coordinates>-81.2577126,-4.5814713,0.0</coordinates>
                </Point>
            </Placemark>
            <Placemark id="2514">
                <name>JIMENEZ ZAPATA DE COELLO PETRONILA</name>
                <description>JIMENEZ ZAPATA DE COELLO PETRONILA
Urb los pinos E-10
Talara
Talara
Piura
Perú</description>
                <styleUrl>#2515</styleUrl>
                <Point id="2513">
                    <coordinates>-81.2577126,-4.5814713,0.0</coordinates>
                </Point>
            </Placemark>
            <Placemark id="2519">
                <name>DORIS SOSA DE OLAYA</name>
                <description>ENACE II ETAPA H1-23
Talara
Talara
Piura
Perú</description>
                <styleUrl>#2520</styleUrl>
                <Point id="2518">
                    <coordinates>-81.1748568,-4.5919709,0.0</coordinates>
                </Point>
            </Placemark>
            <Placemark id="2524">
                <name>TURISMO CARLOS Y RAQUEL EIRL</name>
                <description>TURISMO CARLOS Y RAQUEL EIRL
MZ.F-1 LT.7 URB.FELIPE SANTIAG
Talara
200701Talara
Piura
Perú</description>
                <styleUrl>#2525</styleUrl>
                <Point id="2523">
                    <coordinates>-81.1755018,-4.590367,0.0</coordinates>
                </Point>
            </Placemark>
            <Placemark id="2529">
                <name>MARIA ESTHER ATOCHE SOSA</name>
                <description>CA.PARQUE 39 -03
Talara
Talara
Piura
Perú</description>
                <styleUrl>#2530</styleUrl>
                <Point id="2528">
                    <coordinates>-81.2706384,-4.5801297,0.0</coordinates>
                </Point>
            </Placemark>
            <Placemark id="2534">
                <name>KELLY DALLANA ZEVALLOS MOGOLLON</name>
                <description>PARQUE 3-20
Talara
Talara
Piura
Perú</description>
                <styleUrl>#2535</styleUrl>
                <Point id="2533">
                    <coordinates>-81.2742314,-4.5767508,0.0</coordinates>
                </Point>
            </Placemark>
            <Placemark id="2539">
                <name>MATILDE ATOCHE TORRES</name>
                <description>Unidad vecinal B-5 referencia atrás clínica tresa
Pariñas
Talara
Piura
Perú</description>
                <styleUrl>#2540</styleUrl>
                <Point id="2538">
                    <coordinates>-81.2758414,-4.578631,0.0</coordinates>
                </Point>
            </Placemark>
            <Placemark id="2544">
                <name>JOSE RAUL PAIVA CRUZ</name>
                <description>Av A 128 Talara
Talara
Talara
Piura
Perú</description>
                <styleUrl>#2545</styleUrl>
                <Point id="2543">
                    <coordinates>-81.2770232,-4.5777358,0.0</coordinates>
                </Point>
            </Placemark>
            <Placemark id="2549">
                <name>ERWIN FARFAN ALBURQUEQUE</name>
                <description>AV D34 TALARA BAJA TALARA-TALARA
Talara
Talara
Piura
Perú</description>
                <styleUrl>#2550</styleUrl>
                <Point id="2548">
                    <coordinates>-81.2707642,-4.5799837,0.0</coordinates>
                </Point>
            </Placemark>
            <Placemark id="2554">
                <name>KATHERINE JUDITH CASTRO FARIAS</name>
                <description>7 de junio B-43  frente cancha 7
Pariñas
Pariñas
Piura
Perú</description>
                <styleUrl>#2555</styleUrl>
                <Point id="2553">
                    <coordinates>-81.261141,-4.5946131,0.0</coordinates>
                </Point>
            </Placemark>
            <Placemark id="2559">
                <name>MIGUEL STAR MORE DIAZ</name>
                <description>A.H.SOL DE ORO MZ.A1 LT.6
Talara
Talara
Piura
Perú</description>
                <styleUrl>#2560</styleUrl>
                <Point id="2558">
                    <coordinates>-81.264199,-4.58856,0.0</coordinates>
                </Point>
            </Placemark>
            <Placemark id="2564">
                <name>LUCINDA FERNANDEZ SILVA</name>
                <description>Parque 33-25
Talara
Talara
Piura
Perú</description>
                <styleUrl>#2565</styleUrl>
                <Point id="2563">
                    <coordinates>-81.2740995,-4.5732362,0.0</coordinates>
                </Point>
            </Placemark>
            <Placemark id="2569">
                <name>BERTHA MILAGROS NORIEGA ECHE</name>
                <description>Alejandro Taboada colegio Domingo Savio
Pariñas
Talara
Piura
Perú</description>
                <styleUrl>#2570</styleUrl>
                <Point id="2568">
                    <coordinates>-81.2724784,-4.576583,0.0</coordinates>
                </Point>
            </Placemark>
            <Placemark id="2574">
                <name>KENIA MARISOL ABAD RIVERA</name>
                <description>Parque 70-02
Talara
Talara
Piura
Perú</description>
                <styleUrl>#2575</styleUrl>
                <Point id="2573">
                    <coordinates>-81.2673926,-4.5863812,0.0</coordinates>
                </Point>
            </Placemark>
            <Placemark id="2579">
                <name>DELIA AUSI CHUNGA FALLA</name>
                <description>AH.BELLO HORIZONTE MZ C LT 17 - PARIÑAS
Talara
Talara
Piura
Perú</description>
                <styleUrl>#2580</styleUrl>
                <Point id="2578">
                    <coordinates>-81.2600156,-4.5931256,0.0</coordinates>
                </Point>
            </Placemark>
            <Placemark id="2584">
                <name>JULIO CESAR ZAPATA SAAVEDRA</name>
                <description>AV.B.150 LATERAL TALARA
Talara
Talara
Piura
Perú</description>
                <styleUrl>#2585</styleUrl>
                <Point id="2583">
                    <coordinates>-81.2764889,-4.5765789,0.0</coordinates>
                </Point>
            </Placemark>
            <Placemark id="2589">
                <name>FATIMA CAMILA D'AMOUR YARLEQUE</name>
                <description>Parq, 9-17 lateral
Pariñas
Pariñas
Piura
Perú</description>
                <styleUrl>#2590</styleUrl>
                <Point id="2588">
                    <coordinates>-81.271119,-4.576042,0.0</coordinates>
                </Point>
            </Placemark>
            <Placemark id="2594">
                <name>CLEMENTINA CARHUAPOMA AREVALO</name>
                <description>PTO 39 MCDO. ACAPULCO - PARIÑA
Talara
Talara
Piura
Perú</description>
                <styleUrl>#2595</styleUrl>
                <Point id="2593">
                    <coordinates>-81.273056,-4.572811,0.0</coordinates>
                </Point>
            </Placemark>
            <Placemark id="2599">
                <name>ESTANISLAO JIMENEZ JULCA</name>
                <description>Mercado Acapulco 2 puerta
Pariñas
Pariñas
Piura
Perú</description>
                <styleUrl>#2600</styleUrl>
                <Point id="2598">
                    <coordinates>-81.2732817,-4.5728234,0.0</coordinates>
                </Point>
            </Placemark>
            <Placemark id="2604">
                <name>MERCEDES VITE DE PANTA</name>
                <description>PARQUE 33-16
Talara
Talara
Piura
Perú</description>
                <styleUrl>#2605</styleUrl>
                <Point id="2603">
                    <coordinates>-81.27284,-4.573484,0.0</coordinates>
                </Point>
            </Placemark>
            <Placemark id="2609">
                <name>MILAGRITOS LISET BLAS PURIZACA</name>
                <description>Acapulco 33-36 lateral Frente hospedaje tortugas
Talara
Talara
Piura
Perú</description>
                <styleUrl>#2610</styleUrl>
                <Point id="2608">
                    <coordinates>-81.2747441,-4.5735804,0.0</coordinates>
                </Point>
            </Placemark>
            <Placemark id="2614">
                <name>CARLOS ALBERTO AMAY ALBURQUEQUE</name>
                <description>PARQUE 28-25
Talara
Talara
Piura
Perú</description>
                <styleUrl>#2615</styleUrl>
                <Point id="2613">
                    <coordinates>-81.27618,-4.575042,0.0</coordinates>
                </Point>
            </Placemark>
            <Placemark id="2619">
                <name>JACINTA MAXVELI FARIAS CRUZ</name>
                <description>José Abelardo Quiñones B-43 espaldas del colegio señor de los Milagros
Talara
Talara
Piura
Perú</description>
                <styleUrl>#2620</styleUrl>
                <Point id="2618">
                    <coordinates>-81.2541203,-4.5955657,0.0</coordinates>
                </Point>
            </Placemark>
            <Placemark id="2624">
                <name>JERSON RICARDO NUÑEZ PANTA</name>
                <description>PARQUE MZ 01 LT6 TALARA
Talara
Talara
Piura
Perú</description>
                <styleUrl>#2625</styleUrl>
                <Point id="2623">
                    <coordinates>-81.276359,-4.576989,0.0</coordinates>
                </Point>
            </Placemark>
            <Placemark id="2629">
                <name>GLADYS ZENAIDA CHUNGA FALLA</name>
                <description>Parque 1-15
Talara
Talara
Piura
Perú</description>
                <styleUrl>#2630</styleUrl>
                <Point id="2628">
                    <coordinates>-81.2761745,-4.5769408,0.0</coordinates>
                </Point>
            </Placemark>
            <Placemark id="2634">
                <name>ISABEL PIERINA PEÑA VILLANTOY</name>
                <description>Frente a EPS Grau Kiosco naranja
Pariñas
Pariñas
Piura
Perú</description>
                <styleUrl>#2635</styleUrl>
                <Point id="2633">
                    <coordinates>-81.2788955,-4.5769219,0.0</coordinates>
                </Point>
            </Placemark>
            <Placemark id="2639">
                <name>CHIRLEY JAQUELINE ROJAS VALLADOLID</name>
                <description>AV.C.31
Talara
Talara
Piura
Perú</description>
                <styleUrl>#2640</styleUrl>
                <Point id="2638">
                    <coordinates>-81.2752737,-4.5780148,0.0</coordinates>
                </Point>
            </Placemark>
            <Placemark id="2644">
                <name>DORIS QUIROGA TUME</name>
                <description>PARQUE 6-25
Talara
Talara
Piura
Perú</description>
                <styleUrl>#2645</styleUrl>
                <Point id="2643">
                    <coordinates>-81.2724753,-4.5761535,0.0</coordinates>
                </Point>
            </Placemark>
            <Placemark id="2649">
                <name>JHOY MOISES TEMOCHE AGURTO</name>
                <description>JHOY MOISES TEMOCHE AGURTO
AV.F-8 FRENTE LETRERO COCACOLA
Talara
Talara
Piura
Perú</description>
                <styleUrl>#2650</styleUrl>
                <Point id="2648">
                    <coordinates>-81.2688107,-4.5864874,0.0</coordinates>
                </Point>
            </Placemark>
            <Placemark id="2654">
                <name>JHOY MOISES TEMOCHE AGURTO</name>
                <description>JHOY MOISES TEMOCHE AGURTO
AV.F-8 FRENTE LETRERO COCACOLA
Talara
Talara
Piura
Perú</description>
                <styleUrl>#2655</styleUrl>
                <Point id="2653">
                    <coordinates>-81.2688107,-4.5864874,0.0</coordinates>
                </Point>
            </Placemark>
            <Placemark id="2659">
                <name>HECTOR ANTONIO SALAZAR HUAMAN</name>
                <description>Av F_12 Frente ex campo ferial
Pariñas
Pariñas
Piura
Perú</description>
                <styleUrl>#2660</styleUrl>
                <Point id="2658">
                    <coordinates>-81.2690554,-4.5865457,0.0</coordinates>
                </Point>
            </Placemark>
            <Placemark id="2664">
                <name>HECTOR ANTONIO SALAZAR HUAMAN</name>
                <description>Av F_12 Frente ex campo ferial
Pariñas
Pariñas
Piura
Perú</description>
                <styleUrl>#2665</styleUrl>
                <Point id="2663">
                    <coordinates>-81.2690554,-4.5865457,0.0</coordinates>
                </Point>
            </Placemark>
            <Placemark id="2669">
                <name>IRMA MIRELLA DELGADO CRUZ</name>
                <description>AV F - 42
Talara
Talara
Piura
Perú</description>
                <styleUrl>#2670</styleUrl>
                <Point id="2668">
                    <coordinates>-81.2709114,-4.5865092,0.0</coordinates>
                </Point>
            </Placemark>
            <Placemark id="2674">
                <name>CENTURION PADILLA CELMIRA</name>
                <description>CENTURION PADILLA CELMIRA
AV.H.57
Talara
Talara
Piura
Perú</description>
                <styleUrl>#2675</styleUrl>
                <Point id="2673">
                    <coordinates>-81.2712982,-4.5831955,0.0</coordinates>
                </Point>
            </Placemark>
            <Placemark id="2679">
                <name>GARAY ZAPATA CESIBEL</name>
                <description>GARAY ZAPATA CESIBEL
PARQUE 42-28
Talara
Talara
Piura
Perú</description>
                <styleUrl>#2680</styleUrl>
                <Point id="2678">
                    <coordinates>-81.2700738,-4.5826647,0.0</coordinates>
                </Point>
            </Placemark>
            <Placemark id="2684">
                <name>CARMEN CECILIA OREJUELA CHIRINOS</name>
                <description>Parque 42 -39
Talara
Talara
Piura
Perú</description>
                <styleUrl>#2685</styleUrl>
                <Point id="2683">
                    <coordinates>-81.2710936,-4.5830441,0.0</coordinates>
                </Point>
            </Placemark>
            <Placemark id="2689">
                <name>DEGNI JEMIMA RONDOY VELASQUEZ</name>
                <description>Pilar Nores F1-A
Pariñas
Pariñas
Piura
Perú</description>
                <styleUrl>#2690</styleUrl>
                <Point id="2688">
                    <coordinates>-81.247137,-4.59723,0.0</coordinates>
                </Point>
            </Placemark>
            <Placemark id="2694">
                <name>MARLON YARLEQUE ZAVALA</name>
                <description>PARQUE 36-24 LAT
Talara
Talara
Piura
Perú</description>
                <styleUrl>#2695</styleUrl>
                <Point id="2693">
                    <coordinates>-81.2712733,-4.581651,0.0</coordinates>
                </Point>
            </Placemark>
        </Folder>
        <Folder id="2698">
            <Style id="2701">
                <IconStyle id="2702">
                    <color>ffff0000</color>
                    <colorMode>normal</colorMode>
                    <scale>1</scale>
                    <heading>0</heading>
                    <Icon id="2703">
                        <href>http://maps.google.com/mapfiles/kml/pushpin/ylw-pushpin.png</href>
                    </Icon>
                </IconStyle>
            </Style>
            <Style id="2706">
                <IconStyle id="2707">
                    <color>ffff0000</color>
                    <colorMode>normal</colorMode>
                    <scale>1</scale>
                    <heading>0</heading>
                    <Icon id="2708">
                        <href>http://maps.google.com/mapfiles/kml/pushpin/ylw-pushpin.png</href>
                    </Icon>
                </IconStyle>
            </Style>
            <Style id="2711">
                <IconStyle id="2712">
                    <color>ffff0000</color>
                    <colorMode>normal</colorMode>
                    <scale>1</scale>
                    <heading>0</heading>
                    <Icon id="2713">
                        <href>http://maps.google.com/mapfiles/kml/pushpin/ylw-pushpin.png</href>
                    </Icon>
                </IconStyle>
            </Style>
            <Style id="2716">
                <IconStyle id="2717">
                    <color>ffff0000</color>
                    <colorMode>normal</colorMode>
                    <scale>1</scale>
                    <heading>0</heading>
                    <Icon id="2718">
                        <href>http://maps.google.com/mapfiles/kml/pushpin/ylw-pushpin.png</href>
                    </Icon>
                </IconStyle>
            </Style>
            <Style id="2721">
                <IconStyle id="2722">
                    <color>ffff0000</color>
                    <colorMode>normal</colorMode>
                    <scale>1</scale>
                    <heading>0</heading>
                    <Icon id="2723">
                        <href>http://maps.google.com/mapfiles/kml/pushpin/ylw-pushpin.png</href>
                    </Icon>
                </IconStyle>
            </Style>
            <Style id="2726">
                <IconStyle id="2727">
                    <color>ffff0000</color>
                    <colorMode>normal</colorMode>
                    <scale>1</scale>
                    <heading>0</heading>
                    <Icon id="2728">
                        <href>http://maps.google.com/mapfiles/kml/pushpin/ylw-pushpin.png</href>
                    </Icon>
                </IconStyle>
            </Style>
            <Style id="2731">
                <IconStyle id="2732">
                    <color>ffff0000</color>
                    <colorMode>normal</colorMode>
                    <scale>1</scale>
                    <heading>0</heading>
                    <Icon id="2733">
                        <href>http://maps.google.com/mapfiles/kml/pushpin/ylw-pushpin.png</href>
                    </Icon>
                </IconStyle>
            </Style>
            <Style id="2736">
                <IconStyle id="2737">
                    <color>ffff0000</color>
                    <colorMode>normal</colorMode>
                    <scale>1</scale>
                    <heading>0</heading>
                    <Icon id="2738">
                        <href>http://maps.google.com/mapfiles/kml/pushpin/ylw-pushpin.png</href>
                    </Icon>
                </IconStyle>
            </Style>
            <Style id="2741">
                <IconStyle id="2742">
                    <color>ffff0000</color>
                    <colorMode>normal</colorMode>
                    <scale>1</scale>
                    <heading>0</heading>
                    <Icon id="2743">
                        <href>http://maps.google.com/mapfiles/kml/pushpin/ylw-pushpin.png</href>
                    </Icon>
                </IconStyle>
            </Style>
            <Style id="2746">
                <IconStyle id="2747">
                    <color>ffff0000</color>
                    <colorMode>normal</colorMode>
                    <scale>1</scale>
                    <heading>0</heading>
                    <Icon id="2748">
                        <href>http://maps.google.com/mapfiles/kml/pushpin/ylw-pushpin.png</href>
                    </Icon>
                </IconStyle>
            </Style>
            <Style id="2751">
                <IconStyle id="2752">
                    <color>ffff0000</color>
                    <colorMode>normal</colorMode>
                    <scale>1</scale>
                    <heading>0</heading>
                    <Icon id="2753">
                        <href>http://maps.google.com/mapfiles/kml/pushpin/ylw-pushpin.png</href>
                    </Icon>
                </IconStyle>
            </Style>
            <Style id="2756">
                <IconStyle id="2757">
                    <color>ffff0000</color>
                    <colorMode>normal</colorMode>
                    <scale>1</scale>
                    <heading>0</heading>
                    <Icon id="2758">
                        <href>http://maps.google.com/mapfiles/kml/pushpin/ylw-pushpin.png</href>
                    </Icon>
                </IconStyle>
            </Style>
            <Style id="2761">
                <IconStyle id="2762">
                    <color>ffff0000</color>
                    <colorMode>normal</colorMode>
                    <scale>1</scale>
                    <heading>0</heading>
                    <Icon id="2763">
                        <href>http://maps.google.com/mapfiles/kml/pushpin/ylw-pushpin.png</href>
                    </Icon>
                </IconStyle>
            </Style>
            <Style id="2766">
                <IconStyle id="2767">
                    <color>ffff0000</color>
                    <colorMode>normal</colorMode>
                    <scale>1</scale>
                    <heading>0</heading>
                    <Icon id="2768">
                        <href>http://maps.google.com/mapfiles/kml/pushpin/ylw-pushpin.png</href>
                    </Icon>
                </IconStyle>
            </Style>
            <Style id="2771">
                <IconStyle id="2772">
                    <color>ffff0000</color>
                    <colorMode>normal</colorMode>
                    <scale>1</scale>
                    <heading>0</heading>
                    <Icon id="2773">
                        <href>http://maps.google.com/mapfiles/kml/pushpin/ylw-pushpin.png</href>
                    </Icon>
                </IconStyle>
            </Style>
            <Style id="2776">
                <IconStyle id="2777">
                    <color>ffff0000</color>
                    <colorMode>normal</colorMode>
                    <scale>1</scale>
                    <heading>0</heading>
                    <Icon id="2778">
                        <href>http://maps.google.com/mapfiles/kml/pushpin/ylw-pushpin.png</href>
                    </Icon>
                </IconStyle>
            </Style>
            <Style id="2781">
                <IconStyle id="2782">
                    <color>ffff0000</color>
                    <colorMode>normal</colorMode>
                    <scale>1</scale>
                    <heading>0</heading>
                    <Icon id="2783">
                        <href>http://maps.google.com/mapfiles/kml/pushpin/ylw-pushpin.png</href>
                    </Icon>
                </IconStyle>
            </Style>
            <name>FRANCISCO JAVIER TALLEDO VALDIVIEZO</name>
            <Placemark id="2700">
                <name>SUPERNEGOCIOS EL GOLOSO E.I.R.L.</name>
                <description>SUPERNEGOCIOS EL GOLOSO E.I.R.L.
MERCADO LA PARADA S/N, Talar
Talara
200701Talara
Piura
Perú</description>
                <styleUrl>#2701</styleUrl>
                <Point id="2699">
                    <coordinates>-81.2668704,-4.5846999,0.0</coordinates>
                </Point>
            </Placemark>
            <Placemark id="2705">
                <name>ZIPPERLESS CATERING SERVICE E.I.R.L.</name>
                <description>ZIPPERLESS CATERING SERVICE E.I.R.L.
PQ. 22 NRO. 03 C.H.  TALARA
Talara
200701Talara
Piura
Perú</description>
                <styleUrl>#2706</styleUrl>
                <Point id="2704">
                    <coordinates>-81.2724617,-4.5785747,0.0</coordinates>
                </Point>
            </Placemark>
            <Placemark id="2710">
                <name>SALDARRIAGA ARRUNATEGUI IRIS MARGOT</name>
                <description>SALDARRIAGA ARRUNATEGUI IRIS MARGOT
PARQUE 71 - 24 PQ. LATERAL 7124
Talara

Piura
Perú</description>
                <styleUrl>#2711</styleUrl>
                <Point id="2709">
                    <coordinates>-81.266956,-4.584737,0.0</coordinates>
                </Point>
            </Placemark>
            <Placemark id="2715">
                <name>SALDARRIAGA ARRUNATEGUI IRIS MARGOT</name>
                <description>SALDARRIAGA ARRUNATEGUI IRIS MARGOT
PARQUE 71 - 24 PQ. LATERAL 7124
Talara

Piura
Perú</description>
                <styleUrl>#2716</styleUrl>
                <Point id="2714">
                    <coordinates>-81.266956,-4.584737,0.0</coordinates>
                </Point>
            </Placemark>
            <Placemark id="2720">
                <name>CRISANTO VALLADARES JORGE ARMANDO</name>
                <description>CRISANTO VALLADARES JORGE ARMANDO
AV.MARTIRES PETROLEROS B-3A-1
Talara
Talara
Piura
Perú</description>
                <styleUrl>#2721</styleUrl>
                <Point id="2719">
                    <coordinates>-81.268418,-4.57913,0.0</coordinates>
                </Point>
            </Placemark>
            <Placemark id="2725">
                <name>CRISANTO VALLADARES JOSE TELESFORO</name>
                <description>EXT.MCDO.CENTRAL TALARA PST.52
Talara
Talara
Piura
Perú</description>
                <styleUrl>#2726</styleUrl>
                <Point id="2724">
                    <coordinates>-81.269927,-4.579235,0.0</coordinates>
                </Point>
            </Placemark>
            <Placemark id="2730">
                <name>CRISANTO VALLADARES JOSE TELESFORO</name>
                <description>EXT.MCDO.CENTRAL TALARA PST.52
Talara
Talara
Piura
Perú</description>
                <styleUrl>#2731</styleUrl>
                <Point id="2729">
                    <coordinates>-81.269927,-4.579235,0.0</coordinates>
                </Point>
            </Placemark>
            <Placemark id="2735">
                <name>FARFAN ALBURQUEQUE JOHNY</name>
                <description>Av.D-40 int mercado central
Talara
Talara
Piura
Perú</description>
                <styleUrl>#2736</styleUrl>
                <Point id="2734">
                    <coordinates>-81.2704575,-4.5801627,0.0</coordinates>
                </Point>
            </Placemark>
            <Placemark id="2740">
                <name>D LA PLAZA SOCIEDAD ANONIMA CERRADA</name>
                <description>D LA PLAZA SOCIEDAD ANONIMA CERRADA
AV.D.30 TALARA
Talara
200701Talara
Piura
Perú</description>
                <styleUrl>#2741</styleUrl>
                <Point id="2739">
                    <coordinates>-81.271116,-4.580174,0.0</coordinates>
                </Point>
            </Placemark>
            <Placemark id="2745">
                <name>BAITAI E.I.R.L.</name>
                <description>BAITAI E.I.R.L.
JR. PUNO NRO. 731 URB. BARRIOS ALTOS
Talara
150101Talara
Piura
Perú</description>
                <styleUrl>#2746</styleUrl>
                <Point id="2744">
                    <coordinates>-81.2712906,-4.5795988,0.0</coordinates>
                </Point>
            </Placemark>
            <Placemark id="2750">
                <name>BAITAI E.I.R.L.</name>
                <description>BAITAI E.I.R.L.
JR. PUNO NRO. 731 URB. BARRIOS ALTOS
Talara
150101Talara
Piura
Perú</description>
                <styleUrl>#2751</styleUrl>
                <Point id="2749">
                    <coordinates>-81.2712906,-4.5795988,0.0</coordinates>
                </Point>
            </Placemark>
            <Placemark id="2755">
                <name>ZIPPERLESS CATERING SERVICE E.I.R.L.</name>
                <description>ZIPPERLESS CATERING SERVICE E.I.R.L.
PQ. 22 NRO. 03 C.H.  TALARA
Talara
200701Talara
Piura
Perú</description>
                <styleUrl>#2756</styleUrl>
                <Point id="2754">
                    <coordinates>-81.2724617,-4.5785747,0.0</coordinates>
                </Point>
            </Placemark>
            <Placemark id="2760">
                <name>FLOR MARINA SUYON BANCES</name>
                <description>AV. E NÂ°20 - TALARA PARIÑAS
Talara
Talara
Piura
Perú</description>
                <styleUrl>#2761</styleUrl>
                <Point id="2759">
                    <coordinates>-81.2680703,-4.5814234,0.0</coordinates>
                </Point>
            </Placemark>
            <Placemark id="2765">
                <name>SHIRLEY ANGELICA CRUZ SERNAQUE</name>
                <description>PARQUE 67-15
Talara
Talara
Piura
Perú</description>
                <styleUrl>#2766</styleUrl>
                <Point id="2764">
                    <coordinates>-81.2674,-4.578604,0.0</coordinates>
                </Point>
            </Placemark>
            <Placemark id="2770">
                <name>LIDIA ROSA VELASQUEZ NAVARRO</name>
                <description>Parque 66-32
Talara
Talara
Piura
Perú</description>
                <styleUrl>#2771</styleUrl>
                <Point id="2769">
                    <coordinates>-81.2661767,-4.5795779,0.0</coordinates>
                </Point>
            </Placemark>
            <Placemark id="2775">
                <name>RUGEL SANCHEZ JOSE MILAGROS</name>
                <description>PARQUE 65-A7 TALARA
Talara
Talara
Piura
Perú</description>
                <styleUrl>#2776</styleUrl>
                <Point id="2774">
                    <coordinates>-81.2671963,-4.5792235,0.0</coordinates>
                </Point>
            </Placemark>
            <Placemark id="2780">
                <name>POZO JUAREZ YESSICA DEL PILAR</name>
                <description>POZO JUAREZ YESSICA DEL PILAR
PARQUE 12-1 TALARA
Talara
Talara
Piura
Perú</description>
                <styleUrl>#2781</styleUrl>
                <Point id="2779">
                    <coordinates>-81.269316,-4.575678,0.0</coordinates>
                </Point>
            </Placemark>
        </Folder>
    </Document>
</kml>
