<?xml version="1.0" encoding="UTF-8"?>
<kml xmlns="http://www.opengis.net/kml/2.2" xmlns:gx="http://www.google.com/kml/ext/2.2">
    <Document id="2393">
        <Folder id="2394">
            <Style id="2397">
                <IconStyle id="2398">
                    <color>ff0000ff</color>
                    <colorMode>normal</colorMode>
                    <scale>1</scale>
                    <heading>0</heading>
                    <Icon id="2399">
                        <href>http://maps.google.com/mapfiles/kml/pushpin/ylw-pushpin.png</href>
                    </Icon>
                </IconStyle>
            </Style>
            <Style id="2402">
                <IconStyle id="2403">
                    <color>ff0000ff</color>
                    <colorMode>normal</colorMode>
                    <scale>1</scale>
                    <heading>0</heading>
                    <Icon id="2404">
                        <href>http://maps.google.com/mapfiles/kml/pushpin/ylw-pushpin.png</href>
                    </Icon>
                </IconStyle>
            </Style>
            <Style id="2407">
                <IconStyle id="2408">
                    <color>ff0000ff</color>
                    <colorMode>normal</colorMode>
                    <scale>1</scale>
                    <heading>0</heading>
                    <Icon id="2409">
                        <href>http://maps.google.com/mapfiles/kml/pushpin/ylw-pushpin.png</href>
                    </Icon>
                </IconStyle>
            </Style>
            <Style id="2412">
                <IconStyle id="2413">
                    <color>ff0000ff</color>
                    <colorMode>normal</colorMode>
                    <scale>1</scale>
                    <heading>0</heading>
                    <Icon id="2414">
                        <href>http://maps.google.com/mapfiles/kml/pushpin/ylw-pushpin.png</href>
                    </Icon>
                </IconStyle>
            </Style>
            <Style id="2417">
                <IconStyle id="2418">
                    <color>ff0000ff</color>
                    <colorMode>normal</colorMode>
                    <scale>1</scale>
                    <heading>0</heading>
                    <Icon id="2419">
                        <href>http://maps.google.com/mapfiles/kml/pushpin/ylw-pushpin.png</href>
                    </Icon>
                </IconStyle>
            </Style>
            <Style id="2422">
                <IconStyle id="2423">
                    <color>ff0000ff</color>
                    <colorMode>normal</colorMode>
                    <scale>1</scale>
                    <heading>0</heading>
                    <Icon id="2424">
                        <href>http://maps.google.com/mapfiles/kml/pushpin/ylw-pushpin.png</href>
                    </Icon>
                </IconStyle>
            </Style>
            <Style id="2427">
                <IconStyle id="2428">
                    <color>ff0000ff</color>
                    <colorMode>normal</colorMode>
                    <scale>1</scale>
                    <heading>0</heading>
                    <Icon id="2429">
                        <href>http://maps.google.com/mapfiles/kml/pushpin/ylw-pushpin.png</href>
                    </Icon>
                </IconStyle>
            </Style>
            <Style id="2432">
                <IconStyle id="2433">
                    <color>ff0000ff</color>
                    <colorMode>normal</colorMode>
                    <scale>1</scale>
                    <heading>0</heading>
                    <Icon id="2434">
                        <href>http://maps.google.com/mapfiles/kml/pushpin/ylw-pushpin.png</href>
                    </Icon>
                </IconStyle>
            </Style>
            <Style id="2437">
                <IconStyle id="2438">
                    <color>ff0000ff</color>
                    <colorMode>normal</colorMode>
                    <scale>1</scale>
                    <heading>0</heading>
                    <Icon id="2439">
                        <href>http://maps.google.com/mapfiles/kml/pushpin/ylw-pushpin.png</href>
                    </Icon>
                </IconStyle>
            </Style>
            <Style id="2442">
                <IconStyle id="2443">
                    <color>ff0000ff</color>
                    <colorMode>normal</colorMode>
                    <scale>1</scale>
                    <heading>0</heading>
                    <Icon id="2444">
                        <href>http://maps.google.com/mapfiles/kml/pushpin/ylw-pushpin.png</href>
                    </Icon>
                </IconStyle>
            </Style>
            <Style id="2447">
                <IconStyle id="2448">
                    <color>ff0000ff</color>
                    <colorMode>normal</colorMode>
                    <scale>1</scale>
                    <heading>0</heading>
                    <Icon id="2449">
                        <href>http://maps.google.com/mapfiles/kml/pushpin/ylw-pushpin.png</href>
                    </Icon>
                </IconStyle>
            </Style>
            <Style id="2452">
                <IconStyle id="2453">
                    <color>ff0000ff</color>
                    <colorMode>normal</colorMode>
                    <scale>1</scale>
                    <heading>0</heading>
                    <Icon id="2454">
                        <href>http://maps.google.com/mapfiles/kml/pushpin/ylw-pushpin.png</href>
                    </Icon>
                </IconStyle>
            </Style>
            <Style id="2457">
                <IconStyle id="2458">
                    <color>ff0000ff</color>
                    <colorMode>normal</colorMode>
                    <scale>1</scale>
                    <heading>0</heading>
                    <Icon id="2459">
                        <href>http://maps.google.com/mapfiles/kml/pushpin/ylw-pushpin.png</href>
                    </Icon>
                </IconStyle>
            </Style>
            <Style id="2462">
                <IconStyle id="2463">
                    <color>ff0000ff</color>
                    <colorMode>normal</colorMode>
                    <scale>1</scale>
                    <heading>0</heading>
                    <Icon id="2464">
                        <href>http://maps.google.com/mapfiles/kml/pushpin/ylw-pushpin.png</href>
                    </Icon>
                </IconStyle>
            </Style>
            <Style id="2467">
                <IconStyle id="2468">
                    <color>ff0000ff</color>
                    <colorMode>normal</colorMode>
                    <scale>1</scale>
                    <heading>0</heading>
                    <Icon id="2469">
                        <href>http://maps.google.com/mapfiles/kml/pushpin/ylw-pushpin.png</href>
                    </Icon>
                </IconStyle>
            </Style>
            <Style id="2472">
                <IconStyle id="2473">
                    <color>ff0000ff</color>
                    <colorMode>normal</colorMode>
                    <scale>1</scale>
                    <heading>0</heading>
                    <Icon id="2474">
                        <href>http://maps.google.com/mapfiles/kml/pushpin/ylw-pushpin.png</href>
                    </Icon>
                </IconStyle>
            </Style>
            <Style id="2477">
                <IconStyle id="2478">
                    <color>ff0000ff</color>
                    <colorMode>normal</colorMode>
                    <scale>1</scale>
                    <heading>0</heading>
                    <Icon id="2479">
                        <href>http://maps.google.com/mapfiles/kml/pushpin/ylw-pushpin.png</href>
                    </Icon>
                </IconStyle>
            </Style>
            <Style id="2482">
                <IconStyle id="2483">
                    <color>ff0000ff</color>
                    <colorMode>normal</colorMode>
                    <scale>1</scale>
                    <heading>0</heading>
                    <Icon id="2484">
                        <href>http://maps.google.com/mapfiles/kml/pushpin/ylw-pushpin.png</href>
                    </Icon>
                </IconStyle>
            </Style>
            <Style id="2487">
                <IconStyle id="2488">
                    <color>ff0000ff</color>
                    <colorMode>normal</colorMode>
                    <scale>1</scale>
                    <heading>0</heading>
                    <Icon id="2489">
                        <href>http://maps.google.com/mapfiles/kml/pushpin/ylw-pushpin.png</href>
                    </Icon>
                </IconStyle>
            </Style>
            <Style id="2492">
                <IconStyle id="2493">
                    <color>ff0000ff</color>
                    <colorMode>normal</colorMode>
                    <scale>1</scale>
                    <heading>0</heading>
                    <Icon id="2494">
                        <href>http://maps.google.com/mapfiles/kml/pushpin/ylw-pushpin.png</href>
                    </Icon>
                </IconStyle>
            </Style>
            <Style id="2497">
                <IconStyle id="2498">
                    <color>ff0000ff</color>
                    <colorMode>normal</colorMode>
                    <scale>1</scale>
                    <heading>0</heading>
                    <Icon id="2499">
                        <href>http://maps.google.com/mapfiles/kml/pushpin/ylw-pushpin.png</href>
                    </Icon>
                </IconStyle>
            </Style>
            <Style id="2502">
                <IconStyle id="2503">
                    <color>ff0000ff</color>
                    <colorMode>normal</colorMode>
                    <scale>1</scale>
                    <heading>0</heading>
                    <Icon id="2504">
                        <href>http://maps.google.com/mapfiles/kml/pushpin/ylw-pushpin.png</href>
                    </Icon>
                </IconStyle>
            </Style>
            <Style id="2507">
                <IconStyle id="2508">
                    <color>ff0000ff</color>
                    <colorMode>normal</colorMode>
                    <scale>1</scale>
                    <heading>0</heading>
                    <Icon id="2509">
                        <href>http://maps.google.com/mapfiles/kml/pushpin/ylw-pushpin.png</href>
                    </Icon>
                </IconStyle>
            </Style>
            <Style id="2512">
                <IconStyle id="2513">
                    <color>ff0000ff</color>
                    <colorMode>normal</colorMode>
                    <scale>1</scale>
                    <heading>0</heading>
                    <Icon id="2514">
                        <href>http://maps.google.com/mapfiles/kml/pushpin/ylw-pushpin.png</href>
                    </Icon>
                </IconStyle>
            </Style>
            <Style id="2517">
                <IconStyle id="2518">
                    <color>ff0000ff</color>
                    <colorMode>normal</colorMode>
                    <scale>1</scale>
                    <heading>0</heading>
                    <Icon id="2519">
                        <href>http://maps.google.com/mapfiles/kml/pushpin/ylw-pushpin.png</href>
                    </Icon>
                </IconStyle>
            </Style>
            <Style id="2522">
                <IconStyle id="2523">
                    <color>ff0000ff</color>
                    <colorMode>normal</colorMode>
                    <scale>1</scale>
                    <heading>0</heading>
                    <Icon id="2524">
                        <href>http://maps.google.com/mapfiles/kml/pushpin/ylw-pushpin.png</href>
                    </Icon>
                </IconStyle>
            </Style>
            <Style id="2527">
                <IconStyle id="2528">
                    <color>ff0000ff</color>
                    <colorMode>normal</colorMode>
                    <scale>1</scale>
                    <heading>0</heading>
                    <Icon id="2529">
                        <href>http://maps.google.com/mapfiles/kml/pushpin/ylw-pushpin.png</href>
                    </Icon>
                </IconStyle>
            </Style>
            <Style id="2532">
                <IconStyle id="2533">
                    <color>ff0000ff</color>
                    <colorMode>normal</colorMode>
                    <scale>1</scale>
                    <heading>0</heading>
                    <Icon id="2534">
                        <href>http://maps.google.com/mapfiles/kml/pushpin/ylw-pushpin.png</href>
                    </Icon>
                </IconStyle>
            </Style>
            <name>CINTHYA FABIOLA CASTRO FARIAS</name>
            <Placemark id="2396">
                <name>Ana Carolina Rueda Peña</name>
                <description>Urbanización Popular M-4
Talara
Talara
Piura
Perú</description>
                <styleUrl>#2397</styleUrl>
                <Point id="2395">
                    <coordinates>-81.2581324,-4.5840417,0.0</coordinates>
                </Point>
            </Placemark>
            <Placemark id="2401">
                <name>QUEREVALU FARFAN DANITZA LILIANA</name>
                <description>QUEREVALU FARFAN DANITZA LILIANA

Talara
Talara
Piura
Perú</description>
                <styleUrl>#2402</styleUrl>
                <Point id="2400">
                    <coordinates>-81.2614477,-4.5885491,0.0</coordinates>
                </Point>
            </Placemark>
            <Placemark id="2406">
                <name>IVONNE ELIABETH FARIAS ARCA</name>
                <description>A.H.NUEVO SAN JUAN D - 20
Talara
Talara
Piura
Perú</description>
                <styleUrl>#2407</styleUrl>
                <Point id="2405">
                    <coordinates>-81.257451,-4.5867217,0.0</coordinates>
                </Point>
            </Placemark>
            <Placemark id="2411">
                <name>ANY COLMENARES CELI</name>
                <description>URB. POPULAR F-9 TALARA
Talara
Talara
Piura
Perú</description>
                <styleUrl>#2412</styleUrl>
                <Point id="2410">
                    <coordinates>-81.255825,-4.5842802,0.0</coordinates>
                </Point>
            </Placemark>
            <Placemark id="2416">
                <name>JACINTA MAXVELI FARIAS CRUZ</name>
                <description>José Abelardo Quiñones B-43 espaldas del colegio señor de los Milagros
Talara
Talara
Piura
Perú</description>
                <styleUrl>#2417</styleUrl>
                <Point id="2415">
                    <coordinates>-81.2541203,-4.5955657,0.0</coordinates>
                </Point>
            </Placemark>
            <Placemark id="2421">
                <name>CINTYA ANABELL SULLON RUIZ</name>
                <description>A.H JOSE GALVEZ MZ. D LT 15
Talara
Talara
Piura
Perú</description>
                <styleUrl>#2422</styleUrl>
                <Point id="2420">
                    <coordinates>-81.2564535,-4.5995073,0.0</coordinates>
                </Point>
            </Placemark>
            <Placemark id="2426">
                <name>NEGOCIOS DE BIENES Y SERVICIOS SAN FRANCISCO S.A.C.</name>
                <description>OTR.ZONA INDUSTRIAL MZA. A LOTE. 28 OTR.  ZONA INDUSTRIAL A-28
Pariñas
200701Pariñas
Piura
Perú</description>
                <styleUrl>#2427</styleUrl>
                <Point id="2425">
                    <coordinates>-81.2601213,-4.5914707,0.0</coordinates>
                </Point>
            </Placemark>
            <Placemark id="2431">
                <name>MIGUEL STAR MORE DIAZ</name>
                <description>A.H.SOL DE ORO MZ.A1 LT.6
Talara
Talara
Piura
Perú</description>
                <styleUrl>#2432</styleUrl>
                <Point id="2430">
                    <coordinates>-81.264199,-4.58856,0.0</coordinates>
                </Point>
            </Placemark>
            <Placemark id="2436">
                <name>HUMBERTO GARCIA COELLO</name>
                <description>CALLE 4 PUESTO 68 TALARA ALTA
Talara
Talara
Piura
Perú</description>
                <styleUrl>#2437</styleUrl>
                <Point id="2435">
                    <coordinates>-81.2563033,-4.5915659,0.0</coordinates>
                </Point>
            </Placemark>
            <Placemark id="2441">
                <name>HUMBERTO GARCIA COELLO</name>
                <description>CALLE 4 PUESTO 68 TALARA ALTA
Talara
Talara
Piura
Perú</description>
                <styleUrl>#2442</styleUrl>
                <Point id="2440">
                    <coordinates>-81.2563033,-4.5915659,0.0</coordinates>
                </Point>
            </Placemark>
            <Placemark id="2446">
                <name>DINO ALEXANDER CORONADO YOVERA</name>
                <description>VICTOR RAUL A_1
Talara
Talara
Piura
Perú</description>
                <styleUrl>#2447</styleUrl>
                <Point id="2445">
                    <coordinates>-81.2582364,-4.5946465,0.0</coordinates>
                </Point>
            </Placemark>
            <Placemark id="2451">
                <name>DINO ALEXANDER CORONADO YOVERA</name>
                <description>VICTOR RAUL A_1
Talara
Talara
Piura
Perú</description>
                <styleUrl>#2452</styleUrl>
                <Point id="2450">
                    <coordinates>-81.2582364,-4.5946465,0.0</coordinates>
                </Point>
            </Placemark>
            <Placemark id="2456">
                <name>KARINA MARILU SOCOLA FIESTAS</name>
                <description>A.H LAS PALMERAS D_10
Talara
Talara
Piura
Perú</description>
                <styleUrl>#2457</styleUrl>
                <Point id="2455">
                    <coordinates>-81.2614769,-4.589575,0.0</coordinates>
                </Point>
            </Placemark>
            <Placemark id="2461">
                <name>KARINA MARILU SOCOLA FIESTAS</name>
                <description>A.H LAS PALMERAS D_10
Talara
Talara
Piura
Perú</description>
                <styleUrl>#2462</styleUrl>
                <Point id="2460">
                    <coordinates>-81.2614769,-4.589575,0.0</coordinates>
                </Point>
            </Placemark>
            <Placemark id="2466">
                <name>HAYDEE DEISI HUAMAN AQUINO</name>
                <description>Av h 54
Talara
Talara
Piura
Perú</description>
                <styleUrl>#2467</styleUrl>
                <Point id="2465">
                    <coordinates>-81.2725267,-4.5834532,0.0</coordinates>
                </Point>
            </Placemark>
            <Placemark id="2471">
                <name>JOSEFA MARLENY CAÑOTE CASTILLO</name>
                <description>La parada exterior c-12 al costado de la puerta de ingresar
Pariñas
Pariñas
Piura
Perú</description>
                <styleUrl>#2472</styleUrl>
                <Point id="2470">
                    <coordinates>-81.2673087,-4.584341,0.0</coordinates>
                </Point>
            </Placemark>
            <Placemark id="2476">
                <name>DE PALOMINO LORENZA OJEDA BRAN</name>
                <description>La parada,piñateria puesto f3
Pariñas
Pariñas
Piura
Perú</description>
                <styleUrl>#2477</styleUrl>
                <Point id="2475">
                    <coordinates>-81.2676108,-4.5842801,0.0</coordinates>
                </Point>
            </Placemark>
            <Placemark id="2481">
                <name>EUSEBIA ASUNCION PINGO QUIROGA</name>
                <description>AV.PRINCIPAL.FONAVI MZ J LT 12 - 3
Talara
Talara
Piura
Perú</description>
                <styleUrl>#2482</styleUrl>
                <Point id="2480">
                    <coordinates>-81.2582494,-4.5851268,0.0</coordinates>
                </Point>
            </Placemark>
            <Placemark id="2486">
                <name>HEYDE LORENA CASTILLO GONZALES</name>
                <description>URB.POPULAR G-9.
Talara
Talara
Piura
Perú</description>
                <styleUrl>#2487</styleUrl>
                <Point id="2485">
                    <coordinates>-81.2555552,-4.5840614,0.0</coordinates>
                </Point>
            </Placemark>
            <Placemark id="2491">
                <name>SOCORRO DEL PILAR FARFAN DE ZAVALA</name>
                <description>Las esmeraldas  O-13
Pariñas
Talara
Piura
Perú</description>
                <styleUrl>#2492</styleUrl>
                <Point id="2490">
                    <coordinates>-81.2568964,-4.5828907,0.0</coordinates>
                </Point>
            </Placemark>
            <Placemark id="2496">
                <name>JOHANA DE LOS ANGELES QUEVEDO ALEMAN</name>
                <description>VILLA FAP A-20
Pariñas
Talara
Piura
Perú</description>
                <styleUrl>#2497</styleUrl>
                <Point id="2495">
                    <coordinates>-81.2582502,-4.5799782,0.0</coordinates>
                </Point>
            </Placemark>
            <Placemark id="2501">
                <name>ALEIDA DEL ROSARIO FARFAN GUEVARA</name>
                <description>URB.LOS PINOS H 6
Talara
Talara
Piura
Perú</description>
                <styleUrl>#2502</styleUrl>
                <Point id="2500">
                    <coordinates>-81.2567067,-4.579684,0.0</coordinates>
                </Point>
            </Placemark>
            <Placemark id="2506">
                <name>ROSA ISABEL MULATILLO CAMPOS</name>
                <description>Urb pinos J-1 esquina
Pariñas
Pariñas
Piura
Perú</description>
                <styleUrl>#2507</styleUrl>
                <Point id="2505">
                    <coordinates>-81.2560628,-4.5816648,0.0</coordinates>
                </Point>
            </Placemark>
            <Placemark id="2511">
                <name>JIMENEZ ZAPATA DE COELLO PETRONILA</name>
                <description>JIMENEZ ZAPATA DE COELLO PETRONILA
Urb los pinos E-10
Talara
Talara
Piura
Perú</description>
                <styleUrl>#2512</styleUrl>
                <Point id="2510">
                    <coordinates>-81.2577126,-4.5814713,0.0</coordinates>
                </Point>
            </Placemark>
            <Placemark id="2516">
                <name>JIMENEZ ZAPATA DE COELLO PETRONILA</name>
                <description>JIMENEZ ZAPATA DE COELLO PETRONILA
Urb los pinos E-10
Talara
Talara
Piura
Perú</description>
                <styleUrl>#2517</styleUrl>
                <Point id="2515">
                    <coordinates>-81.2577126,-4.5814713,0.0</coordinates>
                </Point>
            </Placemark>
            <Placemark id="2521">
                <name>SOCORRO DEL PILAR FARFAN DE ZAVALA</name>
                <description>Las esmeraldas  O-13
Pariñas
Talara
Piura
Perú</description>
                <styleUrl>#2522</styleUrl>
                <Point id="2520">
                    <coordinates>-81.2568964,-4.5828907,0.0</coordinates>
                </Point>
            </Placemark>
            <Placemark id="2526">
                <name>GISELLA YOHANNA GUERRERO SANCHEZ</name>
                <description>MZ.I-15 URB. POPULAR
Talara
Talara
Piura
Perú</description>
                <styleUrl>#2527</styleUrl>
                <Point id="2525">
                    <coordinates>-81.2546623,-4.584611,0.0</coordinates>
                </Point>
            </Placemark>
            <Placemark id="2531">
                <name>ROSILLO ESPINOZA DE HURTADO AURELIA MERCEDES</name>
                <description>ROSILLO ESPINOZA DE HURTADO AURELIA MERCEDES
Urba popular I_25
Talara
Talara
Piura
Perú</description>
                <styleUrl>#2532</styleUrl>
                <Point id="2530">
                    <coordinates>-81.2545695,-4.5850274,0.0</coordinates>
                </Point>
            </Placemark>
        </Folder>
        <Folder id="2535">
            <Style id="2538">
                <IconStyle id="2539">
                    <color>ffff0000</color>
                    <colorMode>normal</colorMode>
                    <scale>1</scale>
                    <heading>0</heading>
                    <Icon id="2540">
                        <href>http://maps.google.com/mapfiles/kml/pushpin/ylw-pushpin.png</href>
                    </Icon>
                </IconStyle>
            </Style>
            <Style id="2543">
                <IconStyle id="2544">
                    <color>ffff0000</color>
                    <colorMode>normal</colorMode>
                    <scale>1</scale>
                    <heading>0</heading>
                    <Icon id="2545">
                        <href>http://maps.google.com/mapfiles/kml/pushpin/ylw-pushpin.png</href>
                    </Icon>
                </IconStyle>
            </Style>
            <Style id="2548">
                <IconStyle id="2549">
                    <color>ffff0000</color>
                    <colorMode>normal</colorMode>
                    <scale>1</scale>
                    <heading>0</heading>
                    <Icon id="2550">
                        <href>http://maps.google.com/mapfiles/kml/pushpin/ylw-pushpin.png</href>
                    </Icon>
                </IconStyle>
            </Style>
            <Style id="2553">
                <IconStyle id="2554">
                    <color>ffff0000</color>
                    <colorMode>normal</colorMode>
                    <scale>1</scale>
                    <heading>0</heading>
                    <Icon id="2555">
                        <href>http://maps.google.com/mapfiles/kml/pushpin/ylw-pushpin.png</href>
                    </Icon>
                </IconStyle>
            </Style>
            <Style id="2558">
                <IconStyle id="2559">
                    <color>ffff0000</color>
                    <colorMode>normal</colorMode>
                    <scale>1</scale>
                    <heading>0</heading>
                    <Icon id="2560">
                        <href>http://maps.google.com/mapfiles/kml/pushpin/ylw-pushpin.png</href>
                    </Icon>
                </IconStyle>
            </Style>
            <Style id="2563">
                <IconStyle id="2564">
                    <color>ffff0000</color>
                    <colorMode>normal</colorMode>
                    <scale>1</scale>
                    <heading>0</heading>
                    <Icon id="2565">
                        <href>http://maps.google.com/mapfiles/kml/pushpin/ylw-pushpin.png</href>
                    </Icon>
                </IconStyle>
            </Style>
            <Style id="2568">
                <IconStyle id="2569">
                    <color>ffff0000</color>
                    <colorMode>normal</colorMode>
                    <scale>1</scale>
                    <heading>0</heading>
                    <Icon id="2570">
                        <href>http://maps.google.com/mapfiles/kml/pushpin/ylw-pushpin.png</href>
                    </Icon>
                </IconStyle>
            </Style>
            <Style id="2573">
                <IconStyle id="2574">
                    <color>ffff0000</color>
                    <colorMode>normal</colorMode>
                    <scale>1</scale>
                    <heading>0</heading>
                    <Icon id="2575">
                        <href>http://maps.google.com/mapfiles/kml/pushpin/ylw-pushpin.png</href>
                    </Icon>
                </IconStyle>
            </Style>
            <Style id="2578">
                <IconStyle id="2579">
                    <color>ffff0000</color>
                    <colorMode>normal</colorMode>
                    <scale>1</scale>
                    <heading>0</heading>
                    <Icon id="2580">
                        <href>http://maps.google.com/mapfiles/kml/pushpin/ylw-pushpin.png</href>
                    </Icon>
                </IconStyle>
            </Style>
            <Style id="2583">
                <IconStyle id="2584">
                    <color>ffff0000</color>
                    <colorMode>normal</colorMode>
                    <scale>1</scale>
                    <heading>0</heading>
                    <Icon id="2585">
                        <href>http://maps.google.com/mapfiles/kml/pushpin/ylw-pushpin.png</href>
                    </Icon>
                </IconStyle>
            </Style>
            <Style id="2588">
                <IconStyle id="2589">
                    <color>ffff0000</color>
                    <colorMode>normal</colorMode>
                    <scale>1</scale>
                    <heading>0</heading>
                    <Icon id="2590">
                        <href>http://maps.google.com/mapfiles/kml/pushpin/ylw-pushpin.png</href>
                    </Icon>
                </IconStyle>
            </Style>
            <Style id="2593">
                <IconStyle id="2594">
                    <color>ffff0000</color>
                    <colorMode>normal</colorMode>
                    <scale>1</scale>
                    <heading>0</heading>
                    <Icon id="2595">
                        <href>http://maps.google.com/mapfiles/kml/pushpin/ylw-pushpin.png</href>
                    </Icon>
                </IconStyle>
            </Style>
            <Style id="2598">
                <IconStyle id="2599">
                    <color>ffff0000</color>
                    <colorMode>normal</colorMode>
                    <scale>1</scale>
                    <heading>0</heading>
                    <Icon id="2600">
                        <href>http://maps.google.com/mapfiles/kml/pushpin/ylw-pushpin.png</href>
                    </Icon>
                </IconStyle>
            </Style>
            <Style id="2603">
                <IconStyle id="2604">
                    <color>ffff0000</color>
                    <colorMode>normal</colorMode>
                    <scale>1</scale>
                    <heading>0</heading>
                    <Icon id="2605">
                        <href>http://maps.google.com/mapfiles/kml/pushpin/ylw-pushpin.png</href>
                    </Icon>
                </IconStyle>
            </Style>
            <Style id="2608">
                <IconStyle id="2609">
                    <color>ffff0000</color>
                    <colorMode>normal</colorMode>
                    <scale>1</scale>
                    <heading>0</heading>
                    <Icon id="2610">
                        <href>http://maps.google.com/mapfiles/kml/pushpin/ylw-pushpin.png</href>
                    </Icon>
                </IconStyle>
            </Style>
            <Style id="2613">
                <IconStyle id="2614">
                    <color>ffff0000</color>
                    <colorMode>normal</colorMode>
                    <scale>1</scale>
                    <heading>0</heading>
                    <Icon id="2615">
                        <href>http://maps.google.com/mapfiles/kml/pushpin/ylw-pushpin.png</href>
                    </Icon>
                </IconStyle>
            </Style>
            <Style id="2618">
                <IconStyle id="2619">
                    <color>ffff0000</color>
                    <colorMode>normal</colorMode>
                    <scale>1</scale>
                    <heading>0</heading>
                    <Icon id="2620">
                        <href>http://maps.google.com/mapfiles/kml/pushpin/ylw-pushpin.png</href>
                    </Icon>
                </IconStyle>
            </Style>
            <Style id="2623">
                <IconStyle id="2624">
                    <color>ffff0000</color>
                    <colorMode>normal</colorMode>
                    <scale>1</scale>
                    <heading>0</heading>
                    <Icon id="2625">
                        <href>http://maps.google.com/mapfiles/kml/pushpin/ylw-pushpin.png</href>
                    </Icon>
                </IconStyle>
            </Style>
            <Style id="2628">
                <IconStyle id="2629">
                    <color>ffff0000</color>
                    <colorMode>normal</colorMode>
                    <scale>1</scale>
                    <heading>0</heading>
                    <Icon id="2630">
                        <href>http://maps.google.com/mapfiles/kml/pushpin/ylw-pushpin.png</href>
                    </Icon>
                </IconStyle>
            </Style>
            <Style id="2633">
                <IconStyle id="2634">
                    <color>ffff0000</color>
                    <colorMode>normal</colorMode>
                    <scale>1</scale>
                    <heading>0</heading>
                    <Icon id="2635">
                        <href>http://maps.google.com/mapfiles/kml/pushpin/ylw-pushpin.png</href>
                    </Icon>
                </IconStyle>
            </Style>
            <Style id="2638">
                <IconStyle id="2639">
                    <color>ffff0000</color>
                    <colorMode>normal</colorMode>
                    <scale>1</scale>
                    <heading>0</heading>
                    <Icon id="2640">
                        <href>http://maps.google.com/mapfiles/kml/pushpin/ylw-pushpin.png</href>
                    </Icon>
                </IconStyle>
            </Style>
            <Style id="2643">
                <IconStyle id="2644">
                    <color>ffff0000</color>
                    <colorMode>normal</colorMode>
                    <scale>1</scale>
                    <heading>0</heading>
                    <Icon id="2645">
                        <href>http://maps.google.com/mapfiles/kml/pushpin/ylw-pushpin.png</href>
                    </Icon>
                </IconStyle>
            </Style>
            <Style id="2648">
                <IconStyle id="2649">
                    <color>ffff0000</color>
                    <colorMode>normal</colorMode>
                    <scale>1</scale>
                    <heading>0</heading>
                    <Icon id="2650">
                        <href>http://maps.google.com/mapfiles/kml/pushpin/ylw-pushpin.png</href>
                    </Icon>
                </IconStyle>
            </Style>
            <Style id="2653">
                <IconStyle id="2654">
                    <color>ffff0000</color>
                    <colorMode>normal</colorMode>
                    <scale>1</scale>
                    <heading>0</heading>
                    <Icon id="2655">
                        <href>http://maps.google.com/mapfiles/kml/pushpin/ylw-pushpin.png</href>
                    </Icon>
                </IconStyle>
            </Style>
            <name>FRANCISCO JAVIER TALLEDO VALDIVIEZO</name>
            <Placemark id="2537">
                <name>AMAYA CASTILLO WALTER JAIME</name>
                <description>EXT.MCDO.CENTRAL S/N
Talara
Talara
Piura
Perú</description>
                <styleUrl>#2538</styleUrl>
                <Point id="2536">
                    <coordinates>-81.269713,-4.579207,0.0</coordinates>
                </Point>
            </Placemark>
            <Placemark id="2542">
                <name>AMAYA CASTILLO WALTER JAIME</name>
                <description>EXT.MCDO.CENTRAL S/N
Talara
Talara
Piura
Perú</description>
                <styleUrl>#2543</styleUrl>
                <Point id="2541">
                    <coordinates>-81.269713,-4.579207,0.0</coordinates>
                </Point>
            </Placemark>
            <Placemark id="2547">
                <name>FARFAN ALBURQUEQUE JOHNY</name>
                <description>Av.D-40 int mercado central
Talara
Talara
Piura
Perú</description>
                <styleUrl>#2548</styleUrl>
                <Point id="2546">
                    <coordinates>-81.2704575,-4.5801627,0.0</coordinates>
                </Point>
            </Placemark>
            <Placemark id="2552">
                <name>ANDERSON SMITH VALDIVIEZO MIÑOPE</name>
                <description>Ext mercado la parada
Talara
Talara
Piura
Perú</description>
                <styleUrl>#2553</styleUrl>
                <Point id="2551">
                    <coordinates>-81.2670303,-4.5847121,0.0</coordinates>
                </Point>
            </Placemark>
            <Placemark id="2557">
                <name>FARFAN ALBURQUEQUE JOHNY</name>
                <description>Av.D-40 int mercado central
Talara
Talara
Piura
Perú</description>
                <styleUrl>#2558</styleUrl>
                <Point id="2556">
                    <coordinates>-81.2704575,-4.5801627,0.0</coordinates>
                </Point>
            </Placemark>
            <Placemark id="2562">
                <name>ABARROTES DANIEL SOCIEDAD ANONIMA CERRADA</name>
                <description>EXT MDO CENTRAL TDA 64
Pariñas
200701Pariñas
Piura
Perú</description>
                <styleUrl>#2563</styleUrl>
                <Point id="2561">
                    <coordinates>-81.269947,-4.579351,0.0</coordinates>
                </Point>
            </Placemark>
            <Placemark id="2567">
                <name>ABARROTES DANIEL SOCIEDAD ANONIMA CERRADA</name>
                <description>EXT MDO CENTRAL TDA 64
Pariñas
200701Pariñas
Piura
Perú</description>
                <styleUrl>#2568</styleUrl>
                <Point id="2566">
                    <coordinates>-81.269947,-4.579351,0.0</coordinates>
                </Point>
            </Placemark>
            <Placemark id="2572">
                <name>ROBERTO VITE ESCOBEDO</name>
                <description>C3-16 aproviser segunda etapa
Talara
Talara
Piura
Perú</description>
                <styleUrl>#2573</styleUrl>
                <Point id="2571">
                    <coordinates>-81.2598293,-4.5846484,0.0</coordinates>
                </Point>
            </Placemark>
            <Placemark id="2577">
                <name>BLANCA FARFAN DE TENORIO</name>
                <description>URB.FONAVI D3-18
Talara
Talara
Piura
Perú</description>
                <styleUrl>#2578</styleUrl>
                <Point id="2576">
                    <coordinates>-81.2597027,-4.58465,0.0</coordinates>
                </Point>
            </Placemark>
            <Placemark id="2582">
                <name>MARIA ISABEL ALEXANDRA MACHARE CARRERA</name>
                <description>Parada B8
Talara
Talara
Piura
Perú</description>
                <styleUrl>#2583</styleUrl>
                <Point id="2581">
                    <coordinates>-81.2668583,-4.5844517,0.0</coordinates>
                </Point>
            </Placemark>
            <Placemark id="2587">
                <name>MARIA ISABEL ALEXANDRA MACHARE CARRERA</name>
                <description>Parada B8
Talara
Talara
Piura
Perú</description>
                <styleUrl>#2588</styleUrl>
                <Point id="2586">
                    <coordinates>-81.2668583,-4.5844517,0.0</coordinates>
                </Point>
            </Placemark>
            <Placemark id="2592">
                <name>ANDERSON SMITH VALDIVIEZO MIÑOPE</name>
                <description>Ext mercado la parada
Talara
Talara
Piura
Perú</description>
                <styleUrl>#2593</styleUrl>
                <Point id="2591">
                    <coordinates>-81.2670303,-4.5847121,0.0</coordinates>
                </Point>
            </Placemark>
            <Placemark id="2597">
                <name>ANDERSON SMITH VALDIVIEZO MIÑOPE</name>
                <description>Ext mercado la parada
Talara
Talara
Piura
Perú</description>
                <styleUrl>#2598</styleUrl>
                <Point id="2596">
                    <coordinates>-81.2670303,-4.5847121,0.0</coordinates>
                </Point>
            </Placemark>
            <Placemark id="2602">
                <name>LILIANA TATIANA INFANTE HURTADO</name>
                <description>MARUJA CABREDO C-27
La Brea
Talara
Piura
Perú</description>
                <styleUrl>#2603</styleUrl>
                <Point id="2601">
                    <coordinates>-81.2657304,-4.5882115,0.0</coordinates>
                </Point>
            </Placemark>
            <Placemark id="2607">
                <name>LUIS FRANCISCO CAMPOS ZAPATA(MILO)</name>
                <description>Mercado la parada, canaleta
Talara
Talara
Piura
Perú</description>
                <styleUrl>#2608</styleUrl>
                <Point id="2606">
                    <coordinates>-81.2715089,-4.5805859,0.0</coordinates>
                </Point>
            </Placemark>
            <Placemark id="2612">
                <name>LUIS FRANCISCO CAMPOS ZAPATA(MILO)</name>
                <description>Mercado la parada, canaleta
Talara
Talara
Piura
Perú</description>
                <styleUrl>#2613</styleUrl>
                <Point id="2611">
                    <coordinates>-81.2715089,-4.5805859,0.0</coordinates>
                </Point>
            </Placemark>
            <Placemark id="2617">
                <name>NICK FRANCISCO ORBEGOSO MOGOLLON</name>
                <description>AAHH MARUJA CABRERO B-16 TALARA
Talara
Talara
Piura
Perú</description>
                <styleUrl>#2618</styleUrl>
                <Point id="2616">
                    <coordinates>-81.2664674,-4.5881943,0.0</coordinates>
                </Point>
            </Placemark>
            <Placemark id="2622">
                <name>MARIA DEL PILAR RODRIGUEZ CHIROQUE</name>
                <description>MARUJA CABRERO D-13 TALARA BAJA
Talara
Talara
Piura
Perú</description>
                <styleUrl>#2623</styleUrl>
                <Point id="2621">
                    <coordinates>-81.2656948,-4.5881345,0.0</coordinates>
                </Point>
            </Placemark>
            <Placemark id="2627">
                <name>ROSA ARMANDA GONZALES ROQUE</name>
                <description>VILLA TALARA B1-01
Talara
Talara
Piura
Perú</description>
                <styleUrl>#2628</styleUrl>
                <Point id="2626">
                    <coordinates>-81.26441,-4.5876394,0.0</coordinates>
                </Point>
            </Placemark>
            <Placemark id="2632">
                <name>TREXY PAMELA CUSTODIO VINCES</name>
                <description>VILLA  TALARA B-16
Talara
Talara
Piura
Perú</description>
                <styleUrl>#2633</styleUrl>
                <Point id="2631">
                    <coordinates>-81.2652914,-4.5874875,0.0</coordinates>
                </Point>
            </Placemark>
            <Placemark id="2637">
                <name>ERIKA PAOLA PURIZACA OLIVA</name>
                <description>A.H Cristo mirador A-01
Talara
Talara
Piura
Perú</description>
                <styleUrl>#2638</styleUrl>
                <Point id="2636">
                    <coordinates>-81.2596684,-4.5837243,0.0</coordinates>
                </Point>
            </Placemark>
            <Placemark id="2642">
                <name>IRMA MAURICIO CORNEJO</name>
                <description>Aproviser B 18
Talara
Talara
Piura
Perú</description>
                <styleUrl>#2643</styleUrl>
                <Point id="2641">
                    <coordinates>-81.2642543,-4.5857355,0.0</coordinates>
                </Point>
            </Placemark>
            <Placemark id="2647">
                <name>QUEVEDO DE BENITES RENE</name>
                <description>URB.APROVISER I - 10
Talara
Talara
Piura
Perú</description>
                <styleUrl>#2648</styleUrl>
                <Point id="2646">
                    <coordinates>-81.264585,-4.58464,0.0</coordinates>
                </Point>
            </Placemark>
            <Placemark id="2652">
                <name>ZEGARRA DE FIESTAS MARINA</name>
                <description>ZEGARRA DE FIESTAS MARINA
APROVISER 1RA.ETAPA MZ.K LT.5
Talara
Talara
Piura
Perú</description>
                <styleUrl>#2653</styleUrl>
                <Point id="2651">
                    <coordinates>-81.264087,-4.584929,0.0</coordinates>
                </Point>
            </Placemark>
        </Folder>
    </Document>
</kml>
