<?xml version="1.0" encoding="UTF-8"?>
<kml xmlns="http://www.opengis.net/kml/2.2" xmlns:gx="http://www.google.com/kml/ext/2.2">
    <Document id="3412">
        <Folder id="3413">
            <Style id="3416">
                <IconStyle id="3417">
                    <color>ff0000ff</color>
                    <colorMode>normal</colorMode>
                    <scale>1</scale>
                    <heading>0</heading>
                    <Icon id="3418">
                        <href>http://maps.google.com/mapfiles/kml/pushpin/ylw-pushpin.png</href>
                    </Icon>
                </IconStyle>
            </Style>
            <Style id="3421">
                <IconStyle id="3422">
                    <color>ff0000ff</color>
                    <colorMode>normal</colorMode>
                    <scale>1</scale>
                    <heading>0</heading>
                    <Icon id="3423">
                        <href>http://maps.google.com/mapfiles/kml/pushpin/ylw-pushpin.png</href>
                    </Icon>
                </IconStyle>
            </Style>
            <Style id="3426">
                <IconStyle id="3427">
                    <color>ff0000ff</color>
                    <colorMode>normal</colorMode>
                    <scale>1</scale>
                    <heading>0</heading>
                    <Icon id="3428">
                        <href>http://maps.google.com/mapfiles/kml/pushpin/ylw-pushpin.png</href>
                    </Icon>
                </IconStyle>
            </Style>
            <Style id="3431">
                <IconStyle id="3432">
                    <color>ff0000ff</color>
                    <colorMode>normal</colorMode>
                    <scale>1</scale>
                    <heading>0</heading>
                    <Icon id="3433">
                        <href>http://maps.google.com/mapfiles/kml/pushpin/ylw-pushpin.png</href>
                    </Icon>
                </IconStyle>
            </Style>
            <Style id="3436">
                <IconStyle id="3437">
                    <color>ff0000ff</color>
                    <colorMode>normal</colorMode>
                    <scale>1</scale>
                    <heading>0</heading>
                    <Icon id="3438">
                        <href>http://maps.google.com/mapfiles/kml/pushpin/ylw-pushpin.png</href>
                    </Icon>
                </IconStyle>
            </Style>
            <Style id="3441">
                <IconStyle id="3442">
                    <color>ff0000ff</color>
                    <colorMode>normal</colorMode>
                    <scale>1</scale>
                    <heading>0</heading>
                    <Icon id="3443">
                        <href>http://maps.google.com/mapfiles/kml/pushpin/ylw-pushpin.png</href>
                    </Icon>
                </IconStyle>
            </Style>
            <Style id="3446">
                <IconStyle id="3447">
                    <color>ff0000ff</color>
                    <colorMode>normal</colorMode>
                    <scale>1</scale>
                    <heading>0</heading>
                    <Icon id="3448">
                        <href>http://maps.google.com/mapfiles/kml/pushpin/ylw-pushpin.png</href>
                    </Icon>
                </IconStyle>
            </Style>
            <Style id="3451">
                <IconStyle id="3452">
                    <color>ff0000ff</color>
                    <colorMode>normal</colorMode>
                    <scale>1</scale>
                    <heading>0</heading>
                    <Icon id="3453">
                        <href>http://maps.google.com/mapfiles/kml/pushpin/ylw-pushpin.png</href>
                    </Icon>
                </IconStyle>
            </Style>
            <Style id="3456">
                <IconStyle id="3457">
                    <color>ff0000ff</color>
                    <colorMode>normal</colorMode>
                    <scale>1</scale>
                    <heading>0</heading>
                    <Icon id="3458">
                        <href>http://maps.google.com/mapfiles/kml/pushpin/ylw-pushpin.png</href>
                    </Icon>
                </IconStyle>
            </Style>
            <Style id="3461">
                <IconStyle id="3462">
                    <color>ff0000ff</color>
                    <colorMode>normal</colorMode>
                    <scale>1</scale>
                    <heading>0</heading>
                    <Icon id="3463">
                        <href>http://maps.google.com/mapfiles/kml/pushpin/ylw-pushpin.png</href>
                    </Icon>
                </IconStyle>
            </Style>
            <Style id="3466">
                <IconStyle id="3467">
                    <color>ff0000ff</color>
                    <colorMode>normal</colorMode>
                    <scale>1</scale>
                    <heading>0</heading>
                    <Icon id="3468">
                        <href>http://maps.google.com/mapfiles/kml/pushpin/ylw-pushpin.png</href>
                    </Icon>
                </IconStyle>
            </Style>
            <Style id="3471">
                <IconStyle id="3472">
                    <color>ff0000ff</color>
                    <colorMode>normal</colorMode>
                    <scale>1</scale>
                    <heading>0</heading>
                    <Icon id="3473">
                        <href>http://maps.google.com/mapfiles/kml/pushpin/ylw-pushpin.png</href>
                    </Icon>
                </IconStyle>
            </Style>
            <Style id="3476">
                <IconStyle id="3477">
                    <color>ff0000ff</color>
                    <colorMode>normal</colorMode>
                    <scale>1</scale>
                    <heading>0</heading>
                    <Icon id="3478">
                        <href>http://maps.google.com/mapfiles/kml/pushpin/ylw-pushpin.png</href>
                    </Icon>
                </IconStyle>
            </Style>
            <Style id="3481">
                <IconStyle id="3482">
                    <color>ff0000ff</color>
                    <colorMode>normal</colorMode>
                    <scale>1</scale>
                    <heading>0</heading>
                    <Icon id="3483">
                        <href>http://maps.google.com/mapfiles/kml/pushpin/ylw-pushpin.png</href>
                    </Icon>
                </IconStyle>
            </Style>
            <Style id="3486">
                <IconStyle id="3487">
                    <color>ff0000ff</color>
                    <colorMode>normal</colorMode>
                    <scale>1</scale>
                    <heading>0</heading>
                    <Icon id="3488">
                        <href>http://maps.google.com/mapfiles/kml/pushpin/ylw-pushpin.png</href>
                    </Icon>
                </IconStyle>
            </Style>
            <Style id="3491">
                <IconStyle id="3492">
                    <color>ff0000ff</color>
                    <colorMode>normal</colorMode>
                    <scale>1</scale>
                    <heading>0</heading>
                    <Icon id="3493">
                        <href>http://maps.google.com/mapfiles/kml/pushpin/ylw-pushpin.png</href>
                    </Icon>
                </IconStyle>
            </Style>
            <Style id="3496">
                <IconStyle id="3497">
                    <color>ff0000ff</color>
                    <colorMode>normal</colorMode>
                    <scale>1</scale>
                    <heading>0</heading>
                    <Icon id="3498">
                        <href>http://maps.google.com/mapfiles/kml/pushpin/ylw-pushpin.png</href>
                    </Icon>
                </IconStyle>
            </Style>
            <Style id="3501">
                <IconStyle id="3502">
                    <color>ff0000ff</color>
                    <colorMode>normal</colorMode>
                    <scale>1</scale>
                    <heading>0</heading>
                    <Icon id="3503">
                        <href>http://maps.google.com/mapfiles/kml/pushpin/ylw-pushpin.png</href>
                    </Icon>
                </IconStyle>
            </Style>
            <Style id="3506">
                <IconStyle id="3507">
                    <color>ff0000ff</color>
                    <colorMode>normal</colorMode>
                    <scale>1</scale>
                    <heading>0</heading>
                    <Icon id="3508">
                        <href>http://maps.google.com/mapfiles/kml/pushpin/ylw-pushpin.png</href>
                    </Icon>
                </IconStyle>
            </Style>
            <Style id="3511">
                <IconStyle id="3512">
                    <color>ff0000ff</color>
                    <colorMode>normal</colorMode>
                    <scale>1</scale>
                    <heading>0</heading>
                    <Icon id="3513">
                        <href>http://maps.google.com/mapfiles/kml/pushpin/ylw-pushpin.png</href>
                    </Icon>
                </IconStyle>
            </Style>
            <Style id="3516">
                <IconStyle id="3517">
                    <color>ff0000ff</color>
                    <colorMode>normal</colorMode>
                    <scale>1</scale>
                    <heading>0</heading>
                    <Icon id="3518">
                        <href>http://maps.google.com/mapfiles/kml/pushpin/ylw-pushpin.png</href>
                    </Icon>
                </IconStyle>
            </Style>
            <Style id="3521">
                <IconStyle id="3522">
                    <color>ff0000ff</color>
                    <colorMode>normal</colorMode>
                    <scale>1</scale>
                    <heading>0</heading>
                    <Icon id="3523">
                        <href>http://maps.google.com/mapfiles/kml/pushpin/ylw-pushpin.png</href>
                    </Icon>
                </IconStyle>
            </Style>
            <Style id="3526">
                <IconStyle id="3527">
                    <color>ff0000ff</color>
                    <colorMode>normal</colorMode>
                    <scale>1</scale>
                    <heading>0</heading>
                    <Icon id="3528">
                        <href>http://maps.google.com/mapfiles/kml/pushpin/ylw-pushpin.png</href>
                    </Icon>
                </IconStyle>
            </Style>
            <Style id="3531">
                <IconStyle id="3532">
                    <color>ff0000ff</color>
                    <colorMode>normal</colorMode>
                    <scale>1</scale>
                    <heading>0</heading>
                    <Icon id="3533">
                        <href>http://maps.google.com/mapfiles/kml/pushpin/ylw-pushpin.png</href>
                    </Icon>
                </IconStyle>
            </Style>
            <Style id="3536">
                <IconStyle id="3537">
                    <color>ff0000ff</color>
                    <colorMode>normal</colorMode>
                    <scale>1</scale>
                    <heading>0</heading>
                    <Icon id="3538">
                        <href>http://maps.google.com/mapfiles/kml/pushpin/ylw-pushpin.png</href>
                    </Icon>
                </IconStyle>
            </Style>
            <Style id="3541">
                <IconStyle id="3542">
                    <color>ff0000ff</color>
                    <colorMode>normal</colorMode>
                    <scale>1</scale>
                    <heading>0</heading>
                    <Icon id="3543">
                        <href>http://maps.google.com/mapfiles/kml/pushpin/ylw-pushpin.png</href>
                    </Icon>
                </IconStyle>
            </Style>
            <Style id="3546">
                <IconStyle id="3547">
                    <color>ff0000ff</color>
                    <colorMode>normal</colorMode>
                    <scale>1</scale>
                    <heading>0</heading>
                    <Icon id="3548">
                        <href>http://maps.google.com/mapfiles/kml/pushpin/ylw-pushpin.png</href>
                    </Icon>
                </IconStyle>
            </Style>
            <Style id="3551">
                <IconStyle id="3552">
                    <color>ff0000ff</color>
                    <colorMode>normal</colorMode>
                    <scale>1</scale>
                    <heading>0</heading>
                    <Icon id="3553">
                        <href>http://maps.google.com/mapfiles/kml/pushpin/ylw-pushpin.png</href>
                    </Icon>
                </IconStyle>
            </Style>
            <Style id="3556">
                <IconStyle id="3557">
                    <color>ff0000ff</color>
                    <colorMode>normal</colorMode>
                    <scale>1</scale>
                    <heading>0</heading>
                    <Icon id="3558">
                        <href>http://maps.google.com/mapfiles/kml/pushpin/ylw-pushpin.png</href>
                    </Icon>
                </IconStyle>
            </Style>
            <Style id="3561">
                <IconStyle id="3562">
                    <color>ff0000ff</color>
                    <colorMode>normal</colorMode>
                    <scale>1</scale>
                    <heading>0</heading>
                    <Icon id="3563">
                        <href>http://maps.google.com/mapfiles/kml/pushpin/ylw-pushpin.png</href>
                    </Icon>
                </IconStyle>
            </Style>
            <Style id="3566">
                <IconStyle id="3567">
                    <color>ff0000ff</color>
                    <colorMode>normal</colorMode>
                    <scale>1</scale>
                    <heading>0</heading>
                    <Icon id="3568">
                        <href>http://maps.google.com/mapfiles/kml/pushpin/ylw-pushpin.png</href>
                    </Icon>
                </IconStyle>
            </Style>
            <Style id="3571">
                <IconStyle id="3572">
                    <color>ff0000ff</color>
                    <colorMode>normal</colorMode>
                    <scale>1</scale>
                    <heading>0</heading>
                    <Icon id="3573">
                        <href>http://maps.google.com/mapfiles/kml/pushpin/ylw-pushpin.png</href>
                    </Icon>
                </IconStyle>
            </Style>
            <Style id="3576">
                <IconStyle id="3577">
                    <color>ff0000ff</color>
                    <colorMode>normal</colorMode>
                    <scale>1</scale>
                    <heading>0</heading>
                    <Icon id="3578">
                        <href>http://maps.google.com/mapfiles/kml/pushpin/ylw-pushpin.png</href>
                    </Icon>
                </IconStyle>
            </Style>
            <Style id="3581">
                <IconStyle id="3582">
                    <color>ff0000ff</color>
                    <colorMode>normal</colorMode>
                    <scale>1</scale>
                    <heading>0</heading>
                    <Icon id="3583">
                        <href>http://maps.google.com/mapfiles/kml/pushpin/ylw-pushpin.png</href>
                    </Icon>
                </IconStyle>
            </Style>
            <Style id="3586">
                <IconStyle id="3587">
                    <color>ff0000ff</color>
                    <colorMode>normal</colorMode>
                    <scale>1</scale>
                    <heading>0</heading>
                    <Icon id="3588">
                        <href>http://maps.google.com/mapfiles/kml/pushpin/ylw-pushpin.png</href>
                    </Icon>
                </IconStyle>
            </Style>
            <Style id="3591">
                <IconStyle id="3592">
                    <color>ff0000ff</color>
                    <colorMode>normal</colorMode>
                    <scale>1</scale>
                    <heading>0</heading>
                    <Icon id="3593">
                        <href>http://maps.google.com/mapfiles/kml/pushpin/ylw-pushpin.png</href>
                    </Icon>
                </IconStyle>
            </Style>
            <Style id="3596">
                <IconStyle id="3597">
                    <color>ff0000ff</color>
                    <colorMode>normal</colorMode>
                    <scale>1</scale>
                    <heading>0</heading>
                    <Icon id="3598">
                        <href>http://maps.google.com/mapfiles/kml/pushpin/ylw-pushpin.png</href>
                    </Icon>
                </IconStyle>
            </Style>
            <Style id="3601">
                <IconStyle id="3602">
                    <color>ff0000ff</color>
                    <colorMode>normal</colorMode>
                    <scale>1</scale>
                    <heading>0</heading>
                    <Icon id="3603">
                        <href>http://maps.google.com/mapfiles/kml/pushpin/ylw-pushpin.png</href>
                    </Icon>
                </IconStyle>
            </Style>
            <Style id="3606">
                <IconStyle id="3607">
                    <color>ff0000ff</color>
                    <colorMode>normal</colorMode>
                    <scale>1</scale>
                    <heading>0</heading>
                    <Icon id="3608">
                        <href>http://maps.google.com/mapfiles/kml/pushpin/ylw-pushpin.png</href>
                    </Icon>
                </IconStyle>
            </Style>
            <name>CINTHYA FABIOLA CASTRO FARIAS</name>
            <Placemark id="3415">
                <name>HUMBERTO GARCIA COELLO</name>
                <description>CALLE 4 PUESTO 68 TALARA ALTA
Talara
Talara
Piura
Perú</description>
                <styleUrl>#3416</styleUrl>
                <Point id="3414">
                    <coordinates>-81.2563033,-4.5915659,0.0</coordinates>
                </Point>
            </Placemark>
            <Placemark id="3420">
                <name>ELIZABETH AYALA AMAYA DE PUICON</name>
                <description>A.H.LUCY DE VILLANUEVA F - 1
Talara
Talara
Piura
Perú</description>
                <styleUrl>#3421</styleUrl>
                <Point id="3419">
                    <coordinates>-81.2727281,-4.5685032,0.0</coordinates>
                </Point>
            </Placemark>
            <Placemark id="3425">
                <name>IRIS KATHERINE AMAYA PASACHE</name>
                <description>Enace primera etapa O-22
Talara
Talara
Piura
Perú</description>
                <styleUrl>#3426</styleUrl>
                <Point id="3424">
                    <coordinates>-81.1776674,-4.5939381,0.0</coordinates>
                </Point>
            </Placemark>
            <Placemark id="3430">
                <name>CHIRLEY JAQUELINE ROJAS VALLADOLID</name>
                <description>AV.C.31
Talara
Talara
Piura
Perú</description>
                <styleUrl>#3431</styleUrl>
                <Point id="3429">
                    <coordinates>-81.2752737,-4.5780148,0.0</coordinates>
                </Point>
            </Placemark>
            <Placemark id="3435">
                <name>ROSA SANTOS PAZOS</name>
                <description>Nuevo lobitos i-06 talara
Lobitos

Piura
Perú</description>
                <styleUrl>#3436</styleUrl>
                <Point id="3434">
                    <coordinates>-81.285651,-4.459245,0.0</coordinates>
                </Point>
            </Placemark>
            <Placemark id="3440">
                <name>LUZ IRENE OLIVA RIOJAS</name>
                <description>Santa Rita E-9
Pariñas
Pariñas
Piura
Perú</description>
                <styleUrl>#3441</styleUrl>
                <Point id="3439">
                    <coordinates>-81.2735634,-4.5563103,0.0</coordinates>
                </Point>
            </Placemark>
            <Placemark id="3445">
                <name>FIORELA KARINA PERALTA DIAZ</name>
                <description>AAHH LAS PEÑITAS K-05
Talara
Talara
Piura
Perú</description>
                <styleUrl>#3446</styleUrl>
                <Point id="3444">
                    <coordinates>-81.2753966,-4.5555461,0.0</coordinates>
                </Point>
            </Placemark>
            <Placemark id="3450">
                <name>JACINTA MAXVELI FARIAS CRUZ</name>
                <description>José Abelardo Quiñones B-43 espaldas del colegio señor de los Milagros
Talara
Talara
Piura
Perú</description>
                <styleUrl>#3451</styleUrl>
                <Point id="3449">
                    <coordinates>-81.2541203,-4.5955657,0.0</coordinates>
                </Point>
            </Placemark>
            <Placemark id="3455">
                <name>LETICIA PERICHE FIESTAS</name>
                <description>Las Peñitas Q-31
Pariñas
Pariñas
Piura
Perú</description>
                <styleUrl>#3456</styleUrl>
                <Point id="3454">
                    <coordinates>-81.2779645,-4.5535884,0.0</coordinates>
                </Point>
            </Placemark>
            <Placemark id="3460">
                <name>Barrenzuela godos solany</name>
                <description>A.H lucy Villanueva D-17
Talara
Talara
Piura
Perú</description>
                <styleUrl>#3461</styleUrl>
                <Point id="3459">
                    <coordinates>-81.2723269,-4.5706718,0.0</coordinates>
                </Point>
            </Placemark>
            <Placemark id="3465">
                <name>SAIRE CANALES JORGE LUIS</name>
                <description>L.VILLANUEVA MZ. C Lt.23 TALA
Talara
Talara
Piura
Perú</description>
                <styleUrl>#3466</styleUrl>
                <Point id="3464">
                    <coordinates>-81.2723,-4.570083,0.0</coordinates>
                </Point>
            </Placemark>
            <Placemark id="3470">
                <name>CRUZ GUZMAN MIRIAM YANNET</name>
                <description>CRUZ GUZMAN MIRIAM YANNET
A.H.LUCY DE VILLANU MZ.A LT.28
Talara
Talara
Piura
Perú</description>
                <styleUrl>#3471</styleUrl>
                <Point id="3469">
                    <coordinates>-81.2734176,-4.5693536,0.0</coordinates>
                </Point>
            </Placemark>
            <Placemark id="3475">
                <name>JOSEFINA AGUILERA ROMERO</name>
                <description>AAHH JOSE OLAYA A-4 TALARA
Talara
Talara
Piura
Perú</description>
                <styleUrl>#3476</styleUrl>
                <Point id="3474">
                    <coordinates>-81.2713552,-4.5683879,0.0</coordinates>
                </Point>
            </Placemark>
            <Placemark id="3480">
                <name>JOSEFINA AGUILERA ROMERO</name>
                <description>AAHH JOSE OLAYA A-4 TALARA
Talara
Talara
Piura
Perú</description>
                <styleUrl>#3481</styleUrl>
                <Point id="3479">
                    <coordinates>-81.2713552,-4.5683879,0.0</coordinates>
                </Point>
            </Placemark>
            <Placemark id="3485">
                <name>YOMIRA LISBETH CAÑOLA VALDIVIEZO</name>
                <description>Jesús de Nazaret A27
Talara
Talara
Piura
Perú</description>
                <styleUrl>#3486</styleUrl>
                <Point id="3484">
                    <coordinates>-81.2709026,-4.5678852,0.0</coordinates>
                </Point>
            </Placemark>
            <Placemark id="3490">
                <name>BALTAZARA MELCHORITA AYALA TEMOCHE</name>
                <description>B-13 AH 01 DE MAYO TALARA
Talara
Talara
Piura
Perú</description>
                <styleUrl>#3491</styleUrl>
                <Point id="3489">
                    <coordinates>-81.2726907,-4.5685471,0.0</coordinates>
                </Point>
            </Placemark>
            <Placemark id="3495">
                <name>ELIZABETH AYALA AMAYA DE PUICON</name>
                <description>A.H.LUCY DE VILLANUEVA F - 1
Talara
Talara
Piura
Perú</description>
                <styleUrl>#3496</styleUrl>
                <Point id="3494">
                    <coordinates>-81.2727281,-4.5685032,0.0</coordinates>
                </Point>
            </Placemark>
            <Placemark id="3500">
                <name>LASTENIA ALBERCA LOPEZ</name>
                <description>SAN JUDAS TADEO K-28
Talara
Talara
Piura
Perú</description>
                <styleUrl>#3501</styleUrl>
                <Point id="3499">
                    <coordinates>-81.2730197,-4.5673218,0.0</coordinates>
                </Point>
            </Placemark>
            <Placemark id="3505">
                <name>TEMPLE AVILA LUZ FERNANDA</name>
                <description>A.H.SAN JUDAS TADEO I-13
Talara
Talara
Piura
Perú</description>
                <styleUrl>#3506</styleUrl>
                <Point id="3504">
                    <coordinates>-81.272467,-4.5669415,0.0</coordinates>
                </Point>
            </Placemark>
            <Placemark id="3510">
                <name>MILDER YOANA SANTOS SOLANO</name>
                <description>AAHH SAN JUDAS J-02
Talara
Talara
Piura
Perú</description>
                <styleUrl>#3511</styleUrl>
                <Point id="3509">
                    <coordinates>-81.2724887,-4.5667051,0.0</coordinates>
                </Point>
            </Placemark>
            <Placemark id="3515">
                <name>NAVARRO PALOMINO TOMASA</name>
                <description>NAVARRO PALOMINO TOMASA
AHH  San Judas A-10
Talara
Talara
Piura
Perú</description>
                <styleUrl>#3516</styleUrl>
                <Point id="3514">
                    <coordinates>-81.2740762,-4.5671135,0.0</coordinates>
                </Point>
            </Placemark>
            <Placemark id="3520">
                <name>HILDA GRACIELA ESTRADA LUNA</name>
                <description>A.H.SAN JUDAS TADEO A-06
Talara
Talara
Piura
Perú</description>
                <styleUrl>#3521</styleUrl>
                <Point id="3519">
                    <coordinates>-81.2742233,-4.5669381,0.0</coordinates>
                </Point>
            </Placemark>
            <Placemark id="3525">
                <name>YESSICA MERCEDES MORAN NIZAMA</name>
                <description>San Judas F-6
Pariñas
Pariñas
Piura
Perú</description>
                <styleUrl>#3526</styleUrl>
                <Point id="3524">
                    <coordinates>-81.2740793,-4.5677277,0.0</coordinates>
                </Point>
            </Placemark>
            <Placemark id="3530">
                <name>PEÑA ESTRADA KARIXA JESSICA</name>
                <description>D1-B AH SAN JUDAS TADEO TALARA
Talara
Talara
Piura
Perú</description>
                <styleUrl>#3531</styleUrl>
                <Point id="3529">
                    <coordinates>-81.2732475,-4.567002,0.0</coordinates>
                </Point>
            </Placemark>
            <Placemark id="3535">
                <name>DELIA YURI PEÑA ESTRADA</name>
                <description>A.H.SAN JUDAS TADEO MZ.G LT.28
Talara
Talara
Piura
Perú</description>
                <styleUrl>#3536</styleUrl>
                <Point id="3534">
                    <coordinates>-81.2728862,-4.5660241,0.0</coordinates>
                </Point>
            </Placemark>
            <Placemark id="3540">
                <name>CECILIA RONDOY CORDOBA</name>
                <description>F-02 AH LAS MERCEDES TALARA
Talara
Talara
Piura
Perú</description>
                <styleUrl>#3541</styleUrl>
                <Point id="3539">
                    <coordinates>-81.2713336,-4.5647435,0.0</coordinates>
                </Point>
            </Placemark>
            <Placemark id="3545">
                <name>VICENTE ADAN VITE PANTA</name>
                <description>Las Mercedes F-07
Talara
Talara
Piura
Perú</description>
                <styleUrl>#3546</styleUrl>
                <Point id="3544">
                    <coordinates>-81.2713753,-4.5645423,0.0</coordinates>
                </Point>
            </Placemark>
            <Placemark id="3550">
                <name>JESSICA ZENAIDA JUAREZ LITANO</name>
                <description>A.H.LAS MERCEDES  MZ.B LT.02
Talara
Talara
Piura
Perú</description>
                <styleUrl>#3551</styleUrl>
                <Point id="3549">
                    <coordinates>-81.2719853,-4.5654909,0.0</coordinates>
                </Point>
            </Placemark>
            <Placemark id="3555">
                <name>MARIA FE VÁZQUEZ LAMADRID</name>
                <description>AAHH SANTA ROSA E-07
Talara
Talara
Piura
Perú</description>
                <styleUrl>#3556</styleUrl>
                <Point id="3554">
                    <coordinates>-81.2742453,-4.555941,0.0</coordinates>
                </Point>
            </Placemark>
            <Placemark id="3560">
                <name>JACKELINE ARACELLY REBATTA MARMOLEJO</name>
                <description>BRISAS DEL MAR MZ A-07 PUERTO
Talara
Talara
Piura
Perú</description>
                <styleUrl>#3561</styleUrl>
                <Point id="3559">
                    <coordinates>-81.2749954,-4.5568318,0.0</coordinates>
                </Point>
            </Placemark>
            <Placemark id="3565">
                <name>ROSARIO DEL PILAR CORONADO SOCOLA</name>
                <description>AAHH BRISAS DEL MAR A-2
Talara
Talara
Piura
Perú</description>
                <styleUrl>#3566</styleUrl>
                <Point id="3564">
                    <coordinates>-81.2751285,-4.5570962,0.0</coordinates>
                </Point>
            </Placemark>
            <Placemark id="3570">
                <name>MARIA MAGDALEN LEQUERNAQUE MARTINEZ</name>
                <description>MZA. J LOTE. 05 A.H. LAS PEÑITAS -
Talara
Talara
Piura
Perú</description>
                <styleUrl>#3571</styleUrl>
                <Point id="3569">
                    <coordinates>-81.2757832,-4.5552961,0.0</coordinates>
                </Point>
            </Placemark>
            <Placemark id="3575">
                <name>MARIELA MARCHAN HUAMAN</name>
                <description>AAHH LAS PEÑITAS N-4
Talara
Talara
Piura
Perú</description>
                <styleUrl>#3576</styleUrl>
                <Point id="3574">
                    <coordinates>-81.2753143,-4.5549633,0.0</coordinates>
                </Point>
            </Placemark>
            <Placemark id="3580">
                <name>YULIANA LISBETH MARTINEZ RODRIGUEZ</name>
                <description>AAHH LAS PEÑITAS C-21
Talara
Talara
Piura
Perú</description>
                <styleUrl>#3581</styleUrl>
                <Point id="3579">
                    <coordinates>-81.2765889,-4.5546872,0.0</coordinates>
                </Point>
            </Placemark>
            <Placemark id="3585">
                <name>SHIRLEY LISBETH PAZOS MEDINA</name>
                <description>Las peñitas F 08 b
Talara

Piura
Perú</description>
                <styleUrl>#3586</styleUrl>
                <Point id="3584">
                    <coordinates>-81.276974,-4.554476,0.0</coordinates>
                </Point>
            </Placemark>
            <Placemark id="3590">
                <name>JENIFER ROSMERY FERNANDEZ JIMENEZ</name>
                <description>Las Peñitas B-3
Pariñas
Pariñas
Piura
Perú</description>
                <styleUrl>#3591</styleUrl>
                <Point id="3589">
                    <coordinates>-81.276754,-4.5534075,0.0</coordinates>
                </Point>
            </Placemark>
            <Placemark id="3595">
                <name>NABIA LIZBETH FIESTAS RUGEL</name>
                <description>Las Peñitas E-16
Pariñas
Pariñas
Piura
Perú</description>
                <styleUrl>#3596</styleUrl>
                <Point id="3594">
                    <coordinates>-81.2777927,-4.5541999,0.0</coordinates>
                </Point>
            </Placemark>
            <Placemark id="3600">
                <name>JENNY YESENIA PEÑA PERICHE DE VALDIVIEZO</name>
                <description>CA.SAN JUDAS TADEO N5-PARIÑAS
Talara
Talara
Piura
Perú</description>
                <styleUrl>#3601</styleUrl>
                <Point id="3599">
                    <coordinates>-81.2726729,-4.5679508,0.0</coordinates>
                </Point>
            </Placemark>
            <Placemark id="3605">
                <name>CARBONELL DURAND KATHERINE</name>
                <description>CARBONELL DURAND KATHERINE
Las Peñitas v-09
Talara
Talara
Piura
Perú</description>
                <styleUrl>#3606</styleUrl>
                <Point id="3604">
                    <coordinates>-81.2784792,-4.552971,0.0</coordinates>
                </Point>
            </Placemark>
        </Folder>
        <Folder id="3609">
            <Style id="3612">
                <IconStyle id="3613">
                    <color>ffff0000</color>
                    <colorMode>normal</colorMode>
                    <scale>1</scale>
                    <heading>0</heading>
                    <Icon id="3614">
                        <href>http://maps.google.com/mapfiles/kml/pushpin/ylw-pushpin.png</href>
                    </Icon>
                </IconStyle>
            </Style>
            <Style id="3617">
                <IconStyle id="3618">
                    <color>ffff0000</color>
                    <colorMode>normal</colorMode>
                    <scale>1</scale>
                    <heading>0</heading>
                    <Icon id="3619">
                        <href>http://maps.google.com/mapfiles/kml/pushpin/ylw-pushpin.png</href>
                    </Icon>
                </IconStyle>
            </Style>
            <Style id="3622">
                <IconStyle id="3623">
                    <color>ffff0000</color>
                    <colorMode>normal</colorMode>
                    <scale>1</scale>
                    <heading>0</heading>
                    <Icon id="3624">
                        <href>http://maps.google.com/mapfiles/kml/pushpin/ylw-pushpin.png</href>
                    </Icon>
                </IconStyle>
            </Style>
            <Style id="3627">
                <IconStyle id="3628">
                    <color>ffff0000</color>
                    <colorMode>normal</colorMode>
                    <scale>1</scale>
                    <heading>0</heading>
                    <Icon id="3629">
                        <href>http://maps.google.com/mapfiles/kml/pushpin/ylw-pushpin.png</href>
                    </Icon>
                </IconStyle>
            </Style>
            <Style id="3632">
                <IconStyle id="3633">
                    <color>ffff0000</color>
                    <colorMode>normal</colorMode>
                    <scale>1</scale>
                    <heading>0</heading>
                    <Icon id="3634">
                        <href>http://maps.google.com/mapfiles/kml/pushpin/ylw-pushpin.png</href>
                    </Icon>
                </IconStyle>
            </Style>
            <Style id="3637">
                <IconStyle id="3638">
                    <color>ffff0000</color>
                    <colorMode>normal</colorMode>
                    <scale>1</scale>
                    <heading>0</heading>
                    <Icon id="3639">
                        <href>http://maps.google.com/mapfiles/kml/pushpin/ylw-pushpin.png</href>
                    </Icon>
                </IconStyle>
            </Style>
            <Style id="3642">
                <IconStyle id="3643">
                    <color>ffff0000</color>
                    <colorMode>normal</colorMode>
                    <scale>1</scale>
                    <heading>0</heading>
                    <Icon id="3644">
                        <href>http://maps.google.com/mapfiles/kml/pushpin/ylw-pushpin.png</href>
                    </Icon>
                </IconStyle>
            </Style>
            <Style id="3647">
                <IconStyle id="3648">
                    <color>ffff0000</color>
                    <colorMode>normal</colorMode>
                    <scale>1</scale>
                    <heading>0</heading>
                    <Icon id="3649">
                        <href>http://maps.google.com/mapfiles/kml/pushpin/ylw-pushpin.png</href>
                    </Icon>
                </IconStyle>
            </Style>
            <Style id="3652">
                <IconStyle id="3653">
                    <color>ffff0000</color>
                    <colorMode>normal</colorMode>
                    <scale>1</scale>
                    <heading>0</heading>
                    <Icon id="3654">
                        <href>http://maps.google.com/mapfiles/kml/pushpin/ylw-pushpin.png</href>
                    </Icon>
                </IconStyle>
            </Style>
            <Style id="3657">
                <IconStyle id="3658">
                    <color>ffff0000</color>
                    <colorMode>normal</colorMode>
                    <scale>1</scale>
                    <heading>0</heading>
                    <Icon id="3659">
                        <href>http://maps.google.com/mapfiles/kml/pushpin/ylw-pushpin.png</href>
                    </Icon>
                </IconStyle>
            </Style>
            <Style id="3662">
                <IconStyle id="3663">
                    <color>ffff0000</color>
                    <colorMode>normal</colorMode>
                    <scale>1</scale>
                    <heading>0</heading>
                    <Icon id="3664">
                        <href>http://maps.google.com/mapfiles/kml/pushpin/ylw-pushpin.png</href>
                    </Icon>
                </IconStyle>
            </Style>
            <Style id="3667">
                <IconStyle id="3668">
                    <color>ffff0000</color>
                    <colorMode>normal</colorMode>
                    <scale>1</scale>
                    <heading>0</heading>
                    <Icon id="3669">
                        <href>http://maps.google.com/mapfiles/kml/pushpin/ylw-pushpin.png</href>
                    </Icon>
                </IconStyle>
            </Style>
            <Style id="3672">
                <IconStyle id="3673">
                    <color>ffff0000</color>
                    <colorMode>normal</colorMode>
                    <scale>1</scale>
                    <heading>0</heading>
                    <Icon id="3674">
                        <href>http://maps.google.com/mapfiles/kml/pushpin/ylw-pushpin.png</href>
                    </Icon>
                </IconStyle>
            </Style>
            <Style id="3677">
                <IconStyle id="3678">
                    <color>ffff0000</color>
                    <colorMode>normal</colorMode>
                    <scale>1</scale>
                    <heading>0</heading>
                    <Icon id="3679">
                        <href>http://maps.google.com/mapfiles/kml/pushpin/ylw-pushpin.png</href>
                    </Icon>
                </IconStyle>
            </Style>
            <Style id="3682">
                <IconStyle id="3683">
                    <color>ffff0000</color>
                    <colorMode>normal</colorMode>
                    <scale>1</scale>
                    <heading>0</heading>
                    <Icon id="3684">
                        <href>http://maps.google.com/mapfiles/kml/pushpin/ylw-pushpin.png</href>
                    </Icon>
                </IconStyle>
            </Style>
            <Style id="3687">
                <IconStyle id="3688">
                    <color>ffff0000</color>
                    <colorMode>normal</colorMode>
                    <scale>1</scale>
                    <heading>0</heading>
                    <Icon id="3689">
                        <href>http://maps.google.com/mapfiles/kml/pushpin/ylw-pushpin.png</href>
                    </Icon>
                </IconStyle>
            </Style>
            <Style id="3692">
                <IconStyle id="3693">
                    <color>ffff0000</color>
                    <colorMode>normal</colorMode>
                    <scale>1</scale>
                    <heading>0</heading>
                    <Icon id="3694">
                        <href>http://maps.google.com/mapfiles/kml/pushpin/ylw-pushpin.png</href>
                    </Icon>
                </IconStyle>
            </Style>
            <Style id="3697">
                <IconStyle id="3698">
                    <color>ffff0000</color>
                    <colorMode>normal</colorMode>
                    <scale>1</scale>
                    <heading>0</heading>
                    <Icon id="3699">
                        <href>http://maps.google.com/mapfiles/kml/pushpin/ylw-pushpin.png</href>
                    </Icon>
                </IconStyle>
            </Style>
            <Style id="3702">
                <IconStyle id="3703">
                    <color>ffff0000</color>
                    <colorMode>normal</colorMode>
                    <scale>1</scale>
                    <heading>0</heading>
                    <Icon id="3704">
                        <href>http://maps.google.com/mapfiles/kml/pushpin/ylw-pushpin.png</href>
                    </Icon>
                </IconStyle>
            </Style>
            <Style id="3707">
                <IconStyle id="3708">
                    <color>ffff0000</color>
                    <colorMode>normal</colorMode>
                    <scale>1</scale>
                    <heading>0</heading>
                    <Icon id="3709">
                        <href>http://maps.google.com/mapfiles/kml/pushpin/ylw-pushpin.png</href>
                    </Icon>
                </IconStyle>
            </Style>
            <Style id="3712">
                <IconStyle id="3713">
                    <color>ffff0000</color>
                    <colorMode>normal</colorMode>
                    <scale>1</scale>
                    <heading>0</heading>
                    <Icon id="3714">
                        <href>http://maps.google.com/mapfiles/kml/pushpin/ylw-pushpin.png</href>
                    </Icon>
                </IconStyle>
            </Style>
            <Style id="3717">
                <IconStyle id="3718">
                    <color>ffff0000</color>
                    <colorMode>normal</colorMode>
                    <scale>1</scale>
                    <heading>0</heading>
                    <Icon id="3719">
                        <href>http://maps.google.com/mapfiles/kml/pushpin/ylw-pushpin.png</href>
                    </Icon>
                </IconStyle>
            </Style>
            <Style id="3722">
                <IconStyle id="3723">
                    <color>ffff0000</color>
                    <colorMode>normal</colorMode>
                    <scale>1</scale>
                    <heading>0</heading>
                    <Icon id="3724">
                        <href>http://maps.google.com/mapfiles/kml/pushpin/ylw-pushpin.png</href>
                    </Icon>
                </IconStyle>
            </Style>
            <Style id="3727">
                <IconStyle id="3728">
                    <color>ffff0000</color>
                    <colorMode>normal</colorMode>
                    <scale>1</scale>
                    <heading>0</heading>
                    <Icon id="3729">
                        <href>http://maps.google.com/mapfiles/kml/pushpin/ylw-pushpin.png</href>
                    </Icon>
                </IconStyle>
            </Style>
            <Style id="3732">
                <IconStyle id="3733">
                    <color>ffff0000</color>
                    <colorMode>normal</colorMode>
                    <scale>1</scale>
                    <heading>0</heading>
                    <Icon id="3734">
                        <href>http://maps.google.com/mapfiles/kml/pushpin/ylw-pushpin.png</href>
                    </Icon>
                </IconStyle>
            </Style>
            <Style id="3737">
                <IconStyle id="3738">
                    <color>ffff0000</color>
                    <colorMode>normal</colorMode>
                    <scale>1</scale>
                    <heading>0</heading>
                    <Icon id="3739">
                        <href>http://maps.google.com/mapfiles/kml/pushpin/ylw-pushpin.png</href>
                    </Icon>
                </IconStyle>
            </Style>
            <Style id="3742">
                <IconStyle id="3743">
                    <color>ffff0000</color>
                    <colorMode>normal</colorMode>
                    <scale>1</scale>
                    <heading>0</heading>
                    <Icon id="3744">
                        <href>http://maps.google.com/mapfiles/kml/pushpin/ylw-pushpin.png</href>
                    </Icon>
                </IconStyle>
            </Style>
            <Style id="3747">
                <IconStyle id="3748">
                    <color>ffff0000</color>
                    <colorMode>normal</colorMode>
                    <scale>1</scale>
                    <heading>0</heading>
                    <Icon id="3749">
                        <href>http://maps.google.com/mapfiles/kml/pushpin/ylw-pushpin.png</href>
                    </Icon>
                </IconStyle>
            </Style>
            <Style id="3752">
                <IconStyle id="3753">
                    <color>ffff0000</color>
                    <colorMode>normal</colorMode>
                    <scale>1</scale>
                    <heading>0</heading>
                    <Icon id="3754">
                        <href>http://maps.google.com/mapfiles/kml/pushpin/ylw-pushpin.png</href>
                    </Icon>
                </IconStyle>
            </Style>
            <Style id="3757">
                <IconStyle id="3758">
                    <color>ffff0000</color>
                    <colorMode>normal</colorMode>
                    <scale>1</scale>
                    <heading>0</heading>
                    <Icon id="3759">
                        <href>http://maps.google.com/mapfiles/kml/pushpin/ylw-pushpin.png</href>
                    </Icon>
                </IconStyle>
            </Style>
            <Style id="3762">
                <IconStyle id="3763">
                    <color>ffff0000</color>
                    <colorMode>normal</colorMode>
                    <scale>1</scale>
                    <heading>0</heading>
                    <Icon id="3764">
                        <href>http://maps.google.com/mapfiles/kml/pushpin/ylw-pushpin.png</href>
                    </Icon>
                </IconStyle>
            </Style>
            <Style id="3767">
                <IconStyle id="3768">
                    <color>ffff0000</color>
                    <colorMode>normal</colorMode>
                    <scale>1</scale>
                    <heading>0</heading>
                    <Icon id="3769">
                        <href>http://maps.google.com/mapfiles/kml/pushpin/ylw-pushpin.png</href>
                    </Icon>
                </IconStyle>
            </Style>
            <Style id="3772">
                <IconStyle id="3773">
                    <color>ffff0000</color>
                    <colorMode>normal</colorMode>
                    <scale>1</scale>
                    <heading>0</heading>
                    <Icon id="3774">
                        <href>http://maps.google.com/mapfiles/kml/pushpin/ylw-pushpin.png</href>
                    </Icon>
                </IconStyle>
            </Style>
            <Style id="3777">
                <IconStyle id="3778">
                    <color>ffff0000</color>
                    <colorMode>normal</colorMode>
                    <scale>1</scale>
                    <heading>0</heading>
                    <Icon id="3779">
                        <href>http://maps.google.com/mapfiles/kml/pushpin/ylw-pushpin.png</href>
                    </Icon>
                </IconStyle>
            </Style>
            <Style id="3782">
                <IconStyle id="3783">
                    <color>ffff0000</color>
                    <colorMode>normal</colorMode>
                    <scale>1</scale>
                    <heading>0</heading>
                    <Icon id="3784">
                        <href>http://maps.google.com/mapfiles/kml/pushpin/ylw-pushpin.png</href>
                    </Icon>
                </IconStyle>
            </Style>
            <Style id="3787">
                <IconStyle id="3788">
                    <color>ffff0000</color>
                    <colorMode>normal</colorMode>
                    <scale>1</scale>
                    <heading>0</heading>
                    <Icon id="3789">
                        <href>http://maps.google.com/mapfiles/kml/pushpin/ylw-pushpin.png</href>
                    </Icon>
                </IconStyle>
            </Style>
            <Style id="3792">
                <IconStyle id="3793">
                    <color>ffff0000</color>
                    <colorMode>normal</colorMode>
                    <scale>1</scale>
                    <heading>0</heading>
                    <Icon id="3794">
                        <href>http://maps.google.com/mapfiles/kml/pushpin/ylw-pushpin.png</href>
                    </Icon>
                </IconStyle>
            </Style>
            <name>FRANCISCO JAVIER TALLEDO VALDIVIEZO</name>
            <Placemark id="3611">
                <name>BAITAI E.I.R.L.</name>
                <description>BAITAI E.I.R.L.
JR. PUNO NRO. 731 URB. BARRIOS ALTOS
Talara
150101Talara
Piura
Perú</description>
                <styleUrl>#3612</styleUrl>
                <Point id="3610">
                    <coordinates>-81.2712906,-4.5795988,0.0</coordinates>
                </Point>
            </Placemark>
            <Placemark id="3616">
                <name>SHIRLEY MIRELLA VIVAS QUESQUEN</name>
                <description>San Pedro N 36 Talara
Talara

Piura
Perú</description>
                <styleUrl>#3617</styleUrl>
                <Point id="3615">
                    <coordinates>-81.273869,-5.563842,0.0</coordinates>
                </Point>
            </Placemark>
            <Placemark id="3621">
                <name>BAITAI E.I.R.L.</name>
                <description>BAITAI E.I.R.L.
JR. PUNO NRO. 731 URB. BARRIOS ALTOS
Talara
150101Talara
Piura
Perú</description>
                <styleUrl>#3622</styleUrl>
                <Point id="3620">
                    <coordinates>-81.2712906,-4.5795988,0.0</coordinates>
                </Point>
            </Placemark>
            <Placemark id="3626">
                <name>SHIRLEY MIRELLA VIVAS QUESQUEN</name>
                <description>San Pedro N 36 Talara
Talara

Piura
Perú</description>
                <styleUrl>#3627</styleUrl>
                <Point id="3625">
                    <coordinates>-81.273869,-5.563842,0.0</coordinates>
                </Point>
            </Placemark>
            <Placemark id="3631">
                <name>GLORIA ESPERANZA QUEREVALU BAYONA</name>
                <description>San Pedro N-34 nueva zona
Talara
Talara
Piura
Perú</description>
                <styleUrl>#3632</styleUrl>
                <Point id="3630">
                    <coordinates>-81.2740263,-4.5636757,0.0</coordinates>
                </Point>
            </Placemark>
            <Placemark id="3636">
                <name>LUCRECIA ORDOÑEZ VASQUEZ</name>
                <description>Luciano castillo san Pedro A-19
Talara
Talara
Piura
Perú</description>
                <styleUrl>#3637</styleUrl>
                <Point id="3635">
                    <coordinates>-81.27284,-4.5643419,0.0</coordinates>
                </Point>
            </Placemark>
            <Placemark id="3641">
                <name>MARIA ISABEL ORDOÑEZ PAZOS</name>
                <description>A-13LUCIANOCASTILLO AHSANPEDRO
Talara
Talara
Piura
Perú</description>
                <styleUrl>#3642</styleUrl>
                <Point id="3640">
                    <coordinates>-81.273084,-4.564492,0.0</coordinates>
                </Point>
            </Placemark>
            <Placemark id="3646">
                <name>EMMA ROSA AZABACHE DE CHUNGA</name>
                <description>AAHH JESÚS MARIA D-13
Talara
Talara
Piura
Perú</description>
                <styleUrl>#3647</styleUrl>
                <Point id="3645">
                    <coordinates>-81.274291,-4.557743,0.0</coordinates>
                </Point>
            </Placemark>
            <Placemark id="3651">
                <name>YOLANDA ESTHER ANTON MORE</name>
                <description>Jesús María  G1-26
Talara
Talara
Piura
Perú</description>
                <styleUrl>#3652</styleUrl>
                <Point id="3650">
                    <coordinates>-81.272057,-4.5541953,0.0</coordinates>
                </Point>
            </Placemark>
            <Placemark id="3656">
                <name>ROMELIA GUARNIZO SAAVEDRA</name>
                <description>SARITA COLONIA - 18
Talara
Talara
Piura
Perú</description>
                <styleUrl>#3657</styleUrl>
                <Point id="3655">
                    <coordinates>-81.2725339,-4.5552268,0.0</coordinates>
                </Point>
            </Placemark>
            <Placemark id="3661">
                <name>IMELDA PETRONILA VITE BANCAYAN</name>
                <description>E 01-01 AH JESUS MARIA TALARA
Talara
Talara
Piura
Perú</description>
                <styleUrl>#3662</styleUrl>
                <Point id="3660">
                    <coordinates>-81.272507,-4.556298,0.0</coordinates>
                </Point>
            </Placemark>
            <Placemark id="3666">
                <name>ELSA BUSTAMANTE DE ZAPATA</name>
                <description>A.H.JESUS MARIA MZ.A2-5 PUERTO
Talara
Talara
Piura
Perú</description>
                <styleUrl>#3667</styleUrl>
                <Point id="3665">
                    <coordinates>-81.2722341,-4.5575334,0.0</coordinates>
                </Point>
            </Placemark>
            <Placemark id="3671">
                <name>ELIANA KATERINE PERALTA RETO DE MAURICIO</name>
                <description>A.H.JESUS MARIA MZ.F3 LT.10
Talara
Sullana
Piura
Perú</description>
                <styleUrl>#3672</styleUrl>
                <Point id="3670">
                    <coordinates>-81.2714635,-4.557109,0.0</coordinates>
                </Point>
            </Placemark>
            <Placemark id="3676">
                <name>DOMINGA CAMPOS DE ROMERO</name>
                <description>AAHH JESÚS MARIA A2-16
Talara
Talara
Piura
Perú</description>
                <styleUrl>#3677</styleUrl>
                <Point id="3675">
                    <coordinates>-81.2719951,-4.558123,0.0</coordinates>
                </Point>
            </Placemark>
            <Placemark id="3681">
                <name>MARIA IDALIA ROMERO VASQUEZ</name>
                <description>AAHH JESÚS MARIA A2-11
Talara
Talara
Piura
Perú</description>
                <styleUrl>#3682</styleUrl>
                <Point id="3680">
                    <coordinates>-81.2722902,-4.5578301,0.0</coordinates>
                </Point>
            </Placemark>
            <Placemark id="3686">
                <name>DIANA ARACELI MOSCOL ABAD</name>
                <description>AAHH JESÚS MARIA E-5
Talara
Talara
Piura
Perú</description>
                <styleUrl>#3687</styleUrl>
                <Point id="3685">
                    <coordinates>-81.2742825,-4.5586245,0.0</coordinates>
                </Point>
            </Placemark>
            <Placemark id="3691">
                <name>TERESA YSABEL RANGEL GARCIA DE LOPEZ</name>
                <description>A H JESUS MARIA C-25 TALARA
Talara
Talara
Piura
Perú</description>
                <styleUrl>#3692</styleUrl>
                <Point id="3690">
                    <coordinates>-81.274681,-4.5592543,0.0</coordinates>
                </Point>
            </Placemark>
            <Placemark id="3696">
                <name>MERCEDES ELISA DE LOS MILAGROS SAENZ CEVALLOS</name>
                <description>JESUS MARIA C3- 19
Talara
Talara
Piura
Perú</description>
                <styleUrl>#3697</styleUrl>
                <Point id="3695">
                    <coordinates>-81.275617,-4.5602451,0.0</coordinates>
                </Point>
            </Placemark>
            <Placemark id="3701">
                <name>SILVERIO PARDO MERINO</name>
                <description>MZ B lt 11A Jesús María
Talara
Talara
Piura
Perú</description>
                <styleUrl>#3702</styleUrl>
                <Point id="3700">
                    <coordinates>-81.274871,-4.560052,0.0</coordinates>
                </Point>
            </Placemark>
            <Placemark id="3706">
                <name>JANETT MILAGROS ALBURQUEQUE GOMEZ</name>
                <description>B-16 AH JESUS MARIA TALARA
Talara
Talara
Piura
Perú</description>
                <styleUrl>#3707</styleUrl>
                <Point id="3705">
                    <coordinates>-81.274322,-4.5597088,0.0</coordinates>
                </Point>
            </Placemark>
            <Placemark id="3711">
                <name>MARLENE DEL PILAR FIESTAS QUEREVALU</name>
                <description>MZ.B LT.17 AH.JESUS MARIA
Talara
Talara
Piura
Perú</description>
                <styleUrl>#3712</styleUrl>
                <Point id="3710">
                    <coordinates>-81.2742025,-4.5598865,0.0</coordinates>
                </Point>
            </Placemark>
            <Placemark id="3716">
                <name>ZOILA MEREJILDA CORNEJO SALAZAR</name>
                <description>SAN PEDRO A1-11
Talara
Talara
Piura
Perú</description>
                <styleUrl>#3717</styleUrl>
                <Point id="3715">
                    <coordinates>-81.2729604,-4.5608165,0.0</coordinates>
                </Point>
            </Placemark>
            <Placemark id="3721">
                <name>LORENZO DELGADO MULATILLO</name>
                <description>LORENZO DELGADO MULATILLO
MZA. A1 LOTE. 26 A.H. SAN PEDRO TAL
Talara
Talara
Piura
Perú</description>
                <styleUrl>#3722</styleUrl>
                <Point id="3720">
                    <coordinates>-81.2728851,-4.5617318,0.0</coordinates>
                </Point>
            </Placemark>
            <Placemark id="3726">
                <name>ROSA ISABEL PAZOS JIMENEZ</name>
                <description>San pedro R-8 Colegio la 14 hacía arriba
Pariñas
Pariñas
Piura
Perú</description>
                <styleUrl>#3727</styleUrl>
                <Point id="3725">
                    <coordinates>-81.2722862,-4.5627422,0.0</coordinates>
                </Point>
            </Placemark>
            <Placemark id="3731">
                <name>ANITA DEL ROCIO GARCIA PALACIOS</name>
                <description>SAN PEDRO Q-15
Talara
Talara
Piura
Perú</description>
                <styleUrl>#3732</styleUrl>
                <Point id="3730">
                    <coordinates>-81.2727215,-4.5623311,0.0</coordinates>
                </Point>
            </Placemark>
            <Placemark id="3736">
                <name>ISABEL ELISA VILLEGAS YESQUEN DE VITE</name>
                <description>K-14 SAN PEDRO
Talara
Talara
Piura
Perú</description>
                <styleUrl>#3737</styleUrl>
                <Point id="3735">
                    <coordinates>-81.2732225,-4.5610177,0.0</coordinates>
                </Point>
            </Placemark>
            <Placemark id="3741">
                <name>CARMEN YOSHIRA CHIRA MENA DE RUIZ</name>
                <description>MZ J lt 10 A.h San Pedro
Talara
Talara
Piura
Perú</description>
                <styleUrl>#3742</styleUrl>
                <Point id="3740">
                    <coordinates>-81.2737316,-4.5608175,0.0</coordinates>
                </Point>
            </Placemark>
            <Placemark id="3746">
                <name>RICARDO GUEVARA LANDA</name>
                <description>SAN PEDRO I-40
Talara
Talara
Piura
Perú</description>
                <styleUrl>#3747</styleUrl>
                <Point id="3745">
                    <coordinates>-81.273123,-4.563534,0.0</coordinates>
                </Point>
            </Placemark>
            <Placemark id="3751">
                <name>DANIELA HAYDEE ALEJOS CHERO</name>
                <description>Santa Isabel A-18
Talara
Talara
Piura
Perú</description>
                <styleUrl>#3752</styleUrl>
                <Point id="3750">
                    <coordinates>-81.2742693,-4.5650352,0.0</coordinates>
                </Point>
            </Placemark>
            <Placemark id="3756">
                <name>ALCARRAZ JUANA VILCHEZ</name>
                <description>Ñ-47 SAN PEDRO TALARA
Talara
Talara
Piura
Perú</description>
                <styleUrl>#3757</styleUrl>
                <Point id="3755">
                    <coordinates>-81.274105,-4.5647585,0.0</coordinates>
                </Point>
            </Placemark>
            <Placemark id="3761">
                <name>JACINTA RUIZ SORIANO</name>
                <description>O-04 AH SAN PEDRO PARIÑAS TAL
Talara
Talara
Piura
Perú</description>
                <styleUrl>#3762</styleUrl>
                <Point id="3760">
                    <coordinates>-81.274435,-4.564071,0.0</coordinates>
                </Point>
            </Placemark>
            <Placemark id="3766">
                <name>MARIA GUADALUPE PURIZACA DE LOPEZ</name>
                <description>A.H.J.PROGRESISTA MZ.A LT.12
Talara
Talara
Piura
Perú</description>
                <styleUrl>#3767</styleUrl>
                <Point id="3765">
                    <coordinates>-81.2746405,-4.5634679,0.0</coordinates>
                </Point>
            </Placemark>
            <Placemark id="3771">
                <name>RAMIREZ DE ANTON MARIA DOLORES</name>
                <description>Sn Pedro Ñ 31
Talara
Talara
Piura
Perú</description>
                <styleUrl>#3772</styleUrl>
                <Point id="3770">
                    <coordinates>-81.2745589,-4.5636203,0.0</coordinates>
                </Point>
            </Placemark>
            <Placemark id="3776">
                <name>ROCIO MILAGROS ECHE PANTA</name>
                <description>San Pedro N-32
Talara
Talara
Piura
Perú</description>
                <styleUrl>#3777</styleUrl>
                <Point id="3775">
                    <coordinates>-81.2737693,-4.5635241,0.0</coordinates>
                </Point>
            </Placemark>
            <Placemark id="3781">
                <name>SULLON QUEREVALU VERONICA LILIANA</name>
                <description>SULLON QUEREVALU VERONICA LILIANA
San Pedro Ñ-18 nueva zona
Talara
Talara
Piura
Perú</description>
                <styleUrl>#3782</styleUrl>
                <Point id="3780">
                    <coordinates>-81.2737809,-4.5641594,0.0</coordinates>
                </Point>
            </Placemark>
            <Placemark id="3786">
                <name>EMPERATRIZ ALBURQUEQUE DE MARCELO</name>
                <description>LUCIANO CASTILLO A-7 TALARA
Talara
Talara
Piura
Perú</description>
                <styleUrl>#3787</styleUrl>
                <Point id="3785">
                    <coordinates>-81.2733971,-4.5646636,0.0</coordinates>
                </Point>
            </Placemark>
            <Placemark id="3791">
                <name>MARITZA ELIANA CORDOVA MIÑAN</name>
                <description>SAN PEDRO M-40 TALARA
Talara
Talara
Piura
Perú</description>
                <styleUrl>#3792</styleUrl>
                <Point id="3790">
                    <coordinates>-81.2732687,-4.5641692,0.0</coordinates>
                </Point>
            </Placemark>
        </Folder>
    </Document>
</kml>
