<?xml version="1.0" encoding="UTF-8"?>
<kml xmlns="http://www.opengis.net/kml/2.2" xmlns:gx="http://www.google.com/kml/ext/2.2">
    <Document id="2805">
        <Folder id="2806">
            <Style id="2809">
                <IconStyle id="2810">
                    <color>ff0000ff</color>
                    <colorMode>normal</colorMode>
                    <scale>1</scale>
                    <heading>0</heading>
                    <Icon id="2811">
                        <href>http://maps.google.com/mapfiles/kml/pushpin/ylw-pushpin.png</href>
                    </Icon>
                </IconStyle>
            </Style>
            <Style id="2814">
                <IconStyle id="2815">
                    <color>ff0000ff</color>
                    <colorMode>normal</colorMode>
                    <scale>1</scale>
                    <heading>0</heading>
                    <Icon id="2816">
                        <href>http://maps.google.com/mapfiles/kml/pushpin/ylw-pushpin.png</href>
                    </Icon>
                </IconStyle>
            </Style>
            <Style id="2819">
                <IconStyle id="2820">
                    <color>ff0000ff</color>
                    <colorMode>normal</colorMode>
                    <scale>1</scale>
                    <heading>0</heading>
                    <Icon id="2821">
                        <href>http://maps.google.com/mapfiles/kml/pushpin/ylw-pushpin.png</href>
                    </Icon>
                </IconStyle>
            </Style>
            <Style id="2824">
                <IconStyle id="2825">
                    <color>ff0000ff</color>
                    <colorMode>normal</colorMode>
                    <scale>1</scale>
                    <heading>0</heading>
                    <Icon id="2826">
                        <href>http://maps.google.com/mapfiles/kml/pushpin/ylw-pushpin.png</href>
                    </Icon>
                </IconStyle>
            </Style>
            <Style id="2829">
                <IconStyle id="2830">
                    <color>ff0000ff</color>
                    <colorMode>normal</colorMode>
                    <scale>1</scale>
                    <heading>0</heading>
                    <Icon id="2831">
                        <href>http://maps.google.com/mapfiles/kml/pushpin/ylw-pushpin.png</href>
                    </Icon>
                </IconStyle>
            </Style>
            <Style id="2834">
                <IconStyle id="2835">
                    <color>ff0000ff</color>
                    <colorMode>normal</colorMode>
                    <scale>1</scale>
                    <heading>0</heading>
                    <Icon id="2836">
                        <href>http://maps.google.com/mapfiles/kml/pushpin/ylw-pushpin.png</href>
                    </Icon>
                </IconStyle>
            </Style>
            <Style id="2839">
                <IconStyle id="2840">
                    <color>ff0000ff</color>
                    <colorMode>normal</colorMode>
                    <scale>1</scale>
                    <heading>0</heading>
                    <Icon id="2841">
                        <href>http://maps.google.com/mapfiles/kml/pushpin/ylw-pushpin.png</href>
                    </Icon>
                </IconStyle>
            </Style>
            <Style id="2844">
                <IconStyle id="2845">
                    <color>ff0000ff</color>
                    <colorMode>normal</colorMode>
                    <scale>1</scale>
                    <heading>0</heading>
                    <Icon id="2846">
                        <href>http://maps.google.com/mapfiles/kml/pushpin/ylw-pushpin.png</href>
                    </Icon>
                </IconStyle>
            </Style>
            <Style id="2849">
                <IconStyle id="2850">
                    <color>ff0000ff</color>
                    <colorMode>normal</colorMode>
                    <scale>1</scale>
                    <heading>0</heading>
                    <Icon id="2851">
                        <href>http://maps.google.com/mapfiles/kml/pushpin/ylw-pushpin.png</href>
                    </Icon>
                </IconStyle>
            </Style>
            <Style id="2854">
                <IconStyle id="2855">
                    <color>ff0000ff</color>
                    <colorMode>normal</colorMode>
                    <scale>1</scale>
                    <heading>0</heading>
                    <Icon id="2856">
                        <href>http://maps.google.com/mapfiles/kml/pushpin/ylw-pushpin.png</href>
                    </Icon>
                </IconStyle>
            </Style>
            <Style id="2859">
                <IconStyle id="2860">
                    <color>ff0000ff</color>
                    <colorMode>normal</colorMode>
                    <scale>1</scale>
                    <heading>0</heading>
                    <Icon id="2861">
                        <href>http://maps.google.com/mapfiles/kml/pushpin/ylw-pushpin.png</href>
                    </Icon>
                </IconStyle>
            </Style>
            <Style id="2864">
                <IconStyle id="2865">
                    <color>ff0000ff</color>
                    <colorMode>normal</colorMode>
                    <scale>1</scale>
                    <heading>0</heading>
                    <Icon id="2866">
                        <href>http://maps.google.com/mapfiles/kml/pushpin/ylw-pushpin.png</href>
                    </Icon>
                </IconStyle>
            </Style>
            <Style id="2869">
                <IconStyle id="2870">
                    <color>ff0000ff</color>
                    <colorMode>normal</colorMode>
                    <scale>1</scale>
                    <heading>0</heading>
                    <Icon id="2871">
                        <href>http://maps.google.com/mapfiles/kml/pushpin/ylw-pushpin.png</href>
                    </Icon>
                </IconStyle>
            </Style>
            <Style id="2874">
                <IconStyle id="2875">
                    <color>ff0000ff</color>
                    <colorMode>normal</colorMode>
                    <scale>1</scale>
                    <heading>0</heading>
                    <Icon id="2876">
                        <href>http://maps.google.com/mapfiles/kml/pushpin/ylw-pushpin.png</href>
                    </Icon>
                </IconStyle>
            </Style>
            <Style id="2879">
                <IconStyle id="2880">
                    <color>ff0000ff</color>
                    <colorMode>normal</colorMode>
                    <scale>1</scale>
                    <heading>0</heading>
                    <Icon id="2881">
                        <href>http://maps.google.com/mapfiles/kml/pushpin/ylw-pushpin.png</href>
                    </Icon>
                </IconStyle>
            </Style>
            <Style id="2884">
                <IconStyle id="2885">
                    <color>ff0000ff</color>
                    <colorMode>normal</colorMode>
                    <scale>1</scale>
                    <heading>0</heading>
                    <Icon id="2886">
                        <href>http://maps.google.com/mapfiles/kml/pushpin/ylw-pushpin.png</href>
                    </Icon>
                </IconStyle>
            </Style>
            <Style id="2889">
                <IconStyle id="2890">
                    <color>ff0000ff</color>
                    <colorMode>normal</colorMode>
                    <scale>1</scale>
                    <heading>0</heading>
                    <Icon id="2891">
                        <href>http://maps.google.com/mapfiles/kml/pushpin/ylw-pushpin.png</href>
                    </Icon>
                </IconStyle>
            </Style>
            <Style id="2894">
                <IconStyle id="2895">
                    <color>ff0000ff</color>
                    <colorMode>normal</colorMode>
                    <scale>1</scale>
                    <heading>0</heading>
                    <Icon id="2896">
                        <href>http://maps.google.com/mapfiles/kml/pushpin/ylw-pushpin.png</href>
                    </Icon>
                </IconStyle>
            </Style>
            <Style id="2899">
                <IconStyle id="2900">
                    <color>ff0000ff</color>
                    <colorMode>normal</colorMode>
                    <scale>1</scale>
                    <heading>0</heading>
                    <Icon id="2901">
                        <href>http://maps.google.com/mapfiles/kml/pushpin/ylw-pushpin.png</href>
                    </Icon>
                </IconStyle>
            </Style>
            <Style id="2904">
                <IconStyle id="2905">
                    <color>ff0000ff</color>
                    <colorMode>normal</colorMode>
                    <scale>1</scale>
                    <heading>0</heading>
                    <Icon id="2906">
                        <href>http://maps.google.com/mapfiles/kml/pushpin/ylw-pushpin.png</href>
                    </Icon>
                </IconStyle>
            </Style>
            <Style id="2909">
                <IconStyle id="2910">
                    <color>ff0000ff</color>
                    <colorMode>normal</colorMode>
                    <scale>1</scale>
                    <heading>0</heading>
                    <Icon id="2911">
                        <href>http://maps.google.com/mapfiles/kml/pushpin/ylw-pushpin.png</href>
                    </Icon>
                </IconStyle>
            </Style>
            <Style id="2914">
                <IconStyle id="2915">
                    <color>ff0000ff</color>
                    <colorMode>normal</colorMode>
                    <scale>1</scale>
                    <heading>0</heading>
                    <Icon id="2916">
                        <href>http://maps.google.com/mapfiles/kml/pushpin/ylw-pushpin.png</href>
                    </Icon>
                </IconStyle>
            </Style>
            <Style id="2919">
                <IconStyle id="2920">
                    <color>ff0000ff</color>
                    <colorMode>normal</colorMode>
                    <scale>1</scale>
                    <heading>0</heading>
                    <Icon id="2921">
                        <href>http://maps.google.com/mapfiles/kml/pushpin/ylw-pushpin.png</href>
                    </Icon>
                </IconStyle>
            </Style>
            <Style id="2924">
                <IconStyle id="2925">
                    <color>ff0000ff</color>
                    <colorMode>normal</colorMode>
                    <scale>1</scale>
                    <heading>0</heading>
                    <Icon id="2926">
                        <href>http://maps.google.com/mapfiles/kml/pushpin/ylw-pushpin.png</href>
                    </Icon>
                </IconStyle>
            </Style>
            <Style id="2929">
                <IconStyle id="2930">
                    <color>ff0000ff</color>
                    <colorMode>normal</colorMode>
                    <scale>1</scale>
                    <heading>0</heading>
                    <Icon id="2931">
                        <href>http://maps.google.com/mapfiles/kml/pushpin/ylw-pushpin.png</href>
                    </Icon>
                </IconStyle>
            </Style>
            <Style id="2934">
                <IconStyle id="2935">
                    <color>ff0000ff</color>
                    <colorMode>normal</colorMode>
                    <scale>1</scale>
                    <heading>0</heading>
                    <Icon id="2936">
                        <href>http://maps.google.com/mapfiles/kml/pushpin/ylw-pushpin.png</href>
                    </Icon>
                </IconStyle>
            </Style>
            <Style id="2939">
                <IconStyle id="2940">
                    <color>ff0000ff</color>
                    <colorMode>normal</colorMode>
                    <scale>1</scale>
                    <heading>0</heading>
                    <Icon id="2941">
                        <href>http://maps.google.com/mapfiles/kml/pushpin/ylw-pushpin.png</href>
                    </Icon>
                </IconStyle>
            </Style>
            <Style id="2944">
                <IconStyle id="2945">
                    <color>ff0000ff</color>
                    <colorMode>normal</colorMode>
                    <scale>1</scale>
                    <heading>0</heading>
                    <Icon id="2946">
                        <href>http://maps.google.com/mapfiles/kml/pushpin/ylw-pushpin.png</href>
                    </Icon>
                </IconStyle>
            </Style>
            <Style id="2949">
                <IconStyle id="2950">
                    <color>ff0000ff</color>
                    <colorMode>normal</colorMode>
                    <scale>1</scale>
                    <heading>0</heading>
                    <Icon id="2951">
                        <href>http://maps.google.com/mapfiles/kml/pushpin/ylw-pushpin.png</href>
                    </Icon>
                </IconStyle>
            </Style>
            <Style id="2954">
                <IconStyle id="2955">
                    <color>ff0000ff</color>
                    <colorMode>normal</colorMode>
                    <scale>1</scale>
                    <heading>0</heading>
                    <Icon id="2956">
                        <href>http://maps.google.com/mapfiles/kml/pushpin/ylw-pushpin.png</href>
                    </Icon>
                </IconStyle>
            </Style>
            <Style id="2959">
                <IconStyle id="2960">
                    <color>ff0000ff</color>
                    <colorMode>normal</colorMode>
                    <scale>1</scale>
                    <heading>0</heading>
                    <Icon id="2961">
                        <href>http://maps.google.com/mapfiles/kml/pushpin/ylw-pushpin.png</href>
                    </Icon>
                </IconStyle>
            </Style>
            <Style id="2964">
                <IconStyle id="2965">
                    <color>ff0000ff</color>
                    <colorMode>normal</colorMode>
                    <scale>1</scale>
                    <heading>0</heading>
                    <Icon id="2966">
                        <href>http://maps.google.com/mapfiles/kml/pushpin/ylw-pushpin.png</href>
                    </Icon>
                </IconStyle>
            </Style>
            <Style id="2969">
                <IconStyle id="2970">
                    <color>ff0000ff</color>
                    <colorMode>normal</colorMode>
                    <scale>1</scale>
                    <heading>0</heading>
                    <Icon id="2971">
                        <href>http://maps.google.com/mapfiles/kml/pushpin/ylw-pushpin.png</href>
                    </Icon>
                </IconStyle>
            </Style>
            <Style id="2974">
                <IconStyle id="2975">
                    <color>ff0000ff</color>
                    <colorMode>normal</colorMode>
                    <scale>1</scale>
                    <heading>0</heading>
                    <Icon id="2976">
                        <href>http://maps.google.com/mapfiles/kml/pushpin/ylw-pushpin.png</href>
                    </Icon>
                </IconStyle>
            </Style>
            <Style id="2979">
                <IconStyle id="2980">
                    <color>ff0000ff</color>
                    <colorMode>normal</colorMode>
                    <scale>1</scale>
                    <heading>0</heading>
                    <Icon id="2981">
                        <href>http://maps.google.com/mapfiles/kml/pushpin/ylw-pushpin.png</href>
                    </Icon>
                </IconStyle>
            </Style>
            <Style id="2984">
                <IconStyle id="2985">
                    <color>ff0000ff</color>
                    <colorMode>normal</colorMode>
                    <scale>1</scale>
                    <heading>0</heading>
                    <Icon id="2986">
                        <href>http://maps.google.com/mapfiles/kml/pushpin/ylw-pushpin.png</href>
                    </Icon>
                </IconStyle>
            </Style>
            <Style id="2989">
                <IconStyle id="2990">
                    <color>ff0000ff</color>
                    <colorMode>normal</colorMode>
                    <scale>1</scale>
                    <heading>0</heading>
                    <Icon id="2991">
                        <href>http://maps.google.com/mapfiles/kml/pushpin/ylw-pushpin.png</href>
                    </Icon>
                </IconStyle>
            </Style>
            <Style id="2994">
                <IconStyle id="2995">
                    <color>ff0000ff</color>
                    <colorMode>normal</colorMode>
                    <scale>1</scale>
                    <heading>0</heading>
                    <Icon id="2996">
                        <href>http://maps.google.com/mapfiles/kml/pushpin/ylw-pushpin.png</href>
                    </Icon>
                </IconStyle>
            </Style>
            <Style id="2999">
                <IconStyle id="3000">
                    <color>ff0000ff</color>
                    <colorMode>normal</colorMode>
                    <scale>1</scale>
                    <heading>0</heading>
                    <Icon id="3001">
                        <href>http://maps.google.com/mapfiles/kml/pushpin/ylw-pushpin.png</href>
                    </Icon>
                </IconStyle>
            </Style>
            <name>CINTHYA FABIOLA CASTRO FARIAS</name>
            <Placemark id="2808">
                <name>VERTIZ DIAZ MYRIAM PAOLA</name>
                <description>Jabonillal L-01
Pariñas
Pariñas
Piura
Perú</description>
                <styleUrl>#2809</styleUrl>
                <Point id="2807">
                    <coordinates>-81.204931,-4.527732,0.0</coordinates>
                </Point>
            </Placemark>
            <Placemark id="2813">
                <name>Lastenia carrasco Tineo</name>
                <description>Carretera panamericana norte frente a la campana
Pariñas
Pariñas
Piura
Perú</description>
                <styleUrl>#2814</styleUrl>
                <Point id="2812">
                    <coordinates>-81.2174774,-4.5645832,0.0</coordinates>
                </Point>
            </Placemark>
            <Placemark id="2818">
                <name>LUIS ALBERTO MORE ROMERO</name>
                <description>URB ENACE 2 ETAPA C1 -8
Talara
Talara
Piura
Perú</description>
                <styleUrl>#2819</styleUrl>
                <Point id="2817">
                    <coordinates>-81.1739704,-4.5905973,0.0</coordinates>
                </Point>
            </Placemark>
            <Placemark id="2823">
                <name>MARIA ROSARIO PUESCAS CLAVIJO</name>
                <description>Luis Negreiros Vega J-17
Talara
Talara
Piura
Perú</description>
                <styleUrl>#2824</styleUrl>
                <Point id="2822">
                    <coordinates>-81.1872413,-4.5809542,0.0</coordinates>
                </Point>
            </Placemark>
            <Placemark id="2828">
                <name>KAREN ALEJANDRIA SANCHEZ</name>
                <description>AMPLIACION NVO TALARA SCTOR FAP E2-17
Talara
Talara
Piura
Perú</description>
                <styleUrl>#2829</styleUrl>
                <Point id="2827">
                    <coordinates>-81.197181,-4.5841842,0.0</coordinates>
                </Point>
            </Placemark>
            <Placemark id="2833">
                <name>MARISOL ANABEL JUAREZ ORTIZ</name>
                <description>AMPLIACION NVA TALARA Ñ1 -15
Talara
Talara
Piura
Perú</description>
                <styleUrl>#2834</styleUrl>
                <Point id="2832">
                    <coordinates>-81.1945564,-4.5842288,0.0</coordinates>
                </Point>
            </Placemark>
            <Placemark id="2838">
                <name>JUSTA ALCARRAZ GARCIA DE SILVA</name>
                <description>JUSTA ALCARRAZ GARCIA DE SILVA
NRO. MZ A INT. LT 5 URB. SACOBSA -
Talara
Talara
Piura
Perú</description>
                <styleUrl>#2839</styleUrl>
                <Point id="2837">
                    <coordinates>-81.1939863,-4.5788359,0.0</coordinates>
                </Point>
            </Placemark>
            <Placemark id="2843">
                <name>FLOR DE MARIA PAIVA ZAPATA</name>
                <description>Sector FAP C2-1 aplicación NVA talara
Talara
Talara
Piura
Perú</description>
                <styleUrl>#2844</styleUrl>
                <Point id="2842">
                    <coordinates>-81.1969652,-4.5834127,0.0</coordinates>
                </Point>
            </Placemark>
            <Placemark id="2848">
                <name>FLOR DE MARIA PAIVA ZAPATA</name>
                <description>Sector FAP C2-1 aplicación NVA talara
Talara
Talara
Piura
Perú</description>
                <styleUrl>#2849</styleUrl>
                <Point id="2847">
                    <coordinates>-81.1969652,-4.5834127,0.0</coordinates>
                </Point>
            </Placemark>
            <Placemark id="2853">
                <name>ARACELI DEL PILAR PRADO CANALES</name>
                <description>Nueva Talara B2-12
Pariñas
Pariñas
Piura
Perú</description>
                <styleUrl>#2854</styleUrl>
                <Point id="2852">
                    <coordinates>-81.1962744,-4.5835974,0.0</coordinates>
                </Point>
            </Placemark>
            <Placemark id="2858">
                <name>ARACELI DEL PILAR PRADO CANALES</name>
                <description>Nueva Talara B2-12
Pariñas
Pariñas
Piura
Perú</description>
                <styleUrl>#2859</styleUrl>
                <Point id="2857">
                    <coordinates>-81.1962744,-4.5835974,0.0</coordinates>
                </Point>
            </Placemark>
            <Placemark id="2863">
                <name>YACILA RUIZ SANTOS</name>
                <description>Av panamericana s/n
Talara
Talara
Piura
Perú</description>
                <styleUrl>#2864</styleUrl>
                <Point id="2862">
                    <coordinates>-81.1916951,-4.5836249,0.0</coordinates>
                </Point>
            </Placemark>
            <Placemark id="2868">
                <name>LUCIANO RISCO MOGOLLON</name>
                <description>A.H.NUEVO TALARA MZ.R LT.24
Talara
Talara
Piura
Perú</description>
                <styleUrl>#2869</styleUrl>
                <Point id="2867">
                    <coordinates>-81.19315,-4.5826509,0.0</coordinates>
                </Point>
            </Placemark>
            <Placemark id="2873">
                <name>BARZOLA LAURA DOMITILA</name>
                <description>BARZOLA LAURA DOMITILA
II ET-ENACE A INT 37 URB FELIP
Talara
Talara
Piura
Perú</description>
                <styleUrl>#2874</styleUrl>
                <Point id="2872">
                    <coordinates>-81.1768668,-4.5896676,0.0</coordinates>
                </Point>
            </Placemark>
            <Placemark id="2878">
                <name>MELISSA DEL MILAGRO ROMERO CARRASCO</name>
                <description>NEGREIROS M-5
Talara
Talara
Piura
Perú</description>
                <styleUrl>#2879</styleUrl>
                <Point id="2877">
                    <coordinates>-81.188686,-4.5818329,0.0</coordinates>
                </Point>
            </Placemark>
            <Placemark id="2883">
                <name>GLORIA DEL CARMEN GUERRERO DUQUE</name>
                <description>Mz J1 LTE 27 AMPLIACIÓN NUEVO TALARA
Talara
Talara
Piura
Perú</description>
                <styleUrl>#2884</styleUrl>
                <Point id="2882">
                    <coordinates>-81.1943092,-4.5833977,0.0</coordinates>
                </Point>
            </Placemark>
            <Placemark id="2888">
                <name>JACINTA MAXVELI FARIAS CRUZ</name>
                <description>José Abelardo Quiñones B-43 espaldas del colegio señor de los Milagros
Talara
Talara
Piura
Perú</description>
                <styleUrl>#2889</styleUrl>
                <Point id="2887">
                    <coordinates>-81.2541203,-4.5955657,0.0</coordinates>
                </Point>
            </Placemark>
            <Placemark id="2893">
                <name>MARIA GLADYS APONTE MONTERO</name>
                <description>NUEVO TALARA MZ. P LT. 23 (TALARA A
Talara
Talara
Piura
Perú</description>
                <styleUrl>#2894</styleUrl>
                <Point id="2892">
                    <coordinates>-81.1941889,-4.583,0.0</coordinates>
                </Point>
            </Placemark>
            <Placemark id="2898">
                <name>ALDRIN AXEL OLAYA BURGOS</name>
                <description>Nueva Talara Q-19
Talara
Sullana
Piura
Perú</description>
                <styleUrl>#2899</styleUrl>
                <Point id="2897">
                    <coordinates>-81.1936411,-4.5832616,0.0</coordinates>
                </Point>
            </Placemark>
            <Placemark id="2903">
                <name>INGRID PAMELA GUERRERO CHUNGA DE CASTILLO</name>
                <description>Nueva talara Q-10
Talara
Talara
Piura
Perú</description>
                <styleUrl>#2904</styleUrl>
                <Point id="2902">
                    <coordinates>-81.1931634,-4.583005,0.0</coordinates>
                </Point>
            </Placemark>
            <Placemark id="2908">
                <name>JOSE EDILBERTO CAMPOS GUTIERREZ</name>
                <description>Ampliación Nueva TALARA E1-2
Talara
Talara
Piura
Perú</description>
                <styleUrl>#2909</styleUrl>
                <Point id="2907">
                    <coordinates>-81.1925454,-4.5836316,0.0</coordinates>
                </Point>
            </Placemark>
            <Placemark id="2913">
                <name>MARINA MARCHENA CHINININ</name>
                <description>AMPLIACIÃ#N NUEVA TALARA MZ B1 LT 9
Talara
Talara
Piura
Perú</description>
                <styleUrl>#2914</styleUrl>
                <Point id="2912">
                    <coordinates>-81.1908804,-4.5844359,0.0</coordinates>
                </Point>
            </Placemark>
            <Placemark id="2918">
                <name>ROSA AMELIA CASTILLO CHORRES</name>
                <description>Nueva Talara A 13 por el coliseo
Talara

Piura
Perú</description>
                <styleUrl>#2919</styleUrl>
                <Point id="2917">
                    <coordinates>-81.192442,-4.582408,0.0</coordinates>
                </Point>
            </Placemark>
            <Placemark id="2923">
                <name>NILA MENDOZA SANTOS</name>
                <description>AV.PANAMERICANA KM 1093
Talara
Talara
Piura
Perú</description>
                <styleUrl>#2924</styleUrl>
                <Point id="2922">
                    <coordinates>-81.1929759,-4.58206,0.0</coordinates>
                </Point>
            </Placemark>
            <Placemark id="2928">
                <name>ARACELLY HUERTAS CASTILLO</name>
                <description>MZ.B LFT.32 AH.NVO.TALARA
Talara
Talara
Piura
Perú</description>
                <styleUrl>#2929</styleUrl>
                <Point id="2927">
                    <coordinates>-81.1938665,-4.581971,0.0</coordinates>
                </Point>
            </Placemark>
            <Placemark id="2933">
                <name>LADY LAURA CRUZ MORA</name>
                <description>URB SACOBSA MZ I3 LT 19 - PARIÑAS
Talara
Talara
Piura
Perú</description>
                <styleUrl>#2934</styleUrl>
                <Point id="2932">
                    <coordinates>-81.1910965,-4.578713,0.0</coordinates>
                </Point>
            </Placemark>
            <Placemark id="2938">
                <name>LADY LAURA CRUZ MORA</name>
                <description>URB SACOBSA MZ I3 LT 19 - PARIÑAS
Talara
Talara
Piura
Perú</description>
                <styleUrl>#2939</styleUrl>
                <Point id="2937">
                    <coordinates>-81.1910965,-4.578713,0.0</coordinates>
                </Point>
            </Placemark>
            <Placemark id="2943">
                <name>MARGARITA CONSUELO CRUZ DE PALACIOS</name>
                <description>URB.SACOBSA G3-32
Talara
Talara
Piura
Perú</description>
                <styleUrl>#2944</styleUrl>
                <Point id="2942">
                    <coordinates>-81.1913917,-4.580075,0.0</coordinates>
                </Point>
            </Placemark>
            <Placemark id="2948">
                <name>ROXANA CORINA SANDOVAL CHUICA</name>
                <description>Luis Negreiros K-32
Talara
Talara
Piura
Perú</description>
                <styleUrl>#2949</styleUrl>
                <Point id="2947">
                    <coordinates>-81.1886447,-4.5818987,0.0</coordinates>
                </Point>
            </Placemark>
            <Placemark id="2953">
                <name>ROXANA CORINA SANDOVAL CHUICA</name>
                <description>Luis Negreiros K-32
Talara
Talara
Piura
Perú</description>
                <styleUrl>#2954</styleUrl>
                <Point id="2952">
                    <coordinates>-81.1886447,-4.5818987,0.0</coordinates>
                </Point>
            </Placemark>
            <Placemark id="2958">
                <name>ELENA ENCALADA MALDONADO</name>
                <description>Luis Negreiros Vega K-04
Talara
Talara
Piura
Perú</description>
                <styleUrl>#2959</styleUrl>
                <Point id="2957">
                    <coordinates>-81.1879079,-4.5817431,0.0</coordinates>
                </Point>
            </Placemark>
            <Placemark id="2963">
                <name>NELLY MARLENY MONTERO NUNEZ</name>
                <description>URB.ENACE F1-15 II ETAPA
Talara
Talara
Piura
Perú</description>
                <styleUrl>#2964</styleUrl>
                <Point id="2962">
                    <coordinates>-81.1749889,-4.5903421,0.0</coordinates>
                </Point>
            </Placemark>
            <Placemark id="2968">
                <name>TURISMO CARLOS Y RAQUEL EIRL</name>
                <description>TURISMO CARLOS Y RAQUEL EIRL
MZ.F-1 LT.7 URB.FELIPE SANTIAG
Talara
200701Talara
Piura
Perú</description>
                <styleUrl>#2969</styleUrl>
                <Point id="2967">
                    <coordinates>-81.1755018,-4.590367,0.0</coordinates>
                </Point>
            </Placemark>
            <Placemark id="2973">
                <name>MARITZA VERONICA VILELA CRUZ</name>
                <description>URB SALAVERRY II K1- 42
Talara
Talara
Piura
Perú</description>
                <styleUrl>#2974</styleUrl>
                <Point id="2972">
                    <coordinates>-81.1742192,-4.5921575,0.0</coordinates>
                </Point>
            </Placemark>
            <Placemark id="2978">
                <name>ROXANA ESTRELLA MOGOLLON AGURTO</name>
                <description>URB.FELIPE S.SALAVERRY 2 I1-15 S/N
Talara
Talara
Piura
Perú</description>
                <styleUrl>#2979</styleUrl>
                <Point id="2977">
                    <coordinates>-81.1750356,-4.5918479,0.0</coordinates>
                </Point>
            </Placemark>
            <Placemark id="2983">
                <name>DORIS SOSA DE OLAYA</name>
                <description>ENACE II ETAPA H1-23
Talara
Talara
Piura
Perú</description>
                <styleUrl>#2984</styleUrl>
                <Point id="2982">
                    <coordinates>-81.1748568,-4.5919709,0.0</coordinates>
                </Point>
            </Placemark>
            <Placemark id="2988">
                <name>PAMELA JACQUELINE MONTEZA CHIROQUE</name>
                <description>MZ.O LT.19 URB.F.S.SALAVERRY
Talara
Talara
Piura
Perú</description>
                <styleUrl>#2989</styleUrl>
                <Point id="2987">
                    <coordinates>-81.1778409,-4.5941655,0.0</coordinates>
                </Point>
            </Placemark>
            <Placemark id="2993">
                <name>EDITA DEL PILAR VALLADARES VILCHEZ</name>
                <description>URB FELIPE SALABERRY W.15
Talara
Talara
Piura
Perú</description>
                <styleUrl>#2994</styleUrl>
                <Point id="2992">
                    <coordinates>-81.1796055,-4.5954723,0.0</coordinates>
                </Point>
            </Placemark>
            <Placemark id="2998">
                <name>JAKELIN DE LOS MILAGROS JUAREZ ZAPATA DE CASTILLO</name>
                <description>MZ O LT ED7 INT 102 URB FELIP
Talara
Talara
Piura
Perú</description>
                <styleUrl>#2999</styleUrl>
                <Point id="2997">
                    <coordinates>-81.181134,-4.5958095,0.0</coordinates>
                </Point>
            </Placemark>
        </Folder>
        <Folder id="3002">
            <Style id="3005">
                <IconStyle id="3006">
                    <color>ffff0000</color>
                    <colorMode>normal</colorMode>
                    <scale>1</scale>
                    <heading>0</heading>
                    <Icon id="3007">
                        <href>http://maps.google.com/mapfiles/kml/pushpin/ylw-pushpin.png</href>
                    </Icon>
                </IconStyle>
            </Style>
            <Style id="3010">
                <IconStyle id="3011">
                    <color>ffff0000</color>
                    <colorMode>normal</colorMode>
                    <scale>1</scale>
                    <heading>0</heading>
                    <Icon id="3012">
                        <href>http://maps.google.com/mapfiles/kml/pushpin/ylw-pushpin.png</href>
                    </Icon>
                </IconStyle>
            </Style>
            <Style id="3015">
                <IconStyle id="3016">
                    <color>ffff0000</color>
                    <colorMode>normal</colorMode>
                    <scale>1</scale>
                    <heading>0</heading>
                    <Icon id="3017">
                        <href>http://maps.google.com/mapfiles/kml/pushpin/ylw-pushpin.png</href>
                    </Icon>
                </IconStyle>
            </Style>
            <Style id="3020">
                <IconStyle id="3021">
                    <color>ffff0000</color>
                    <colorMode>normal</colorMode>
                    <scale>1</scale>
                    <heading>0</heading>
                    <Icon id="3022">
                        <href>http://maps.google.com/mapfiles/kml/pushpin/ylw-pushpin.png</href>
                    </Icon>
                </IconStyle>
            </Style>
            <Style id="3025">
                <IconStyle id="3026">
                    <color>ffff0000</color>
                    <colorMode>normal</colorMode>
                    <scale>1</scale>
                    <heading>0</heading>
                    <Icon id="3027">
                        <href>http://maps.google.com/mapfiles/kml/pushpin/ylw-pushpin.png</href>
                    </Icon>
                </IconStyle>
            </Style>
            <Style id="3030">
                <IconStyle id="3031">
                    <color>ffff0000</color>
                    <colorMode>normal</colorMode>
                    <scale>1</scale>
                    <heading>0</heading>
                    <Icon id="3032">
                        <href>http://maps.google.com/mapfiles/kml/pushpin/ylw-pushpin.png</href>
                    </Icon>
                </IconStyle>
            </Style>
            <Style id="3035">
                <IconStyle id="3036">
                    <color>ffff0000</color>
                    <colorMode>normal</colorMode>
                    <scale>1</scale>
                    <heading>0</heading>
                    <Icon id="3037">
                        <href>http://maps.google.com/mapfiles/kml/pushpin/ylw-pushpin.png</href>
                    </Icon>
                </IconStyle>
            </Style>
            <Style id="3040">
                <IconStyle id="3041">
                    <color>ffff0000</color>
                    <colorMode>normal</colorMode>
                    <scale>1</scale>
                    <heading>0</heading>
                    <Icon id="3042">
                        <href>http://maps.google.com/mapfiles/kml/pushpin/ylw-pushpin.png</href>
                    </Icon>
                </IconStyle>
            </Style>
            <Style id="3045">
                <IconStyle id="3046">
                    <color>ffff0000</color>
                    <colorMode>normal</colorMode>
                    <scale>1</scale>
                    <heading>0</heading>
                    <Icon id="3047">
                        <href>http://maps.google.com/mapfiles/kml/pushpin/ylw-pushpin.png</href>
                    </Icon>
                </IconStyle>
            </Style>
            <Style id="3050">
                <IconStyle id="3051">
                    <color>ffff0000</color>
                    <colorMode>normal</colorMode>
                    <scale>1</scale>
                    <heading>0</heading>
                    <Icon id="3052">
                        <href>http://maps.google.com/mapfiles/kml/pushpin/ylw-pushpin.png</href>
                    </Icon>
                </IconStyle>
            </Style>
            <Style id="3055">
                <IconStyle id="3056">
                    <color>ffff0000</color>
                    <colorMode>normal</colorMode>
                    <scale>1</scale>
                    <heading>0</heading>
                    <Icon id="3057">
                        <href>http://maps.google.com/mapfiles/kml/pushpin/ylw-pushpin.png</href>
                    </Icon>
                </IconStyle>
            </Style>
            <Style id="3060">
                <IconStyle id="3061">
                    <color>ffff0000</color>
                    <colorMode>normal</colorMode>
                    <scale>1</scale>
                    <heading>0</heading>
                    <Icon id="3062">
                        <href>http://maps.google.com/mapfiles/kml/pushpin/ylw-pushpin.png</href>
                    </Icon>
                </IconStyle>
            </Style>
            <Style id="3065">
                <IconStyle id="3066">
                    <color>ffff0000</color>
                    <colorMode>normal</colorMode>
                    <scale>1</scale>
                    <heading>0</heading>
                    <Icon id="3067">
                        <href>http://maps.google.com/mapfiles/kml/pushpin/ylw-pushpin.png</href>
                    </Icon>
                </IconStyle>
            </Style>
            <Style id="3070">
                <IconStyle id="3071">
                    <color>ffff0000</color>
                    <colorMode>normal</colorMode>
                    <scale>1</scale>
                    <heading>0</heading>
                    <Icon id="3072">
                        <href>http://maps.google.com/mapfiles/kml/pushpin/ylw-pushpin.png</href>
                    </Icon>
                </IconStyle>
            </Style>
            <Style id="3075">
                <IconStyle id="3076">
                    <color>ffff0000</color>
                    <colorMode>normal</colorMode>
                    <scale>1</scale>
                    <heading>0</heading>
                    <Icon id="3077">
                        <href>http://maps.google.com/mapfiles/kml/pushpin/ylw-pushpin.png</href>
                    </Icon>
                </IconStyle>
            </Style>
            <Style id="3080">
                <IconStyle id="3081">
                    <color>ffff0000</color>
                    <colorMode>normal</colorMode>
                    <scale>1</scale>
                    <heading>0</heading>
                    <Icon id="3082">
                        <href>http://maps.google.com/mapfiles/kml/pushpin/ylw-pushpin.png</href>
                    </Icon>
                </IconStyle>
            </Style>
            <Style id="3085">
                <IconStyle id="3086">
                    <color>ffff0000</color>
                    <colorMode>normal</colorMode>
                    <scale>1</scale>
                    <heading>0</heading>
                    <Icon id="3087">
                        <href>http://maps.google.com/mapfiles/kml/pushpin/ylw-pushpin.png</href>
                    </Icon>
                </IconStyle>
            </Style>
            <Style id="3090">
                <IconStyle id="3091">
                    <color>ffff0000</color>
                    <colorMode>normal</colorMode>
                    <scale>1</scale>
                    <heading>0</heading>
                    <Icon id="3092">
                        <href>http://maps.google.com/mapfiles/kml/pushpin/ylw-pushpin.png</href>
                    </Icon>
                </IconStyle>
            </Style>
            <Style id="3095">
                <IconStyle id="3096">
                    <color>ffff0000</color>
                    <colorMode>normal</colorMode>
                    <scale>1</scale>
                    <heading>0</heading>
                    <Icon id="3097">
                        <href>http://maps.google.com/mapfiles/kml/pushpin/ylw-pushpin.png</href>
                    </Icon>
                </IconStyle>
            </Style>
            <Style id="3100">
                <IconStyle id="3101">
                    <color>ffff0000</color>
                    <colorMode>normal</colorMode>
                    <scale>1</scale>
                    <heading>0</heading>
                    <Icon id="3102">
                        <href>http://maps.google.com/mapfiles/kml/pushpin/ylw-pushpin.png</href>
                    </Icon>
                </IconStyle>
            </Style>
            <Style id="3105">
                <IconStyle id="3106">
                    <color>ffff0000</color>
                    <colorMode>normal</colorMode>
                    <scale>1</scale>
                    <heading>0</heading>
                    <Icon id="3107">
                        <href>http://maps.google.com/mapfiles/kml/pushpin/ylw-pushpin.png</href>
                    </Icon>
                </IconStyle>
            </Style>
            <Style id="3110">
                <IconStyle id="3111">
                    <color>ffff0000</color>
                    <colorMode>normal</colorMode>
                    <scale>1</scale>
                    <heading>0</heading>
                    <Icon id="3112">
                        <href>http://maps.google.com/mapfiles/kml/pushpin/ylw-pushpin.png</href>
                    </Icon>
                </IconStyle>
            </Style>
            <Style id="3115">
                <IconStyle id="3116">
                    <color>ffff0000</color>
                    <colorMode>normal</colorMode>
                    <scale>1</scale>
                    <heading>0</heading>
                    <Icon id="3117">
                        <href>http://maps.google.com/mapfiles/kml/pushpin/ylw-pushpin.png</href>
                    </Icon>
                </IconStyle>
            </Style>
            <Style id="3120">
                <IconStyle id="3121">
                    <color>ffff0000</color>
                    <colorMode>normal</colorMode>
                    <scale>1</scale>
                    <heading>0</heading>
                    <Icon id="3122">
                        <href>http://maps.google.com/mapfiles/kml/pushpin/ylw-pushpin.png</href>
                    </Icon>
                </IconStyle>
            </Style>
            <Style id="3125">
                <IconStyle id="3126">
                    <color>ffff0000</color>
                    <colorMode>normal</colorMode>
                    <scale>1</scale>
                    <heading>0</heading>
                    <Icon id="3127">
                        <href>http://maps.google.com/mapfiles/kml/pushpin/ylw-pushpin.png</href>
                    </Icon>
                </IconStyle>
            </Style>
            <Style id="3130">
                <IconStyle id="3131">
                    <color>ffff0000</color>
                    <colorMode>normal</colorMode>
                    <scale>1</scale>
                    <heading>0</heading>
                    <Icon id="3132">
                        <href>http://maps.google.com/mapfiles/kml/pushpin/ylw-pushpin.png</href>
                    </Icon>
                </IconStyle>
            </Style>
            <Style id="3135">
                <IconStyle id="3136">
                    <color>ffff0000</color>
                    <colorMode>normal</colorMode>
                    <scale>1</scale>
                    <heading>0</heading>
                    <Icon id="3137">
                        <href>http://maps.google.com/mapfiles/kml/pushpin/ylw-pushpin.png</href>
                    </Icon>
                </IconStyle>
            </Style>
            <Style id="3140">
                <IconStyle id="3141">
                    <color>ffff0000</color>
                    <colorMode>normal</colorMode>
                    <scale>1</scale>
                    <heading>0</heading>
                    <Icon id="3142">
                        <href>http://maps.google.com/mapfiles/kml/pushpin/ylw-pushpin.png</href>
                    </Icon>
                </IconStyle>
            </Style>
            <Style id="3145">
                <IconStyle id="3146">
                    <color>ffff0000</color>
                    <colorMode>normal</colorMode>
                    <scale>1</scale>
                    <heading>0</heading>
                    <Icon id="3147">
                        <href>http://maps.google.com/mapfiles/kml/pushpin/ylw-pushpin.png</href>
                    </Icon>
                </IconStyle>
            </Style>
            <Style id="3150">
                <IconStyle id="3151">
                    <color>ffff0000</color>
                    <colorMode>normal</colorMode>
                    <scale>1</scale>
                    <heading>0</heading>
                    <Icon id="3152">
                        <href>http://maps.google.com/mapfiles/kml/pushpin/ylw-pushpin.png</href>
                    </Icon>
                </IconStyle>
            </Style>
            <Style id="3155">
                <IconStyle id="3156">
                    <color>ffff0000</color>
                    <colorMode>normal</colorMode>
                    <scale>1</scale>
                    <heading>0</heading>
                    <Icon id="3157">
                        <href>http://maps.google.com/mapfiles/kml/pushpin/ylw-pushpin.png</href>
                    </Icon>
                </IconStyle>
            </Style>
            <Style id="3160">
                <IconStyle id="3161">
                    <color>ffff0000</color>
                    <colorMode>normal</colorMode>
                    <scale>1</scale>
                    <heading>0</heading>
                    <Icon id="3162">
                        <href>http://maps.google.com/mapfiles/kml/pushpin/ylw-pushpin.png</href>
                    </Icon>
                </IconStyle>
            </Style>
            <Style id="3165">
                <IconStyle id="3166">
                    <color>ffff0000</color>
                    <colorMode>normal</colorMode>
                    <scale>1</scale>
                    <heading>0</heading>
                    <Icon id="3167">
                        <href>http://maps.google.com/mapfiles/kml/pushpin/ylw-pushpin.png</href>
                    </Icon>
                </IconStyle>
            </Style>
            <Style id="3170">
                <IconStyle id="3171">
                    <color>ffff0000</color>
                    <colorMode>normal</colorMode>
                    <scale>1</scale>
                    <heading>0</heading>
                    <Icon id="3172">
                        <href>http://maps.google.com/mapfiles/kml/pushpin/ylw-pushpin.png</href>
                    </Icon>
                </IconStyle>
            </Style>
            <Style id="3175">
                <IconStyle id="3176">
                    <color>ffff0000</color>
                    <colorMode>normal</colorMode>
                    <scale>1</scale>
                    <heading>0</heading>
                    <Icon id="3177">
                        <href>http://maps.google.com/mapfiles/kml/pushpin/ylw-pushpin.png</href>
                    </Icon>
                </IconStyle>
            </Style>
            <Style id="3180">
                <IconStyle id="3181">
                    <color>ffff0000</color>
                    <colorMode>normal</colorMode>
                    <scale>1</scale>
                    <heading>0</heading>
                    <Icon id="3182">
                        <href>http://maps.google.com/mapfiles/kml/pushpin/ylw-pushpin.png</href>
                    </Icon>
                </IconStyle>
            </Style>
            <Style id="3185">
                <IconStyle id="3186">
                    <color>ffff0000</color>
                    <colorMode>normal</colorMode>
                    <scale>1</scale>
                    <heading>0</heading>
                    <Icon id="3187">
                        <href>http://maps.google.com/mapfiles/kml/pushpin/ylw-pushpin.png</href>
                    </Icon>
                </IconStyle>
            </Style>
            <Style id="3190">
                <IconStyle id="3191">
                    <color>ffff0000</color>
                    <colorMode>normal</colorMode>
                    <scale>1</scale>
                    <heading>0</heading>
                    <Icon id="3192">
                        <href>http://maps.google.com/mapfiles/kml/pushpin/ylw-pushpin.png</href>
                    </Icon>
                </IconStyle>
            </Style>
            <name>FRANCISCO JAVIER TALLEDO VALDIVIEZO</name>
            <Placemark id="3004">
                <name>CECILIA MAGALY QUEREVALU TUME</name>
                <description>San Pedro D-5 El Alto
El Alto
El Alto
Piura
Perú</description>
                <styleUrl>#3005</styleUrl>
                <Point id="3003">
                    <coordinates>-81.2142196,-4.2718698,0.0</coordinates>
                </Point>
            </Placemark>
            <Placemark id="3009">
                <name>MONTEJO CRUZ MERCEDES</name>
                <description>Castro poso MZ 11 LT 06 REF COLEGIO FELIZ SIPRIANO
El Alto
El Alto
Piura
Perú</description>
                <styleUrl>#3010</styleUrl>
                <Point id="3008">
                    <coordinates>-81.2149527,-4.2696614,0.0</coordinates>
                </Point>
            </Placemark>
            <Placemark id="3014">
                <name>PAMELA MARISOL PEÑA PINGO</name>
                <description>NUEVA ESPERANZA S/N el alto
El Alto
El Alto
Piura
Perú</description>
                <styleUrl>#3015</styleUrl>
                <Point id="3013">
                    <coordinates>-81.2179358,-4.2720042,0.0</coordinates>
                </Point>
            </Placemark>
            <Placemark id="3019">
                <name>RUBEN ALAIN ARISMENDIZ CORREA</name>
                <description>Barrio Piura 1530-2
El Alto
Talara
Piura
Perú</description>
                <styleUrl>#3020</styleUrl>
                <Point id="3018">
                    <coordinates>-81.216474,-4.2740472,0.0</coordinates>
                </Point>
            </Placemark>
            <Placemark id="3024">
                <name>RUBEN ALAIN ARISMENDIZ CORREA</name>
                <description>Barrio Piura 1530-2
El Alto
Talara
Piura
Perú</description>
                <styleUrl>#3025</styleUrl>
                <Point id="3023">
                    <coordinates>-81.216474,-4.2740472,0.0</coordinates>
                </Point>
            </Placemark>
            <Placemark id="3029">
                <name>CASTRO CACHAY JOSE MIGUEL</name>
                <description>CASTRO CACHAY JOSE MIGUEL
URB BOLOGNESI MZ A -12
El Alto
El Alto
Piura
Perú</description>
                <styleUrl>#3030</styleUrl>
                <Point id="3028">
                    <coordinates>-81.220362,-4.268132,0.0</coordinates>
                </Point>
            </Placemark>
            <Placemark id="3034">
                <name>MARIA ALEJANDRA RUJEL LABRIN</name>
                <description>San Pedro F-02
El Alto
El Alto
Piura
Perú</description>
                <styleUrl>#3035</styleUrl>
                <Point id="3033">
                    <coordinates>-81.2134605,-4.2718818,0.0</coordinates>
                </Point>
            </Placemark>
            <Placemark id="3039">
                <name>CELINDA HUAMAN ALBERCA</name>
                <description>CA.MELQUIADES CASTI.MZ.A LT.38
El Alto
El Alto
Piura
Perú</description>
                <styleUrl>#3040</styleUrl>
                <Point id="3038">
                    <coordinates>-81.2120372,-4.2679111,0.0</coordinates>
                </Point>
            </Placemark>
            <Placemark id="3044">
                <name>MIRELLA ALEXANDRA MONTALBAN MORAN</name>
                <description>Calle castro pozo referencia alfrente el puesto de auxilio
El Alto
El Alto
Piura
Perú</description>
                <styleUrl>#3045</styleUrl>
                <Point id="3043">
                    <coordinates>-81.2128502,-4.2676994,0.0</coordinates>
                </Point>
            </Placemark>
            <Placemark id="3049">
                <name>BETTY MILAGROS CHUNGA CHERO</name>
                <description>CASTRO  POZO S/N
El Alto
El Alto
Piura
Perú</description>
                <styleUrl>#3050</styleUrl>
                <Point id="3048">
                    <coordinates>-81.2128456,-4.2681367,0.0</coordinates>
                </Point>
            </Placemark>
            <Placemark id="3054">
                <name>ANDRES IMAN VILCHEZ</name>
                <description>Nuevo mercado municipal el alto puesto 9
El Alto
20831El Alto
Piura
Perú</description>
                <styleUrl>#3055</styleUrl>
                <Point id="3053">
                    <coordinates>-81.2146848,-4.267126,0.0</coordinates>
                </Point>
            </Placemark>
            <Placemark id="3059">
                <name>LUCY PAOLA ECHE BECERRA</name>
                <description>Av. Bolognesi  C-02
El Alto
El Alto
Piura
Perú</description>
                <styleUrl>#3060</styleUrl>
                <Point id="3058">
                    <coordinates>-81.2187176,-4.2677892,0.0</coordinates>
                </Point>
            </Placemark>
            <Placemark id="3064">
                <name>FLOR GASDALI ARRASCUE VALLEJOS</name>
                <description>Barrio verde Mz B lote 1 El Alto Talara
El Alto
El Alto
Piura
Perú</description>
                <styleUrl>#3065</styleUrl>
                <Point id="3063">
                    <coordinates>-81.2205588,-4.2692191,0.0</coordinates>
                </Point>
            </Placemark>
            <Placemark id="3069">
                <name>FLOR GASDALI ARRASCUE VALLEJOS</name>
                <description>Barrio verde Mz B lote 1 El Alto Talara
El Alto
El Alto
Piura
Perú</description>
                <styleUrl>#3070</styleUrl>
                <Point id="3068">
                    <coordinates>-81.2205588,-4.2692191,0.0</coordinates>
                </Point>
            </Placemark>
            <Placemark id="3074">
                <name>JENNY MARIELA FIESTAS RUIZ</name>
                <description>av Sánchez cerro calle MZ  C1 lote 06 El ñuro
El Alto
20840El Alto
Piura
Perú</description>
                <styleUrl>#3075</styleUrl>
                <Point id="3073">
                    <coordinates>-81.168439,-4.217153,0.0</coordinates>
                </Point>
            </Placemark>
            <Placemark id="3079">
                <name>ELSA ECHE RUMICHE</name>
                <description>barrio blanco 847-1
El Alto
20831El Alto
Piura
Perú</description>
                <styleUrl>#3080</styleUrl>
                <Point id="3078">
                    <coordinates>-81.2210735,-4.2690176,0.0</coordinates>
                </Point>
            </Placemark>
            <Placemark id="3084">
                <name>JOSE SERNA SANJINEZ</name>
                <description>MCDO.CENTRAL S/N EL ALTO
El Alto
El Alto
Piura
Perú</description>
                <styleUrl>#3085</styleUrl>
                <Point id="3083">
                    <coordinates>-81.2213631,-4.2685788,0.0</coordinates>
                </Point>
            </Placemark>
            <Placemark id="3089">
                <name>JOSE SERNA SANJINEZ</name>
                <description>MCDO.CENTRAL S/N EL ALTO
El Alto
El Alto
Piura
Perú</description>
                <styleUrl>#3090</styleUrl>
                <Point id="3088">
                    <coordinates>-81.2213631,-4.2685788,0.0</coordinates>
                </Point>
            </Placemark>
            <Placemark id="3094">
                <name>CASTRO CACHAY JOSE MIGUEL</name>
                <description>CASTRO CACHAY JOSE MIGUEL
URB BOLOGNESI MZ A -12
El Alto
El Alto
Piura
Perú</description>
                <styleUrl>#3095</styleUrl>
                <Point id="3093">
                    <coordinates>-81.220362,-4.268132,0.0</coordinates>
                </Point>
            </Placemark>
            <Placemark id="3099">
                <name>BODEGA ANITA &amp; HIJAS SOCIEDAD ANONIMA CERRADA</name>
                <description>AV. AV. BOLOGNESI S/N KM. 0 LOTE. 0 OTR.  AVENIDA BOLOGNESI
El Alto
200702El Alto
Piura
Perú</description>
                <styleUrl>#3100</styleUrl>
                <Point id="3098">
                    <coordinates>-81.2201874,-4.2680145,0.0</coordinates>
                </Point>
            </Placemark>
            <Placemark id="3104">
                <name>AGURTO ALEMAN BENJAMIN ARTURO</name>
                <description>

El Alto

Perú</description>
                <styleUrl>#3105</styleUrl>
                <Point id="3103">
                    <coordinates>-81.2201062,-4.2680605,0.0</coordinates>
                </Point>
            </Placemark>
            <Placemark id="3109">
                <name>JOAQUIN ABELARDO VARGAS TIMANA</name>
                <description>Av.bolognesi E13, frente a eppo El alto
El Alto
Tumbes
Piura
Perú</description>
                <styleUrl>#3110</styleUrl>
                <Point id="3108">
                    <coordinates>-81.218499,-4.267502,0.0</coordinates>
                </Point>
            </Placemark>
            <Placemark id="3114">
                <name>NANCY SOLEDAD TIMANA VALLADARES</name>
                <description>Av Bolognesi a 11 Ref frente al eppo
El Alto
El Alto
Piura
Perú</description>
                <styleUrl>#3115</styleUrl>
                <Point id="3113">
                    <coordinates>-81.2184295,-4.2674726,0.0</coordinates>
                </Point>
            </Placemark>
            <Placemark id="3119">
                <name>VARGAS TIMANA DE RICOPA EVELYN FABIOLA</name>
                <description>VARGAS TIMANA DE RICOPA EVELYN FABIOLA
Av Bolognesi ref eppo
El Alto
El Alto
Piura
Perú</description>
                <styleUrl>#3120</styleUrl>
                <Point id="3118">
                    <coordinates>-81.2183351,-4.2673032,0.0</coordinates>
                </Point>
            </Placemark>
            <Placemark id="3124">
                <name>MARIA MILAGROS AGUILAR SANTUR</name>
                <description>EL  VOLANTE 1473-4 EL ALTO
El Alto
El Alto
Piura
Perú</description>
                <styleUrl>#3125</styleUrl>
                <Point id="3123">
                    <coordinates>-81.2158754,-4.2645467,0.0</coordinates>
                </Point>
            </Placemark>
            <Placemark id="3129">
                <name>BAZAN ROJAS RONALD IVAN</name>
                <description>Barrio talarita - 01
El Alto
El Alto
Piura
Perú</description>
                <styleUrl>#3130</styleUrl>
                <Point id="3128">
                    <coordinates>-81.2184127,-4.2672966,0.0</coordinates>
                </Point>
            </Placemark>
            <Placemark id="3134">
                <name>DEYSI ATOCHE MAURICIO</name>
                <description>Las mercedesB9
El Alto

Piura
Perú</description>
                <styleUrl>#3135</styleUrl>
                <Point id="3133">
                    <coordinates>-81.216399,-4.262601,0.0</coordinates>
                </Point>
            </Placemark>
            <Placemark id="3139">
                <name>FERNANDO WILLY ZAPATA PAREJA</name>
                <description>Las Mercedes B 21
El Alto
El Alto
Piura
Perú</description>
                <styleUrl>#3140</styleUrl>
                <Point id="3138">
                    <coordinates>-81.2152153,-4.263259,0.0</coordinates>
                </Point>
            </Placemark>
            <Placemark id="3144">
                <name>ANA ALMENDRA TERRONES CAMACHO</name>
                <description>LAS MERCEDES MZ.D LT2 EL ALTO
El Alto
El Alto
Piura
Perú</description>
                <styleUrl>#3145</styleUrl>
                <Point id="3143">
                    <coordinates>-81.2155518,-4.2622524,0.0</coordinates>
                </Point>
            </Placemark>
            <Placemark id="3149">
                <name>BENAVIDES LOPEZ JUAN HENRY</name>
                <description>MZ E lt 17 A.H Las Mercedes
El Alto
El Alto
Piura
Perú</description>
                <styleUrl>#3150</styleUrl>
                <Point id="3148">
                    <coordinates>-81.2156451,-4.26233,0.0</coordinates>
                </Point>
            </Placemark>
            <Placemark id="3154">
                <name>BENAVIDES LOPEZ JUAN HENRY</name>
                <description>MZ E lt 17 A.H Las Mercedes
El Alto
El Alto
Piura
Perú</description>
                <styleUrl>#3155</styleUrl>
                <Point id="3153">
                    <coordinates>-81.2156451,-4.26233,0.0</coordinates>
                </Point>
            </Placemark>
            <Placemark id="3159">
                <name>CINTHIA JANETH PAZOS QUEREVALU</name>
                <description>AH.SAN PEDRO MZ - BQ LT - 07 EL ALT
El Alto
El Alto
Piura
Perú</description>
                <styleUrl>#3160</styleUrl>
                <Point id="3158">
                    <coordinates>-81.2143742,-4.2716948,0.0</coordinates>
                </Point>
            </Placemark>
            <Placemark id="3164">
                <name>MARIA ROXANA RUIZ TUME DE CHAPA</name>
                <description>Cabo Blanco s/n frente a minsa
El Alto

Piura
Perú</description>
                <styleUrl>#3165</styleUrl>
                <Point id="3163">
                    <coordinates>-81.231007,-4.250938,0.0</coordinates>
                </Point>
            </Placemark>
            <Placemark id="3169">
                <name>JENNY MARIELA FIESTAS RUIZ</name>
                <description>av Sánchez cerro calle MZ  C1 lote 06 El ñuro
El Alto
20840El Alto
Piura
Perú</description>
                <styleUrl>#3170</styleUrl>
                <Point id="3168">
                    <coordinates>-81.168439,-4.217153,0.0</coordinates>
                </Point>
            </Placemark>
            <Placemark id="3174">
                <name>HERAYDA PURIZACA GUERRERO</name>
                <description>Barrio castro pozo 1294 _ 1
El Alto
El Alto
Piura
Perú</description>
                <styleUrl>#3175</styleUrl>
                <Point id="3173">
                    <coordinates>-81.2129259,-4.2673297,0.0</coordinates>
                </Point>
            </Placemark>
            <Placemark id="3179">
                <name>YOVANY MARIBEL AGIP TIMANA</name>
                <description>Av Bolognesi zona industrial S-21 El Alto
El Alto

Piura
Perú</description>
                <styleUrl>#3180</styleUrl>
                <Point id="3178">
                    <coordinates>-81.211434,-4.26668,0.0</coordinates>
                </Point>
            </Placemark>
            <Placemark id="3184">
                <name>LIMA YAHUANA DOMINGA</name>
                <description>Zona Industrial sn
El Alto
Talara
Piura
Perú</description>
                <styleUrl>#3185</styleUrl>
                <Point id="3183">
                    <coordinates>-81.2074596,-4.2682242,0.0</coordinates>
                </Point>
            </Placemark>
            <Placemark id="3189">
                <name>CARMEN MARCELA PACHECO BANCAYAN</name>
                <description>calle San Pedro MZ A lote 10 el ñuro
Los Órganos
20840Los Órganos
Piura
Perú</description>
                <styleUrl>#3190</styleUrl>
                <Point id="3188">
                    <coordinates>-81.170857,-4.217102,0.0</coordinates>
                </Point>
            </Placemark>
        </Folder>
    </Document>
</kml>
