<?xml version="1.0" encoding="UTF-8"?>
<kml xmlns="http://www.opengis.net/kml/2.2" xmlns:gx="http://www.google.com/kml/ext/2.2">
    <Document id="1">
        <Folder id="2">
            <Style id="5">
                <IconStyle id="6">
                    <color>ff0000ff</color>
                    <colorMode>normal</colorMode>
                    <scale>1</scale>
                    <heading>0</heading>
                    <Icon id="7">
                        <href>http://maps.google.com/mapfiles/kml/pushpin/ylw-pushpin.png</href>
                    </Icon>
                </IconStyle>
            </Style>
            <Style id="10">
                <IconStyle id="11">
                    <color>ff0000ff</color>
                    <colorMode>normal</colorMode>
                    <scale>1</scale>
                    <heading>0</heading>
                    <Icon id="12">
                        <href>http://maps.google.com/mapfiles/kml/pushpin/ylw-pushpin.png</href>
                    </Icon>
                </IconStyle>
            </Style>
            <Style id="15">
                <IconStyle id="16">
                    <color>ff0000ff</color>
                    <colorMode>normal</colorMode>
                    <scale>1</scale>
                    <heading>0</heading>
                    <Icon id="17">
                        <href>http://maps.google.com/mapfiles/kml/pushpin/ylw-pushpin.png</href>
                    </Icon>
                </IconStyle>
            </Style>
            <Style id="20">
                <IconStyle id="21">
                    <color>ff0000ff</color>
                    <colorMode>normal</colorMode>
                    <scale>1</scale>
                    <heading>0</heading>
                    <Icon id="22">
                        <href>http://maps.google.com/mapfiles/kml/pushpin/ylw-pushpin.png</href>
                    </Icon>
                </IconStyle>
            </Style>
            <Style id="25">
                <IconStyle id="26">
                    <color>ff0000ff</color>
                    <colorMode>normal</colorMode>
                    <scale>1</scale>
                    <heading>0</heading>
                    <Icon id="27">
                        <href>http://maps.google.com/mapfiles/kml/pushpin/ylw-pushpin.png</href>
                    </Icon>
                </IconStyle>
            </Style>
            <Style id="30">
                <IconStyle id="31">
                    <color>ff0000ff</color>
                    <colorMode>normal</colorMode>
                    <scale>1</scale>
                    <heading>0</heading>
                    <Icon id="32">
                        <href>http://maps.google.com/mapfiles/kml/pushpin/ylw-pushpin.png</href>
                    </Icon>
                </IconStyle>
            </Style>
            <Style id="35">
                <IconStyle id="36">
                    <color>ff0000ff</color>
                    <colorMode>normal</colorMode>
                    <scale>1</scale>
                    <heading>0</heading>
                    <Icon id="37">
                        <href>http://maps.google.com/mapfiles/kml/pushpin/ylw-pushpin.png</href>
                    </Icon>
                </IconStyle>
            </Style>
            <Style id="40">
                <IconStyle id="41">
                    <color>ff0000ff</color>
                    <colorMode>normal</colorMode>
                    <scale>1</scale>
                    <heading>0</heading>
                    <Icon id="42">
                        <href>http://maps.google.com/mapfiles/kml/pushpin/ylw-pushpin.png</href>
                    </Icon>
                </IconStyle>
            </Style>
            <Style id="45">
                <IconStyle id="46">
                    <color>ff0000ff</color>
                    <colorMode>normal</colorMode>
                    <scale>1</scale>
                    <heading>0</heading>
                    <Icon id="47">
                        <href>http://maps.google.com/mapfiles/kml/pushpin/ylw-pushpin.png</href>
                    </Icon>
                </IconStyle>
            </Style>
            <Style id="50">
                <IconStyle id="51">
                    <color>ff0000ff</color>
                    <colorMode>normal</colorMode>
                    <scale>1</scale>
                    <heading>0</heading>
                    <Icon id="52">
                        <href>http://maps.google.com/mapfiles/kml/pushpin/ylw-pushpin.png</href>
                    </Icon>
                </IconStyle>
            </Style>
            <Style id="55">
                <IconStyle id="56">
                    <color>ff0000ff</color>
                    <colorMode>normal</colorMode>
                    <scale>1</scale>
                    <heading>0</heading>
                    <Icon id="57">
                        <href>http://maps.google.com/mapfiles/kml/pushpin/ylw-pushpin.png</href>
                    </Icon>
                </IconStyle>
            </Style>
            <Style id="60">
                <IconStyle id="61">
                    <color>ff0000ff</color>
                    <colorMode>normal</colorMode>
                    <scale>1</scale>
                    <heading>0</heading>
                    <Icon id="62">
                        <href>http://maps.google.com/mapfiles/kml/pushpin/ylw-pushpin.png</href>
                    </Icon>
                </IconStyle>
            </Style>
            <Style id="65">
                <IconStyle id="66">
                    <color>ff0000ff</color>
                    <colorMode>normal</colorMode>
                    <scale>1</scale>
                    <heading>0</heading>
                    <Icon id="67">
                        <href>http://maps.google.com/mapfiles/kml/pushpin/ylw-pushpin.png</href>
                    </Icon>
                </IconStyle>
            </Style>
            <Style id="70">
                <IconStyle id="71">
                    <color>ff0000ff</color>
                    <colorMode>normal</colorMode>
                    <scale>1</scale>
                    <heading>0</heading>
                    <Icon id="72">
                        <href>http://maps.google.com/mapfiles/kml/pushpin/ylw-pushpin.png</href>
                    </Icon>
                </IconStyle>
            </Style>
            <Style id="75">
                <IconStyle id="76">
                    <color>ff0000ff</color>
                    <colorMode>normal</colorMode>
                    <scale>1</scale>
                    <heading>0</heading>
                    <Icon id="77">
                        <href>http://maps.google.com/mapfiles/kml/pushpin/ylw-pushpin.png</href>
                    </Icon>
                </IconStyle>
            </Style>
            <Style id="80">
                <IconStyle id="81">
                    <color>ff0000ff</color>
                    <colorMode>normal</colorMode>
                    <scale>1</scale>
                    <heading>0</heading>
                    <Icon id="82">
                        <href>http://maps.google.com/mapfiles/kml/pushpin/ylw-pushpin.png</href>
                    </Icon>
                </IconStyle>
            </Style>
            <Style id="85">
                <IconStyle id="86">
                    <color>ff0000ff</color>
                    <colorMode>normal</colorMode>
                    <scale>1</scale>
                    <heading>0</heading>
                    <Icon id="87">
                        <href>http://maps.google.com/mapfiles/kml/pushpin/ylw-pushpin.png</href>
                    </Icon>
                </IconStyle>
            </Style>
            <Style id="90">
                <IconStyle id="91">
                    <color>ff0000ff</color>
                    <colorMode>normal</colorMode>
                    <scale>1</scale>
                    <heading>0</heading>
                    <Icon id="92">
                        <href>http://maps.google.com/mapfiles/kml/pushpin/ylw-pushpin.png</href>
                    </Icon>
                </IconStyle>
            </Style>
            <Style id="95">
                <IconStyle id="96">
                    <color>ff0000ff</color>
                    <colorMode>normal</colorMode>
                    <scale>1</scale>
                    <heading>0</heading>
                    <Icon id="97">
                        <href>http://maps.google.com/mapfiles/kml/pushpin/ylw-pushpin.png</href>
                    </Icon>
                </IconStyle>
            </Style>
            <Style id="100">
                <IconStyle id="101">
                    <color>ff0000ff</color>
                    <colorMode>normal</colorMode>
                    <scale>1</scale>
                    <heading>0</heading>
                    <Icon id="102">
                        <href>http://maps.google.com/mapfiles/kml/pushpin/ylw-pushpin.png</href>
                    </Icon>
                </IconStyle>
            </Style>
            <Style id="105">
                <IconStyle id="106">
                    <color>ff0000ff</color>
                    <colorMode>normal</colorMode>
                    <scale>1</scale>
                    <heading>0</heading>
                    <Icon id="107">
                        <href>http://maps.google.com/mapfiles/kml/pushpin/ylw-pushpin.png</href>
                    </Icon>
                </IconStyle>
            </Style>
            <Style id="110">
                <IconStyle id="111">
                    <color>ff0000ff</color>
                    <colorMode>normal</colorMode>
                    <scale>1</scale>
                    <heading>0</heading>
                    <Icon id="112">
                        <href>http://maps.google.com/mapfiles/kml/pushpin/ylw-pushpin.png</href>
                    </Icon>
                </IconStyle>
            </Style>
            <Style id="115">
                <IconStyle id="116">
                    <color>ff0000ff</color>
                    <colorMode>normal</colorMode>
                    <scale>1</scale>
                    <heading>0</heading>
                    <Icon id="117">
                        <href>http://maps.google.com/mapfiles/kml/pushpin/ylw-pushpin.png</href>
                    </Icon>
                </IconStyle>
            </Style>
            <Style id="120">
                <IconStyle id="121">
                    <color>ff0000ff</color>
                    <colorMode>normal</colorMode>
                    <scale>1</scale>
                    <heading>0</heading>
                    <Icon id="122">
                        <href>http://maps.google.com/mapfiles/kml/pushpin/ylw-pushpin.png</href>
                    </Icon>
                </IconStyle>
            </Style>
            <Style id="125">
                <IconStyle id="126">
                    <color>ff0000ff</color>
                    <colorMode>normal</colorMode>
                    <scale>1</scale>
                    <heading>0</heading>
                    <Icon id="127">
                        <href>http://maps.google.com/mapfiles/kml/pushpin/ylw-pushpin.png</href>
                    </Icon>
                </IconStyle>
            </Style>
            <Style id="130">
                <IconStyle id="131">
                    <color>ff0000ff</color>
                    <colorMode>normal</colorMode>
                    <scale>1</scale>
                    <heading>0</heading>
                    <Icon id="132">
                        <href>http://maps.google.com/mapfiles/kml/pushpin/ylw-pushpin.png</href>
                    </Icon>
                </IconStyle>
            </Style>
            <Style id="135">
                <IconStyle id="136">
                    <color>ff0000ff</color>
                    <colorMode>normal</colorMode>
                    <scale>1</scale>
                    <heading>0</heading>
                    <Icon id="137">
                        <href>http://maps.google.com/mapfiles/kml/pushpin/ylw-pushpin.png</href>
                    </Icon>
                </IconStyle>
            </Style>
            <Style id="140">
                <IconStyle id="141">
                    <color>ff0000ff</color>
                    <colorMode>normal</colorMode>
                    <scale>1</scale>
                    <heading>0</heading>
                    <Icon id="142">
                        <href>http://maps.google.com/mapfiles/kml/pushpin/ylw-pushpin.png</href>
                    </Icon>
                </IconStyle>
            </Style>
            <Style id="145">
                <IconStyle id="146">
                    <color>ff0000ff</color>
                    <colorMode>normal</colorMode>
                    <scale>1</scale>
                    <heading>0</heading>
                    <Icon id="147">
                        <href>http://maps.google.com/mapfiles/kml/pushpin/ylw-pushpin.png</href>
                    </Icon>
                </IconStyle>
            </Style>
            <Style id="150">
                <IconStyle id="151">
                    <color>ff0000ff</color>
                    <colorMode>normal</colorMode>
                    <scale>1</scale>
                    <heading>0</heading>
                    <Icon id="152">
                        <href>http://maps.google.com/mapfiles/kml/pushpin/ylw-pushpin.png</href>
                    </Icon>
                </IconStyle>
            </Style>
            <Style id="155">
                <IconStyle id="156">
                    <color>ff0000ff</color>
                    <colorMode>normal</colorMode>
                    <scale>1</scale>
                    <heading>0</heading>
                    <Icon id="157">
                        <href>http://maps.google.com/mapfiles/kml/pushpin/ylw-pushpin.png</href>
                    </Icon>
                </IconStyle>
            </Style>
            <Style id="160">
                <IconStyle id="161">
                    <color>ff0000ff</color>
                    <colorMode>normal</colorMode>
                    <scale>1</scale>
                    <heading>0</heading>
                    <Icon id="162">
                        <href>http://maps.google.com/mapfiles/kml/pushpin/ylw-pushpin.png</href>
                    </Icon>
                </IconStyle>
            </Style>
            <Style id="165">
                <IconStyle id="166">
                    <color>ff0000ff</color>
                    <colorMode>normal</colorMode>
                    <scale>1</scale>
                    <heading>0</heading>
                    <Icon id="167">
                        <href>http://maps.google.com/mapfiles/kml/pushpin/ylw-pushpin.png</href>
                    </Icon>
                </IconStyle>
            </Style>
            <Style id="170">
                <IconStyle id="171">
                    <color>ff0000ff</color>
                    <colorMode>normal</colorMode>
                    <scale>1</scale>
                    <heading>0</heading>
                    <Icon id="172">
                        <href>http://maps.google.com/mapfiles/kml/pushpin/ylw-pushpin.png</href>
                    </Icon>
                </IconStyle>
            </Style>
            <Style id="175">
                <IconStyle id="176">
                    <color>ff0000ff</color>
                    <colorMode>normal</colorMode>
                    <scale>1</scale>
                    <heading>0</heading>
                    <Icon id="177">
                        <href>http://maps.google.com/mapfiles/kml/pushpin/ylw-pushpin.png</href>
                    </Icon>
                </IconStyle>
            </Style>
            <Style id="180">
                <IconStyle id="181">
                    <color>ff0000ff</color>
                    <colorMode>normal</colorMode>
                    <scale>1</scale>
                    <heading>0</heading>
                    <Icon id="182">
                        <href>http://maps.google.com/mapfiles/kml/pushpin/ylw-pushpin.png</href>
                    </Icon>
                </IconStyle>
            </Style>
            <Style id="185">
                <IconStyle id="186">
                    <color>ff0000ff</color>
                    <colorMode>normal</colorMode>
                    <scale>1</scale>
                    <heading>0</heading>
                    <Icon id="187">
                        <href>http://maps.google.com/mapfiles/kml/pushpin/ylw-pushpin.png</href>
                    </Icon>
                </IconStyle>
            </Style>
            <Style id="190">
                <IconStyle id="191">
                    <color>ff0000ff</color>
                    <colorMode>normal</colorMode>
                    <scale>1</scale>
                    <heading>0</heading>
                    <Icon id="192">
                        <href>http://maps.google.com/mapfiles/kml/pushpin/ylw-pushpin.png</href>
                    </Icon>
                </IconStyle>
            </Style>
            <Style id="195">
                <IconStyle id="196">
                    <color>ff0000ff</color>
                    <colorMode>normal</colorMode>
                    <scale>1</scale>
                    <heading>0</heading>
                    <Icon id="197">
                        <href>http://maps.google.com/mapfiles/kml/pushpin/ylw-pushpin.png</href>
                    </Icon>
                </IconStyle>
            </Style>
            <Style id="200">
                <IconStyle id="201">
                    <color>ff0000ff</color>
                    <colorMode>normal</colorMode>
                    <scale>1</scale>
                    <heading>0</heading>
                    <Icon id="202">
                        <href>http://maps.google.com/mapfiles/kml/pushpin/ylw-pushpin.png</href>
                    </Icon>
                </IconStyle>
            </Style>
            <Style id="205">
                <IconStyle id="206">
                    <color>ff0000ff</color>
                    <colorMode>normal</colorMode>
                    <scale>1</scale>
                    <heading>0</heading>
                    <Icon id="207">
                        <href>http://maps.google.com/mapfiles/kml/pushpin/ylw-pushpin.png</href>
                    </Icon>
                </IconStyle>
            </Style>
            <Style id="210">
                <IconStyle id="211">
                    <color>ff0000ff</color>
                    <colorMode>normal</colorMode>
                    <scale>1</scale>
                    <heading>0</heading>
                    <Icon id="212">
                        <href>http://maps.google.com/mapfiles/kml/pushpin/ylw-pushpin.png</href>
                    </Icon>
                </IconStyle>
            </Style>
            <Style id="215">
                <IconStyle id="216">
                    <color>ff0000ff</color>
                    <colorMode>normal</colorMode>
                    <scale>1</scale>
                    <heading>0</heading>
                    <Icon id="217">
                        <href>http://maps.google.com/mapfiles/kml/pushpin/ylw-pushpin.png</href>
                    </Icon>
                </IconStyle>
            </Style>
            <Style id="220">
                <IconStyle id="221">
                    <color>ff0000ff</color>
                    <colorMode>normal</colorMode>
                    <scale>1</scale>
                    <heading>0</heading>
                    <Icon id="222">
                        <href>http://maps.google.com/mapfiles/kml/pushpin/ylw-pushpin.png</href>
                    </Icon>
                </IconStyle>
            </Style>
            <Style id="225">
                <IconStyle id="226">
                    <color>ff0000ff</color>
                    <colorMode>normal</colorMode>
                    <scale>1</scale>
                    <heading>0</heading>
                    <Icon id="227">
                        <href>http://maps.google.com/mapfiles/kml/pushpin/ylw-pushpin.png</href>
                    </Icon>
                </IconStyle>
            </Style>
            <Style id="230">
                <IconStyle id="231">
                    <color>ff0000ff</color>
                    <colorMode>normal</colorMode>
                    <scale>1</scale>
                    <heading>0</heading>
                    <Icon id="232">
                        <href>http://maps.google.com/mapfiles/kml/pushpin/ylw-pushpin.png</href>
                    </Icon>
                </IconStyle>
            </Style>
            <Style id="235">
                <IconStyle id="236">
                    <color>ff0000ff</color>
                    <colorMode>normal</colorMode>
                    <scale>1</scale>
                    <heading>0</heading>
                    <Icon id="237">
                        <href>http://maps.google.com/mapfiles/kml/pushpin/ylw-pushpin.png</href>
                    </Icon>
                </IconStyle>
            </Style>
            <Style id="240">
                <IconStyle id="241">
                    <color>ff0000ff</color>
                    <colorMode>normal</colorMode>
                    <scale>1</scale>
                    <heading>0</heading>
                    <Icon id="242">
                        <href>http://maps.google.com/mapfiles/kml/pushpin/ylw-pushpin.png</href>
                    </Icon>
                </IconStyle>
            </Style>
            <Style id="245">
                <IconStyle id="246">
                    <color>ff0000ff</color>
                    <colorMode>normal</colorMode>
                    <scale>1</scale>
                    <heading>0</heading>
                    <Icon id="247">
                        <href>http://maps.google.com/mapfiles/kml/pushpin/ylw-pushpin.png</href>
                    </Icon>
                </IconStyle>
            </Style>
            <name>CINTHYA FABIOLA CASTRO FARIAS</name>
            <Placemark id="4">
                <name>FLORA PEÑA AMAYA</name>
                <description>URB.LUIS NEGREIROS MZ.G-07
Talara
Talara
Piura
Perú</description>
                <styleUrl>#5</styleUrl>
                <Point id="3">
                    <coordinates>-81.1866892,-4.5825439,0.0</coordinates>
                </Point>
            </Placemark>
            <Placemark id="9">
                <name>GUERRERO GARCIA RUTDALDINE</name>
                <description>Cas. JABONILLAL G-05
Pariñas
Pariñas
Piura
Perú</description>
                <styleUrl>#10</styleUrl>
                <Point id="8">
                    <coordinates>-81.2035663,-4.5223493,0.0</coordinates>
                </Point>
            </Placemark>
            <Placemark id="14">
                <name>MELISSA DEL MILAGRO ROMERO CARRASCO</name>
                <description>NEGREIROS M-5
Talara
Talara
Piura
Perú</description>
                <styleUrl>#15</styleUrl>
                <Point id="13">
                    <coordinates>-81.188686,-4.5818329,0.0</coordinates>
                </Point>
            </Placemark>
            <Placemark id="19">
                <name>YACILA RUIZ SANTOS</name>
                <description>Av panamericana s/n
Talara
Talara
Piura
Perú</description>
                <styleUrl>#20</styleUrl>
                <Point id="18">
                    <coordinates>-81.1916951,-4.5836249,0.0</coordinates>
                </Point>
            </Placemark>
            <Placemark id="24">
                <name>ISABEL MERCEDES ZAPATA HERRERA</name>
                <description>Jabonial D-1 al costado del colegio
Talara

Piura
Perú</description>
                <styleUrl>#25</styleUrl>
                <Point id="23">
                    <coordinates>-81.20613,-4.533008,0.0</coordinates>
                </Point>
            </Placemark>
            <Placemark id="29">
                <name>VERTIZ DIAZ MYRIAM PAOLA</name>
                <description>Jabonillal L-01
Pariñas
Pariñas
Piura
Perú</description>
                <styleUrl>#30</styleUrl>
                <Point id="28">
                    <coordinates>-81.204931,-4.527732,0.0</coordinates>
                </Point>
            </Placemark>
            <Placemark id="34">
                <name>SOLEDAD CRISTINA ESPINOSA SEMINARIO</name>
                <description>Carretera panamericana km1093 la campana restaurante los cocos
Pariñas
Pariñas
Piura
Perú</description>
                <styleUrl>#35</styleUrl>
                <Point id="33">
                    <coordinates>-81.2136786,-4.566774,0.0</coordinates>
                </Point>
            </Placemark>
            <Placemark id="39">
                <name>JIMENEZ ZAPATA DE COELLO PETRONILA</name>
                <description>JIMENEZ ZAPATA DE COELLO PETRONILA
Urb los pinos E-10
Talara
Talara
Piura
Perú</description>
                <styleUrl>#40</styleUrl>
                <Point id="38">
                    <coordinates>-81.2577126,-4.5814713,0.0</coordinates>
                </Point>
            </Placemark>
            <Placemark id="44">
                <name>Lastenia carrasco Tineo</name>
                <description>Carretera panamericana norte frente a la campana
Pariñas
Pariñas
Piura
Perú</description>
                <styleUrl>#45</styleUrl>
                <Point id="43">
                    <coordinates>-81.2174774,-4.5645832,0.0</coordinates>
                </Point>
            </Placemark>
            <Placemark id="49">
                <name>ROSA AMELIA CASTILLO CHORRES</name>
                <description>Nueva Talara A 13 por el coliseo
Talara

Piura
Perú</description>
                <styleUrl>#50</styleUrl>
                <Point id="48">
                    <coordinates>-81.192442,-4.582408,0.0</coordinates>
                </Point>
            </Placemark>
            <Placemark id="54">
                <name>EDITA PAOLA CORONADO GOMEZ</name>
                <description>Ampliación Nueva TALARA calle los Ébanos T-01
Talara
Talara
Piura
Perú</description>
                <styleUrl>#55</styleUrl>
                <Point id="53">
                    <coordinates>-81.1909485,-4.5852866,0.0</coordinates>
                </Point>
            </Placemark>
            <Placemark id="59">
                <name>MARIA GLADYS APONTE MONTERO</name>
                <description>NUEVO TALARA MZ. P LT. 23 (TALARA A
Talara
Talara
Piura
Perú</description>
                <styleUrl>#60</styleUrl>
                <Point id="58">
                    <coordinates>-81.1941889,-4.583,0.0</coordinates>
                </Point>
            </Placemark>
            <Placemark id="64">
                <name>FLOR DE MARIA PAIVA ZAPATA</name>
                <description>Sector FAP C2-1 aplicación NVA talara
Talara
Talara
Piura
Perú</description>
                <styleUrl>#65</styleUrl>
                <Point id="63">
                    <coordinates>-81.1969652,-4.5834127,0.0</coordinates>
                </Point>
            </Placemark>
            <Placemark id="69">
                <name>KAREN ALEJANDRIA SANCHEZ</name>
                <description>AMPLIACION NVO TALARA SCTOR FAP E2-17
Talara
Talara
Piura
Perú</description>
                <styleUrl>#70</styleUrl>
                <Point id="68">
                    <coordinates>-81.197181,-4.5841842,0.0</coordinates>
                </Point>
            </Placemark>
            <Placemark id="74">
                <name>MARISOL ANABEL JUAREZ ORTIZ</name>
                <description>AMPLIACION NVA TALARA Ñ1 -15
Talara
Talara
Piura
Perú</description>
                <styleUrl>#75</styleUrl>
                <Point id="73">
                    <coordinates>-81.1945564,-4.5842288,0.0</coordinates>
                </Point>
            </Placemark>
            <Placemark id="79">
                <name>MARIA GLADYS APONTE MONTERO</name>
                <description>NUEVO TALARA MZ. P LT. 23 (TALARA A
Talara
Talara
Piura
Perú</description>
                <styleUrl>#80</styleUrl>
                <Point id="78">
                    <coordinates>-81.1941889,-4.583,0.0</coordinates>
                </Point>
            </Placemark>
            <Placemark id="84">
                <name>GLORIA DEL CARMEN GUERRERO DUQUE</name>
                <description>Mz J1 LTE 27 AMPLIACIÓN NUEVO TALARA
Talara
Talara
Piura
Perú</description>
                <styleUrl>#85</styleUrl>
                <Point id="83">
                    <coordinates>-81.1943092,-4.5833977,0.0</coordinates>
                </Point>
            </Placemark>
            <Placemark id="89">
                <name>ALDRIN AXEL OLAYA BURGOS</name>
                <description>Nueva Talara Q-19
Talara
Sullana
Piura
Perú</description>
                <styleUrl>#90</styleUrl>
                <Point id="88">
                    <coordinates>-81.1936411,-4.5832616,0.0</coordinates>
                </Point>
            </Placemark>
            <Placemark id="94">
                <name>JOSE EDILBERTO CAMPOS GUTIERREZ</name>
                <description>Ampliación Nueva TALARA E1-2
Talara
Talara
Piura
Perú</description>
                <styleUrl>#95</styleUrl>
                <Point id="93">
                    <coordinates>-81.1925454,-4.5836316,0.0</coordinates>
                </Point>
            </Placemark>
            <Placemark id="99">
                <name>MARINA MARCHENA CHINININ</name>
                <description>AMPLIACIÃ#N NUEVA TALARA MZ B1 LT 9
Talara
Talara
Piura
Perú</description>
                <styleUrl>#100</styleUrl>
                <Point id="98">
                    <coordinates>-81.1908804,-4.5844359,0.0</coordinates>
                </Point>
            </Placemark>
            <Placemark id="104">
                <name>ANDREA DEL PILAR CESPEDES QUISPE</name>
                <description>A.H NUEVA TALARA B-5
Talara
Talara
Piura
Perú</description>
                <styleUrl>#105</styleUrl>
                <Point id="103">
                    <coordinates>-81.1927162,-4.5821738,0.0</coordinates>
                </Point>
            </Placemark>
            <Placemark id="109">
                <name>ARACELLY HUERTAS CASTILLO</name>
                <description>MZ.B LFT.32 AH.NVO.TALARA
Talara
Talara
Piura
Perú</description>
                <styleUrl>#110</styleUrl>
                <Point id="108">
                    <coordinates>-81.1938665,-4.581971,0.0</coordinates>
                </Point>
            </Placemark>
            <Placemark id="114">
                <name>JENNYFER ROSALYA GUERRERO SILUPU</name>
                <description>Sacobsa D3-22
Talara
Talara
Piura
Perú</description>
                <styleUrl>#115</styleUrl>
                <Point id="113">
                    <coordinates>-81.1934079,-4.5796871,0.0</coordinates>
                </Point>
            </Placemark>
            <Placemark id="119">
                <name>JUSTA ALCARRAZ GARCIA DE SILVA</name>
                <description>JUSTA ALCARRAZ GARCIA DE SILVA
NRO. MZ A INT. LT 5 URB. SACOBSA -
Talara
Talara
Piura
Perú</description>
                <styleUrl>#120</styleUrl>
                <Point id="118">
                    <coordinates>-81.1939863,-4.5788359,0.0</coordinates>
                </Point>
            </Placemark>
            <Placemark id="124">
                <name>KARLA KATHERINE TORRES SILVA</name>
                <description>URB SACOBSA C3-10
Talara
Talara
Piura
Perú</description>
                <styleUrl>#125</styleUrl>
                <Point id="123">
                    <coordinates>-81.1929713,-4.5789091,0.0</coordinates>
                </Point>
            </Placemark>
            <Placemark id="129">
                <name>LADY LAURA CRUZ MORA</name>
                <description>URB SACOBSA MZ I3 LT 19 - PARIÑAS
Talara
Talara
Piura
Perú</description>
                <styleUrl>#130</styleUrl>
                <Point id="128">
                    <coordinates>-81.1910965,-4.578713,0.0</coordinates>
                </Point>
            </Placemark>
            <Placemark id="134">
                <name>MELISSA DEL MILAGRO ROMERO CARRASCO</name>
                <description>NEGREIROS M-5
Talara
Talara
Piura
Perú</description>
                <styleUrl>#135</styleUrl>
                <Point id="133">
                    <coordinates>-81.188686,-4.5818329,0.0</coordinates>
                </Point>
            </Placemark>
            <Placemark id="139">
                <name>MARIA SOLEDAD MOGOLLON DE AMAYA</name>
                <description>Negreiros F-19
Talara

Piura
Perú</description>
                <styleUrl>#140</styleUrl>
                <Point id="138">
                    <coordinates>-81.186713,-4.583732,0.0</coordinates>
                </Point>
            </Placemark>
            <Placemark id="144">
                <name>ROXANA CORINA SANDOVAL CHUICA</name>
                <description>Luis Negreiros K-32
Talara
Talara
Piura
Perú</description>
                <styleUrl>#145</styleUrl>
                <Point id="143">
                    <coordinates>-81.1886447,-4.5818987,0.0</coordinates>
                </Point>
            </Placemark>
            <Placemark id="149">
                <name>MARIA ROSARIO PUESCAS CLAVIJO</name>
                <description>Luis Negreiros Vega J-17
Talara
Talara
Piura
Perú</description>
                <styleUrl>#150</styleUrl>
                <Point id="148">
                    <coordinates>-81.1872413,-4.5809542,0.0</coordinates>
                </Point>
            </Placemark>
            <Placemark id="154">
                <name>FLORA PEÑA AMAYA</name>
                <description>URB.LUIS NEGREIROS MZ.G-07
Talara
Talara
Piura
Perú</description>
                <styleUrl>#155</styleUrl>
                <Point id="153">
                    <coordinates>-81.1866892,-4.5825439,0.0</coordinates>
                </Point>
            </Placemark>
            <Placemark id="159">
                <name>HIDALGO MORAN DEYSI</name>
                <description>HIDALGO MORAN DEYSI
Enace A-54 frente  a la carretera,esquina
Talara

Piura
Perú</description>
                <styleUrl>#160</styleUrl>
                <Point id="158">
                    <coordinates>-81.177989,-4.59039,0.0</coordinates>
                </Point>
            </Placemark>
            <Placemark id="164">
                <name>ROXANA PUCCIO VILLASECA</name>
                <description>Enace F1 2da etapa
Talara
Talara
Piura
Perú</description>
                <styleUrl>#165</styleUrl>
                <Point id="163">
                    <coordinates>-81.1772459,-4.5897723,0.0</coordinates>
                </Point>
            </Placemark>
            <Placemark id="169">
                <name>BARZOLA LAURA DOMITILA</name>
                <description>BARZOLA LAURA DOMITILA
II ET-ENACE A INT 37 URB FELIP
Talara
Talara
Piura
Perú</description>
                <styleUrl>#170</styleUrl>
                <Point id="168">
                    <coordinates>-81.1768668,-4.5896676,0.0</coordinates>
                </Point>
            </Placemark>
            <Placemark id="174">
                <name>ROXANA TENCCO USTUA</name>
                <description>Enace segunda etapa C-19
Talara
Talara
Piura
Perú</description>
                <styleUrl>#175</styleUrl>
                <Point id="173">
                    <coordinates>-81.1764942,-4.5908304,0.0</coordinates>
                </Point>
            </Placemark>
            <Placemark id="179">
                <name>NAVELIA GARCIA CAMACHO DE CAMPOS</name>
                <description>URB.ENACE D-26 TALARA
Talara
Talara
Piura
Perú</description>
                <styleUrl>#180</styleUrl>
                <Point id="178">
                    <coordinates>-81.1766326,-4.5910013,0.0</coordinates>
                </Point>
            </Placemark>
            <Placemark id="184">
                <name>ELIZABETH MAGDALENA CESPEDES ESTRADA</name>
                <description>Enace E-29 segunda etapa frente al parque infantil
Pariñas
Pariñas
Piura
Perú</description>
                <styleUrl>#185</styleUrl>
                <Point id="183">
                    <coordinates>-81.1761985,-4.5903819,0.0</coordinates>
                </Point>
            </Placemark>
            <Placemark id="189">
                <name>TURISMO CARLOS Y RAQUEL EIRL</name>
                <description>TURISMO CARLOS Y RAQUEL EIRL
MZ.F-1 LT.7 URB.FELIPE SANTIAG
Talara
200701Talara
Piura
Perú</description>
                <styleUrl>#190</styleUrl>
                <Point id="188">
                    <coordinates>-81.1755018,-4.590367,0.0</coordinates>
                </Point>
            </Placemark>
            <Placemark id="194">
                <name>MARIA CONSUELO CORREA PALACIOS</name>
                <description>
Pariñas
Pariñas
Piura
Perú</description>
                <styleUrl>#195</styleUrl>
                <Point id="193">
                    <coordinates>-81.1733875,-4.5902691,0.0</coordinates>
                </Point>
            </Placemark>
            <Placemark id="199">
                <name>MARITZA VERONICA VILELA CRUZ</name>
                <description>URB SALAVERRY II K1- 42
Talara
Talara
Piura
Perú</description>
                <styleUrl>#200</styleUrl>
                <Point id="198">
                    <coordinates>-81.1742192,-4.5921575,0.0</coordinates>
                </Point>
            </Placemark>
            <Placemark id="204">
                <name>SUSANA PEÑA HERRADA</name>
                <description>URB.FELIPE SALAVERRY III1 11
Talara
Talara
Piura
Perú</description>
                <styleUrl>#205</styleUrl>
                <Point id="203">
                    <coordinates>-81.1751358,-4.5917387,0.0</coordinates>
                </Point>
            </Placemark>
            <Placemark id="209">
                <name>PAMELA JACQUELINE MONTEZA CHIROQUE</name>
                <description>MZ.O LT.19 URB.F.S.SALAVERRY
Talara
Talara
Piura
Perú</description>
                <styleUrl>#210</styleUrl>
                <Point id="208">
                    <coordinates>-81.1778409,-4.5941655,0.0</coordinates>
                </Point>
            </Placemark>
            <Placemark id="214">
                <name>ORLANDO ALVAREZ JIMENEZ</name>
                <description>URB.SALABERRY Y-06
Talara
Talara
Piura
Perú</description>
                <styleUrl>#215</styleUrl>
                <Point id="213">
                    <coordinates>-81.1801198,-4.5945975,0.0</coordinates>
                </Point>
            </Placemark>
            <Placemark id="219">
                <name>BRYAN RAUL CRUZ ZAVALA</name>
                <description>BRYAN RAUL CRUZ ZAVALA
MZ.A1 LT.28 URB.FELIPE SANTIAGO ENACE I ETAPA
Talara
Talara
Piura
Perú</description>
                <styleUrl>#220</styleUrl>
                <Point id="218">
                    <coordinates>-81.1803981,-4.5945923,0.0</coordinates>
                </Point>
            </Placemark>
            <Placemark id="224">
                <name>MARIA DOLORES OJEDA NIMA</name>
                <description>Mz N LTE 12 ENACE I ETAPA
Talara
Talara
Piura
Perú</description>
                <styleUrl>#225</styleUrl>
                <Point id="223">
                    <coordinates>-81.1782729,-4.5939146,0.0</coordinates>
                </Point>
            </Placemark>
            <Placemark id="229">
                <name>EDITA DEL PILAR VALLADARES VILCHEZ</name>
                <description>URB FELIPE SALABERRY W.15
Talara
Talara
Piura
Perú</description>
                <styleUrl>#230</styleUrl>
                <Point id="228">
                    <coordinates>-81.1796055,-4.5954723,0.0</coordinates>
                </Point>
            </Placemark>
            <Placemark id="234">
                <name>MONICA LIZETH RENTERIA CHIROQUE</name>
                <description>Enace primera etapa J1-23
Talara
Talara
Piura
Perú</description>
                <styleUrl>#235</styleUrl>
                <Point id="233">
                    <coordinates>-81.180153,-4.595683,0.0</coordinates>
                </Point>
            </Placemark>
            <Placemark id="239">
                <name>MARGARITA FERNANDEZ CASTILLO</name>
                <description>ENACE.1 ETA D1-9
Talara
Talara
Piura
Perú</description>
                <styleUrl>#240</styleUrl>
                <Point id="238">
                    <coordinates>-81.1812178,-4.5958494,0.0</coordinates>
                </Point>
            </Placemark>
            <Placemark id="244">
                <name>JAKELIN DE LOS MILAGROS JUAREZ ZAPATA DE CASTILLO</name>
                <description>MZ O LT ED7 INT 102 URB FELIP
Talara
Talara
Piura
Perú</description>
                <styleUrl>#245</styleUrl>
                <Point id="243">
                    <coordinates>-81.181134,-4.5958095,0.0</coordinates>
                </Point>
            </Placemark>
        </Folder>
        <Folder id="248">
            <Style id="251">
                <IconStyle id="252">
                    <color>ffff0000</color>
                    <colorMode>normal</colorMode>
                    <scale>1</scale>
                    <heading>0</heading>
                    <Icon id="253">
                        <href>http://maps.google.com/mapfiles/kml/pushpin/ylw-pushpin.png</href>
                    </Icon>
                </IconStyle>
            </Style>
            <Style id="256">
                <IconStyle id="257">
                    <color>ffff0000</color>
                    <colorMode>normal</colorMode>
                    <scale>1</scale>
                    <heading>0</heading>
                    <Icon id="258">
                        <href>http://maps.google.com/mapfiles/kml/pushpin/ylw-pushpin.png</href>
                    </Icon>
                </IconStyle>
            </Style>
            <Style id="261">
                <IconStyle id="262">
                    <color>ffff0000</color>
                    <colorMode>normal</colorMode>
                    <scale>1</scale>
                    <heading>0</heading>
                    <Icon id="263">
                        <href>http://maps.google.com/mapfiles/kml/pushpin/ylw-pushpin.png</href>
                    </Icon>
                </IconStyle>
            </Style>
            <Style id="266">
                <IconStyle id="267">
                    <color>ffff0000</color>
                    <colorMode>normal</colorMode>
                    <scale>1</scale>
                    <heading>0</heading>
                    <Icon id="268">
                        <href>http://maps.google.com/mapfiles/kml/pushpin/ylw-pushpin.png</href>
                    </Icon>
                </IconStyle>
            </Style>
            <Style id="271">
                <IconStyle id="272">
                    <color>ffff0000</color>
                    <colorMode>normal</colorMode>
                    <scale>1</scale>
                    <heading>0</heading>
                    <Icon id="273">
                        <href>http://maps.google.com/mapfiles/kml/pushpin/ylw-pushpin.png</href>
                    </Icon>
                </IconStyle>
            </Style>
            <Style id="276">
                <IconStyle id="277">
                    <color>ffff0000</color>
                    <colorMode>normal</colorMode>
                    <scale>1</scale>
                    <heading>0</heading>
                    <Icon id="278">
                        <href>http://maps.google.com/mapfiles/kml/pushpin/ylw-pushpin.png</href>
                    </Icon>
                </IconStyle>
            </Style>
            <Style id="281">
                <IconStyle id="282">
                    <color>ffff0000</color>
                    <colorMode>normal</colorMode>
                    <scale>1</scale>
                    <heading>0</heading>
                    <Icon id="283">
                        <href>http://maps.google.com/mapfiles/kml/pushpin/ylw-pushpin.png</href>
                    </Icon>
                </IconStyle>
            </Style>
            <Style id="286">
                <IconStyle id="287">
                    <color>ffff0000</color>
                    <colorMode>normal</colorMode>
                    <scale>1</scale>
                    <heading>0</heading>
                    <Icon id="288">
                        <href>http://maps.google.com/mapfiles/kml/pushpin/ylw-pushpin.png</href>
                    </Icon>
                </IconStyle>
            </Style>
            <Style id="291">
                <IconStyle id="292">
                    <color>ffff0000</color>
                    <colorMode>normal</colorMode>
                    <scale>1</scale>
                    <heading>0</heading>
                    <Icon id="293">
                        <href>http://maps.google.com/mapfiles/kml/pushpin/ylw-pushpin.png</href>
                    </Icon>
                </IconStyle>
            </Style>
            <Style id="296">
                <IconStyle id="297">
                    <color>ffff0000</color>
                    <colorMode>normal</colorMode>
                    <scale>1</scale>
                    <heading>0</heading>
                    <Icon id="298">
                        <href>http://maps.google.com/mapfiles/kml/pushpin/ylw-pushpin.png</href>
                    </Icon>
                </IconStyle>
            </Style>
            <Style id="301">
                <IconStyle id="302">
                    <color>ffff0000</color>
                    <colorMode>normal</colorMode>
                    <scale>1</scale>
                    <heading>0</heading>
                    <Icon id="303">
                        <href>http://maps.google.com/mapfiles/kml/pushpin/ylw-pushpin.png</href>
                    </Icon>
                </IconStyle>
            </Style>
            <Style id="306">
                <IconStyle id="307">
                    <color>ffff0000</color>
                    <colorMode>normal</colorMode>
                    <scale>1</scale>
                    <heading>0</heading>
                    <Icon id="308">
                        <href>http://maps.google.com/mapfiles/kml/pushpin/ylw-pushpin.png</href>
                    </Icon>
                </IconStyle>
            </Style>
            <Style id="311">
                <IconStyle id="312">
                    <color>ffff0000</color>
                    <colorMode>normal</colorMode>
                    <scale>1</scale>
                    <heading>0</heading>
                    <Icon id="313">
                        <href>http://maps.google.com/mapfiles/kml/pushpin/ylw-pushpin.png</href>
                    </Icon>
                </IconStyle>
            </Style>
            <Style id="316">
                <IconStyle id="317">
                    <color>ffff0000</color>
                    <colorMode>normal</colorMode>
                    <scale>1</scale>
                    <heading>0</heading>
                    <Icon id="318">
                        <href>http://maps.google.com/mapfiles/kml/pushpin/ylw-pushpin.png</href>
                    </Icon>
                </IconStyle>
            </Style>
            <Style id="321">
                <IconStyle id="322">
                    <color>ffff0000</color>
                    <colorMode>normal</colorMode>
                    <scale>1</scale>
                    <heading>0</heading>
                    <Icon id="323">
                        <href>http://maps.google.com/mapfiles/kml/pushpin/ylw-pushpin.png</href>
                    </Icon>
                </IconStyle>
            </Style>
            <Style id="326">
                <IconStyle id="327">
                    <color>ffff0000</color>
                    <colorMode>normal</colorMode>
                    <scale>1</scale>
                    <heading>0</heading>
                    <Icon id="328">
                        <href>http://maps.google.com/mapfiles/kml/pushpin/ylw-pushpin.png</href>
                    </Icon>
                </IconStyle>
            </Style>
            <Style id="331">
                <IconStyle id="332">
                    <color>ffff0000</color>
                    <colorMode>normal</colorMode>
                    <scale>1</scale>
                    <heading>0</heading>
                    <Icon id="333">
                        <href>http://maps.google.com/mapfiles/kml/pushpin/ylw-pushpin.png</href>
                    </Icon>
                </IconStyle>
            </Style>
            <Style id="336">
                <IconStyle id="337">
                    <color>ffff0000</color>
                    <colorMode>normal</colorMode>
                    <scale>1</scale>
                    <heading>0</heading>
                    <Icon id="338">
                        <href>http://maps.google.com/mapfiles/kml/pushpin/ylw-pushpin.png</href>
                    </Icon>
                </IconStyle>
            </Style>
            <Style id="341">
                <IconStyle id="342">
                    <color>ffff0000</color>
                    <colorMode>normal</colorMode>
                    <scale>1</scale>
                    <heading>0</heading>
                    <Icon id="343">
                        <href>http://maps.google.com/mapfiles/kml/pushpin/ylw-pushpin.png</href>
                    </Icon>
                </IconStyle>
            </Style>
            <Style id="346">
                <IconStyle id="347">
                    <color>ffff0000</color>
                    <colorMode>normal</colorMode>
                    <scale>1</scale>
                    <heading>0</heading>
                    <Icon id="348">
                        <href>http://maps.google.com/mapfiles/kml/pushpin/ylw-pushpin.png</href>
                    </Icon>
                </IconStyle>
            </Style>
            <Style id="351">
                <IconStyle id="352">
                    <color>ffff0000</color>
                    <colorMode>normal</colorMode>
                    <scale>1</scale>
                    <heading>0</heading>
                    <Icon id="353">
                        <href>http://maps.google.com/mapfiles/kml/pushpin/ylw-pushpin.png</href>
                    </Icon>
                </IconStyle>
            </Style>
            <Style id="356">
                <IconStyle id="357">
                    <color>ffff0000</color>
                    <colorMode>normal</colorMode>
                    <scale>1</scale>
                    <heading>0</heading>
                    <Icon id="358">
                        <href>http://maps.google.com/mapfiles/kml/pushpin/ylw-pushpin.png</href>
                    </Icon>
                </IconStyle>
            </Style>
            <Style id="361">
                <IconStyle id="362">
                    <color>ffff0000</color>
                    <colorMode>normal</colorMode>
                    <scale>1</scale>
                    <heading>0</heading>
                    <Icon id="363">
                        <href>http://maps.google.com/mapfiles/kml/pushpin/ylw-pushpin.png</href>
                    </Icon>
                </IconStyle>
            </Style>
            <Style id="366">
                <IconStyle id="367">
                    <color>ffff0000</color>
                    <colorMode>normal</colorMode>
                    <scale>1</scale>
                    <heading>0</heading>
                    <Icon id="368">
                        <href>http://maps.google.com/mapfiles/kml/pushpin/ylw-pushpin.png</href>
                    </Icon>
                </IconStyle>
            </Style>
            <Style id="371">
                <IconStyle id="372">
                    <color>ffff0000</color>
                    <colorMode>normal</colorMode>
                    <scale>1</scale>
                    <heading>0</heading>
                    <Icon id="373">
                        <href>http://maps.google.com/mapfiles/kml/pushpin/ylw-pushpin.png</href>
                    </Icon>
                </IconStyle>
            </Style>
            <Style id="376">
                <IconStyle id="377">
                    <color>ffff0000</color>
                    <colorMode>normal</colorMode>
                    <scale>1</scale>
                    <heading>0</heading>
                    <Icon id="378">
                        <href>http://maps.google.com/mapfiles/kml/pushpin/ylw-pushpin.png</href>
                    </Icon>
                </IconStyle>
            </Style>
            <Style id="381">
                <IconStyle id="382">
                    <color>ffff0000</color>
                    <colorMode>normal</colorMode>
                    <scale>1</scale>
                    <heading>0</heading>
                    <Icon id="383">
                        <href>http://maps.google.com/mapfiles/kml/pushpin/ylw-pushpin.png</href>
                    </Icon>
                </IconStyle>
            </Style>
            <Style id="386">
                <IconStyle id="387">
                    <color>ffff0000</color>
                    <colorMode>normal</colorMode>
                    <scale>1</scale>
                    <heading>0</heading>
                    <Icon id="388">
                        <href>http://maps.google.com/mapfiles/kml/pushpin/ylw-pushpin.png</href>
                    </Icon>
                </IconStyle>
            </Style>
            <Style id="391">
                <IconStyle id="392">
                    <color>ffff0000</color>
                    <colorMode>normal</colorMode>
                    <scale>1</scale>
                    <heading>0</heading>
                    <Icon id="393">
                        <href>http://maps.google.com/mapfiles/kml/pushpin/ylw-pushpin.png</href>
                    </Icon>
                </IconStyle>
            </Style>
            <Style id="396">
                <IconStyle id="397">
                    <color>ffff0000</color>
                    <colorMode>normal</colorMode>
                    <scale>1</scale>
                    <heading>0</heading>
                    <Icon id="398">
                        <href>http://maps.google.com/mapfiles/kml/pushpin/ylw-pushpin.png</href>
                    </Icon>
                </IconStyle>
            </Style>
            <Style id="401">
                <IconStyle id="402">
                    <color>ffff0000</color>
                    <colorMode>normal</colorMode>
                    <scale>1</scale>
                    <heading>0</heading>
                    <Icon id="403">
                        <href>http://maps.google.com/mapfiles/kml/pushpin/ylw-pushpin.png</href>
                    </Icon>
                </IconStyle>
            </Style>
            <Style id="406">
                <IconStyle id="407">
                    <color>ffff0000</color>
                    <colorMode>normal</colorMode>
                    <scale>1</scale>
                    <heading>0</heading>
                    <Icon id="408">
                        <href>http://maps.google.com/mapfiles/kml/pushpin/ylw-pushpin.png</href>
                    </Icon>
                </IconStyle>
            </Style>
            <Style id="411">
                <IconStyle id="412">
                    <color>ffff0000</color>
                    <colorMode>normal</colorMode>
                    <scale>1</scale>
                    <heading>0</heading>
                    <Icon id="413">
                        <href>http://maps.google.com/mapfiles/kml/pushpin/ylw-pushpin.png</href>
                    </Icon>
                </IconStyle>
            </Style>
            <Style id="416">
                <IconStyle id="417">
                    <color>ffff0000</color>
                    <colorMode>normal</colorMode>
                    <scale>1</scale>
                    <heading>0</heading>
                    <Icon id="418">
                        <href>http://maps.google.com/mapfiles/kml/pushpin/ylw-pushpin.png</href>
                    </Icon>
                </IconStyle>
            </Style>
            <Style id="421">
                <IconStyle id="422">
                    <color>ffff0000</color>
                    <colorMode>normal</colorMode>
                    <scale>1</scale>
                    <heading>0</heading>
                    <Icon id="423">
                        <href>http://maps.google.com/mapfiles/kml/pushpin/ylw-pushpin.png</href>
                    </Icon>
                </IconStyle>
            </Style>
            <Style id="426">
                <IconStyle id="427">
                    <color>ffff0000</color>
                    <colorMode>normal</colorMode>
                    <scale>1</scale>
                    <heading>0</heading>
                    <Icon id="428">
                        <href>http://maps.google.com/mapfiles/kml/pushpin/ylw-pushpin.png</href>
                    </Icon>
                </IconStyle>
            </Style>
            <Style id="431">
                <IconStyle id="432">
                    <color>ffff0000</color>
                    <colorMode>normal</colorMode>
                    <scale>1</scale>
                    <heading>0</heading>
                    <Icon id="433">
                        <href>http://maps.google.com/mapfiles/kml/pushpin/ylw-pushpin.png</href>
                    </Icon>
                </IconStyle>
            </Style>
            <Style id="436">
                <IconStyle id="437">
                    <color>ffff0000</color>
                    <colorMode>normal</colorMode>
                    <scale>1</scale>
                    <heading>0</heading>
                    <Icon id="438">
                        <href>http://maps.google.com/mapfiles/kml/pushpin/ylw-pushpin.png</href>
                    </Icon>
                </IconStyle>
            </Style>
            <Style id="441">
                <IconStyle id="442">
                    <color>ffff0000</color>
                    <colorMode>normal</colorMode>
                    <scale>1</scale>
                    <heading>0</heading>
                    <Icon id="443">
                        <href>http://maps.google.com/mapfiles/kml/pushpin/ylw-pushpin.png</href>
                    </Icon>
                </IconStyle>
            </Style>
            <Style id="446">
                <IconStyle id="447">
                    <color>ffff0000</color>
                    <colorMode>normal</colorMode>
                    <scale>1</scale>
                    <heading>0</heading>
                    <Icon id="448">
                        <href>http://maps.google.com/mapfiles/kml/pushpin/ylw-pushpin.png</href>
                    </Icon>
                </IconStyle>
            </Style>
            <Style id="451">
                <IconStyle id="452">
                    <color>ffff0000</color>
                    <colorMode>normal</colorMode>
                    <scale>1</scale>
                    <heading>0</heading>
                    <Icon id="453">
                        <href>http://maps.google.com/mapfiles/kml/pushpin/ylw-pushpin.png</href>
                    </Icon>
                </IconStyle>
            </Style>
            <Style id="456">
                <IconStyle id="457">
                    <color>ffff0000</color>
                    <colorMode>normal</colorMode>
                    <scale>1</scale>
                    <heading>0</heading>
                    <Icon id="458">
                        <href>http://maps.google.com/mapfiles/kml/pushpin/ylw-pushpin.png</href>
                    </Icon>
                </IconStyle>
            </Style>
            <Style id="461">
                <IconStyle id="462">
                    <color>ffff0000</color>
                    <colorMode>normal</colorMode>
                    <scale>1</scale>
                    <heading>0</heading>
                    <Icon id="463">
                        <href>http://maps.google.com/mapfiles/kml/pushpin/ylw-pushpin.png</href>
                    </Icon>
                </IconStyle>
            </Style>
            <Style id="466">
                <IconStyle id="467">
                    <color>ffff0000</color>
                    <colorMode>normal</colorMode>
                    <scale>1</scale>
                    <heading>0</heading>
                    <Icon id="468">
                        <href>http://maps.google.com/mapfiles/kml/pushpin/ylw-pushpin.png</href>
                    </Icon>
                </IconStyle>
            </Style>
            <Style id="471">
                <IconStyle id="472">
                    <color>ffff0000</color>
                    <colorMode>normal</colorMode>
                    <scale>1</scale>
                    <heading>0</heading>
                    <Icon id="473">
                        <href>http://maps.google.com/mapfiles/kml/pushpin/ylw-pushpin.png</href>
                    </Icon>
                </IconStyle>
            </Style>
            <Style id="476">
                <IconStyle id="477">
                    <color>ffff0000</color>
                    <colorMode>normal</colorMode>
                    <scale>1</scale>
                    <heading>0</heading>
                    <Icon id="478">
                        <href>http://maps.google.com/mapfiles/kml/pushpin/ylw-pushpin.png</href>
                    </Icon>
                </IconStyle>
            </Style>
            <Style id="481">
                <IconStyle id="482">
                    <color>ffff0000</color>
                    <colorMode>normal</colorMode>
                    <scale>1</scale>
                    <heading>0</heading>
                    <Icon id="483">
                        <href>http://maps.google.com/mapfiles/kml/pushpin/ylw-pushpin.png</href>
                    </Icon>
                </IconStyle>
            </Style>
            <name>FRANCISCO JAVIER TALLEDO VALDIVIEZO</name>
            <Placemark id="250">
                <name>KARLA PATRICIA GAMBOA CORREA DE RIOS</name>
                <description>Ampliación barrio verde s/n
El Alto
El Alto
Piura
Perú</description>
                <styleUrl>#251</styleUrl>
                <Point id="249">
                    <coordinates>-81.2198707,-4.2717381,0.0</coordinates>
                </Point>
            </Placemark>
            <Placemark id="255">
                <name>MIRIAM JANETH SAAVEDRA SANCHEZ</name>
                <description>A.H.SAN.MARTIN MZ.A LT.19
El Alto
El Alto
Piura
Perú</description>
                <styleUrl>#256</styleUrl>
                <Point id="254">
                    <coordinates>-81.2164821,-4.2720464,0.0</coordinates>
                </Point>
            </Placemark>
            <Placemark id="260">
                <name>CASTRO CACHAY JOSE MIGUEL</name>
                <description>CASTRO CACHAY JOSE MIGUEL
URB BOLOGNESI MZ A -12
El Alto
El Alto
Piura
Perú</description>
                <styleUrl>#261</styleUrl>
                <Point id="259">
                    <coordinates>-81.220362,-4.268132,0.0</coordinates>
                </Point>
            </Placemark>
            <Placemark id="265">
                <name>CLAVIJO SERNA LADY ELIZABETH</name>
                <description>Barrio Castro Pozo 1216-3 El Alto
El Alto
El Alto
Piura
Perú</description>
                <styleUrl>#266</styleUrl>
                <Point id="264">
                    <coordinates>-81.2145549,-4.268401,0.0</coordinates>
                </Point>
            </Placemark>
            <Placemark id="270">
                <name>JENNY MARIELA FIESTAS RUIZ</name>
                <description>av Sánchez cerro calle MZ  C1 lote 06 El ñuro
El Alto
20840El Alto
Piura
Perú</description>
                <styleUrl>#271</styleUrl>
                <Point id="269">
                    <coordinates>-81.168439,-4.217153,0.0</coordinates>
                </Point>
            </Placemark>
            <Placemark id="275">
                <name>CARMEN MARCELA PACHECO BANCAYAN</name>
                <description>calle San Pedro MZ A lote 10 el ñuro
Los Órganos
20840Los Órganos
Piura
Perú</description>
                <styleUrl>#276</styleUrl>
                <Point id="274">
                    <coordinates>-81.170857,-4.217102,0.0</coordinates>
                </Point>
            </Placemark>
            <Placemark id="280">
                <name>LORENZO TEMOCHE RUIZ</name>
                <description>MZ.E LT.12 AV VBOLOGNESI
El Alto
20831El Alto
Piura
Perú</description>
                <styleUrl>#281</styleUrl>
                <Point id="279">
                    <coordinates>-81.218173,-4.267502,0.0</coordinates>
                </Point>
            </Placemark>
            <Placemark id="285">
                <name>VILLAR DE FLORES BLANCA CELIA</name>
                <description>B.CASTRO POZO 111-6 EL ALTO
El Alto
20831El Alto
Piura
Perú</description>
                <styleUrl>#286</styleUrl>
                <Point id="284">
                    <coordinates>-81.215237,-4.269335,0.0</coordinates>
                </Point>
            </Placemark>
            <Placemark id="290">
                <name>MONTEJO CRUZ MERCEDES</name>
                <description>Castro poso MZ 11 LT 06 REF COLEGIO FELIZ SIPRIANO
El Alto
El Alto
Piura
Perú</description>
                <styleUrl>#291</styleUrl>
                <Point id="289">
                    <coordinates>-81.2149527,-4.2696614,0.0</coordinates>
                </Point>
            </Placemark>
            <Placemark id="295">
                <name>JESUS MARIA PAZ SAAVEDRA</name>
                <description>CA.TUMBES T-1 EL ALTO.
El Alto
20831El Alto
Piura
Perú</description>
                <styleUrl>#296</styleUrl>
                <Point id="294">
                    <coordinates>-81.2173296,-4.2686665,0.0</coordinates>
                </Point>
            </Placemark>
            <Placemark id="300">
                <name>PAMELA MARISOL PEÑA PINGO</name>
                <description>NUEVA ESPERANZA S/N el alto
El Alto
El Alto
Piura
Perú</description>
                <styleUrl>#301</styleUrl>
                <Point id="299">
                    <coordinates>-81.2179358,-4.2720042,0.0</coordinates>
                </Point>
            </Placemark>
            <Placemark id="305">
                <name>RUBEN ALAIN ARISMENDIZ CORREA</name>
                <description>Barrio Piura 1530-2
El Alto
Talara
Piura
Perú</description>
                <styleUrl>#306</styleUrl>
                <Point id="304">
                    <coordinates>-81.216474,-4.2740472,0.0</coordinates>
                </Point>
            </Placemark>
            <Placemark id="310">
                <name>JUDITH PAMELA MORE VALLADARES</name>
                <description>AA.HH SAN MARTIN MZ. E LT 7 EL ALTO Ref.plataforma deportiva barrio Piura
El Alto
El Alto
Piura
Perú</description>
                <styleUrl>#311</styleUrl>
                <Point id="309">
                    <coordinates>-81.216248,-4.2727208,0.0</coordinates>
                </Point>
            </Placemark>
            <Placemark id="315">
                <name>CECILIA MAGALY QUEREVALU TUME</name>
                <description>San Pedro D-5 El Alto
El Alto
El Alto
Piura
Perú</description>
                <styleUrl>#316</styleUrl>
                <Point id="314">
                    <coordinates>-81.2142196,-4.2718698,0.0</coordinates>
                </Point>
            </Placemark>
            <Placemark id="320">
                <name>ANTONIO TRUJILLO SANCHEZ</name>
                <description>LUCIANO CASTILLO A-05
El Alto
El Alto
Piura
Perú</description>
                <styleUrl>#321</styleUrl>
                <Point id="319">
                    <coordinates>-81.2148409,-4.2699182,0.0</coordinates>
                </Point>
            </Placemark>
            <Placemark id="325">
                <name>JUANITA DE JESUS GAMBOA RISCO</name>
                <description>AAHH Luciano Castillo - B12
El Alto
20831El Alto
Piura
Perú</description>
                <styleUrl>#326</styleUrl>
                <Point id="324">
                    <coordinates>-81.2133315,-4.269807,0.0</coordinates>
                </Point>
            </Placemark>
            <Placemark id="330">
                <name>PINZON GONZALES ANNY</name>
                <description>AV.LUCANO CASTLLO MZ.A LT.21
El Alto
El Alto
Piura
Perú</description>
                <styleUrl>#331</styleUrl>
                <Point id="329">
                    <coordinates>-81.2131325,-4.2691798,0.0</coordinates>
                </Point>
            </Placemark>
            <Placemark id="335">
                <name>CELINDA HUAMAN ALBERCA</name>
                <description>CA.MELQUIADES CASTI.MZ.A LT.38
El Alto
El Alto
Piura
Perú</description>
                <styleUrl>#336</styleUrl>
                <Point id="334">
                    <coordinates>-81.2120372,-4.2679111,0.0</coordinates>
                </Point>
            </Placemark>
            <Placemark id="340">
                <name>CHUNGA ESPINOZA MARIA MAGDALENA</name>
                <description>BARRIO CASTRO POZO 1294-7 EL ALTO
El Alto
El Alto
Piura
Perú</description>
                <styleUrl>#341</styleUrl>
                <Point id="339">
                    <coordinates>-81.2129683,-4.2675056,0.0</coordinates>
                </Point>
            </Placemark>
            <Placemark id="345">
                <name>CLAVIJO SERNA LADY ELIZABETH</name>
                <description>Barrio Castro Pozo 1216-3 El Alto
El Alto
El Alto
Piura
Perú</description>
                <styleUrl>#346</styleUrl>
                <Point id="344">
                    <coordinates>-81.2145549,-4.268401,0.0</coordinates>
                </Point>
            </Placemark>
            <Placemark id="350">
                <name>MARIA DE LOS ANGELES CHUZON BACILIO DE SALDARRIAGA</name>
                <description>BARRIO BLANCO 1492-1.
El Alto
20831El Alto
Piura
Perú</description>
                <styleUrl>#351</styleUrl>
                <Point id="349">
                    <coordinates>-81.2213037,-4.2712192,0.0</coordinates>
                </Point>
            </Placemark>
            <Placemark id="355">
                <name>BETSABE SALLAGO IZQUIERDO</name>
                <description>Nuevo mercado pto 6 el alto
El Alto
El Alto
Piura
Perú</description>
                <styleUrl>#356</styleUrl>
                <Point id="354">
                    <coordinates>-81.2149485,-4.2674658,0.0</coordinates>
                </Point>
            </Placemark>
            <Placemark id="360">
                <name>LILIANA NOEMI REGALADO VALLEJO</name>
                <description>Nuevo mercado PT 1
El Alto
El Alto
Piura
Perú</description>
                <styleUrl>#361</styleUrl>
                <Point id="359">
                    <coordinates>-81.2148904,-4.2672496,0.0</coordinates>
                </Point>
            </Placemark>
            <Placemark id="365">
                <name>MARIA ARACELI JULIAN SANCHEZ</name>
                <description>Estánd 11 comercial Jimy y yasumy Mercado el alto
El Alto
El Alto
Piura
Perú</description>
                <styleUrl>#366</styleUrl>
                <Point id="364">
                    <coordinates>-81.2150067,-4.2672615,0.0</coordinates>
                </Point>
            </Placemark>
            <Placemark id="370">
                <name>ANDRES IMAN VILCHEZ</name>
                <description>Nuevo mercado municipal el alto puesto 9
El Alto
20831El Alto
Piura
Perú</description>
                <styleUrl>#371</styleUrl>
                <Point id="369">
                    <coordinates>-81.2146848,-4.267126,0.0</coordinates>
                </Point>
            </Placemark>
            <Placemark id="375">
                <name>MARIANELA SANCHEZ CORNEJO</name>
                <description>San pedro lote 13
El Alto
El Alto
Piura
Perú</description>
                <styleUrl>#376</styleUrl>
                <Point id="374">
                    <coordinates>-81.2146818,-4.2671185,0.0</coordinates>
                </Point>
            </Placemark>
            <Placemark id="380">
                <name>LUCY PAOLA ECHE BECERRA</name>
                <description>Av. Bolognesi  C-02
El Alto
El Alto
Piura
Perú</description>
                <styleUrl>#381</styleUrl>
                <Point id="379">
                    <coordinates>-81.2187176,-4.2677892,0.0</coordinates>
                </Point>
            </Placemark>
            <Placemark id="385">
                <name>AGURTO ALEMAN BENJAMIN ARTURO</name>
                <description>

El Alto

Perú</description>
                <styleUrl>#386</styleUrl>
                <Point id="384">
                    <coordinates>-81.2201062,-4.2680605,0.0</coordinates>
                </Point>
            </Placemark>
            <Placemark id="390">
                <name>FLOR GASDALI ARRASCUE VALLEJOS</name>
                <description>Barrio verde Mz B lote 1 El Alto Talara
El Alto
El Alto
Piura
Perú</description>
                <styleUrl>#391</styleUrl>
                <Point id="389">
                    <coordinates>-81.2205588,-4.2692191,0.0</coordinates>
                </Point>
            </Placemark>
            <Placemark id="395">
                <name>JOSE SERNA SANJINEZ</name>
                <description>MCDO.CENTRAL S/N EL ALTO
El Alto
El Alto
Piura
Perú</description>
                <styleUrl>#396</styleUrl>
                <Point id="394">
                    <coordinates>-81.2213631,-4.2685788,0.0</coordinates>
                </Point>
            </Placemark>
            <Placemark id="400">
                <name>CASTRO CACHAY JOSE MIGUEL</name>
                <description>CASTRO CACHAY JOSE MIGUEL
URB BOLOGNESI MZ A -12
El Alto
El Alto
Piura
Perú</description>
                <styleUrl>#401</styleUrl>
                <Point id="399">
                    <coordinates>-81.220362,-4.268132,0.0</coordinates>
                </Point>
            </Placemark>
            <Placemark id="405">
                <name>BODEGA ANITA &amp; HIJAS SOCIEDAD ANONIMA CERRADA</name>
                <description>AV. AV. BOLOGNESI S/N KM. 0 LOTE. 0 OTR.  AVENIDA BOLOGNESI
El Alto
200702El Alto
Piura
Perú</description>
                <styleUrl>#406</styleUrl>
                <Point id="404">
                    <coordinates>-81.2201874,-4.2680145,0.0</coordinates>
                </Point>
            </Placemark>
            <Placemark id="410">
                <name>NANCY SOLEDAD TIMANA VALLADARES</name>
                <description>Av Bolognesi a 11 Ref frente al eppo
El Alto
El Alto
Piura
Perú</description>
                <styleUrl>#411</styleUrl>
                <Point id="409">
                    <coordinates>-81.2184295,-4.2674726,0.0</coordinates>
                </Point>
            </Placemark>
            <Placemark id="415">
                <name>JOAQUIN ABELARDO VARGAS TIMANA</name>
                <description>Av.bolognesi E13, frente a eppo El alto
El Alto
Tumbes
Piura
Perú</description>
                <styleUrl>#416</styleUrl>
                <Point id="414">
                    <coordinates>-81.218499,-4.267502,0.0</coordinates>
                </Point>
            </Placemark>
            <Placemark id="420">
                <name>MIÑOPE CHINGAY LILIANA MARIBEL</name>
                <description>PSTO NRO. 19-B EXTERIOR MRCDO MOD -
Talara
Talara
Piura
Perú</description>
                <styleUrl>#421</styleUrl>
                <Point id="419">
                    <coordinates>-81.2671518,-4.5839913,0.0</coordinates>
                </Point>
            </Placemark>
            <Placemark id="425">
                <name>LEYNI VILLEGAS LAZO</name>
                <description>AA HH eudelio muñoz MZ A LT 8 el alto
El Alto
El Alto
Piura
Perú</description>
                <styleUrl>#426</styleUrl>
                <Point id="424">
                    <coordinates>-81.2187019,-4.2653635,0.0</coordinates>
                </Point>
            </Placemark>
            <Placemark id="430">
                <name>VARGAS TIMANA DE RICOPA EVELYN FABIOLA</name>
                <description>VARGAS TIMANA DE RICOPA EVELYN FABIOLA
Av Bolognesi ref eppo
El Alto
El Alto
Piura
Perú</description>
                <styleUrl>#431</styleUrl>
                <Point id="429">
                    <coordinates>-81.2183351,-4.2673032,0.0</coordinates>
                </Point>
            </Placemark>
            <Placemark id="435">
                <name>MARLENE SANTOS NIZAMA</name>
                <description>MZ E lt 4 señor de los milagros
El Alto
El Alto
Piura
Perú</description>
                <styleUrl>#436</styleUrl>
                <Point id="434">
                    <coordinates>-81.2176788,-4.2644502,0.0</coordinates>
                </Point>
            </Placemark>
            <Placemark id="440">
                <name>MARIA MILAGROS AGUILAR SANTUR</name>
                <description>EL  VOLANTE 1473-4 EL ALTO
El Alto
El Alto
Piura
Perú</description>
                <styleUrl>#441</styleUrl>
                <Point id="439">
                    <coordinates>-81.2158754,-4.2645467,0.0</coordinates>
                </Point>
            </Placemark>
            <Placemark id="445">
                <name>ATOCHE GARCIA RAMONA</name>
                <description>ZN.INDUSTRIAL S/N EL ALTO
El Alto
El Alto
Piura
Perú</description>
                <styleUrl>#446</styleUrl>
                <Point id="444">
                    <coordinates>-81.2064902,-4.2677087,0.0</coordinates>
                </Point>
            </Placemark>
            <Placemark id="450">
                <name>ANA ALMENDRA TERRONES CAMACHO</name>
                <description>LAS MERCEDES MZ.D LT2 EL ALTO
El Alto
El Alto
Piura
Perú</description>
                <styleUrl>#451</styleUrl>
                <Point id="449">
                    <coordinates>-81.2155518,-4.2622524,0.0</coordinates>
                </Point>
            </Placemark>
            <Placemark id="455">
                <name>BENAVIDES LOPEZ JUAN HENRY</name>
                <description>MZ E lt 17 A.H Las Mercedes
El Alto
El Alto
Piura
Perú</description>
                <styleUrl>#456</styleUrl>
                <Point id="454">
                    <coordinates>-81.2156451,-4.26233,0.0</coordinates>
                </Point>
            </Placemark>
            <Placemark id="460">
                <name>DE HUANCA EDITH ELIZABETH QUIROGA ORTIZ</name>
                <description>Las Mercedes MZ D LT 22
El Alto
El Alto
Piura
Perú</description>
                <styleUrl>#461</styleUrl>
                <Point id="459">
                    <coordinates>-81.2162933,-4.2620702,0.0</coordinates>
                </Point>
            </Placemark>
            <Placemark id="465">
                <name>YOVANY MARIBEL AGIP TIMANA</name>
                <description>Av Bolognesi zona industrial S-21 El Alto
El Alto

Piura
Perú</description>
                <styleUrl>#466</styleUrl>
                <Point id="464">
                    <coordinates>-81.211434,-4.26668,0.0</coordinates>
                </Point>
            </Placemark>
            <Placemark id="470">
                <name>HERAYDA PURIZACA GUERRERO</name>
                <description>Barrio castro pozo 1294 _ 1
El Alto
El Alto
Piura
Perú</description>
                <styleUrl>#471</styleUrl>
                <Point id="469">
                    <coordinates>-81.2129259,-4.2673297,0.0</coordinates>
                </Point>
            </Placemark>
            <Placemark id="475">
                <name>LIMA YAHUANA DOMINGA</name>
                <description>Zona Industrial sn
El Alto
Talara
Piura
Perú</description>
                <styleUrl>#476</styleUrl>
                <Point id="474">
                    <coordinates>-81.2074596,-4.2682242,0.0</coordinates>
                </Point>
            </Placemark>
            <Placemark id="480">
                <name>BAZAN ROJAS RONALD IVAN</name>
                <description>Barrio talarita - 01
El Alto
El Alto
Piura
Perú</description>
                <styleUrl>#481</styleUrl>
                <Point id="479">
                    <coordinates>-81.2184127,-4.2672966,0.0</coordinates>
                </Point>
            </Placemark>
        </Folder>
    </Document>
</kml>
