<?xml version="1.0" encoding="UTF-8"?>
<kml xmlns="http://www.opengis.net/kml/2.2" xmlns:gx="http://www.google.com/kml/ext/2.2">
    <Document id="1209">
        <Folder id="1210">
            <Style id="1213">
                <IconStyle id="1214">
                    <color>ff0000ff</color>
                    <colorMode>normal</colorMode>
                    <scale>1</scale>
                    <heading>0</heading>
                    <Icon id="1215">
                        <href>http://maps.google.com/mapfiles/kml/pushpin/ylw-pushpin.png</href>
                    </Icon>
                </IconStyle>
            </Style>
            <Style id="1218">
                <IconStyle id="1219">
                    <color>ff0000ff</color>
                    <colorMode>normal</colorMode>
                    <scale>1</scale>
                    <heading>0</heading>
                    <Icon id="1220">
                        <href>http://maps.google.com/mapfiles/kml/pushpin/ylw-pushpin.png</href>
                    </Icon>
                </IconStyle>
            </Style>
            <Style id="1223">
                <IconStyle id="1224">
                    <color>ff0000ff</color>
                    <colorMode>normal</colorMode>
                    <scale>1</scale>
                    <heading>0</heading>
                    <Icon id="1225">
                        <href>http://maps.google.com/mapfiles/kml/pushpin/ylw-pushpin.png</href>
                    </Icon>
                </IconStyle>
            </Style>
            <Style id="1228">
                <IconStyle id="1229">
                    <color>ff0000ff</color>
                    <colorMode>normal</colorMode>
                    <scale>1</scale>
                    <heading>0</heading>
                    <Icon id="1230">
                        <href>http://maps.google.com/mapfiles/kml/pushpin/ylw-pushpin.png</href>
                    </Icon>
                </IconStyle>
            </Style>
            <Style id="1233">
                <IconStyle id="1234">
                    <color>ff0000ff</color>
                    <colorMode>normal</colorMode>
                    <scale>1</scale>
                    <heading>0</heading>
                    <Icon id="1235">
                        <href>http://maps.google.com/mapfiles/kml/pushpin/ylw-pushpin.png</href>
                    </Icon>
                </IconStyle>
            </Style>
            <Style id="1238">
                <IconStyle id="1239">
                    <color>ff0000ff</color>
                    <colorMode>normal</colorMode>
                    <scale>1</scale>
                    <heading>0</heading>
                    <Icon id="1240">
                        <href>http://maps.google.com/mapfiles/kml/pushpin/ylw-pushpin.png</href>
                    </Icon>
                </IconStyle>
            </Style>
            <Style id="1243">
                <IconStyle id="1244">
                    <color>ff0000ff</color>
                    <colorMode>normal</colorMode>
                    <scale>1</scale>
                    <heading>0</heading>
                    <Icon id="1245">
                        <href>http://maps.google.com/mapfiles/kml/pushpin/ylw-pushpin.png</href>
                    </Icon>
                </IconStyle>
            </Style>
            <Style id="1248">
                <IconStyle id="1249">
                    <color>ff0000ff</color>
                    <colorMode>normal</colorMode>
                    <scale>1</scale>
                    <heading>0</heading>
                    <Icon id="1250">
                        <href>http://maps.google.com/mapfiles/kml/pushpin/ylw-pushpin.png</href>
                    </Icon>
                </IconStyle>
            </Style>
            <Style id="1253">
                <IconStyle id="1254">
                    <color>ff0000ff</color>
                    <colorMode>normal</colorMode>
                    <scale>1</scale>
                    <heading>0</heading>
                    <Icon id="1255">
                        <href>http://maps.google.com/mapfiles/kml/pushpin/ylw-pushpin.png</href>
                    </Icon>
                </IconStyle>
            </Style>
            <Style id="1258">
                <IconStyle id="1259">
                    <color>ff0000ff</color>
                    <colorMode>normal</colorMode>
                    <scale>1</scale>
                    <heading>0</heading>
                    <Icon id="1260">
                        <href>http://maps.google.com/mapfiles/kml/pushpin/ylw-pushpin.png</href>
                    </Icon>
                </IconStyle>
            </Style>
            <Style id="1263">
                <IconStyle id="1264">
                    <color>ff0000ff</color>
                    <colorMode>normal</colorMode>
                    <scale>1</scale>
                    <heading>0</heading>
                    <Icon id="1265">
                        <href>http://maps.google.com/mapfiles/kml/pushpin/ylw-pushpin.png</href>
                    </Icon>
                </IconStyle>
            </Style>
            <Style id="1268">
                <IconStyle id="1269">
                    <color>ff0000ff</color>
                    <colorMode>normal</colorMode>
                    <scale>1</scale>
                    <heading>0</heading>
                    <Icon id="1270">
                        <href>http://maps.google.com/mapfiles/kml/pushpin/ylw-pushpin.png</href>
                    </Icon>
                </IconStyle>
            </Style>
            <Style id="1273">
                <IconStyle id="1274">
                    <color>ff0000ff</color>
                    <colorMode>normal</colorMode>
                    <scale>1</scale>
                    <heading>0</heading>
                    <Icon id="1275">
                        <href>http://maps.google.com/mapfiles/kml/pushpin/ylw-pushpin.png</href>
                    </Icon>
                </IconStyle>
            </Style>
            <Style id="1278">
                <IconStyle id="1279">
                    <color>ff0000ff</color>
                    <colorMode>normal</colorMode>
                    <scale>1</scale>
                    <heading>0</heading>
                    <Icon id="1280">
                        <href>http://maps.google.com/mapfiles/kml/pushpin/ylw-pushpin.png</href>
                    </Icon>
                </IconStyle>
            </Style>
            <Style id="1283">
                <IconStyle id="1284">
                    <color>ff0000ff</color>
                    <colorMode>normal</colorMode>
                    <scale>1</scale>
                    <heading>0</heading>
                    <Icon id="1285">
                        <href>http://maps.google.com/mapfiles/kml/pushpin/ylw-pushpin.png</href>
                    </Icon>
                </IconStyle>
            </Style>
            <Style id="1288">
                <IconStyle id="1289">
                    <color>ff0000ff</color>
                    <colorMode>normal</colorMode>
                    <scale>1</scale>
                    <heading>0</heading>
                    <Icon id="1290">
                        <href>http://maps.google.com/mapfiles/kml/pushpin/ylw-pushpin.png</href>
                    </Icon>
                </IconStyle>
            </Style>
            <Style id="1293">
                <IconStyle id="1294">
                    <color>ff0000ff</color>
                    <colorMode>normal</colorMode>
                    <scale>1</scale>
                    <heading>0</heading>
                    <Icon id="1295">
                        <href>http://maps.google.com/mapfiles/kml/pushpin/ylw-pushpin.png</href>
                    </Icon>
                </IconStyle>
            </Style>
            <Style id="1298">
                <IconStyle id="1299">
                    <color>ff0000ff</color>
                    <colorMode>normal</colorMode>
                    <scale>1</scale>
                    <heading>0</heading>
                    <Icon id="1300">
                        <href>http://maps.google.com/mapfiles/kml/pushpin/ylw-pushpin.png</href>
                    </Icon>
                </IconStyle>
            </Style>
            <Style id="1303">
                <IconStyle id="1304">
                    <color>ff0000ff</color>
                    <colorMode>normal</colorMode>
                    <scale>1</scale>
                    <heading>0</heading>
                    <Icon id="1305">
                        <href>http://maps.google.com/mapfiles/kml/pushpin/ylw-pushpin.png</href>
                    </Icon>
                </IconStyle>
            </Style>
            <name>BRAYAN ALEXANDER IPANAQUE CASTRO</name>
            <Placemark id="1212">
                <name>INVERSIONES LIM &amp; ASH E.I.R.L.</name>
                <description>INVERSIONES LIM &amp; ASH E.I.R.L.
AV. CAR. PANAMERICANA NRO. S/N CAS. EL PARTIDOR
Las Lomas
200111
Piura
Perú</description>
                <styleUrl>#1213</styleUrl>
                <Point id="1211">
                    <coordinates>-80.2809233,-4.7366355,0.0</coordinates>
                </Point>
            </Placemark>
            <Placemark id="1217">
                <name>ALCIRA JUDITH GUTIERREZ ROA</name>
                <description>Av el partidor (costado del puente)
Las Lomas
Piura
Piura
Perú</description>
                <styleUrl>#1218</styleUrl>
                <Point id="1216">
                    <coordinates>-80.2800533,-4.7365217,0.0</coordinates>
                </Point>
            </Placemark>
            <Placemark id="1222">
                <name>RUFINO VEGA MERCEDES DEL PILAR</name>
                <description>RUFINO VEGA MERCEDES DEL PILAR
C P CRUCETA MZ A LT 05
Tambogrande
Piura
Piura
Perú</description>
                <styleUrl>#1223</styleUrl>
                <Point id="1221">
                    <coordinates>-80.2707183,-4.8379367,0.0</coordinates>
                </Point>
            </Placemark>
            <Placemark id="1227">
                <name>FELICIA SERNAQUE DE MARQUEZ</name>
                <description>AH.SANCHE CERRO/CIRCUNVALACION MZ-A CRUCETA
Tambogrande
Piura
Piura
Perú</description>
                <styleUrl>#1228</styleUrl>
                <Point id="1226">
                    <coordinates>-80.265726,-4.8349538,0.0</coordinates>
                </Point>
            </Placemark>
            <Placemark id="1232">
                <name>CYNTIA YULIANA SANTIN ESCOBAR</name>
                <description>CA. SAN ISIDRO MZ B1 LT 06 CRUCETA
Tambogrande
Piura
Piura
Perú</description>
                <styleUrl>#1233</styleUrl>
                <Point id="1231">
                    <coordinates>-80.26516,-4.8338369,0.0</coordinates>
                </Point>
            </Placemark>
            <Placemark id="1237">
                <name>DALESI IRINA GARCIA GORDILLO</name>
                <description>Av Jesus Maria m S 1 lote 2 - CRUCETA
Tambogrande
Piura
Piura
Perú</description>
                <styleUrl>#1238</styleUrl>
                <Point id="1236">
                    <coordinates>-80.2656498,-4.8318641,0.0</coordinates>
                </Point>
            </Placemark>
            <Placemark id="1242">
                <name>VICENTE MARQUEZ SERNAQUE</name>
                <description>AV JESÚS MARIA S/N CRUCETA
Tambogrande
Piura
Piura
Perú</description>
                <styleUrl>#1243</styleUrl>
                <Point id="1241">
                    <coordinates>-80.2657443,-4.8316595,0.0</coordinates>
                </Point>
            </Placemark>
            <Placemark id="1247">
                <name>SANTOS MERCEDES HUMBO DOMINGUEZ</name>
                <description>Cruceta
Tambogrande
Piura
Piura
Perú</description>
                <styleUrl>#1248</styleUrl>
                <Point id="1246">
                    <coordinates>-80.2676263,-4.8359713,0.0</coordinates>
                </Point>
            </Placemark>
            <Placemark id="1252">
                <name>FRANCISCA CASTILLO DE ALVARADO</name>
                <description>AV PRINCIPAL  JESUS MARIA S/N CRUCETA
Tambogrande
Piura
Piura
Perú</description>
                <styleUrl>#1253</styleUrl>
                <Point id="1251">
                    <coordinates>-80.26825,-4.83579,0.0</coordinates>
                </Point>
            </Placemark>
            <Placemark id="1257">
                <name>ROSA MONTERO ALAMA</name>
                <description>CA f BELAUNDE CRUCETA
Tambogrande

Piura
Perú</description>
                <styleUrl>#1258</styleUrl>
                <Point id="1256">
                    <coordinates>-80.2679476,-4.8367265,0.0</coordinates>
                </Point>
            </Placemark>
            <Placemark id="1262">
                <name>VANESA GONZALES QUISPE</name>
                <description>Cruceta - calle los jasminez Mz J lote 9
Tambogrande
Piura
Piura
Perú</description>
                <styleUrl>#1263</styleUrl>
                <Point id="1261">
                    <coordinates>-80.2670598,-4.8375919,0.0</coordinates>
                </Point>
            </Placemark>
            <Placemark id="1267">
                <name>DANIELA AQUILA CONDOR CAQUI</name>
                <description>AV REFORMA A CRUCETA CENTRO S//N FRENTE AL PARQUE
Tambogrande
Piura
Piura
Perú</description>
                <styleUrl>#1268</styleUrl>
                <Point id="1266">
                    <coordinates>-80.2683742,-4.8383005,0.0</coordinates>
                </Point>
            </Placemark>
            <Placemark id="1272">
                <name>LADIS AURORA CORDOVA TORRES</name>
                <description>AV REFORMA AGRARIA CERCA AL PARQUE NRO 491URB.CRUCETA
Tambogrande
Piura
Piura
Perú</description>
                <styleUrl>#1273</styleUrl>
                <Point id="1271">
                    <coordinates>-80.2688022,-4.8385744,0.0</coordinates>
                </Point>
            </Placemark>
            <Placemark id="1277">
                <name>JEYSY DANITZA GARCIA LOAYZA</name>
                <description>AV.PRINCIPAL PSTO.35 PLATAFORMA - CRUCETA
Tambogrande
Piura
Piura
Perú</description>
                <styleUrl>#1278</styleUrl>
                <Point id="1276">
                    <coordinates>-80.2693774,-4.838069,0.0</coordinates>
                </Point>
            </Placemark>
            <Placemark id="1282">
                <name>HUMBERTO BENJAMIN MANRIQUE VELA</name>
                <description>AV PRINCIPAL LAS LOMAS
Las Lomas
Piura
Piura
Perú</description>
                <styleUrl>#1283</styleUrl>
                <Point id="1281">
                    <coordinates>-80.2442079,-4.665045,0.0</coordinates>
                </Point>
            </Placemark>
            <Placemark id="1287">
                <name>INVERSIONES LIM &amp; ASH E.I.R.L.</name>
                <description>INVERSIONES LIM &amp; ASH E.I.R.L.
AV. CAR. PANAMERICANA NRO. S/N CAS. EL PARTIDOR
Las Lomas
200111
Piura
Perú</description>
                <styleUrl>#1288</styleUrl>
                <Point id="1286">
                    <coordinates>-80.2809233,-4.7366355,0.0</coordinates>
                </Point>
            </Placemark>
            <Placemark id="1292">
                <name>MILAGROS LOURDES FERNANDEZ CULQUI</name>
                <description>PANAMERICANA
Las Lomas
Piura
Piura
Perú</description>
                <styleUrl>#1293</styleUrl>
                <Point id="1291">
                    <coordinates>-80.2807685,-4.7367001,0.0</coordinates>
                </Point>
            </Placemark>
            <Placemark id="1297">
                <name>ANA BENITES CASTILLO</name>
                <description>Partidor - sn - costado del paradero
Las Lomas
Piura
Piura
Perú</description>
                <styleUrl>#1298</styleUrl>
                <Point id="1296">
                    <coordinates>-80.2804178,-4.7365221,0.0</coordinates>
                </Point>
            </Placemark>
            <Placemark id="1302">
                <name>EDITA SUGEY RUGEL CAMPOS</name>
                <description>Av partidor - Partidor
Las Lomas
Piura
Piura
Perú</description>
                <styleUrl>#1303</styleUrl>
                <Point id="1301">
                    <coordinates>-80.2799936,-4.7369224,0.0</coordinates>
                </Point>
            </Placemark>
        </Folder>
        <Folder id="1306">
            <Style id="1309">
                <IconStyle id="1310">
                    <color>ffff0000</color>
                    <colorMode>normal</colorMode>
                    <scale>1</scale>
                    <heading>0</heading>
                    <Icon id="1311">
                        <href>http://maps.google.com/mapfiles/kml/pushpin/ylw-pushpin.png</href>
                    </Icon>
                </IconStyle>
            </Style>
            <Style id="1314">
                <IconStyle id="1315">
                    <color>ffff0000</color>
                    <colorMode>normal</colorMode>
                    <scale>1</scale>
                    <heading>0</heading>
                    <Icon id="1316">
                        <href>http://maps.google.com/mapfiles/kml/pushpin/ylw-pushpin.png</href>
                    </Icon>
                </IconStyle>
            </Style>
            <Style id="1319">
                <IconStyle id="1320">
                    <color>ffff0000</color>
                    <colorMode>normal</colorMode>
                    <scale>1</scale>
                    <heading>0</heading>
                    <Icon id="1321">
                        <href>http://maps.google.com/mapfiles/kml/pushpin/ylw-pushpin.png</href>
                    </Icon>
                </IconStyle>
            </Style>
            <Style id="1324">
                <IconStyle id="1325">
                    <color>ffff0000</color>
                    <colorMode>normal</colorMode>
                    <scale>1</scale>
                    <heading>0</heading>
                    <Icon id="1326">
                        <href>http://maps.google.com/mapfiles/kml/pushpin/ylw-pushpin.png</href>
                    </Icon>
                </IconStyle>
            </Style>
            <Style id="1329">
                <IconStyle id="1330">
                    <color>ffff0000</color>
                    <colorMode>normal</colorMode>
                    <scale>1</scale>
                    <heading>0</heading>
                    <Icon id="1331">
                        <href>http://maps.google.com/mapfiles/kml/pushpin/ylw-pushpin.png</href>
                    </Icon>
                </IconStyle>
            </Style>
            <Style id="1334">
                <IconStyle id="1335">
                    <color>ffff0000</color>
                    <colorMode>normal</colorMode>
                    <scale>1</scale>
                    <heading>0</heading>
                    <Icon id="1336">
                        <href>http://maps.google.com/mapfiles/kml/pushpin/ylw-pushpin.png</href>
                    </Icon>
                </IconStyle>
            </Style>
            <Style id="1339">
                <IconStyle id="1340">
                    <color>ffff0000</color>
                    <colorMode>normal</colorMode>
                    <scale>1</scale>
                    <heading>0</heading>
                    <Icon id="1341">
                        <href>http://maps.google.com/mapfiles/kml/pushpin/ylw-pushpin.png</href>
                    </Icon>
                </IconStyle>
            </Style>
            <Style id="1344">
                <IconStyle id="1345">
                    <color>ffff0000</color>
                    <colorMode>normal</colorMode>
                    <scale>1</scale>
                    <heading>0</heading>
                    <Icon id="1346">
                        <href>http://maps.google.com/mapfiles/kml/pushpin/ylw-pushpin.png</href>
                    </Icon>
                </IconStyle>
            </Style>
            <name>EDDINSON CECILIO DIOSES SAAVEDRA</name>
            <Placemark id="1308">
                <name>ROY GERARDO FLORES GASTELU</name>
                <description>Mercado de Tambogrande
Tambogrande

Piura
Perú</description>
                <styleUrl>#1309</styleUrl>
                <Point id="1307">
                    <coordinates>-80.3410998,-4.9241141,0.0</coordinates>
                </Point>
            </Placemark>
            <Placemark id="1313">
                <name>ALEJANDRINA NIMA NIMA</name>
                <description>PSTO.1 MCDO.MODELO.TAMBOGRANDE
Tambogrande
Piura
Piura
Perú</description>
                <styleUrl>#1314</styleUrl>
                <Point id="1312">
                    <coordinates>-80.3405172,-4.9253984,0.0</coordinates>
                </Point>
            </Placemark>
            <Placemark id="1318">
                <name>ALEJANDRINA NIMA NIMA</name>
                <description>PSTO.1 MCDO.MODELO.TAMBOGRANDE
Tambogrande
Piura
Piura
Perú</description>
                <styleUrl>#1319</styleUrl>
                <Point id="1317">
                    <coordinates>-80.3405172,-4.9253984,0.0</coordinates>
                </Point>
            </Placemark>
            <Placemark id="1323">
                <name>SILVA SILVA ANGELITA</name>
                <description>MERCADO TAMBOGRANDE 
Tambogrande
Piura
Piura
Perú</description>
                <styleUrl>#1324</styleUrl>
                <Point id="1322">
                    <coordinates>-80.3401599,-4.9259215,0.0</coordinates>
                </Point>
            </Placemark>
            <Placemark id="1328">
                <name>CALLE CASTILLO JESUS ELOY</name>
                <description>Mercado mayorista tambogrande
Tambogrande
Piura
Piura
Perú</description>
                <styleUrl>#1329</styleUrl>
                <Point id="1327">
                    <coordinates>-80.3410107,-4.9247925,0.0</coordinates>
                </Point>
            </Placemark>
            <Placemark id="1333">
                <name>ANGELITA DEL PILAR SILUPU VILLEGAS</name>
                <description>Mercado Central puesto 82
Tambogrande
Piura
Piura
Perú</description>
                <styleUrl>#1334</styleUrl>
                <Point id="1332">
                    <coordinates>-80.3409305,-4.924254,0.0</coordinates>
                </Point>
            </Placemark>
            <Placemark id="1338">
                <name>JOSE CRISANTO JUAREZ</name>
                <description>Mercado central puesto 5
Tambogrande
Piura
Piura
Perú</description>
                <styleUrl>#1339</styleUrl>
                <Point id="1337">
                    <coordinates>-80.3401014,-4.9251004,0.0</coordinates>
                </Point>
            </Placemark>
            <Placemark id="1343">
                <name>SMART ELITE E.I.R.L.</name>
                <description>CAL.LOS FRESNOS NRO. SN PUEBLO TAMBOGRANDE
Tambogrande

Piura
Perú</description>
                <styleUrl>#1344</styleUrl>
                <Point id="1342">
                    <coordinates>-80.3456633,-4.935716,0.0</coordinates>
                </Point>
            </Placemark>
        </Folder>
    </Document>
</kml>
