<?xml version="1.0" encoding="UTF-8"?>
<kml xmlns="http://www.opengis.net/kml/2.2" xmlns:gx="http://www.google.com/kml/ext/2.2">
    <Document id="2138">
        <Folder id="2139">
            <Style id="2142">
                <IconStyle id="2143">
                    <color>ff0000ff</color>
                    <colorMode>normal</colorMode>
                    <scale>1</scale>
                    <heading>0</heading>
                    <Icon id="2144">
                        <href>http://maps.google.com/mapfiles/kml/pushpin/ylw-pushpin.png</href>
                    </Icon>
                </IconStyle>
            </Style>
            <Style id="2147">
                <IconStyle id="2148">
                    <color>ff0000ff</color>
                    <colorMode>normal</colorMode>
                    <scale>1</scale>
                    <heading>0</heading>
                    <Icon id="2149">
                        <href>http://maps.google.com/mapfiles/kml/pushpin/ylw-pushpin.png</href>
                    </Icon>
                </IconStyle>
            </Style>
            <Style id="2152">
                <IconStyle id="2153">
                    <color>ff0000ff</color>
                    <colorMode>normal</colorMode>
                    <scale>1</scale>
                    <heading>0</heading>
                    <Icon id="2154">
                        <href>http://maps.google.com/mapfiles/kml/pushpin/ylw-pushpin.png</href>
                    </Icon>
                </IconStyle>
            </Style>
            <Style id="2157">
                <IconStyle id="2158">
                    <color>ff0000ff</color>
                    <colorMode>normal</colorMode>
                    <scale>1</scale>
                    <heading>0</heading>
                    <Icon id="2159">
                        <href>http://maps.google.com/mapfiles/kml/pushpin/ylw-pushpin.png</href>
                    </Icon>
                </IconStyle>
            </Style>
            <Style id="2162">
                <IconStyle id="2163">
                    <color>ff0000ff</color>
                    <colorMode>normal</colorMode>
                    <scale>1</scale>
                    <heading>0</heading>
                    <Icon id="2164">
                        <href>http://maps.google.com/mapfiles/kml/pushpin/ylw-pushpin.png</href>
                    </Icon>
                </IconStyle>
            </Style>
            <Style id="2167">
                <IconStyle id="2168">
                    <color>ff0000ff</color>
                    <colorMode>normal</colorMode>
                    <scale>1</scale>
                    <heading>0</heading>
                    <Icon id="2169">
                        <href>http://maps.google.com/mapfiles/kml/pushpin/ylw-pushpin.png</href>
                    </Icon>
                </IconStyle>
            </Style>
            <Style id="2172">
                <IconStyle id="2173">
                    <color>ff0000ff</color>
                    <colorMode>normal</colorMode>
                    <scale>1</scale>
                    <heading>0</heading>
                    <Icon id="2174">
                        <href>http://maps.google.com/mapfiles/kml/pushpin/ylw-pushpin.png</href>
                    </Icon>
                </IconStyle>
            </Style>
            <Style id="2177">
                <IconStyle id="2178">
                    <color>ff0000ff</color>
                    <colorMode>normal</colorMode>
                    <scale>1</scale>
                    <heading>0</heading>
                    <Icon id="2179">
                        <href>http://maps.google.com/mapfiles/kml/pushpin/ylw-pushpin.png</href>
                    </Icon>
                </IconStyle>
            </Style>
            <Style id="2182">
                <IconStyle id="2183">
                    <color>ff0000ff</color>
                    <colorMode>normal</colorMode>
                    <scale>1</scale>
                    <heading>0</heading>
                    <Icon id="2184">
                        <href>http://maps.google.com/mapfiles/kml/pushpin/ylw-pushpin.png</href>
                    </Icon>
                </IconStyle>
            </Style>
            <Style id="2187">
                <IconStyle id="2188">
                    <color>ff0000ff</color>
                    <colorMode>normal</colorMode>
                    <scale>1</scale>
                    <heading>0</heading>
                    <Icon id="2189">
                        <href>http://maps.google.com/mapfiles/kml/pushpin/ylw-pushpin.png</href>
                    </Icon>
                </IconStyle>
            </Style>
            <Style id="2192">
                <IconStyle id="2193">
                    <color>ff0000ff</color>
                    <colorMode>normal</colorMode>
                    <scale>1</scale>
                    <heading>0</heading>
                    <Icon id="2194">
                        <href>http://maps.google.com/mapfiles/kml/pushpin/ylw-pushpin.png</href>
                    </Icon>
                </IconStyle>
            </Style>
            <Style id="2197">
                <IconStyle id="2198">
                    <color>ff0000ff</color>
                    <colorMode>normal</colorMode>
                    <scale>1</scale>
                    <heading>0</heading>
                    <Icon id="2199">
                        <href>http://maps.google.com/mapfiles/kml/pushpin/ylw-pushpin.png</href>
                    </Icon>
                </IconStyle>
            </Style>
            <Style id="2202">
                <IconStyle id="2203">
                    <color>ff0000ff</color>
                    <colorMode>normal</colorMode>
                    <scale>1</scale>
                    <heading>0</heading>
                    <Icon id="2204">
                        <href>http://maps.google.com/mapfiles/kml/pushpin/ylw-pushpin.png</href>
                    </Icon>
                </IconStyle>
            </Style>
            <Style id="2207">
                <IconStyle id="2208">
                    <color>ff0000ff</color>
                    <colorMode>normal</colorMode>
                    <scale>1</scale>
                    <heading>0</heading>
                    <Icon id="2209">
                        <href>http://maps.google.com/mapfiles/kml/pushpin/ylw-pushpin.png</href>
                    </Icon>
                </IconStyle>
            </Style>
            <Style id="2212">
                <IconStyle id="2213">
                    <color>ff0000ff</color>
                    <colorMode>normal</colorMode>
                    <scale>1</scale>
                    <heading>0</heading>
                    <Icon id="2214">
                        <href>http://maps.google.com/mapfiles/kml/pushpin/ylw-pushpin.png</href>
                    </Icon>
                </IconStyle>
            </Style>
            <Style id="2217">
                <IconStyle id="2218">
                    <color>ff0000ff</color>
                    <colorMode>normal</colorMode>
                    <scale>1</scale>
                    <heading>0</heading>
                    <Icon id="2219">
                        <href>http://maps.google.com/mapfiles/kml/pushpin/ylw-pushpin.png</href>
                    </Icon>
                </IconStyle>
            </Style>
            <Style id="2222">
                <IconStyle id="2223">
                    <color>ff0000ff</color>
                    <colorMode>normal</colorMode>
                    <scale>1</scale>
                    <heading>0</heading>
                    <Icon id="2224">
                        <href>http://maps.google.com/mapfiles/kml/pushpin/ylw-pushpin.png</href>
                    </Icon>
                </IconStyle>
            </Style>
            <Style id="2227">
                <IconStyle id="2228">
                    <color>ff0000ff</color>
                    <colorMode>normal</colorMode>
                    <scale>1</scale>
                    <heading>0</heading>
                    <Icon id="2229">
                        <href>http://maps.google.com/mapfiles/kml/pushpin/ylw-pushpin.png</href>
                    </Icon>
                </IconStyle>
            </Style>
            <name>BRAYAN ALEXANDER IPANAQUE CASTRO</name>
            <Placemark id="2141">
                <name>SINDI MARICELA CALERO PORTUGUEZ</name>
                <description>Los robles por el.porton de la casa del agricultura
Tambogrande
Piura
Piura
Perú</description>
                <styleUrl>#2142</styleUrl>
                <Point id="2140">
                    <coordinates>-80.2688844,-4.8414073,0.0</coordinates>
                </Point>
            </Placemark>
            <Placemark id="2146">
                <name>SANTOS MERCEDES HUMBO DOMINGUEZ</name>
                <description>Cruceta
Tambogrande
Piura
Piura
Perú</description>
                <styleUrl>#2147</styleUrl>
                <Point id="2145">
                    <coordinates>-80.2676263,-4.8359713,0.0</coordinates>
                </Point>
            </Placemark>
            <Placemark id="2151">
                <name>NELLY MARIA MENDOZA NORIEGA</name>
                <description>AAHH TUPAC AMARU MZ A LT AL COSTADODE LA IGLESIA DE LOS TESTIGOS DE J
Tambogrande

Piura
Perú</description>
                <styleUrl>#2152</styleUrl>
                <Point id="2150">
                    <coordinates>-80.2670769,-4.8338924,0.0</coordinates>
                </Point>
            </Placemark>
            <Placemark id="2156">
                <name>FRANCISCA CASTILLO DE ALVARADO</name>
                <description>AV PRINCIPAL  JESUS MARIA S/N CRUCETA
Tambogrande
Piura
Piura
Perú</description>
                <styleUrl>#2157</styleUrl>
                <Point id="2155">
                    <coordinates>-80.26825,-4.83579,0.0</coordinates>
                </Point>
            </Placemark>
            <Placemark id="2161">
                <name>ROSA MONTERO ALAMA</name>
                <description>CA f BELAUNDE CRUCETA
Tambogrande

Piura
Perú</description>
                <styleUrl>#2162</styleUrl>
                <Point id="2160">
                    <coordinates>-80.2679476,-4.8367265,0.0</coordinates>
                </Point>
            </Placemark>
            <Placemark id="2166">
                <name>VANESA GONZALES QUISPE</name>
                <description>Cruceta - calle los jasminez Mz J lote 9
Tambogrande
Piura
Piura
Perú</description>
                <styleUrl>#2167</styleUrl>
                <Point id="2165">
                    <coordinates>-80.2670598,-4.8375919,0.0</coordinates>
                </Point>
            </Placemark>
            <Placemark id="2171">
                <name>LADIS AURORA CORDOVA TORRES</name>
                <description>AV REFORMA AGRARIA CERCA AL PARQUE NRO 491URB.CRUCETA
Tambogrande
Piura
Piura
Perú</description>
                <styleUrl>#2172</styleUrl>
                <Point id="2170">
                    <coordinates>-80.2688022,-4.8385744,0.0</coordinates>
                </Point>
            </Placemark>
            <Placemark id="2176">
                <name>ALVARADO REAÑO BLANCA DEL ROSARIO</name>
                <description>ALVARADO REAÑO BLANCA DEL ROSARIO
SV CRUCETA SN AH VICTOR RAUL MZ G 6
Tambogrande
Piura
Piura
Perú</description>
                <styleUrl>#2177</styleUrl>
                <Point id="2175">
                    <coordinates>-80.2715398,-4.8394535,0.0</coordinates>
                </Point>
            </Placemark>
            <Placemark id="2181">
                <name>BORIS AUGUSTO MONTERO PALACIOS</name>
                <description>AV PRINCIPAL CRUCETA SN LAS LOMAS
Tambogrande
Piura
Piura
Perú</description>
                <styleUrl>#2182</styleUrl>
                <Point id="2180">
                    <coordinates>-80.2695819,-4.838046,0.0</coordinates>
                </Point>
            </Placemark>
            <Placemark id="2186">
                <name>DANIELA AQUILA CONDOR CAQUI</name>
                <description>AV REFORMA A CRUCETA CENTRO S//N FRENTE AL PARQUE
Tambogrande
Piura
Piura
Perú</description>
                <styleUrl>#2187</styleUrl>
                <Point id="2185">
                    <coordinates>-80.2683742,-4.8383005,0.0</coordinates>
                </Point>
            </Placemark>
            <Placemark id="2191">
                <name>VICENTE MARQUEZ SERNAQUE</name>
                <description>AV JESÚS MARIA S/N CRUCETA
Tambogrande
Piura
Piura
Perú</description>
                <styleUrl>#2192</styleUrl>
                <Point id="2190">
                    <coordinates>-80.2657443,-4.8316595,0.0</coordinates>
                </Point>
            </Placemark>
            <Placemark id="2196">
                <name>VICENTE MARQUEZ SERNAQUE</name>
                <description>AV JESÚS MARIA S/N CRUCETA
Tambogrande
Piura
Piura
Perú</description>
                <styleUrl>#2197</styleUrl>
                <Point id="2195">
                    <coordinates>-80.2657443,-4.8316595,0.0</coordinates>
                </Point>
            </Placemark>
            <Placemark id="2201">
                <name>ALCIRA JUDITH GUTIERREZ ROA</name>
                <description>Av el partidor (costado del puente)
Las Lomas
Piura
Piura
Perú</description>
                <styleUrl>#2202</styleUrl>
                <Point id="2200">
                    <coordinates>-80.2800533,-4.7365217,0.0</coordinates>
                </Point>
            </Placemark>
            <Placemark id="2206">
                <name>ANA BENITES CASTILLO</name>
                <description>Partidor - sn - costado del paradero
Las Lomas
Piura
Piura
Perú</description>
                <styleUrl>#2207</styleUrl>
                <Point id="2205">
                    <coordinates>-80.2804178,-4.7365221,0.0</coordinates>
                </Point>
            </Placemark>
            <Placemark id="2211">
                <name>EDITA SUGEY RUGEL CAMPOS</name>
                <description>Av partidor - Partidor
Las Lomas
Piura
Piura
Perú</description>
                <styleUrl>#2212</styleUrl>
                <Point id="2210">
                    <coordinates>-80.2799936,-4.7369224,0.0</coordinates>
                </Point>
            </Placemark>
            <Placemark id="2216">
                <name>MARIA SARA VICENTE ABAD</name>
                <description>PANAMERICANA LAS LOMAS-PIURA
Las Lomas
Piura
Piura
Perú</description>
                <styleUrl>#2217</styleUrl>
                <Point id="2215">
                    <coordinates>-80.2813706,-4.7370662,0.0</coordinates>
                </Point>
            </Placemark>
            <Placemark id="2221">
                <name>INVERSIONES LIM &amp; ASH E.I.R.L.</name>
                <description>INVERSIONES LIM &amp; ASH E.I.R.L.
AV. CAR. PANAMERICANA NRO. S/N CAS. EL PARTIDOR
Las Lomas
200111
Piura
Perú</description>
                <styleUrl>#2222</styleUrl>
                <Point id="2220">
                    <coordinates>-80.2809233,-4.7366355,0.0</coordinates>
                </Point>
            </Placemark>
            <Placemark id="2226">
                <name>MILAGROS LOURDES FERNANDEZ CULQUI</name>
                <description>PANAMERICANA
Las Lomas
Piura
Piura
Perú</description>
                <styleUrl>#2227</styleUrl>
                <Point id="2225">
                    <coordinates>-80.2807685,-4.7367001,0.0</coordinates>
                </Point>
            </Placemark>
        </Folder>
        <Folder id="2230">
            <Style id="2233">
                <IconStyle id="2234">
                    <color>ffff0000</color>
                    <colorMode>normal</colorMode>
                    <scale>1</scale>
                    <heading>0</heading>
                    <Icon id="2235">
                        <href>http://maps.google.com/mapfiles/kml/pushpin/ylw-pushpin.png</href>
                    </Icon>
                </IconStyle>
            </Style>
            <Style id="2238">
                <IconStyle id="2239">
                    <color>ffff0000</color>
                    <colorMode>normal</colorMode>
                    <scale>1</scale>
                    <heading>0</heading>
                    <Icon id="2240">
                        <href>http://maps.google.com/mapfiles/kml/pushpin/ylw-pushpin.png</href>
                    </Icon>
                </IconStyle>
            </Style>
            <Style id="2243">
                <IconStyle id="2244">
                    <color>ffff0000</color>
                    <colorMode>normal</colorMode>
                    <scale>1</scale>
                    <heading>0</heading>
                    <Icon id="2245">
                        <href>http://maps.google.com/mapfiles/kml/pushpin/ylw-pushpin.png</href>
                    </Icon>
                </IconStyle>
            </Style>
            <Style id="2248">
                <IconStyle id="2249">
                    <color>ffff0000</color>
                    <colorMode>normal</colorMode>
                    <scale>1</scale>
                    <heading>0</heading>
                    <Icon id="2250">
                        <href>http://maps.google.com/mapfiles/kml/pushpin/ylw-pushpin.png</href>
                    </Icon>
                </IconStyle>
            </Style>
            <Style id="2253">
                <IconStyle id="2254">
                    <color>ffff0000</color>
                    <colorMode>normal</colorMode>
                    <scale>1</scale>
                    <heading>0</heading>
                    <Icon id="2255">
                        <href>http://maps.google.com/mapfiles/kml/pushpin/ylw-pushpin.png</href>
                    </Icon>
                </IconStyle>
            </Style>
            <Style id="2258">
                <IconStyle id="2259">
                    <color>ffff0000</color>
                    <colorMode>normal</colorMode>
                    <scale>1</scale>
                    <heading>0</heading>
                    <Icon id="2260">
                        <href>http://maps.google.com/mapfiles/kml/pushpin/ylw-pushpin.png</href>
                    </Icon>
                </IconStyle>
            </Style>
            <Style id="2263">
                <IconStyle id="2264">
                    <color>ffff0000</color>
                    <colorMode>normal</colorMode>
                    <scale>1</scale>
                    <heading>0</heading>
                    <Icon id="2265">
                        <href>http://maps.google.com/mapfiles/kml/pushpin/ylw-pushpin.png</href>
                    </Icon>
                </IconStyle>
            </Style>
            <Style id="2268">
                <IconStyle id="2269">
                    <color>ffff0000</color>
                    <colorMode>normal</colorMode>
                    <scale>1</scale>
                    <heading>0</heading>
                    <Icon id="2270">
                        <href>http://maps.google.com/mapfiles/kml/pushpin/ylw-pushpin.png</href>
                    </Icon>
                </IconStyle>
            </Style>
            <Style id="2273">
                <IconStyle id="2274">
                    <color>ffff0000</color>
                    <colorMode>normal</colorMode>
                    <scale>1</scale>
                    <heading>0</heading>
                    <Icon id="2275">
                        <href>http://maps.google.com/mapfiles/kml/pushpin/ylw-pushpin.png</href>
                    </Icon>
                </IconStyle>
            </Style>
            <Style id="2278">
                <IconStyle id="2279">
                    <color>ffff0000</color>
                    <colorMode>normal</colorMode>
                    <scale>1</scale>
                    <heading>0</heading>
                    <Icon id="2280">
                        <href>http://maps.google.com/mapfiles/kml/pushpin/ylw-pushpin.png</href>
                    </Icon>
                </IconStyle>
            </Style>
            <Style id="2283">
                <IconStyle id="2284">
                    <color>ffff0000</color>
                    <colorMode>normal</colorMode>
                    <scale>1</scale>
                    <heading>0</heading>
                    <Icon id="2285">
                        <href>http://maps.google.com/mapfiles/kml/pushpin/ylw-pushpin.png</href>
                    </Icon>
                </IconStyle>
            </Style>
            <name>EDDINSON CECILIO DIOSES SAAVEDRA</name>
            <Placemark id="2232">
                <name>ROY GERARDO FLORES GASTELU</name>
                <description>Mercado de Tambogrande
Tambogrande

Piura
Perú</description>
                <styleUrl>#2233</styleUrl>
                <Point id="2231">
                    <coordinates>-80.3410998,-4.9241141,0.0</coordinates>
                </Point>
            </Placemark>
            <Placemark id="2237">
                <name>MARIO ELIAS SILUPU RETETE</name>
                <description>Mercado central Pto 24
Tambogrande
Piura
Piura
Perú</description>
                <styleUrl>#2238</styleUrl>
                <Point id="2236">
                    <coordinates>-80.3412698,-4.9253592,0.0</coordinates>
                </Point>
            </Placemark>
            <Placemark id="2242">
                <name>MARIA SUSANA VEGA JUAREZ</name>
                <description>Mercado mayorista tambogrande
Tambogrande
Piura
Piura
Perú</description>
                <styleUrl>#2243</styleUrl>
                <Point id="2241">
                    <coordinates>-80.3413192,-4.9254652,0.0</coordinates>
                </Point>
            </Placemark>
            <Placemark id="2247">
                <name>SILVA SILVA ANGELITA</name>
                <description>MERCADO TAMBOGRANDE 
Tambogrande
Piura
Piura
Perú</description>
                <styleUrl>#2248</styleUrl>
                <Point id="2246">
                    <coordinates>-80.3401599,-4.9259215,0.0</coordinates>
                </Point>
            </Placemark>
            <Placemark id="2252">
                <name>ANGELITA DEL PILAR SILUPU VILLEGAS</name>
                <description>Mercado Central puesto 82
Tambogrande
Piura
Piura
Perú</description>
                <styleUrl>#2253</styleUrl>
                <Point id="2251">
                    <coordinates>-80.3409305,-4.924254,0.0</coordinates>
                </Point>
            </Placemark>
            <Placemark id="2257">
                <name>SMART ELITE E.I.R.L.</name>
                <description>CAL.LOS FRESNOS NRO. SN PUEBLO TAMBOGRANDE
Tambogrande

Piura
Perú</description>
                <styleUrl>#2258</styleUrl>
                <Point id="2256">
                    <coordinates>-80.3456633,-4.935716,0.0</coordinates>
                </Point>
            </Placemark>
            <Placemark id="2262">
                <name>ANGELITA DEL PILAR SILUPU VILLEGAS</name>
                <description>Mercado Central puesto 82
Tambogrande
Piura
Piura
Perú</description>
                <styleUrl>#2263</styleUrl>
                <Point id="2261">
                    <coordinates>-80.3409305,-4.924254,0.0</coordinates>
                </Point>
            </Placemark>
            <Placemark id="2267">
                <name>SANTIAGO SARANGO CORDOVA</name>
                <description>MRCDO 39 TAMBO GRANDE-PIURA
Tambogrande
Piura
Piura
Perú</description>
                <styleUrl>#2268</styleUrl>
                <Point id="2266">
                    <coordinates>-80.3409273,-4.9247182,0.0</coordinates>
                </Point>
            </Placemark>
            <Placemark id="2272">
                <name>JOSE CRISANTO JUAREZ</name>
                <description>Mercado central puesto 5
Tambogrande
Piura
Piura
Perú</description>
                <styleUrl>#2273</styleUrl>
                <Point id="2271">
                    <coordinates>-80.3401014,-4.9251004,0.0</coordinates>
                </Point>
            </Placemark>
            <Placemark id="2277">
                <name>SMART ELITE E.I.R.L.</name>
                <description>CAL.LOS FRESNOS NRO. SN PUEBLO TAMBOGRANDE
Tambogrande

Piura
Perú</description>
                <styleUrl>#2278</styleUrl>
                <Point id="2276">
                    <coordinates>-80.3456633,-4.935716,0.0</coordinates>
                </Point>
            </Placemark>
            <Placemark id="2282">
                <name>SMART ELITE E.I.R.L.</name>
                <description>CAL.LOS FRESNOS NRO. SN PUEBLO TAMBOGRANDE
Tambogrande

Piura
Perú</description>
                <styleUrl>#2283</styleUrl>
                <Point id="2281">
                    <coordinates>-80.3456633,-4.935716,0.0</coordinates>
                </Point>
            </Placemark>
        </Folder>
    </Document>
</kml>
