<?xml version="1.0" encoding="UTF-8"?>
<kml xmlns="http://www.opengis.net/kml/2.2" xmlns:gx="http://www.google.com/kml/ext/2.2">
    <Document id="2872">
        <Folder id="2873">
            <Style id="2876">
                <IconStyle id="2877">
                    <color>ff0000ff</color>
                    <colorMode>normal</colorMode>
                    <scale>1</scale>
                    <heading>0</heading>
                    <Icon id="2878">
                        <href>http://maps.google.com/mapfiles/kml/pushpin/ylw-pushpin.png</href>
                    </Icon>
                </IconStyle>
            </Style>
            <Style id="2881">
                <IconStyle id="2882">
                    <color>ff0000ff</color>
                    <colorMode>normal</colorMode>
                    <scale>1</scale>
                    <heading>0</heading>
                    <Icon id="2883">
                        <href>http://maps.google.com/mapfiles/kml/pushpin/ylw-pushpin.png</href>
                    </Icon>
                </IconStyle>
            </Style>
            <Style id="2886">
                <IconStyle id="2887">
                    <color>ff0000ff</color>
                    <colorMode>normal</colorMode>
                    <scale>1</scale>
                    <heading>0</heading>
                    <Icon id="2888">
                        <href>http://maps.google.com/mapfiles/kml/pushpin/ylw-pushpin.png</href>
                    </Icon>
                </IconStyle>
            </Style>
            <Style id="2891">
                <IconStyle id="2892">
                    <color>ff0000ff</color>
                    <colorMode>normal</colorMode>
                    <scale>1</scale>
                    <heading>0</heading>
                    <Icon id="2893">
                        <href>http://maps.google.com/mapfiles/kml/pushpin/ylw-pushpin.png</href>
                    </Icon>
                </IconStyle>
            </Style>
            <Style id="2896">
                <IconStyle id="2897">
                    <color>ff0000ff</color>
                    <colorMode>normal</colorMode>
                    <scale>1</scale>
                    <heading>0</heading>
                    <Icon id="2898">
                        <href>http://maps.google.com/mapfiles/kml/pushpin/ylw-pushpin.png</href>
                    </Icon>
                </IconStyle>
            </Style>
            <Style id="2901">
                <IconStyle id="2902">
                    <color>ff0000ff</color>
                    <colorMode>normal</colorMode>
                    <scale>1</scale>
                    <heading>0</heading>
                    <Icon id="2903">
                        <href>http://maps.google.com/mapfiles/kml/pushpin/ylw-pushpin.png</href>
                    </Icon>
                </IconStyle>
            </Style>
            <Style id="2906">
                <IconStyle id="2907">
                    <color>ff0000ff</color>
                    <colorMode>normal</colorMode>
                    <scale>1</scale>
                    <heading>0</heading>
                    <Icon id="2908">
                        <href>http://maps.google.com/mapfiles/kml/pushpin/ylw-pushpin.png</href>
                    </Icon>
                </IconStyle>
            </Style>
            <Style id="2911">
                <IconStyle id="2912">
                    <color>ff0000ff</color>
                    <colorMode>normal</colorMode>
                    <scale>1</scale>
                    <heading>0</heading>
                    <Icon id="2913">
                        <href>http://maps.google.com/mapfiles/kml/pushpin/ylw-pushpin.png</href>
                    </Icon>
                </IconStyle>
            </Style>
            <Style id="2916">
                <IconStyle id="2917">
                    <color>ff0000ff</color>
                    <colorMode>normal</colorMode>
                    <scale>1</scale>
                    <heading>0</heading>
                    <Icon id="2918">
                        <href>http://maps.google.com/mapfiles/kml/pushpin/ylw-pushpin.png</href>
                    </Icon>
                </IconStyle>
            </Style>
            <Style id="2921">
                <IconStyle id="2922">
                    <color>ff0000ff</color>
                    <colorMode>normal</colorMode>
                    <scale>1</scale>
                    <heading>0</heading>
                    <Icon id="2923">
                        <href>http://maps.google.com/mapfiles/kml/pushpin/ylw-pushpin.png</href>
                    </Icon>
                </IconStyle>
            </Style>
            <Style id="2926">
                <IconStyle id="2927">
                    <color>ff0000ff</color>
                    <colorMode>normal</colorMode>
                    <scale>1</scale>
                    <heading>0</heading>
                    <Icon id="2928">
                        <href>http://maps.google.com/mapfiles/kml/pushpin/ylw-pushpin.png</href>
                    </Icon>
                </IconStyle>
            </Style>
            <Style id="2931">
                <IconStyle id="2932">
                    <color>ff0000ff</color>
                    <colorMode>normal</colorMode>
                    <scale>1</scale>
                    <heading>0</heading>
                    <Icon id="2933">
                        <href>http://maps.google.com/mapfiles/kml/pushpin/ylw-pushpin.png</href>
                    </Icon>
                </IconStyle>
            </Style>
            <Style id="2936">
                <IconStyle id="2937">
                    <color>ff0000ff</color>
                    <colorMode>normal</colorMode>
                    <scale>1</scale>
                    <heading>0</heading>
                    <Icon id="2938">
                        <href>http://maps.google.com/mapfiles/kml/pushpin/ylw-pushpin.png</href>
                    </Icon>
                </IconStyle>
            </Style>
            <Style id="2941">
                <IconStyle id="2942">
                    <color>ff0000ff</color>
                    <colorMode>normal</colorMode>
                    <scale>1</scale>
                    <heading>0</heading>
                    <Icon id="2943">
                        <href>http://maps.google.com/mapfiles/kml/pushpin/ylw-pushpin.png</href>
                    </Icon>
                </IconStyle>
            </Style>
            <Style id="2946">
                <IconStyle id="2947">
                    <color>ff0000ff</color>
                    <colorMode>normal</colorMode>
                    <scale>1</scale>
                    <heading>0</heading>
                    <Icon id="2948">
                        <href>http://maps.google.com/mapfiles/kml/pushpin/ylw-pushpin.png</href>
                    </Icon>
                </IconStyle>
            </Style>
            <Style id="2951">
                <IconStyle id="2952">
                    <color>ff0000ff</color>
                    <colorMode>normal</colorMode>
                    <scale>1</scale>
                    <heading>0</heading>
                    <Icon id="2953">
                        <href>http://maps.google.com/mapfiles/kml/pushpin/ylw-pushpin.png</href>
                    </Icon>
                </IconStyle>
            </Style>
            <Style id="2956">
                <IconStyle id="2957">
                    <color>ff0000ff</color>
                    <colorMode>normal</colorMode>
                    <scale>1</scale>
                    <heading>0</heading>
                    <Icon id="2958">
                        <href>http://maps.google.com/mapfiles/kml/pushpin/ylw-pushpin.png</href>
                    </Icon>
                </IconStyle>
            </Style>
            <Style id="2961">
                <IconStyle id="2962">
                    <color>ff0000ff</color>
                    <colorMode>normal</colorMode>
                    <scale>1</scale>
                    <heading>0</heading>
                    <Icon id="2963">
                        <href>http://maps.google.com/mapfiles/kml/pushpin/ylw-pushpin.png</href>
                    </Icon>
                </IconStyle>
            </Style>
            <Style id="2966">
                <IconStyle id="2967">
                    <color>ff0000ff</color>
                    <colorMode>normal</colorMode>
                    <scale>1</scale>
                    <heading>0</heading>
                    <Icon id="2968">
                        <href>http://maps.google.com/mapfiles/kml/pushpin/ylw-pushpin.png</href>
                    </Icon>
                </IconStyle>
            </Style>
            <Style id="2971">
                <IconStyle id="2972">
                    <color>ff0000ff</color>
                    <colorMode>normal</colorMode>
                    <scale>1</scale>
                    <heading>0</heading>
                    <Icon id="2973">
                        <href>http://maps.google.com/mapfiles/kml/pushpin/ylw-pushpin.png</href>
                    </Icon>
                </IconStyle>
            </Style>
            <Style id="2976">
                <IconStyle id="2977">
                    <color>ff0000ff</color>
                    <colorMode>normal</colorMode>
                    <scale>1</scale>
                    <heading>0</heading>
                    <Icon id="2978">
                        <href>http://maps.google.com/mapfiles/kml/pushpin/ylw-pushpin.png</href>
                    </Icon>
                </IconStyle>
            </Style>
            <Style id="2981">
                <IconStyle id="2982">
                    <color>ff0000ff</color>
                    <colorMode>normal</colorMode>
                    <scale>1</scale>
                    <heading>0</heading>
                    <Icon id="2983">
                        <href>http://maps.google.com/mapfiles/kml/pushpin/ylw-pushpin.png</href>
                    </Icon>
                </IconStyle>
            </Style>
            <Style id="2986">
                <IconStyle id="2987">
                    <color>ff0000ff</color>
                    <colorMode>normal</colorMode>
                    <scale>1</scale>
                    <heading>0</heading>
                    <Icon id="2988">
                        <href>http://maps.google.com/mapfiles/kml/pushpin/ylw-pushpin.png</href>
                    </Icon>
                </IconStyle>
            </Style>
            <Style id="2991">
                <IconStyle id="2992">
                    <color>ff0000ff</color>
                    <colorMode>normal</colorMode>
                    <scale>1</scale>
                    <heading>0</heading>
                    <Icon id="2993">
                        <href>http://maps.google.com/mapfiles/kml/pushpin/ylw-pushpin.png</href>
                    </Icon>
                </IconStyle>
            </Style>
            <name>JAIRO JOSUE GONZALES GUERRERO</name>
            <Placemark id="2875">
                <name>LUZ MERCEDES CHUICA HERNANDEZ</name>
                <description>Av República del Perú MZ 32 lote 08
Aguas Verdes
Aguas Verdes
Tumbes
Perú</description>
                <styleUrl>#2876</styleUrl>
                <Point id="2874">
                    <coordinates>-80.2638762,-3.4867647,0.0</coordinates>
                </Point>
            </Placemark>
            <Placemark id="2880">
                <name>CINTHIA PATRICIA HUERTA RUIZ</name>
                <description>Av Panamericana MZ 10 lote 12
Aguas Verdes
Zarumilla
Tumbes
Perú</description>
                <styleUrl>#2881</styleUrl>
                <Point id="2879">
                    <coordinates>-80.275936,-3.498016,0.0</coordinates>
                </Point>
            </Placemark>
            <Placemark id="2885">
                <name>ADELA TEODORA FLORES PANTA</name>
                <description>Calle Brasil S/N Complejo Habitacional Referencia cerca al Cyber "Isayur"
Zarumilla

Tumbes
Perú</description>
                <styleUrl>#2886</styleUrl>
                <Point id="2884">
                    <coordinates>-80.26367,-3.482736,0.0</coordinates>
                </Point>
            </Placemark>
            <Placemark id="2890">
                <name>LUZ MERCEDES CHUICA HERNANDEZ</name>
                <description>Av República del Perú MZ 32 lote 08
Aguas Verdes
Aguas Verdes
Tumbes
Perú</description>
                <styleUrl>#2891</styleUrl>
                <Point id="2889">
                    <coordinates>-80.2638762,-3.4867647,0.0</coordinates>
                </Point>
            </Placemark>
            <Placemark id="2895">
                <name>CARMEN DORIS RODRIGUEZ PINTADO DE REYES</name>
                <description>pasaje cuba mz 15 lote 3 - el complejo
Zarumilla
24101Zarumilla
Tumbes
Perú</description>
                <styleUrl>#2896</styleUrl>
                <Point id="2894">
                    <coordinates>-80.2643168,-3.4856032,0.0</coordinates>
                </Point>
            </Placemark>
            <Placemark id="2900">
                <name>ISAMAR SANDOVAL TABOADA</name>
                <description>dirección pasaje  frente al parque
Aguas Verdes
24101Aguas Verdes
Tumbes
Perú</description>
                <styleUrl>#2901</styleUrl>
                <Point id="2899">
                    <coordinates>-80.2617783,-3.4850288,0.0</coordinates>
                </Point>
            </Placemark>
            <Placemark id="2905">
                <name>CESY DOMITILA FACUNDO LABAN</name>
                <description>Calle Havana mz L tote 15 -  AAHH Alberto Fujimori ref. Al frente de inversiones giltogmar
Aguas Verdes
Aguas Verdes
Tumbes
Perú</description>
                <styleUrl>#2906</styleUrl>
                <Point id="2904">
                    <coordinates>-80.2675705,-3.4832513,0.0</coordinates>
                </Point>
            </Placemark>
            <Placemark id="2910">
                <name>EUGENIA PEÑA ALBERCA</name>
                <description>Calle Valparaíso Mza lt 10 pasando 2 cuadras de ex corral de vacas mano derecha
Aguas Verdes
Aguas Verdes
Tumbes
Perú</description>
                <styleUrl>#2911</styleUrl>
                <Point id="2909">
                    <coordinates>-80.2657519,-3.4822605,0.0</coordinates>
                </Point>
            </Placemark>
            <Placemark id="2915">
                <name>ELENDOR HUANCAS CHANTA</name>
                <description>Aahh Alberto Fujimori MZ n lt 07 Referencia frente ala plataforma
Zarumilla
Zarumilla
Tumbes
Perú</description>
                <styleUrl>#2916</styleUrl>
                <Point id="2914">
                    <coordinates>-80.266166,-3.483441,0.0</coordinates>
                </Point>
            </Placemark>
            <Placemark id="2920">
                <name>CELESTE WENDY PEÑA NAVARRO</name>
                <description>Calle huascaran Mz B lt 04-28 de julio referencia cerca ala cancha
Aguas Verdes
Aguas Verdes
Tumbes
Perú</description>
                <styleUrl>#2921</styleUrl>
                <Point id="2919">
                    <coordinates>-80.2686468,-3.4828198,0.0</coordinates>
                </Point>
            </Placemark>
            <Placemark id="2925">
                <name>ANA MARIA RAMIREZ ORTIZ</name>
                <description>Jirón buscarán mz B lote - referencia portón negro la cancha - sector 28 de julio ampliación Jose de San Martín
Aguas Verdes
Aguas Verdes
Tumbes
Perú</description>
                <styleUrl>#2926</styleUrl>
                <Point id="2924">
                    <coordinates>-80.2691718,-3.483278,0.0</coordinates>
                </Point>
            </Placemark>
            <Placemark id="2930">
                <name>MARIA DEL PILAR NONAJULCA LALANGUI</name>
                <description>Las Lomas  _ Ref cerca al canal
Tumbes
Tumbes
Tumbes
Perú</description>
                <styleUrl>#2931</styleUrl>
                <Point id="2929">
                    <coordinates>-80.4137641,-3.5800658,0.0</coordinates>
                </Point>
            </Placemark>
            <Placemark id="2935">
                <name>YCELA MARGARITA PEREZ PEREZ</name>
                <description>Calle begonia mz b lt 05 -28 de julio - zarumilla Referencia al espalda del seguro
Aguas Verdes
Aguas Verdes
Tumbes
Perú</description>
                <styleUrl>#2936</styleUrl>
                <Point id="2934">
                    <coordinates>-80.2678571,-3.4880166,0.0</coordinates>
                </Point>
            </Placemark>
            <Placemark id="2940">
                <name>ERIKA DEL ROCIO AVILA SANCHEZ</name>
                <description>Jr próceres s/n - AAHH 28 de julio - zarumilla
Aguas Verdes
Aguas Verdes
Tumbes
Perú</description>
                <styleUrl>#2941</styleUrl>
                <Point id="2939">
                    <coordinates>-80.2654702,-3.4879304,0.0</coordinates>
                </Point>
            </Placemark>
            <Placemark id="2945">
                <name>LINDA JAKELIN TINEO YAJAHUANCA</name>
                <description>Calle los jardines Mz f lt 19 -Campo amor referencia jardín de niños mi carrusel
Zarumilla
Zarumilla
Tumbes
Perú</description>
                <styleUrl>#2946</styleUrl>
                <Point id="2944">
                    <coordinates>-80.2711817,-3.4930489,0.0</coordinates>
                </Point>
            </Placemark>
            <Placemark id="2950">
                <name>MIRELLA GALECIO ACARO</name>
                <description>Jr manco inca mz 07 lote 25 - campo amor - zarumilla
Zarumilla
Zarumilla
Tumbes
Perú</description>
                <styleUrl>#2951</styleUrl>
                <Point id="2949">
                    <coordinates>-80.272324,-3.493596,0.0</coordinates>
                </Point>
            </Placemark>
            <Placemark id="2955">
                <name>OMAR ALBERTO AMBULAY TOCTO</name>
                <description>Calle jirón huancayo -Campo amor frente al parque
Zarumilla
Zarumilla
Tumbes
Perú</description>
                <styleUrl>#2956</styleUrl>
                <Point id="2954">
                    <coordinates>-80.2740583,-3.4942642,0.0</coordinates>
                </Point>
            </Placemark>
            <Placemark id="2960">
                <name>JESSICA PAOLA SAAVEDRA SUAREZ</name>
                <description>Calle lima mz 14 lote 21 - campo amor zarumilla
Zarumilla
Zarumilla
Tumbes
Perú</description>
                <styleUrl>#2961</styleUrl>
                <Point id="2959">
                    <coordinates>-80.2746415,-3.4937956,0.0</coordinates>
                </Point>
            </Placemark>
            <Placemark id="2965">
                <name>JOSEFA CASTILLO ESTRADA</name>
                <description>Calle lima mz 13 lote 24 - zarumilla
Zarumilla
Zarumilla
Tumbes
Perú</description>
                <styleUrl>#2966</styleUrl>
                <Point id="2964">
                    <coordinates>-80.2760712,-3.4919811,0.0</coordinates>
                </Point>
            </Placemark>
            <Placemark id="2970">
                <name>VIDOLINA MATEO SAYAGO</name>
                <description>Calle nuevo Piura Mz e lt 03 - zarumilla
Zarumilla
Zarumilla
Tumbes
Perú</description>
                <styleUrl>#2971</styleUrl>
                <Point id="2969">
                    <coordinates>-80.2712368,-3.4871798,0.0</coordinates>
                </Point>
            </Placemark>
            <Placemark id="2975">
                <name>GUISSELLA JAQUELINE MAMANI MEDINA</name>
                <description>JR Áncash AA.HH campo amor MZ 11 lote 15 
Zarumilla
24101Zarumilla
Tumbes
Perú</description>
                <styleUrl>#2976</styleUrl>
                <Point id="2974">
                    <coordinates>-80.2770996,-3.4925545,0.0</coordinates>
                </Point>
            </Placemark>
            <Placemark id="2980">
                <name>FLOR DE MARIA HUAYNA VIVANCO</name>
                <description>Calle el salto s/n - el bendito - zarumilla
Zarumilla

Tumbes
Perú</description>
                <styleUrl>#2981</styleUrl>
                <Point id="2979">
                    <coordinates>-80.316877,-3.452019,0.0</coordinates>
                </Point>
            </Placemark>
            <Placemark id="2985">
                <name>ELADIO MORALES BRAVO</name>
                <description>Las pocitas sn mancora, ref. Costado de market michis
Mancora
Talara
Piura
Perú</description>
                <styleUrl>#2986</styleUrl>
                <Point id="2984">
                    <coordinates>-81.0786429,-4.1142704,0.0</coordinates>
                </Point>
            </Placemark>
            <Placemark id="2990">
                <name>MARIA DEL PILAR CHAVEZ FIESTAS</name>
                <description>Av. Piura 671 Mancora referencia frente al chifa
Mancora
Talara
Piura
Perú</description>
                <styleUrl>#2991</styleUrl>
                <Point id="2989">
                    <coordinates>-81.0527051,-4.1066434,0.0</coordinates>
                </Point>
            </Placemark>
        </Folder>
        <Folder id="2994">
            <Style id="2997">
                <IconStyle id="2998">
                    <color>ffff0000</color>
                    <colorMode>normal</colorMode>
                    <scale>1</scale>
                    <heading>0</heading>
                    <Icon id="2999">
                        <href>http://maps.google.com/mapfiles/kml/pushpin/ylw-pushpin.png</href>
                    </Icon>
                </IconStyle>
            </Style>
            <Style id="3002">
                <IconStyle id="3003">
                    <color>ffff0000</color>
                    <colorMode>normal</colorMode>
                    <scale>1</scale>
                    <heading>0</heading>
                    <Icon id="3004">
                        <href>http://maps.google.com/mapfiles/kml/pushpin/ylw-pushpin.png</href>
                    </Icon>
                </IconStyle>
            </Style>
            <Style id="3007">
                <IconStyle id="3008">
                    <color>ffff0000</color>
                    <colorMode>normal</colorMode>
                    <scale>1</scale>
                    <heading>0</heading>
                    <Icon id="3009">
                        <href>http://maps.google.com/mapfiles/kml/pushpin/ylw-pushpin.png</href>
                    </Icon>
                </IconStyle>
            </Style>
            <Style id="3012">
                <IconStyle id="3013">
                    <color>ffff0000</color>
                    <colorMode>normal</colorMode>
                    <scale>1</scale>
                    <heading>0</heading>
                    <Icon id="3014">
                        <href>http://maps.google.com/mapfiles/kml/pushpin/ylw-pushpin.png</href>
                    </Icon>
                </IconStyle>
            </Style>
            <Style id="3017">
                <IconStyle id="3018">
                    <color>ffff0000</color>
                    <colorMode>normal</colorMode>
                    <scale>1</scale>
                    <heading>0</heading>
                    <Icon id="3019">
                        <href>http://maps.google.com/mapfiles/kml/pushpin/ylw-pushpin.png</href>
                    </Icon>
                </IconStyle>
            </Style>
            <Style id="3022">
                <IconStyle id="3023">
                    <color>ffff0000</color>
                    <colorMode>normal</colorMode>
                    <scale>1</scale>
                    <heading>0</heading>
                    <Icon id="3024">
                        <href>http://maps.google.com/mapfiles/kml/pushpin/ylw-pushpin.png</href>
                    </Icon>
                </IconStyle>
            </Style>
            <Style id="3027">
                <IconStyle id="3028">
                    <color>ffff0000</color>
                    <colorMode>normal</colorMode>
                    <scale>1</scale>
                    <heading>0</heading>
                    <Icon id="3029">
                        <href>http://maps.google.com/mapfiles/kml/pushpin/ylw-pushpin.png</href>
                    </Icon>
                </IconStyle>
            </Style>
            <Style id="3032">
                <IconStyle id="3033">
                    <color>ffff0000</color>
                    <colorMode>normal</colorMode>
                    <scale>1</scale>
                    <heading>0</heading>
                    <Icon id="3034">
                        <href>http://maps.google.com/mapfiles/kml/pushpin/ylw-pushpin.png</href>
                    </Icon>
                </IconStyle>
            </Style>
            <Style id="3037">
                <IconStyle id="3038">
                    <color>ffff0000</color>
                    <colorMode>normal</colorMode>
                    <scale>1</scale>
                    <heading>0</heading>
                    <Icon id="3039">
                        <href>http://maps.google.com/mapfiles/kml/pushpin/ylw-pushpin.png</href>
                    </Icon>
                </IconStyle>
            </Style>
            <Style id="3042">
                <IconStyle id="3043">
                    <color>ffff0000</color>
                    <colorMode>normal</colorMode>
                    <scale>1</scale>
                    <heading>0</heading>
                    <Icon id="3044">
                        <href>http://maps.google.com/mapfiles/kml/pushpin/ylw-pushpin.png</href>
                    </Icon>
                </IconStyle>
            </Style>
            <Style id="3047">
                <IconStyle id="3048">
                    <color>ffff0000</color>
                    <colorMode>normal</colorMode>
                    <scale>1</scale>
                    <heading>0</heading>
                    <Icon id="3049">
                        <href>http://maps.google.com/mapfiles/kml/pushpin/ylw-pushpin.png</href>
                    </Icon>
                </IconStyle>
            </Style>
            <Style id="3052">
                <IconStyle id="3053">
                    <color>ffff0000</color>
                    <colorMode>normal</colorMode>
                    <scale>1</scale>
                    <heading>0</heading>
                    <Icon id="3054">
                        <href>http://maps.google.com/mapfiles/kml/pushpin/ylw-pushpin.png</href>
                    </Icon>
                </IconStyle>
            </Style>
            <Style id="3057">
                <IconStyle id="3058">
                    <color>ffff0000</color>
                    <colorMode>normal</colorMode>
                    <scale>1</scale>
                    <heading>0</heading>
                    <Icon id="3059">
                        <href>http://maps.google.com/mapfiles/kml/pushpin/ylw-pushpin.png</href>
                    </Icon>
                </IconStyle>
            </Style>
            <Style id="3062">
                <IconStyle id="3063">
                    <color>ffff0000</color>
                    <colorMode>normal</colorMode>
                    <scale>1</scale>
                    <heading>0</heading>
                    <Icon id="3064">
                        <href>http://maps.google.com/mapfiles/kml/pushpin/ylw-pushpin.png</href>
                    </Icon>
                </IconStyle>
            </Style>
            <Style id="3067">
                <IconStyle id="3068">
                    <color>ffff0000</color>
                    <colorMode>normal</colorMode>
                    <scale>1</scale>
                    <heading>0</heading>
                    <Icon id="3069">
                        <href>http://maps.google.com/mapfiles/kml/pushpin/ylw-pushpin.png</href>
                    </Icon>
                </IconStyle>
            </Style>
            <Style id="3072">
                <IconStyle id="3073">
                    <color>ffff0000</color>
                    <colorMode>normal</colorMode>
                    <scale>1</scale>
                    <heading>0</heading>
                    <Icon id="3074">
                        <href>http://maps.google.com/mapfiles/kml/pushpin/ylw-pushpin.png</href>
                    </Icon>
                </IconStyle>
            </Style>
            <Style id="3077">
                <IconStyle id="3078">
                    <color>ffff0000</color>
                    <colorMode>normal</colorMode>
                    <scale>1</scale>
                    <heading>0</heading>
                    <Icon id="3079">
                        <href>http://maps.google.com/mapfiles/kml/pushpin/ylw-pushpin.png</href>
                    </Icon>
                </IconStyle>
            </Style>
            <Style id="3082">
                <IconStyle id="3083">
                    <color>ffff0000</color>
                    <colorMode>normal</colorMode>
                    <scale>1</scale>
                    <heading>0</heading>
                    <Icon id="3084">
                        <href>http://maps.google.com/mapfiles/kml/pushpin/ylw-pushpin.png</href>
                    </Icon>
                </IconStyle>
            </Style>
            <Style id="3087">
                <IconStyle id="3088">
                    <color>ffff0000</color>
                    <colorMode>normal</colorMode>
                    <scale>1</scale>
                    <heading>0</heading>
                    <Icon id="3089">
                        <href>http://maps.google.com/mapfiles/kml/pushpin/ylw-pushpin.png</href>
                    </Icon>
                </IconStyle>
            </Style>
            <Style id="3092">
                <IconStyle id="3093">
                    <color>ffff0000</color>
                    <colorMode>normal</colorMode>
                    <scale>1</scale>
                    <heading>0</heading>
                    <Icon id="3094">
                        <href>http://maps.google.com/mapfiles/kml/pushpin/ylw-pushpin.png</href>
                    </Icon>
                </IconStyle>
            </Style>
            <Style id="3097">
                <IconStyle id="3098">
                    <color>ffff0000</color>
                    <colorMode>normal</colorMode>
                    <scale>1</scale>
                    <heading>0</heading>
                    <Icon id="3099">
                        <href>http://maps.google.com/mapfiles/kml/pushpin/ylw-pushpin.png</href>
                    </Icon>
                </IconStyle>
            </Style>
            <Style id="3102">
                <IconStyle id="3103">
                    <color>ffff0000</color>
                    <colorMode>normal</colorMode>
                    <scale>1</scale>
                    <heading>0</heading>
                    <Icon id="3104">
                        <href>http://maps.google.com/mapfiles/kml/pushpin/ylw-pushpin.png</href>
                    </Icon>
                </IconStyle>
            </Style>
            <Style id="3107">
                <IconStyle id="3108">
                    <color>ffff0000</color>
                    <colorMode>normal</colorMode>
                    <scale>1</scale>
                    <heading>0</heading>
                    <Icon id="3109">
                        <href>http://maps.google.com/mapfiles/kml/pushpin/ylw-pushpin.png</href>
                    </Icon>
                </IconStyle>
            </Style>
            <Style id="3112">
                <IconStyle id="3113">
                    <color>ffff0000</color>
                    <colorMode>normal</colorMode>
                    <scale>1</scale>
                    <heading>0</heading>
                    <Icon id="3114">
                        <href>http://maps.google.com/mapfiles/kml/pushpin/ylw-pushpin.png</href>
                    </Icon>
                </IconStyle>
            </Style>
            <Style id="3117">
                <IconStyle id="3118">
                    <color>ffff0000</color>
                    <colorMode>normal</colorMode>
                    <scale>1</scale>
                    <heading>0</heading>
                    <Icon id="3119">
                        <href>http://maps.google.com/mapfiles/kml/pushpin/ylw-pushpin.png</href>
                    </Icon>
                </IconStyle>
            </Style>
            <Style id="3122">
                <IconStyle id="3123">
                    <color>ffff0000</color>
                    <colorMode>normal</colorMode>
                    <scale>1</scale>
                    <heading>0</heading>
                    <Icon id="3124">
                        <href>http://maps.google.com/mapfiles/kml/pushpin/ylw-pushpin.png</href>
                    </Icon>
                </IconStyle>
            </Style>
            <Style id="3127">
                <IconStyle id="3128">
                    <color>ffff0000</color>
                    <colorMode>normal</colorMode>
                    <scale>1</scale>
                    <heading>0</heading>
                    <Icon id="3129">
                        <href>http://maps.google.com/mapfiles/kml/pushpin/ylw-pushpin.png</href>
                    </Icon>
                </IconStyle>
            </Style>
            <Style id="3132">
                <IconStyle id="3133">
                    <color>ffff0000</color>
                    <colorMode>normal</colorMode>
                    <scale>1</scale>
                    <heading>0</heading>
                    <Icon id="3134">
                        <href>http://maps.google.com/mapfiles/kml/pushpin/ylw-pushpin.png</href>
                    </Icon>
                </IconStyle>
            </Style>
            <Style id="3137">
                <IconStyle id="3138">
                    <color>ffff0000</color>
                    <colorMode>normal</colorMode>
                    <scale>1</scale>
                    <heading>0</heading>
                    <Icon id="3139">
                        <href>http://maps.google.com/mapfiles/kml/pushpin/ylw-pushpin.png</href>
                    </Icon>
                </IconStyle>
            </Style>
            <Style id="3142">
                <IconStyle id="3143">
                    <color>ffff0000</color>
                    <colorMode>normal</colorMode>
                    <scale>1</scale>
                    <heading>0</heading>
                    <Icon id="3144">
                        <href>http://maps.google.com/mapfiles/kml/pushpin/ylw-pushpin.png</href>
                    </Icon>
                </IconStyle>
            </Style>
            <Style id="3147">
                <IconStyle id="3148">
                    <color>ffff0000</color>
                    <colorMode>normal</colorMode>
                    <scale>1</scale>
                    <heading>0</heading>
                    <Icon id="3149">
                        <href>http://maps.google.com/mapfiles/kml/pushpin/ylw-pushpin.png</href>
                    </Icon>
                </IconStyle>
            </Style>
            <Style id="3152">
                <IconStyle id="3153">
                    <color>ffff0000</color>
                    <colorMode>normal</colorMode>
                    <scale>1</scale>
                    <heading>0</heading>
                    <Icon id="3154">
                        <href>http://maps.google.com/mapfiles/kml/pushpin/ylw-pushpin.png</href>
                    </Icon>
                </IconStyle>
            </Style>
            <Style id="3157">
                <IconStyle id="3158">
                    <color>ffff0000</color>
                    <colorMode>normal</colorMode>
                    <scale>1</scale>
                    <heading>0</heading>
                    <Icon id="3159">
                        <href>http://maps.google.com/mapfiles/kml/pushpin/ylw-pushpin.png</href>
                    </Icon>
                </IconStyle>
            </Style>
            <Style id="3162">
                <IconStyle id="3163">
                    <color>ffff0000</color>
                    <colorMode>normal</colorMode>
                    <scale>1</scale>
                    <heading>0</heading>
                    <Icon id="3164">
                        <href>http://maps.google.com/mapfiles/kml/pushpin/ylw-pushpin.png</href>
                    </Icon>
                </IconStyle>
            </Style>
            <Style id="3167">
                <IconStyle id="3168">
                    <color>ffff0000</color>
                    <colorMode>normal</colorMode>
                    <scale>1</scale>
                    <heading>0</heading>
                    <Icon id="3169">
                        <href>http://maps.google.com/mapfiles/kml/pushpin/ylw-pushpin.png</href>
                    </Icon>
                </IconStyle>
            </Style>
            <Style id="3172">
                <IconStyle id="3173">
                    <color>ffff0000</color>
                    <colorMode>normal</colorMode>
                    <scale>1</scale>
                    <heading>0</heading>
                    <Icon id="3174">
                        <href>http://maps.google.com/mapfiles/kml/pushpin/ylw-pushpin.png</href>
                    </Icon>
                </IconStyle>
            </Style>
            <Style id="3177">
                <IconStyle id="3178">
                    <color>ffff0000</color>
                    <colorMode>normal</colorMode>
                    <scale>1</scale>
                    <heading>0</heading>
                    <Icon id="3179">
                        <href>http://maps.google.com/mapfiles/kml/pushpin/ylw-pushpin.png</href>
                    </Icon>
                </IconStyle>
            </Style>
            <name>MARIO ALBERTO QUINTANA SANDOVAL</name>
            <Placemark id="2996">
                <name>PANDALLE TU MUNDO SOCIEDAD COMERCIAL DE RESPONSABILIDAD LIMITADA</name>
                <description>PANDALLE TU MUNDO SOCIEDAD COMERCIAL DE RESPONSABILIDAD LIMITADA
JR. LAMBAYEQUE NRO. 212 CENTRO DE AGUAS VERDES
Aguas Verdes
240302Aguas Verdes
Tumbes
Perú</description>
                <styleUrl>#2997</styleUrl>
                <Point id="2995">
                    <coordinates>-80.2452555,-3.4828282,0.0</coordinates>
                </Point>
            </Placemark>
            <Placemark id="3001">
                <name>CASTILLO CARBAJAL MARILU</name>
                <description>CALLE TUMBES  MZ L LOTE 7 AAHH. TOMAS ARIZOLA  AGUAS VERDES
Aguas Verdes
Zarumilla
Tumbes
Perú</description>
                <styleUrl>#3002</styleUrl>
                <Point id="3000">
                    <coordinates>-80.2457844,-3.4803722,0.0</coordinates>
                </Point>
            </Placemark>
            <Placemark id="3006">
                <name>MARIANELY ALVITREZ VARGAS</name>
                <description>Calle 15 MZ 22 LOTE3 Tomas Arizola Aguas verdes la siguiente cuadra de abramonte
Aguas Verdes
Aguas Verdes
Tumbes
Perú</description>
                <styleUrl>#3007</styleUrl>
                <Point id="3005">
                    <coordinates>-80.24574,-3.478715,0.0</coordinates>
                </Point>
            </Placemark>
            <Placemark id="3011">
                <name>CINTHIA VERONICA JARA GOICOCHEA</name>
                <description>Av. El ejercicio aguas verdes ref.comercial COBRA (VENDEN LLANTAS)
Aguas Verdes
Aguas Verdes
Tumbes
Perú</description>
                <styleUrl>#3012</styleUrl>
                <Point id="3010">
                    <coordinates>-80.2472278,-3.4806469,0.0</coordinates>
                </Point>
            </Placemark>
            <Placemark id="3016">
                <name>PASCUALA RUIZ GARCIA</name>
                <description>Los nogales Mz V lote 20 villa primavera
Aguas Verdes
Aguas Verdes
Tumbes
Perú</description>
                <styleUrl>#3017</styleUrl>
                <Point id="3015">
                    <coordinates>-80.2578316,-3.4814823,0.0</coordinates>
                </Point>
            </Placemark>
            <Placemark id="3021">
                <name>PAQUITA JHAMILEX YOVERA GALLARDO</name>
                <description>Calle jardines mz r lt 13 villa primavera antes de la cancha
Zarumilla
Zarumilla
Tumbes
Perú</description>
                <styleUrl>#3022</styleUrl>
                <Point id="3020">
                    <coordinates>-80.2606942,-3.4811159,0.0</coordinates>
                </Point>
            </Placemark>
            <Placemark id="3026">
                <name>OSVALDO JUARES RAYMUNDO</name>
                <description>Calle mexico mz a lt 1 frente al colegio inicia hermanos barcia la curva zarumilla
Aguas Verdes

Tumbes
Perú</description>
                <styleUrl>#3027</styleUrl>
                <Point id="3025">
                    <coordinates>-80.2594169,-3.4855482,0.0</coordinates>
                </Point>
            </Placemark>
            <Placemark id="3031">
                <name>MARY CRUZ GRANDA RIVERA</name>
                <description>Calle jamaica mzD3 lote 16
Aguas Verdes
Aguas Verdes
Tumbes
Perú</description>
                <styleUrl>#3032</styleUrl>
                <Point id="3030">
                    <coordinates>-80.2464415,-3.4790144,0.0</coordinates>
                </Point>
            </Placemark>
            <Placemark id="3036">
                <name>ITAMAR MILOISKA CORDOVA GALLARDO</name>
                <description>Calle uruguay mzc tl 10 por jardin nuevo aguas verdes casa celeste maquina de clicles afuera
Aguas Verdes
Aguas Verdes
Tumbes
Perú</description>
                <styleUrl>#3037</styleUrl>
                <Point id="3035">
                    <coordinates>-80.2653046,-3.4924886,0.0</coordinates>
                </Point>
            </Placemark>
            <Placemark id="3041">
                <name>ARACELI MARIBEL BARRETO LARRAIN</name>
                <description>Calle marco Felipe mz L lote 01 - ampliación nueva esperanza - zarumilla rf.costado de vaden arco nueva esperanza
Zarumilla
Zarumilla
Tumbes
Perú</description>
                <styleUrl>#3042</styleUrl>
                <Point id="3040">
                    <coordinates>-80.2659389,-3.4929214,0.0</coordinates>
                </Point>
            </Placemark>
            <Placemark id="3046">
                <name>MARITZA RAQUEL ZAPATA PALACIOS</name>
                <description>Av circunvalación mz A lote 09 - Edmundo romero
Aguas Verdes
Aguas Verdes
Tumbes
Perú</description>
                <styleUrl>#3047</styleUrl>
                <Point id="3045">
                    <coordinates>-80.2650529,-3.4947689,0.0</coordinates>
                </Point>
            </Placemark>
            <Placemark id="3051">
                <name>PERALTA SANCHEZ ELIZABETH</name>
                <description>Av principal s/n -leandro campos
Matapalo

Tumbes
Perú</description>
                <styleUrl>#3052</styleUrl>
                <Point id="3050">
                    <coordinates>-80.193808,-3.635446,0.0</coordinates>
                </Point>
            </Placemark>
            <Placemark id="3056">
                <name>LOTTE SUITES HOTEL S.A.C.</name>
                <description>Calle tumbes #500   interior hotel bulevar
Zarumilla
150115Zarumilla
Tumbes
Perú</description>
                <styleUrl>#3057</styleUrl>
                <Point id="3055">
                    <coordinates>-80.2691113,-3.4939576,0.0</coordinates>
                </Point>
            </Placemark>
            <Placemark id="3061">
                <name>ROSA GARCIA PEÑA</name>
                <description>Av principal s/n - quebrada seca
Matapalo

Tumbes
Perú</description>
                <styleUrl>#3062</styleUrl>
                <Point id="3060">
                    <coordinates>-80.1968746,-3.6700505,0.0</coordinates>
                </Point>
            </Placemark>
            <Placemark id="3066">
                <name>ELENA PIZANGO PIÑA</name>
                <description>Calle Leticia 808 - cercado de zarumilla
Zarumilla
Zarumilla
Tumbes
Perú</description>
                <styleUrl>#3067</styleUrl>
                <Point id="3065">
                    <coordinates>-80.267833,-3.49336,0.0</coordinates>
                </Point>
            </Placemark>
            <Placemark id="3071">
                <name>REPRESENTACIONES E INVERSIONES DRMAH EMPRESA INDIVIDUAL DE RESPONSABILIDAD LIMITADA</name>
                <description>REPRESENTACIONES E INVERSIONES DRMAH EMPRESA INDIVIDUAL DE RESPONSABILIDAD LIMITADA
MZA. A LOTE. 09 A.H.  ROBERTO ESPINOZA Referencia al  costado de restaurante el MOSCU ZARUMILLA
Zarumilla
240301Zarumilla
Tumbes
Perú</description>
                <styleUrl>#3072</styleUrl>
                <Point id="3070">
                    <coordinates>-80.2721057,-3.4956803,0.0</coordinates>
                </Point>
            </Placemark>
            <Placemark id="3076">
                <name>EMMA VICTORIA SALDARRIAGA RAMIREZ</name>
                <description>Prolongación tumbes sin número Referencia por la cabaña de Christian

  
</description>
                <styleUrl>#3077</styleUrl>
                <Point id="3075">
                    <coordinates>-80.2728663,-3.4963048,0.0</coordinates>
                </Point>
            </Placemark>
            <Placemark id="3081">
                <name>DE NECIOSUP JULIA ESPINOZA PISFIL</name>
                <description>Calle maximiliano moran 306 - centro de zarumilla rf costadon del agente bcp
Zarumilla
Zarumilla
Tumbes
Perú</description>
                <styleUrl>#3082</styleUrl>
                <Point id="3080">
                    <coordinates>-80.2724806,-3.5003338,0.0</coordinates>
                </Point>
            </Placemark>
            <Placemark id="3086">
                <name>MARIA CRUZ ZAPATA</name>
                <description>Av principal s/n caserío la coja papayal- Zarumilla
Zarumilla

Piura
Perú</description>
                <styleUrl>#3087</styleUrl>
                <Point id="3085">
                    <coordinates>-80.209495,-3.596211,0.0</coordinates>
                </Point>
            </Placemark>
            <Placemark id="3091">
                <name>ROSA ELVIRA LIMA JARA</name>
                <description>Calle independencia 515 - cercado de zarumilla Ref. De la señora huarac Gonzáles al costado
Zarumilla
Zarumilla
Tumbes
Perú</description>
                <styleUrl>#3092</styleUrl>
                <Point id="3090">
                    <coordinates>-80.2728312,-3.4994388,0.0</coordinates>
                </Point>
            </Placemark>
            <Placemark id="3096">
                <name>ELIZABETH HUARAC GONZALEZ</name>
                <description>Independencia 509
Zarumilla
Zarumilla
Tumbes
Perú</description>
                <styleUrl>#3097</styleUrl>
                <Point id="3095">
                    <coordinates>-80.272878,-3.499486,0.0</coordinates>
                </Point>
            </Placemark>
            <Placemark id="3101">
                <name>JOHANA PAMELA RAMON CORONADO</name>
                <description>Calle atahualpa costado de picanteria el velero zarumillas
Zarumilla

Tumbes
Perú</description>
                <styleUrl>#3102</styleUrl>
                <Point id="3100">
                    <coordinates>-80.2715836,-3.4980832,0.0</coordinates>
                </Point>
            </Placemark>
            <Placemark id="3106">
                <name>MARLENY DEL PILAR SALAZAR GONZALEZ</name>
                <description>jiron leticia 553  referencia frente al complejo deportivo municipal o cancha union
Zarumilla
24101Zarumilla
Tumbes
Perú</description>
                <styleUrl>#3107</styleUrl>
                <Point id="3105">
                    <coordinates>-80.2712134,-3.4992067,0.0</coordinates>
                </Point>
            </Placemark>
            <Placemark id="3111">
                <name>JUVIXA CELESTE SALDARRIAGA AGUILAR</name>
                <description>Jiron miraflores #614 frente al cepro rosa ordinola de noblecilla zarumilla
Zarumilla
Zarumilla
Tumbes
Perú</description>
                <styleUrl>#3112</styleUrl>
                <Point id="3110">
                    <coordinates>-80.2692924,-3.5010229,0.0</coordinates>
                </Point>
            </Placemark>
            <Placemark id="3116">
                <name>ELIZABETH MARIELLA SANTOS SANTOS</name>
                <description>San valentin  zarumilla al fondo pasando paradero zarumilla
Zarumilla
Zarumilla
Tumbes
Perú</description>
                <styleUrl>#3117</styleUrl>
                <Point id="3115">
                    <coordinates>-80.262928,-3.499646,0.0</coordinates>
                </Point>
            </Placemark>
            <Placemark id="3121">
                <name>MARIO JOSE MEDINA UCHUARI</name>
                <description>Calle principal 211 - lechugal



Perú</description>
                <styleUrl>#3122</styleUrl>
                <Point id="3120">
                    <coordinates>-80.1957011,-3.6125699,0.0</coordinates>
                </Point>
            </Placemark>
            <Placemark id="3126">
                <name>ESVIN DAVID MENDOZA PEÑA</name>
                <description>Av.principal s/n caserio la coja papayal -zarumilla Rf espaldas de colegio
Zarumilla

Tumbes
Perú</description>
                <styleUrl>#3127</styleUrl>
                <Point id="3125">
                    <coordinates>-80.199566,-3.68348,0.0</coordinates>
                </Point>
            </Placemark>
            <Placemark id="3131">
                <name>BETTY MAZA AGUILAR</name>
                <description>Av principal s/n caserío leandro campos matapalo - Zarumilla
Zarumilla

Tumbes
Perú</description>
                <styleUrl>#3132</styleUrl>
                <Point id="3130">
                    <coordinates>-80.226587,-3.692203,0.0</coordinates>
                </Point>
            </Placemark>
            <Placemark id="3136">
                <name>PRISCILA ESTEPHANIE PEÑA GOMEZ</name>
                <description>Calle sargento Mujica - matapalo
Matapalo

Tumbes
Perú</description>
                <styleUrl>#3137</styleUrl>
                <Point id="3135">
                    <coordinates>-80.19953,-3.681855,0.0</coordinates>
                </Point>
            </Placemark>
            <Placemark id="3141">
                <name>Gloria pinta peña</name>
                <description>Aahh angel d la luz - el tutumo
Matapalo

Tumbes
Perú</description>
                <styleUrl>#3142</styleUrl>
                <Point id="3140">
                    <coordinates>-80.2351877,-3.5713499,0.0</coordinates>
                </Point>
            </Placemark>
            <Placemark id="3146">
                <name>BILA ARELY CASTREJON CHOLAN</name>
                <description>nuevo progreso - tutumo - bazar librería kader
Matapalo

Tumbes
Perú</description>
                <styleUrl>#3147</styleUrl>
                <Point id="3145">
                    <coordinates>-80.2510963,-3.6889686,0.0</coordinates>
                </Point>
            </Placemark>
            <Placemark id="3151">
                <name>YOVANI CARHUAPOMA NEYRA</name>
                <description>Nuevo progreso bajo - frente el restaurante el sabor de mi dulce
Matapalo

Tumbes
Perú</description>
                <styleUrl>#3152</styleUrl>
                <Point id="3150">
                    <coordinates>-80.248649,-3.686361,0.0</coordinates>
                </Point>
            </Placemark>
            <Placemark id="3156">
                <name>PAULA HUAMAN ADRIANO</name>
                <description>Nuevo progreso s/n - tutumo
Matapalo

Tumbes
Perú</description>
                <styleUrl>#3157</styleUrl>
                <Point id="3155">
                    <coordinates>-80.2480864,-3.686128,0.0</coordinates>
                </Point>
            </Placemark>
            <Placemark id="3161">
                <name>ESTEFANY PORTOCARRERO NUÑEZ</name>
                <description>Nuevo progreso   s/n
Matapalo

Tumbes
Perú</description>
                <styleUrl>#3162</styleUrl>
                <Point id="3160">
                    <coordinates>-80.2487205,-3.6865469,0.0</coordinates>
                </Point>
            </Placemark>
            <Placemark id="3166">
                <name>MARIBEL GARCIA GARCIA</name>
                <description>Nuevo progreso mz E lote 9 - ref. Frente a la antena
Matapalo

Tumbes
Perú</description>
                <styleUrl>#3167</styleUrl>
                <Point id="3165">
                    <coordinates>-76.32466,-8.451275,0.0</coordinates>
                </Point>
            </Placemark>
            <Placemark id="3171">
                <name>MARIA DEL PILAR NONAJULCA LALANGUI</name>
                <description>Las Lomas  _ Ref cerca al canal
Tumbes
Tumbes
Tumbes
Perú</description>
                <styleUrl>#3172</styleUrl>
                <Point id="3170">
                    <coordinates>-80.4137641,-3.5800658,0.0</coordinates>
                </Point>
            </Placemark>
            <Placemark id="3176">
                <name>JUANA PEÑA SANTOS</name>
                <description>Nuevo progreso mz C lote 1 A - tutumo
Matapalo

Tumbes
Perú</description>
                <styleUrl>#3177</styleUrl>
                <Point id="3175">
                    <coordinates>-80.4507873,-3.5919208,0.0</coordinates>
                </Point>
            </Placemark>
        </Folder>
        <Folder id="3180">
            <Style id="3183">
                <IconStyle id="3184">
                    <color>ff008000</color>
                    <colorMode>normal</colorMode>
                    <scale>1</scale>
                    <heading>0</heading>
                    <Icon id="3185">
                        <href>http://maps.google.com/mapfiles/kml/pushpin/ylw-pushpin.png</href>
                    </Icon>
                </IconStyle>
            </Style>
            <Style id="3188">
                <IconStyle id="3189">
                    <color>ff008000</color>
                    <colorMode>normal</colorMode>
                    <scale>1</scale>
                    <heading>0</heading>
                    <Icon id="3190">
                        <href>http://maps.google.com/mapfiles/kml/pushpin/ylw-pushpin.png</href>
                    </Icon>
                </IconStyle>
            </Style>
            <Style id="3193">
                <IconStyle id="3194">
                    <color>ff008000</color>
                    <colorMode>normal</colorMode>
                    <scale>1</scale>
                    <heading>0</heading>
                    <Icon id="3195">
                        <href>http://maps.google.com/mapfiles/kml/pushpin/ylw-pushpin.png</href>
                    </Icon>
                </IconStyle>
            </Style>
            <Style id="3198">
                <IconStyle id="3199">
                    <color>ff008000</color>
                    <colorMode>normal</colorMode>
                    <scale>1</scale>
                    <heading>0</heading>
                    <Icon id="3200">
                        <href>http://maps.google.com/mapfiles/kml/pushpin/ylw-pushpin.png</href>
                    </Icon>
                </IconStyle>
            </Style>
            <Style id="3203">
                <IconStyle id="3204">
                    <color>ff008000</color>
                    <colorMode>normal</colorMode>
                    <scale>1</scale>
                    <heading>0</heading>
                    <Icon id="3205">
                        <href>http://maps.google.com/mapfiles/kml/pushpin/ylw-pushpin.png</href>
                    </Icon>
                </IconStyle>
            </Style>
            <Style id="3208">
                <IconStyle id="3209">
                    <color>ff008000</color>
                    <colorMode>normal</colorMode>
                    <scale>1</scale>
                    <heading>0</heading>
                    <Icon id="3210">
                        <href>http://maps.google.com/mapfiles/kml/pushpin/ylw-pushpin.png</href>
                    </Icon>
                </IconStyle>
            </Style>
            <Style id="3213">
                <IconStyle id="3214">
                    <color>ff008000</color>
                    <colorMode>normal</colorMode>
                    <scale>1</scale>
                    <heading>0</heading>
                    <Icon id="3215">
                        <href>http://maps.google.com/mapfiles/kml/pushpin/ylw-pushpin.png</href>
                    </Icon>
                </IconStyle>
            </Style>
            <Style id="3218">
                <IconStyle id="3219">
                    <color>ff008000</color>
                    <colorMode>normal</colorMode>
                    <scale>1</scale>
                    <heading>0</heading>
                    <Icon id="3220">
                        <href>http://maps.google.com/mapfiles/kml/pushpin/ylw-pushpin.png</href>
                    </Icon>
                </IconStyle>
            </Style>
            <Style id="3223">
                <IconStyle id="3224">
                    <color>ff008000</color>
                    <colorMode>normal</colorMode>
                    <scale>1</scale>
                    <heading>0</heading>
                    <Icon id="3225">
                        <href>http://maps.google.com/mapfiles/kml/pushpin/ylw-pushpin.png</href>
                    </Icon>
                </IconStyle>
            </Style>
            <Style id="3228">
                <IconStyle id="3229">
                    <color>ff008000</color>
                    <colorMode>normal</colorMode>
                    <scale>1</scale>
                    <heading>0</heading>
                    <Icon id="3230">
                        <href>http://maps.google.com/mapfiles/kml/pushpin/ylw-pushpin.png</href>
                    </Icon>
                </IconStyle>
            </Style>
            <Style id="3233">
                <IconStyle id="3234">
                    <color>ff008000</color>
                    <colorMode>normal</colorMode>
                    <scale>1</scale>
                    <heading>0</heading>
                    <Icon id="3235">
                        <href>http://maps.google.com/mapfiles/kml/pushpin/ylw-pushpin.png</href>
                    </Icon>
                </IconStyle>
            </Style>
            <Style id="3238">
                <IconStyle id="3239">
                    <color>ff008000</color>
                    <colorMode>normal</colorMode>
                    <scale>1</scale>
                    <heading>0</heading>
                    <Icon id="3240">
                        <href>http://maps.google.com/mapfiles/kml/pushpin/ylw-pushpin.png</href>
                    </Icon>
                </IconStyle>
            </Style>
            <Style id="3243">
                <IconStyle id="3244">
                    <color>ff008000</color>
                    <colorMode>normal</colorMode>
                    <scale>1</scale>
                    <heading>0</heading>
                    <Icon id="3245">
                        <href>http://maps.google.com/mapfiles/kml/pushpin/ylw-pushpin.png</href>
                    </Icon>
                </IconStyle>
            </Style>
            <Style id="3248">
                <IconStyle id="3249">
                    <color>ff008000</color>
                    <colorMode>normal</colorMode>
                    <scale>1</scale>
                    <heading>0</heading>
                    <Icon id="3250">
                        <href>http://maps.google.com/mapfiles/kml/pushpin/ylw-pushpin.png</href>
                    </Icon>
                </IconStyle>
            </Style>
            <Style id="3253">
                <IconStyle id="3254">
                    <color>ff008000</color>
                    <colorMode>normal</colorMode>
                    <scale>1</scale>
                    <heading>0</heading>
                    <Icon id="3255">
                        <href>http://maps.google.com/mapfiles/kml/pushpin/ylw-pushpin.png</href>
                    </Icon>
                </IconStyle>
            </Style>
            <Style id="3258">
                <IconStyle id="3259">
                    <color>ff008000</color>
                    <colorMode>normal</colorMode>
                    <scale>1</scale>
                    <heading>0</heading>
                    <Icon id="3260">
                        <href>http://maps.google.com/mapfiles/kml/pushpin/ylw-pushpin.png</href>
                    </Icon>
                </IconStyle>
            </Style>
            <Style id="3263">
                <IconStyle id="3264">
                    <color>ff008000</color>
                    <colorMode>normal</colorMode>
                    <scale>1</scale>
                    <heading>0</heading>
                    <Icon id="3265">
                        <href>http://maps.google.com/mapfiles/kml/pushpin/ylw-pushpin.png</href>
                    </Icon>
                </IconStyle>
            </Style>
            <Style id="3268">
                <IconStyle id="3269">
                    <color>ff008000</color>
                    <colorMode>normal</colorMode>
                    <scale>1</scale>
                    <heading>0</heading>
                    <Icon id="3270">
                        <href>http://maps.google.com/mapfiles/kml/pushpin/ylw-pushpin.png</href>
                    </Icon>
                </IconStyle>
            </Style>
            <Style id="3273">
                <IconStyle id="3274">
                    <color>ff008000</color>
                    <colorMode>normal</colorMode>
                    <scale>1</scale>
                    <heading>0</heading>
                    <Icon id="3275">
                        <href>http://maps.google.com/mapfiles/kml/pushpin/ylw-pushpin.png</href>
                    </Icon>
                </IconStyle>
            </Style>
            <Style id="3278">
                <IconStyle id="3279">
                    <color>ff008000</color>
                    <colorMode>normal</colorMode>
                    <scale>1</scale>
                    <heading>0</heading>
                    <Icon id="3280">
                        <href>http://maps.google.com/mapfiles/kml/pushpin/ylw-pushpin.png</href>
                    </Icon>
                </IconStyle>
            </Style>
            <Style id="3283">
                <IconStyle id="3284">
                    <color>ff008000</color>
                    <colorMode>normal</colorMode>
                    <scale>1</scale>
                    <heading>0</heading>
                    <Icon id="3285">
                        <href>http://maps.google.com/mapfiles/kml/pushpin/ylw-pushpin.png</href>
                    </Icon>
                </IconStyle>
            </Style>
            <Style id="3288">
                <IconStyle id="3289">
                    <color>ff008000</color>
                    <colorMode>normal</colorMode>
                    <scale>1</scale>
                    <heading>0</heading>
                    <Icon id="3290">
                        <href>http://maps.google.com/mapfiles/kml/pushpin/ylw-pushpin.png</href>
                    </Icon>
                </IconStyle>
            </Style>
            <Style id="3293">
                <IconStyle id="3294">
                    <color>ff008000</color>
                    <colorMode>normal</colorMode>
                    <scale>1</scale>
                    <heading>0</heading>
                    <Icon id="3295">
                        <href>http://maps.google.com/mapfiles/kml/pushpin/ylw-pushpin.png</href>
                    </Icon>
                </IconStyle>
            </Style>
            <Style id="3298">
                <IconStyle id="3299">
                    <color>ff008000</color>
                    <colorMode>normal</colorMode>
                    <scale>1</scale>
                    <heading>0</heading>
                    <Icon id="3300">
                        <href>http://maps.google.com/mapfiles/kml/pushpin/ylw-pushpin.png</href>
                    </Icon>
                </IconStyle>
            </Style>
            <Style id="3303">
                <IconStyle id="3304">
                    <color>ff008000</color>
                    <colorMode>normal</colorMode>
                    <scale>1</scale>
                    <heading>0</heading>
                    <Icon id="3305">
                        <href>http://maps.google.com/mapfiles/kml/pushpin/ylw-pushpin.png</href>
                    </Icon>
                </IconStyle>
            </Style>
            <Style id="3308">
                <IconStyle id="3309">
                    <color>ff008000</color>
                    <colorMode>normal</colorMode>
                    <scale>1</scale>
                    <heading>0</heading>
                    <Icon id="3310">
                        <href>http://maps.google.com/mapfiles/kml/pushpin/ylw-pushpin.png</href>
                    </Icon>
                </IconStyle>
            </Style>
            <Style id="3313">
                <IconStyle id="3314">
                    <color>ff008000</color>
                    <colorMode>normal</colorMode>
                    <scale>1</scale>
                    <heading>0</heading>
                    <Icon id="3315">
                        <href>http://maps.google.com/mapfiles/kml/pushpin/ylw-pushpin.png</href>
                    </Icon>
                </IconStyle>
            </Style>
            <Style id="3318">
                <IconStyle id="3319">
                    <color>ff008000</color>
                    <colorMode>normal</colorMode>
                    <scale>1</scale>
                    <heading>0</heading>
                    <Icon id="3320">
                        <href>http://maps.google.com/mapfiles/kml/pushpin/ylw-pushpin.png</href>
                    </Icon>
                </IconStyle>
            </Style>
            <Style id="3323">
                <IconStyle id="3324">
                    <color>ff008000</color>
                    <colorMode>normal</colorMode>
                    <scale>1</scale>
                    <heading>0</heading>
                    <Icon id="3325">
                        <href>http://maps.google.com/mapfiles/kml/pushpin/ylw-pushpin.png</href>
                    </Icon>
                </IconStyle>
            </Style>
            <Style id="3328">
                <IconStyle id="3329">
                    <color>ff008000</color>
                    <colorMode>normal</colorMode>
                    <scale>1</scale>
                    <heading>0</heading>
                    <Icon id="3330">
                        <href>http://maps.google.com/mapfiles/kml/pushpin/ylw-pushpin.png</href>
                    </Icon>
                </IconStyle>
            </Style>
            <Style id="3333">
                <IconStyle id="3334">
                    <color>ff008000</color>
                    <colorMode>normal</colorMode>
                    <scale>1</scale>
                    <heading>0</heading>
                    <Icon id="3335">
                        <href>http://maps.google.com/mapfiles/kml/pushpin/ylw-pushpin.png</href>
                    </Icon>
                </IconStyle>
            </Style>
            <Style id="3338">
                <IconStyle id="3339">
                    <color>ff008000</color>
                    <colorMode>normal</colorMode>
                    <scale>1</scale>
                    <heading>0</heading>
                    <Icon id="3340">
                        <href>http://maps.google.com/mapfiles/kml/pushpin/ylw-pushpin.png</href>
                    </Icon>
                </IconStyle>
            </Style>
            <Style id="3343">
                <IconStyle id="3344">
                    <color>ff008000</color>
                    <colorMode>normal</colorMode>
                    <scale>1</scale>
                    <heading>0</heading>
                    <Icon id="3345">
                        <href>http://maps.google.com/mapfiles/kml/pushpin/ylw-pushpin.png</href>
                    </Icon>
                </IconStyle>
            </Style>
            <Style id="3348">
                <IconStyle id="3349">
                    <color>ff008000</color>
                    <colorMode>normal</colorMode>
                    <scale>1</scale>
                    <heading>0</heading>
                    <Icon id="3350">
                        <href>http://maps.google.com/mapfiles/kml/pushpin/ylw-pushpin.png</href>
                    </Icon>
                </IconStyle>
            </Style>
            <Style id="3353">
                <IconStyle id="3354">
                    <color>ff008000</color>
                    <colorMode>normal</colorMode>
                    <scale>1</scale>
                    <heading>0</heading>
                    <Icon id="3355">
                        <href>http://maps.google.com/mapfiles/kml/pushpin/ylw-pushpin.png</href>
                    </Icon>
                </IconStyle>
            </Style>
            <Style id="3358">
                <IconStyle id="3359">
                    <color>ff008000</color>
                    <colorMode>normal</colorMode>
                    <scale>1</scale>
                    <heading>0</heading>
                    <Icon id="3360">
                        <href>http://maps.google.com/mapfiles/kml/pushpin/ylw-pushpin.png</href>
                    </Icon>
                </IconStyle>
            </Style>
            <Style id="3363">
                <IconStyle id="3364">
                    <color>ff008000</color>
                    <colorMode>normal</colorMode>
                    <scale>1</scale>
                    <heading>0</heading>
                    <Icon id="3365">
                        <href>http://maps.google.com/mapfiles/kml/pushpin/ylw-pushpin.png</href>
                    </Icon>
                </IconStyle>
            </Style>
            <Style id="3368">
                <IconStyle id="3369">
                    <color>ff008000</color>
                    <colorMode>normal</colorMode>
                    <scale>1</scale>
                    <heading>0</heading>
                    <Icon id="3370">
                        <href>http://maps.google.com/mapfiles/kml/pushpin/ylw-pushpin.png</href>
                    </Icon>
                </IconStyle>
            </Style>
            <name>MARY JISSA DEL PILAR PALACIOS ZAPATA</name>
            <Placemark id="3182">
                <name>IRMA HUAMAN PINTADO</name>
                <description>Calle Pucallpa MZ 21 LT 8 ref frente al parque
Zarumilla
Zarumilla
Tumbes
Perú</description>
                <styleUrl>#3183</styleUrl>
                <Point id="3181">
                    <coordinates>-80.2791118,-3.5108671,0.0</coordinates>
                </Point>
            </Placemark>
            <Placemark id="3187">
                <name>SARLY ROSSI RUIZ INFANTE</name>
                <description>Calle santa rosa con esquina amazonas s/n - pozo elevado sur - zarumilla
Zarumilla
Zarumilla
Tumbes
Perú</description>
                <styleUrl>#3188</styleUrl>
                <Point id="3186">
                    <coordinates>-80.280213,-3.5089454,0.0</coordinates>
                </Point>
            </Placemark>
            <Placemark id="3192">
                <name>ORLANDO LEON CORNEJO</name>
                <description>Calle Nuevo pósitos atrás del jardín
Zarumilla
Zarumilla
Tumbes
Perú</description>
                <styleUrl>#3193</styleUrl>
                <Point id="3191">
                    <coordinates>-80.2673795,-3.5071413,0.0</coordinates>
                </Point>
            </Placemark>
            <Placemark id="3197">
                <name>INNKA COLOMBIA SAC</name>
                <description>INNKA COLOMBIA SAC
Calle independencia
Zarumilla
Zarumilla
Tumbes
Perú</description>
                <styleUrl>#3198</styleUrl>
                <Point id="3196">
                    <coordinates>-80.2749019,-3.5027274,0.0</coordinates>
                </Point>
            </Placemark>
            <Placemark id="3202">
                <name>MARIA TERESA DEL CARMEN URQUIZO HERRERA</name>
                <description>Av. Ramón Castilla 141 Papayal entrada del pueblo, antes de la muni
Papayal
24200Papayal
Tumbes
Perú</description>
                <styleUrl>#3203</styleUrl>
                <Point id="3201">
                    <coordinates>-80.2350002,-3.5704281,0.0</coordinates>
                </Point>
            </Placemark>
            <Placemark id="3207">
                <name>YUBITZA ELIZABETH SALVATIERRA CRUZ</name>
                <description>Av.principal de papayal
Papayal
Papayal
Tumbes
Perú</description>
                <styleUrl>#3208</styleUrl>
                <Point id="3206">
                    <coordinates>-80.2350965,-3.5695982,0.0</coordinates>
                </Point>
            </Placemark>
            <Placemark id="3212">
                <name>JAHSSIEL ELI CAMACHO IPANAQUE</name>
                <description>Calle San Martín 309 por la caja Piura alfrente bodega ELOHIM
Papayal
Papayal
Tumbes
Perú</description>
                <styleUrl>#3213</styleUrl>
                <Point id="3211">
                    <coordinates>-80.214956,-3.5607773,0.0</coordinates>
                </Point>
            </Placemark>
            <Placemark id="3217">
                <name>ROSAURA DEL ROSARIO PIZARRO</name>
                <description>av Brahman carrasco 112 entrada D la palma bodeguita mi Rosaura
Papayal
24200Papayal
Tumbes
Perú</description>
                <styleUrl>#3218</styleUrl>
                <Point id="3216">
                    <coordinates>-80.2181362,-3.5641058,0.0</coordinates>
                </Point>
            </Placemark>
            <Placemark id="3222">
                <name>AURI ESTELA PIZARRO MARCHAN</name>
                <description> barrio San José villa uña de gato 
Papayal
24200Papayal
Tumbes
Perú</description>
                <styleUrl>#3223</styleUrl>
                <Point id="3221">
                    <coordinates>-80.2318392,-3.5422243,0.0</coordinates>
                </Point>
            </Placemark>
            <Placemark id="3227">
                <name>CARLOS ENRIQUE ZETA NAMUCHE</name>
                <description>Av 28 julio 337 ref el profe
Zarumilla
Zarumilla
Tumbes
Perú</description>
                <styleUrl>#3228</styleUrl>
                <Point id="3226">
                    <coordinates>-80.2740529,-3.5024842,0.0</coordinates>
                </Point>
            </Placemark>
            <Placemark id="3232">
                <name>GRUPO MY ROXANA S.A.C.</name>
                <description>GRUPO MY ROXANA S.A.C.
JR. SAN JOSE NRO. 119 VLL.  UÑA DE GATO
Papayal
240304Papayal
Tumbes
Perú</description>
                <styleUrl>#3233</styleUrl>
                <Point id="3231">
                    <coordinates>-80.2312233,-3.5399783,0.0</coordinates>
                </Point>
            </Placemark>
            <Placemark id="3237">
                <name>MARIA EUGENIA RODRIGUEZ TINEO</name>
                <description> jirón las Mercedes  villa uña de gato 
Papayal
24200Papayal
Tumbes
Perú</description>
                <styleUrl>#3238</styleUrl>
                <Point id="3236">
                    <coordinates>-80.2288896,-3.5383805,0.0</coordinates>
                </Point>
            </Placemark>
            <Placemark id="3242">
                <name>MARIA EUGENIA RODRIGUEZ TINEO</name>
                <description> jirón las Mercedes  villa uña de gato 
Papayal
24200Papayal
Tumbes
Perú</description>
                <styleUrl>#3243</styleUrl>
                <Point id="3241">
                    <coordinates>-80.2288896,-3.5383805,0.0</coordinates>
                </Point>
            </Placemark>
            <Placemark id="3247">
                <name>FABIOLA LISBET MARCHAN SILVA</name>
                <description>la garita  215 uña de gato al frente al gimnasio
Papayal
24200Papayal
Tumbes
Perú</description>
                <styleUrl>#3248</styleUrl>
                <Point id="3246">
                    <coordinates>-80.233196,-3.5366733,0.0</coordinates>
                </Point>
            </Placemark>
            <Placemark id="3252">
                <name>LEYDI LISBETH LOPEZ PINTADO</name>
                <description>Uña de gato 107 ref frente al cemaforo
Zarumilla


Perú</description>
                <styleUrl>#3253</styleUrl>
                <Point id="3251">
                    <coordinates>-80.2346581,-3.5355716,0.0</coordinates>
                </Point>
            </Placemark>
            <Placemark id="3257">
                <name>NELLY CARRILLO CARRANZA</name>
                <description>la garita 109 frente a la plataforma  uña de gato
Papayal
24200Papayal
Tumbes
Perú</description>
                <styleUrl>#3258</styleUrl>
                <Point id="3256">
                    <coordinates>-80.2344493,-3.5355641,0.0</coordinates>
                </Point>
            </Placemark>
            <Placemark id="3262">
                <name>SHIRLEY JANNET NOLE CHUQUIHUANCA</name>
                <description>Cuchareta alta ref frente al jardín 063
Zarumilla

Tumbes
Perú</description>
                <styleUrl>#3263</styleUrl>
                <Point id="3261">
                    <coordinates>-80.2376743,-3.5300523,0.0</coordinates>
                </Point>
            </Placemark>
            <Placemark id="3267">
                <name>YARICSA FLORES YACILA</name>
                <description>JR Huascar 116 - Miraflores - zarumilla
Zarumilla
24101Zarumilla
Tumbes
Perú</description>
                <styleUrl>#3268</styleUrl>
                <Point id="3266">
                    <coordinates>-80.2750639,-3.5086222,0.0</coordinates>
                </Point>
            </Placemark>
            <Placemark id="3272">
                <name>INNKA COLOMBIA SAC</name>
                <description>INNKA COLOMBIA SAC
Calle independencia
Zarumilla
Zarumilla
Tumbes
Perú</description>
                <styleUrl>#3273</styleUrl>
                <Point id="3271">
                    <coordinates>-80.2749019,-3.5027274,0.0</coordinates>
                </Point>
            </Placemark>
            <Placemark id="3277">
                <name>LIDIA LIZANA HUANCAS</name>
                <description>Calle la Industrial Ref.frente al complejo los pinos la Rocana
Zarumilla
Zarumilla
Tumbes
Perú</description>
                <styleUrl>#3278</styleUrl>
                <Point id="3276">
                    <coordinates>-80.2826249,-3.4955325,0.0</coordinates>
                </Point>
            </Placemark>
            <Placemark id="3282">
                <name>HERMINIA CIELO NUÑEZ DE LOPEZ</name>
                <description>La Rocana ref más adelante la cebollera
Zarumilla


Perú</description>
                <styleUrl>#3283</styleUrl>
                <Point id="3281">
                    <coordinates>-80.2812384,-3.4964994,0.0</coordinates>
                </Point>
            </Placemark>
            <Placemark id="3287">
                <name>JOSE SANTOS CASTILLO CUTIN</name>
                <description>PJ Benedicto MZ B LT 3
Zarumilla
Zarumilla
Tumbes
Perú</description>
                <styleUrl>#3288</styleUrl>
                <Point id="3286">
                    <coordinates>-80.2797839,-3.4988487,0.0</coordinates>
                </Point>
            </Placemark>
            <Placemark id="3292">
                <name>SARLY ROSSI RUIZ INFANTE</name>
                <description>Calle santa rosa con esquina amazonas s/n - pozo elevado sur - zarumilla
Zarumilla
Zarumilla
Tumbes
Perú</description>
                <styleUrl>#3293</styleUrl>
                <Point id="3291">
                    <coordinates>-80.280213,-3.5089454,0.0</coordinates>
                </Point>
            </Placemark>
            <Placemark id="3297">
                <name>JUAREZ LOPEZ SARITA SMITH</name>
                <description>Pozo elevado pasaje Loreto MZL LT 01 ref una cuar antes tecnologico
Zarumilla
Zarumilla
Tumbes
Perú</description>
                <styleUrl>#3298</styleUrl>
                <Point id="3296">
                    <coordinates>-80.2802162,-3.5073029,0.0</coordinates>
                </Point>
            </Placemark>
            <Placemark id="3302">
                <name>MARITZA BEATRIZ CESPEDES VINCES</name>
                <description>Calle santa rosa s/n - pozo elevado sur - zarumilla
Zarumilla
TumbesZarumilla
Tumbes
Perú</description>
                <styleUrl>#3303</styleUrl>
                <Point id="3301">
                    <coordinates>-80.2794123,-3.5071685,0.0</coordinates>
                </Point>
            </Placemark>
            <Placemark id="3307">
                <name>MARITZA BEATRIZ CESPEDES VINCES</name>
                <description>Calle santa rosa s/n - pozo elevado sur - zarumilla
Zarumilla
TumbesZarumilla
Tumbes
Perú</description>
                <styleUrl>#3308</styleUrl>
                <Point id="3306">
                    <coordinates>-80.2794123,-3.5071685,0.0</coordinates>
                </Point>
            </Placemark>
            <Placemark id="3312">
                <name>CLARA NIMA JIMENEZ</name>
                <description>calle tumbes mz J - lote 03 
Zarumilla
Zarumilla
Tumbes
Perú</description>
                <styleUrl>#3313</styleUrl>
                <Point id="3311">
                    <coordinates>-80.2791412,-3.5082774,0.0</coordinates>
                </Point>
            </Placemark>
            <Placemark id="3317">
                <name>CLARA NIMA JIMENEZ</name>
                <description>calle tumbes mz J - lote 03 
Zarumilla
Zarumilla
Tumbes
Perú</description>
                <styleUrl>#3318</styleUrl>
                <Point id="3316">
                    <coordinates>-80.2791412,-3.5082774,0.0</coordinates>
                </Point>
            </Placemark>
            <Placemark id="3322">
                <name>IRMA HUAMAN PINTADO</name>
                <description>Calle Pucallpa MZ 21 LT 8 ref frente al parque
Zarumilla
Zarumilla
Tumbes
Perú</description>
                <styleUrl>#3323</styleUrl>
                <Point id="3321">
                    <coordinates>-80.2791118,-3.5108671,0.0</coordinates>
                </Point>
            </Placemark>
            <Placemark id="3327">
                <name>MARIA DORIS SANTISTEBAN CHAPOÑAN</name>
                <description>Calle Amazonas ref fondo cementerio lado izquierdo hacia fondo
Zarumilla
Zarumilla
Tumbes
Perú</description>
                <styleUrl>#3328</styleUrl>
                <Point id="3326">
                    <coordinates>-80.2775769,-3.510261,0.0</coordinates>
                </Point>
            </Placemark>
            <Placemark id="3332">
                <name>BICDIA CATERINE PEÑA CARRILLO</name>
                <description>Calle Huáscar 400 ref colegio Miraflores
Zarumilla
Zarumilla
Tumbes
Perú</description>
                <styleUrl>#3333</styleUrl>
                <Point id="3331">
                    <coordinates>-80.2731022,-3.5057626,0.0</coordinates>
                </Point>
            </Placemark>
            <Placemark id="3337">
                <name>YESENDA MARILU CERDAN MORAN</name>
                <description>Calle independencia 218 - zarumilla
Zarumilla
24101Zarumilla
Tumbes
Perú</description>
                <styleUrl>#3338</styleUrl>
                <Point id="3336">
                    <coordinates>-80.27556,-3.503847,0.0</coordinates>
                </Point>
            </Placemark>
            <Placemark id="3342">
                <name>LORENA DEL PILAR CEDILLO LOPEZ</name>
                <description>Av circunvalación s/n - Miraflores -  zarumilla
Zarumilla
24101Zarumilla
Tumbes
Perú</description>
                <styleUrl>#3343</styleUrl>
                <Point id="3341">
                    <coordinates>-80.269265,-3.5049421,0.0</coordinates>
                </Point>
            </Placemark>
            <Placemark id="3347">
                <name>ORLANDO LEON CORNEJO</name>
                <description>Calle Nuevo pósitos atrás del jardín
Zarumilla
Zarumilla
Tumbes
Perú</description>
                <styleUrl>#3348</styleUrl>
                <Point id="3346">
                    <coordinates>-80.2673795,-3.5071413,0.0</coordinates>
                </Point>
            </Placemark>
            <Placemark id="3352">
                <name>SANTOS YOLANDA BECERRA LOYOLA</name>
                <description>Av 28 julio 1015 ahah Miraflores
Zarumilla
TUMBESZarumilla
Tumbes
Perú</description>
                <styleUrl>#3353</styleUrl>
                <Point id="3351">
                    <coordinates>-80.2701025,-3.5064107,0.0</coordinates>
                </Point>
            </Placemark>
            <Placemark id="3357">
                <name>WILMER ALEXANDER NUNURA SOTO</name>
                <description>Calle Paita MZ 9 LT
Zarumilla
TumbesZarumilla
Tumbes
Perú</description>
                <styleUrl>#3358</styleUrl>
                <Point id="3356">
                    <coordinates>-80.2669841,-3.5039344,0.0</coordinates>
                </Point>
            </Placemark>
            <Placemark id="3362">
                <name>JHONY ALEXI VILCHEZ NOLE</name>
                <description>JR Tarapacá sur # 503
Zarumilla
Zarumilla
Tumbes
Perú</description>
                <styleUrl>#3363</styleUrl>
                <Point id="3361">
                    <coordinates>-80.2693425,-3.5037239,0.0</coordinates>
                </Point>
            </Placemark>
            <Placemark id="3367">
                <name>KAREM GABRIELA FLORES QUINCHE</name>
                <description>Calle Grau s/n Miraflores zarumilla
Zarumilla
Zarumilla
Tumbes
Perú</description>
                <styleUrl>#3368</styleUrl>
                <Point id="3366">
                    <coordinates>-80.2692024,-3.5025674,0.0</coordinates>
                </Point>
            </Placemark>
        </Folder>
    </Document>
</kml>
