<?xml version="1.0" encoding="UTF-8"?>
<kml xmlns="http://www.opengis.net/kml/2.2" xmlns:gx="http://www.google.com/kml/ext/2.2">
    <Document id="2894">
        <Folder id="2895">
            <Style id="2898">
                <IconStyle id="2899">
                    <color>ff0000ff</color>
                    <colorMode>normal</colorMode>
                    <scale>1</scale>
                    <heading>0</heading>
                    <Icon id="2900">
                        <href>http://maps.google.com/mapfiles/kml/pushpin/ylw-pushpin.png</href>
                    </Icon>
                </IconStyle>
            </Style>
            <Style id="2903">
                <IconStyle id="2904">
                    <color>ff0000ff</color>
                    <colorMode>normal</colorMode>
                    <scale>1</scale>
                    <heading>0</heading>
                    <Icon id="2905">
                        <href>http://maps.google.com/mapfiles/kml/pushpin/ylw-pushpin.png</href>
                    </Icon>
                </IconStyle>
            </Style>
            <Style id="2908">
                <IconStyle id="2909">
                    <color>ff0000ff</color>
                    <colorMode>normal</colorMode>
                    <scale>1</scale>
                    <heading>0</heading>
                    <Icon id="2910">
                        <href>http://maps.google.com/mapfiles/kml/pushpin/ylw-pushpin.png</href>
                    </Icon>
                </IconStyle>
            </Style>
            <Style id="2913">
                <IconStyle id="2914">
                    <color>ff0000ff</color>
                    <colorMode>normal</colorMode>
                    <scale>1</scale>
                    <heading>0</heading>
                    <Icon id="2915">
                        <href>http://maps.google.com/mapfiles/kml/pushpin/ylw-pushpin.png</href>
                    </Icon>
                </IconStyle>
            </Style>
            <Style id="2918">
                <IconStyle id="2919">
                    <color>ff0000ff</color>
                    <colorMode>normal</colorMode>
                    <scale>1</scale>
                    <heading>0</heading>
                    <Icon id="2920">
                        <href>http://maps.google.com/mapfiles/kml/pushpin/ylw-pushpin.png</href>
                    </Icon>
                </IconStyle>
            </Style>
            <Style id="2923">
                <IconStyle id="2924">
                    <color>ff0000ff</color>
                    <colorMode>normal</colorMode>
                    <scale>1</scale>
                    <heading>0</heading>
                    <Icon id="2925">
                        <href>http://maps.google.com/mapfiles/kml/pushpin/ylw-pushpin.png</href>
                    </Icon>
                </IconStyle>
            </Style>
            <Style id="2928">
                <IconStyle id="2929">
                    <color>ff0000ff</color>
                    <colorMode>normal</colorMode>
                    <scale>1</scale>
                    <heading>0</heading>
                    <Icon id="2930">
                        <href>http://maps.google.com/mapfiles/kml/pushpin/ylw-pushpin.png</href>
                    </Icon>
                </IconStyle>
            </Style>
            <Style id="2933">
                <IconStyle id="2934">
                    <color>ff0000ff</color>
                    <colorMode>normal</colorMode>
                    <scale>1</scale>
                    <heading>0</heading>
                    <Icon id="2935">
                        <href>http://maps.google.com/mapfiles/kml/pushpin/ylw-pushpin.png</href>
                    </Icon>
                </IconStyle>
            </Style>
            <Style id="2938">
                <IconStyle id="2939">
                    <color>ff0000ff</color>
                    <colorMode>normal</colorMode>
                    <scale>1</scale>
                    <heading>0</heading>
                    <Icon id="2940">
                        <href>http://maps.google.com/mapfiles/kml/pushpin/ylw-pushpin.png</href>
                    </Icon>
                </IconStyle>
            </Style>
            <Style id="2943">
                <IconStyle id="2944">
                    <color>ff0000ff</color>
                    <colorMode>normal</colorMode>
                    <scale>1</scale>
                    <heading>0</heading>
                    <Icon id="2945">
                        <href>http://maps.google.com/mapfiles/kml/pushpin/ylw-pushpin.png</href>
                    </Icon>
                </IconStyle>
            </Style>
            <Style id="2948">
                <IconStyle id="2949">
                    <color>ff0000ff</color>
                    <colorMode>normal</colorMode>
                    <scale>1</scale>
                    <heading>0</heading>
                    <Icon id="2950">
                        <href>http://maps.google.com/mapfiles/kml/pushpin/ylw-pushpin.png</href>
                    </Icon>
                </IconStyle>
            </Style>
            <Style id="2953">
                <IconStyle id="2954">
                    <color>ff0000ff</color>
                    <colorMode>normal</colorMode>
                    <scale>1</scale>
                    <heading>0</heading>
                    <Icon id="2955">
                        <href>http://maps.google.com/mapfiles/kml/pushpin/ylw-pushpin.png</href>
                    </Icon>
                </IconStyle>
            </Style>
            <Style id="2958">
                <IconStyle id="2959">
                    <color>ff0000ff</color>
                    <colorMode>normal</colorMode>
                    <scale>1</scale>
                    <heading>0</heading>
                    <Icon id="2960">
                        <href>http://maps.google.com/mapfiles/kml/pushpin/ylw-pushpin.png</href>
                    </Icon>
                </IconStyle>
            </Style>
            <Style id="2963">
                <IconStyle id="2964">
                    <color>ff0000ff</color>
                    <colorMode>normal</colorMode>
                    <scale>1</scale>
                    <heading>0</heading>
                    <Icon id="2965">
                        <href>http://maps.google.com/mapfiles/kml/pushpin/ylw-pushpin.png</href>
                    </Icon>
                </IconStyle>
            </Style>
            <Style id="2968">
                <IconStyle id="2969">
                    <color>ff0000ff</color>
                    <colorMode>normal</colorMode>
                    <scale>1</scale>
                    <heading>0</heading>
                    <Icon id="2970">
                        <href>http://maps.google.com/mapfiles/kml/pushpin/ylw-pushpin.png</href>
                    </Icon>
                </IconStyle>
            </Style>
            <Style id="2973">
                <IconStyle id="2974">
                    <color>ff0000ff</color>
                    <colorMode>normal</colorMode>
                    <scale>1</scale>
                    <heading>0</heading>
                    <Icon id="2975">
                        <href>http://maps.google.com/mapfiles/kml/pushpin/ylw-pushpin.png</href>
                    </Icon>
                </IconStyle>
            </Style>
            <Style id="2978">
                <IconStyle id="2979">
                    <color>ff0000ff</color>
                    <colorMode>normal</colorMode>
                    <scale>1</scale>
                    <heading>0</heading>
                    <Icon id="2980">
                        <href>http://maps.google.com/mapfiles/kml/pushpin/ylw-pushpin.png</href>
                    </Icon>
                </IconStyle>
            </Style>
            <Style id="2983">
                <IconStyle id="2984">
                    <color>ff0000ff</color>
                    <colorMode>normal</colorMode>
                    <scale>1</scale>
                    <heading>0</heading>
                    <Icon id="2985">
                        <href>http://maps.google.com/mapfiles/kml/pushpin/ylw-pushpin.png</href>
                    </Icon>
                </IconStyle>
            </Style>
            <Style id="2988">
                <IconStyle id="2989">
                    <color>ff0000ff</color>
                    <colorMode>normal</colorMode>
                    <scale>1</scale>
                    <heading>0</heading>
                    <Icon id="2990">
                        <href>http://maps.google.com/mapfiles/kml/pushpin/ylw-pushpin.png</href>
                    </Icon>
                </IconStyle>
            </Style>
            <Style id="2993">
                <IconStyle id="2994">
                    <color>ff0000ff</color>
                    <colorMode>normal</colorMode>
                    <scale>1</scale>
                    <heading>0</heading>
                    <Icon id="2995">
                        <href>http://maps.google.com/mapfiles/kml/pushpin/ylw-pushpin.png</href>
                    </Icon>
                </IconStyle>
            </Style>
            <Style id="2998">
                <IconStyle id="2999">
                    <color>ff0000ff</color>
                    <colorMode>normal</colorMode>
                    <scale>1</scale>
                    <heading>0</heading>
                    <Icon id="3000">
                        <href>http://maps.google.com/mapfiles/kml/pushpin/ylw-pushpin.png</href>
                    </Icon>
                </IconStyle>
            </Style>
            <name>JAIRO JOSUE GONZALES GUERRERO</name>
            <Placemark id="2897">
                <name>TORRES PORTILLA ALEJANDRO DAVID</name>
                <description>TORRES PORTILLA ALEJANDRO DAVID
Av España MZ 33 A lote 4- complejo Zarumilla
Aguas Verdes
Aguas Verdes
Tumbes
Perú</description>
                <styleUrl>#2898</styleUrl>
                <Point id="2896">
                    <coordinates>-80.2609831,-3.4848142,0.0</coordinates>
                </Point>
            </Placemark>
            <Placemark id="2902">
                <name>MIRELLA GALECIO ACARO</name>
                <description>Jr manco inca mz 07 lote 25 - campo amor - zarumilla
Zarumilla
Zarumilla
Tumbes
Perú</description>
                <styleUrl>#2903</styleUrl>
                <Point id="2901">
                    <coordinates>-80.272324,-3.493596,0.0</coordinates>
                </Point>
            </Placemark>
            <Placemark id="2907">
                <name>TARCILA HUANCAS SANTOS</name>
                <description>JR lampa mz 11 lote 10 - zarumilla
Zarumilla
24101Zarumilla
Tumbes
Perú</description>
                <styleUrl>#2908</styleUrl>
                <Point id="2906">
                    <coordinates>-80.2773409,-3.491862,0.0</coordinates>
                </Point>
            </Placemark>
            <Placemark id="2912">
                <name>TORRES PORTILLA ALEJANDRO DAVID</name>
                <description>TORRES PORTILLA ALEJANDRO DAVID
Av España MZ 33 A lote 4- complejo Zarumilla
Aguas Verdes
Aguas Verdes
Tumbes
Perú</description>
                <styleUrl>#2913</styleUrl>
                <Point id="2911">
                    <coordinates>-80.2609831,-3.4848142,0.0</coordinates>
                </Point>
            </Placemark>
            <Placemark id="2917">
                <name>ISAMAR SANDOVAL TABOADA</name>
                <description>dirección pasaje  frente al parque
Aguas Verdes
24101Aguas Verdes
Tumbes
Perú</description>
                <styleUrl>#2918</styleUrl>
                <Point id="2916">
                    <coordinates>-80.2617783,-3.4850288,0.0</coordinates>
                </Point>
            </Placemark>
            <Placemark id="2922">
                <name>TORRES PORTILLA ALEJANDRO DAVID</name>
                <description>TORRES PORTILLA ALEJANDRO DAVID
Av España MZ 33 A lote 4- complejo Zarumilla
Aguas Verdes
Aguas Verdes
Tumbes
Perú</description>
                <styleUrl>#2923</styleUrl>
                <Point id="2921">
                    <coordinates>-80.2609831,-3.4848142,0.0</coordinates>
                </Point>
            </Placemark>
            <Placemark id="2927">
                <name>KATHRIN JAZMIN TABOADA NOLE</name>
                <description>Av República del Perú MZ 36 lote 10 Referencia al frente de la picanteria la antonia
Aguas Verdes
Aguas Verdes
Tumbes
Perú</description>
                <styleUrl>#2928</styleUrl>
                <Point id="2926">
                    <coordinates>-80.265301,-3.485605,0.0</coordinates>
                </Point>
            </Placemark>
            <Placemark id="2932">
                <name>EUGENIA PEÑA ALBERCA</name>
                <description>Calle Valparaíso Mza lt 10 pasando 2 cuadras de ex corral de vacas mano derecha
Aguas Verdes
Aguas Verdes
Tumbes
Perú</description>
                <styleUrl>#2933</styleUrl>
                <Point id="2931">
                    <coordinates>-80.2657519,-3.4822605,0.0</coordinates>
                </Point>
            </Placemark>
            <Placemark id="2937">
                <name>CESY DOMITILA FACUNDO LABAN</name>
                <description>Calle Havana mz L tote 15 -  AAHH Alberto Fujimori ref. Al frente de inversiones giltogmar
Aguas Verdes
Aguas Verdes
Tumbes
Perú</description>
                <styleUrl>#2938</styleUrl>
                <Point id="2936">
                    <coordinates>-80.2675705,-3.4832513,0.0</coordinates>
                </Point>
            </Placemark>
            <Placemark id="2942">
                <name>ANA MARIA RAMIREZ ORTIZ</name>
                <description>Jirón buscarán mz B lote - referencia portón negro la cancha - sector 28 de julio ampliación Jose de San Martín
Aguas Verdes
Aguas Verdes
Tumbes
Perú</description>
                <styleUrl>#2943</styleUrl>
                <Point id="2941">
                    <coordinates>-80.2691718,-3.483278,0.0</coordinates>
                </Point>
            </Placemark>
            <Placemark id="2947">
                <name>MARIA MAGDALENA LOPEZ CASTILLO</name>
                <description>Calle el progreso Mz n lt 06 - 28 de julio Referencia una cuadra de rayitos de luz Zarumilla -
Zarumilla
Zarumilla
Tumbes
Perú</description>
                <styleUrl>#2948</styleUrl>
                <Point id="2946">
                    <coordinates>-80.267013,-3.48568,0.0</coordinates>
                </Point>
            </Placemark>
            <Placemark id="2952">
                <name>MARIA DEL PILAR NONAJULCA LALANGUI</name>
                <description>Las Lomas  _ Ref cerca al canal
Tumbes
Tumbes
Tumbes
Perú</description>
                <styleUrl>#2953</styleUrl>
                <Point id="2951">
                    <coordinates>-80.4137641,-3.5800658,0.0</coordinates>
                </Point>
            </Placemark>
            <Placemark id="2957">
                <name>YCELA MARGARITA PEREZ PEREZ</name>
                <description>Calle begonia mz b lt 05 -28 de julio - zarumilla Referencia al espalda del seguro
Aguas Verdes
Aguas Verdes
Tumbes
Perú</description>
                <styleUrl>#2958</styleUrl>
                <Point id="2956">
                    <coordinates>-80.2678571,-3.4880166,0.0</coordinates>
                </Point>
            </Placemark>
            <Placemark id="2962">
                <name>ERIKA DEL ROCIO AVILA SANCHEZ</name>
                <description>Jr próceres s/n - AAHH 28 de julio - zarumilla
Aguas Verdes
Aguas Verdes
Tumbes
Perú</description>
                <styleUrl>#2963</styleUrl>
                <Point id="2961">
                    <coordinates>-80.2654702,-3.4879304,0.0</coordinates>
                </Point>
            </Placemark>
            <Placemark id="2967">
                <name>MARIA YSABEL YARLEQUE REYES</name>
                <description>Calle Girón sucre Mz 17 lt 02
Zarumilla
Zarumilla
Tumbes
Perú</description>
                <styleUrl>#2968</styleUrl>
                <Point id="2966">
                    <coordinates>-80.2727353,-3.4895679,0.0</coordinates>
                </Point>
            </Placemark>
            <Placemark id="2972">
                <name>MIRELLA GALECIO ACARO</name>
                <description>Jr manco inca mz 07 lote 25 - campo amor - zarumilla
Zarumilla
Zarumilla
Tumbes
Perú</description>
                <styleUrl>#2973</styleUrl>
                <Point id="2971">
                    <coordinates>-80.272324,-3.493596,0.0</coordinates>
                </Point>
            </Placemark>
            <Placemark id="2977">
                <name>VILMA TINEO TINEO</name>
                <description>calle Ucayali mz 14 lote 8 - campo amor . ( de la comisaría a la derecha - al frente del pampon porton plomo)
Zarumilla

Tumbes
Perú</description>
                <styleUrl>#2978</styleUrl>
                <Point id="2976">
                    <coordinates>-80.2759022,-3.4903093,0.0</coordinates>
                </Point>
            </Placemark>
            <Placemark id="2982">
                <name>Grimanesa tineo huancas</name>
                <description>Calle ilo Mz e - 18 lote 24 - campo amor - ref. Al frente de la canchita
Zarumilla
Contralmirante Villar
Tumbes
Perú</description>
                <styleUrl>#2983</styleUrl>
                <Point id="2981">
                    <coordinates>-80.273384,-3.489612,0.0</coordinates>
                </Point>
            </Placemark>
            <Placemark id="2987">
                <name>YURI ELIZABETH VALLADOLID CAMPOS</name>
                <description>Av Bogotá MZ o lt14- aahh Alberto Fujimori Zarumilla - completo - alfrente de la camaronera de percy
Aguas Verdes
Aguas Verdes
Tumbes
Perú</description>
                <styleUrl>#2988</styleUrl>
                <Point id="2986">
                    <coordinates>-80.266584,-3.4849163,0.0</coordinates>
                </Point>
            </Placemark>
            <Placemark id="2992">
                <name>FLOR DE MARIA HUAYNA VIVANCO</name>
                <description>Calle el salto s/n - el bendito - zarumilla
Zarumilla

Tumbes
Perú</description>
                <styleUrl>#2993</styleUrl>
                <Point id="2991">
                    <coordinates>-80.316877,-3.452019,0.0</coordinates>
                </Point>
            </Placemark>
            <Placemark id="2997">
                <name>MELVA DIGNA MASIAS HERRERA</name>
                <description>Calle Diego Ferrer 105 - carpitas - mancora Referencia antes del cartel azul puesto aduanero de control quebrada de carpitas
Mancora
Sullana
Piura
Perú</description>
                <styleUrl>#2998</styleUrl>
                <Point id="2996">
                    <coordinates>-80.9629,-4.026148,0.0</coordinates>
                </Point>
            </Placemark>
        </Folder>
        <Folder id="3001">
            <Style id="3004">
                <IconStyle id="3005">
                    <color>ffff0000</color>
                    <colorMode>normal</colorMode>
                    <scale>1</scale>
                    <heading>0</heading>
                    <Icon id="3006">
                        <href>http://maps.google.com/mapfiles/kml/pushpin/ylw-pushpin.png</href>
                    </Icon>
                </IconStyle>
            </Style>
            <Style id="3009">
                <IconStyle id="3010">
                    <color>ffff0000</color>
                    <colorMode>normal</colorMode>
                    <scale>1</scale>
                    <heading>0</heading>
                    <Icon id="3011">
                        <href>http://maps.google.com/mapfiles/kml/pushpin/ylw-pushpin.png</href>
                    </Icon>
                </IconStyle>
            </Style>
            <Style id="3014">
                <IconStyle id="3015">
                    <color>ffff0000</color>
                    <colorMode>normal</colorMode>
                    <scale>1</scale>
                    <heading>0</heading>
                    <Icon id="3016">
                        <href>http://maps.google.com/mapfiles/kml/pushpin/ylw-pushpin.png</href>
                    </Icon>
                </IconStyle>
            </Style>
            <Style id="3019">
                <IconStyle id="3020">
                    <color>ffff0000</color>
                    <colorMode>normal</colorMode>
                    <scale>1</scale>
                    <heading>0</heading>
                    <Icon id="3021">
                        <href>http://maps.google.com/mapfiles/kml/pushpin/ylw-pushpin.png</href>
                    </Icon>
                </IconStyle>
            </Style>
            <Style id="3024">
                <IconStyle id="3025">
                    <color>ffff0000</color>
                    <colorMode>normal</colorMode>
                    <scale>1</scale>
                    <heading>0</heading>
                    <Icon id="3026">
                        <href>http://maps.google.com/mapfiles/kml/pushpin/ylw-pushpin.png</href>
                    </Icon>
                </IconStyle>
            </Style>
            <Style id="3029">
                <IconStyle id="3030">
                    <color>ffff0000</color>
                    <colorMode>normal</colorMode>
                    <scale>1</scale>
                    <heading>0</heading>
                    <Icon id="3031">
                        <href>http://maps.google.com/mapfiles/kml/pushpin/ylw-pushpin.png</href>
                    </Icon>
                </IconStyle>
            </Style>
            <Style id="3034">
                <IconStyle id="3035">
                    <color>ffff0000</color>
                    <colorMode>normal</colorMode>
                    <scale>1</scale>
                    <heading>0</heading>
                    <Icon id="3036">
                        <href>http://maps.google.com/mapfiles/kml/pushpin/ylw-pushpin.png</href>
                    </Icon>
                </IconStyle>
            </Style>
            <Style id="3039">
                <IconStyle id="3040">
                    <color>ffff0000</color>
                    <colorMode>normal</colorMode>
                    <scale>1</scale>
                    <heading>0</heading>
                    <Icon id="3041">
                        <href>http://maps.google.com/mapfiles/kml/pushpin/ylw-pushpin.png</href>
                    </Icon>
                </IconStyle>
            </Style>
            <Style id="3044">
                <IconStyle id="3045">
                    <color>ffff0000</color>
                    <colorMode>normal</colorMode>
                    <scale>1</scale>
                    <heading>0</heading>
                    <Icon id="3046">
                        <href>http://maps.google.com/mapfiles/kml/pushpin/ylw-pushpin.png</href>
                    </Icon>
                </IconStyle>
            </Style>
            <Style id="3049">
                <IconStyle id="3050">
                    <color>ffff0000</color>
                    <colorMode>normal</colorMode>
                    <scale>1</scale>
                    <heading>0</heading>
                    <Icon id="3051">
                        <href>http://maps.google.com/mapfiles/kml/pushpin/ylw-pushpin.png</href>
                    </Icon>
                </IconStyle>
            </Style>
            <Style id="3054">
                <IconStyle id="3055">
                    <color>ffff0000</color>
                    <colorMode>normal</colorMode>
                    <scale>1</scale>
                    <heading>0</heading>
                    <Icon id="3056">
                        <href>http://maps.google.com/mapfiles/kml/pushpin/ylw-pushpin.png</href>
                    </Icon>
                </IconStyle>
            </Style>
            <Style id="3059">
                <IconStyle id="3060">
                    <color>ffff0000</color>
                    <colorMode>normal</colorMode>
                    <scale>1</scale>
                    <heading>0</heading>
                    <Icon id="3061">
                        <href>http://maps.google.com/mapfiles/kml/pushpin/ylw-pushpin.png</href>
                    </Icon>
                </IconStyle>
            </Style>
            <Style id="3064">
                <IconStyle id="3065">
                    <color>ffff0000</color>
                    <colorMode>normal</colorMode>
                    <scale>1</scale>
                    <heading>0</heading>
                    <Icon id="3066">
                        <href>http://maps.google.com/mapfiles/kml/pushpin/ylw-pushpin.png</href>
                    </Icon>
                </IconStyle>
            </Style>
            <Style id="3069">
                <IconStyle id="3070">
                    <color>ffff0000</color>
                    <colorMode>normal</colorMode>
                    <scale>1</scale>
                    <heading>0</heading>
                    <Icon id="3071">
                        <href>http://maps.google.com/mapfiles/kml/pushpin/ylw-pushpin.png</href>
                    </Icon>
                </IconStyle>
            </Style>
            <Style id="3074">
                <IconStyle id="3075">
                    <color>ffff0000</color>
                    <colorMode>normal</colorMode>
                    <scale>1</scale>
                    <heading>0</heading>
                    <Icon id="3076">
                        <href>http://maps.google.com/mapfiles/kml/pushpin/ylw-pushpin.png</href>
                    </Icon>
                </IconStyle>
            </Style>
            <Style id="3079">
                <IconStyle id="3080">
                    <color>ffff0000</color>
                    <colorMode>normal</colorMode>
                    <scale>1</scale>
                    <heading>0</heading>
                    <Icon id="3081">
                        <href>http://maps.google.com/mapfiles/kml/pushpin/ylw-pushpin.png</href>
                    </Icon>
                </IconStyle>
            </Style>
            <Style id="3084">
                <IconStyle id="3085">
                    <color>ffff0000</color>
                    <colorMode>normal</colorMode>
                    <scale>1</scale>
                    <heading>0</heading>
                    <Icon id="3086">
                        <href>http://maps.google.com/mapfiles/kml/pushpin/ylw-pushpin.png</href>
                    </Icon>
                </IconStyle>
            </Style>
            <Style id="3089">
                <IconStyle id="3090">
                    <color>ffff0000</color>
                    <colorMode>normal</colorMode>
                    <scale>1</scale>
                    <heading>0</heading>
                    <Icon id="3091">
                        <href>http://maps.google.com/mapfiles/kml/pushpin/ylw-pushpin.png</href>
                    </Icon>
                </IconStyle>
            </Style>
            <Style id="3094">
                <IconStyle id="3095">
                    <color>ffff0000</color>
                    <colorMode>normal</colorMode>
                    <scale>1</scale>
                    <heading>0</heading>
                    <Icon id="3096">
                        <href>http://maps.google.com/mapfiles/kml/pushpin/ylw-pushpin.png</href>
                    </Icon>
                </IconStyle>
            </Style>
            <Style id="3099">
                <IconStyle id="3100">
                    <color>ffff0000</color>
                    <colorMode>normal</colorMode>
                    <scale>1</scale>
                    <heading>0</heading>
                    <Icon id="3101">
                        <href>http://maps.google.com/mapfiles/kml/pushpin/ylw-pushpin.png</href>
                    </Icon>
                </IconStyle>
            </Style>
            <Style id="3104">
                <IconStyle id="3105">
                    <color>ffff0000</color>
                    <colorMode>normal</colorMode>
                    <scale>1</scale>
                    <heading>0</heading>
                    <Icon id="3106">
                        <href>http://maps.google.com/mapfiles/kml/pushpin/ylw-pushpin.png</href>
                    </Icon>
                </IconStyle>
            </Style>
            <Style id="3109">
                <IconStyle id="3110">
                    <color>ffff0000</color>
                    <colorMode>normal</colorMode>
                    <scale>1</scale>
                    <heading>0</heading>
                    <Icon id="3111">
                        <href>http://maps.google.com/mapfiles/kml/pushpin/ylw-pushpin.png</href>
                    </Icon>
                </IconStyle>
            </Style>
            <Style id="3114">
                <IconStyle id="3115">
                    <color>ffff0000</color>
                    <colorMode>normal</colorMode>
                    <scale>1</scale>
                    <heading>0</heading>
                    <Icon id="3116">
                        <href>http://maps.google.com/mapfiles/kml/pushpin/ylw-pushpin.png</href>
                    </Icon>
                </IconStyle>
            </Style>
            <Style id="3119">
                <IconStyle id="3120">
                    <color>ffff0000</color>
                    <colorMode>normal</colorMode>
                    <scale>1</scale>
                    <heading>0</heading>
                    <Icon id="3121">
                        <href>http://maps.google.com/mapfiles/kml/pushpin/ylw-pushpin.png</href>
                    </Icon>
                </IconStyle>
            </Style>
            <Style id="3124">
                <IconStyle id="3125">
                    <color>ffff0000</color>
                    <colorMode>normal</colorMode>
                    <scale>1</scale>
                    <heading>0</heading>
                    <Icon id="3126">
                        <href>http://maps.google.com/mapfiles/kml/pushpin/ylw-pushpin.png</href>
                    </Icon>
                </IconStyle>
            </Style>
            <Style id="3129">
                <IconStyle id="3130">
                    <color>ffff0000</color>
                    <colorMode>normal</colorMode>
                    <scale>1</scale>
                    <heading>0</heading>
                    <Icon id="3131">
                        <href>http://maps.google.com/mapfiles/kml/pushpin/ylw-pushpin.png</href>
                    </Icon>
                </IconStyle>
            </Style>
            <Style id="3134">
                <IconStyle id="3135">
                    <color>ffff0000</color>
                    <colorMode>normal</colorMode>
                    <scale>1</scale>
                    <heading>0</heading>
                    <Icon id="3136">
                        <href>http://maps.google.com/mapfiles/kml/pushpin/ylw-pushpin.png</href>
                    </Icon>
                </IconStyle>
            </Style>
            <Style id="3139">
                <IconStyle id="3140">
                    <color>ffff0000</color>
                    <colorMode>normal</colorMode>
                    <scale>1</scale>
                    <heading>0</heading>
                    <Icon id="3141">
                        <href>http://maps.google.com/mapfiles/kml/pushpin/ylw-pushpin.png</href>
                    </Icon>
                </IconStyle>
            </Style>
            <Style id="3144">
                <IconStyle id="3145">
                    <color>ffff0000</color>
                    <colorMode>normal</colorMode>
                    <scale>1</scale>
                    <heading>0</heading>
                    <Icon id="3146">
                        <href>http://maps.google.com/mapfiles/kml/pushpin/ylw-pushpin.png</href>
                    </Icon>
                </IconStyle>
            </Style>
            <Style id="3149">
                <IconStyle id="3150">
                    <color>ffff0000</color>
                    <colorMode>normal</colorMode>
                    <scale>1</scale>
                    <heading>0</heading>
                    <Icon id="3151">
                        <href>http://maps.google.com/mapfiles/kml/pushpin/ylw-pushpin.png</href>
                    </Icon>
                </IconStyle>
            </Style>
            <Style id="3154">
                <IconStyle id="3155">
                    <color>ffff0000</color>
                    <colorMode>normal</colorMode>
                    <scale>1</scale>
                    <heading>0</heading>
                    <Icon id="3156">
                        <href>http://maps.google.com/mapfiles/kml/pushpin/ylw-pushpin.png</href>
                    </Icon>
                </IconStyle>
            </Style>
            <name>MARIO ALBERTO QUINTANA SANDOVAL</name>
            <Placemark id="3003">
                <name>GARCIA AGUIRRE MARCO ANTONIO</name>
                <description>GARCIA AGUIRRE MARCO ANTONIO
Calle Bolognesi 301 - centro de tumbes
Tumbes
Tumbes
Tumbes
Perú</description>
                <styleUrl>#3004</styleUrl>
                <Point id="3002">
                    <coordinates>-80.4579149,-3.569762,0.0</coordinates>
                </Point>
            </Placemark>
            <Placemark id="3008">
                <name>ORO PLAZA S.A.C</name>
                <description>ORO PLAZA S.A.C
JR. TARAPACA Y CALLE TUMBES MZA. C LOTE. 01 C.P.  CERCADO DE ZARUMILLA
Zarumilla
240301Zarumilla
Tumbes
Perú</description>
                <styleUrl>#3009</styleUrl>
                <Point id="3007">
                    <coordinates>-80.2739177,-3.4981659,0.0</coordinates>
                </Point>
            </Placemark>
            <Placemark id="3013">
                <name>WILLIAN RIGOBERTO GRANDA PEÑA</name>
                <description>Av. Lambayeque sin número. Referencia frente a comercial Salvdor
Aguas Verdes
24101
Tumbes
Perú</description>
                <styleUrl>#3014</styleUrl>
                <Point id="3012">
                    <coordinates>-80.2450455,-3.4828029,0.0</coordinates>
                </Point>
            </Placemark>
            <Placemark id="3018">
                <name>PANDALLE TU MUNDO SOCIEDAD COMERCIAL DE RESPONSABILIDAD LIMITADA</name>
                <description>PANDALLE TU MUNDO SOCIEDAD COMERCIAL DE RESPONSABILIDAD LIMITADA
JR. LAMBAYEQUE NRO. 212 CENTRO DE AGUAS VERDES
Aguas Verdes
240302Aguas Verdes
Tumbes
Perú</description>
                <styleUrl>#3019</styleUrl>
                <Point id="3017">
                    <coordinates>-80.2452555,-3.4828282,0.0</coordinates>
                </Point>
            </Placemark>
            <Placemark id="3023">
                <name>CASTILLO CARBAJAL MARILU</name>
                <description>CALLE TUMBES  MZ L LOTE 7 AAHH. TOMAS ARIZOLA  AGUAS VERDES
Aguas Verdes
Zarumilla
Tumbes
Perú</description>
                <styleUrl>#3024</styleUrl>
                <Point id="3022">
                    <coordinates>-80.2457844,-3.4803722,0.0</coordinates>
                </Point>
            </Placemark>
            <Placemark id="3028">
                <name>JHAN CARLOS ABRAMONTE ORDINOLA</name>
                <description>tomas arisola MZ 22 lote 9 - aguas verdes 
Aguas Verdes
24101Aguas Verdes
Tumbes
Perú</description>
                <styleUrl>#3029</styleUrl>
                <Point id="3027">
                    <coordinates>-80.2456017,-3.4790339,0.0</coordinates>
                </Point>
            </Placemark>
            <Placemark id="3033">
                <name>ROSAMELIA SAAVEDRA JAICO</name>
                <description>calle las margaritas mz  G lote 19- villa primavera
Aguas Verdes
24101Aguas Verdes
Tumbes
Perú</description>
                <styleUrl>#3034</styleUrl>
                <Point id="3032">
                    <coordinates>-80.2575831,-3.4823328,0.0</coordinates>
                </Point>
            </Placemark>
            <Placemark id="3038">
                <name>PAQUITA JHAMILEX YOVERA GALLARDO</name>
                <description>Calle jardines mz r lt 13 villa primavera antes de la cancha
Zarumilla
Zarumilla
Tumbes
Perú</description>
                <styleUrl>#3039</styleUrl>
                <Point id="3037">
                    <coordinates>-80.2606942,-3.4811159,0.0</coordinates>
                </Point>
            </Placemark>
            <Placemark id="3043">
                <name>SANTOS TERESA FLORES CHAVEZ</name>
                <description>calle los jardines mz Y lote 10  - AAHH villa primavera
Aguas Verdes
24101Aguas Verdes
Tumbes
Perú</description>
                <styleUrl>#3044</styleUrl>
                <Point id="3042">
                    <coordinates>-80.261631,-3.4796687,0.0</coordinates>
                </Point>
            </Placemark>
            <Placemark id="3048">
                <name>CRUZ MARIA YOVERA PULACHE</name>
                <description>Av. Las flores Mz J lote 15 villa primavera Aguas verdes. Referencia afuera vende pescado a 200m del arco
Aguas Verdes
Aguas Verdes
Tumbes
Perú</description>
                <styleUrl>#3049</styleUrl>
                <Point id="3047">
                    <coordinates>-80.2599588,-3.4830827,0.0</coordinates>
                </Point>
            </Placemark>
            <Placemark id="3053">
                <name>JUNIOR NICANOR CARRASCO GARCIA</name>
                <description>AA.HH villa primavera av República del Perú MZ B lote 4 
Zarumilla
24101Zarumilla
Tumbes
Perú</description>
                <styleUrl>#3054</styleUrl>
                <Point id="3052">
                    <coordinates>-80.2592881,-3.4842729,0.0</coordinates>
                </Point>
            </Placemark>
            <Placemark id="3058">
                <name>OSVALDO JUARES RAYMUNDO</name>
                <description>Calle mexico mz a lt 1 frente al colegio inicia hermanos barcia la curva zarumilla
Aguas Verdes

Tumbes
Perú</description>
                <styleUrl>#3059</styleUrl>
                <Point id="3057">
                    <coordinates>-80.2594169,-3.4855482,0.0</coordinates>
                </Point>
            </Placemark>
            <Placemark id="3063">
                <name>JAN CARLO CASTILLO CEVALLOS</name>
                <description>calle cesar Velázquez Manrique mz A lote 10 - nuevo frente al hotel la fortaleza
Zarumilla
24101Zarumilla
Tumbes
Perú</description>
                <styleUrl>#3064</styleUrl>
                <Point id="3062">
                    <coordinates>-80.2652842,-3.4903278,0.0</coordinates>
                </Point>
            </Placemark>
            <Placemark id="3068">
                <name>KARINA JANET CASTILLO BENITES</name>
                <description>Av. Uruguay Mz H lote 5 La curva 
Zarumilla
24101Zarumilla
Tumbes
Perú</description>
                <styleUrl>#3069</styleUrl>
                <Point id="3067">
                    <coordinates>-80.2615762,-3.4889599,0.0</coordinates>
                </Point>
            </Placemark>
            <Placemark id="3073">
                <name>FLOR ANGELICA ANTON MENDES</name>
                <description>Calle bolivia s/n espaldas de serenasgo la curva
Zarumilla
Zarumilla
Tumbes
Perú</description>
                <styleUrl>#3074</styleUrl>
                <Point id="3072">
                    <coordinates>-80.2583514,-3.4883841,0.0</coordinates>
                </Point>
            </Placemark>
            <Placemark id="3078">
                <name>LAURA GALLARDO MAZA</name>
                <description>Calle paraguay mz j lt 10 la curva 4ta etapa entrando por la balanza frente a rs el buen sabor
Aguas Verdes
Aguas Verdes
Tumbes
Perú</description>
                <styleUrl>#3079</styleUrl>
                <Point id="3077">
                    <coordinates>-80.2593508,-3.4899021,0.0</coordinates>
                </Point>
            </Placemark>
            <Placemark id="3083">
                <name>DULI ABARCA RAMIREZ</name>
                <description>Calla Uruguay mz c lote 21 - nuevo aguas verdes
Aguas Verdes
Aguas Verdes
Tumbes
Perú</description>
                <styleUrl>#3084</styleUrl>
                <Point id="3082">
                    <coordinates>-80.2651808,-3.4920719,0.0</coordinates>
                </Point>
            </Placemark>
            <Placemark id="3088">
                <name>ITAMAR MILOISKA CORDOVA GALLARDO</name>
                <description>Calle uruguay mzc tl 10 por jardin nuevo aguas verdes casa celeste maquina de clicles afuera
Aguas Verdes
Aguas Verdes
Tumbes
Perú</description>
                <styleUrl>#3089</styleUrl>
                <Point id="3087">
                    <coordinates>-80.2653046,-3.4924886,0.0</coordinates>
                </Point>
            </Placemark>
            <Placemark id="3093">
                <name>MARITZA RAQUEL ZAPATA PALACIOS</name>
                <description>Av circunvalación mz A lote 09 - Edmundo romero
Aguas Verdes
Aguas Verdes
Tumbes
Perú</description>
                <styleUrl>#3094</styleUrl>
                <Point id="3092">
                    <coordinates>-80.2650529,-3.4947689,0.0</coordinates>
                </Point>
            </Placemark>
            <Placemark id="3098">
                <name>JOHANA STEYSI INFANTE ZAPATA</name>
                <description>Calle Leoncio prado 203 - cercado de zarumillaRef. Más allá del restaurante Paiva o geminis zarumilla
Zarumilla
Zarumilla
Tumbes
Perú</description>
                <styleUrl>#3099</styleUrl>
                <Point id="3097">
                    <coordinates>-80.2708093,-3.4969988,0.0</coordinates>
                </Point>
            </Placemark>
            <Placemark id="3103">
                <name>ANGELINA CUÑE MOLINA</name>
                <description>Pasaje cesar cesar Vallejo MZ b lote 16 Roberto Espinoza Referencia por el solga gas
Zarumilla
Zarumilla
Tumbes
Perú</description>
                <styleUrl>#3104</styleUrl>
                <Point id="3102">
                    <coordinates>-80.2714752,-3.4953016,0.0</coordinates>
                </Point>
            </Placemark>
            <Placemark id="3108">
                <name>DE NECIOSUP JULIA ESPINOZA PISFIL</name>
                <description>Calle maximiliano moran 306 - centro de zarumilla rf costadon del agente bcp
Zarumilla
Zarumilla
Tumbes
Perú</description>
                <styleUrl>#3109</styleUrl>
                <Point id="3107">
                    <coordinates>-80.2724806,-3.5003338,0.0</coordinates>
                </Point>
            </Placemark>
            <Placemark id="3113">
                <name>ELIZABETH HUARAC GONZALEZ</name>
                <description>Independencia 509
Zarumilla
Zarumilla
Tumbes
Perú</description>
                <styleUrl>#3114</styleUrl>
                <Point id="3112">
                    <coordinates>-80.272878,-3.499486,0.0</coordinates>
                </Point>
            </Placemark>
            <Placemark id="3118">
                <name>HERMOGENA VICENTA ARAUJO DE CRUZ</name>
                <description>Pasaje Ayacucho 114 - zarumilla
Zarumilla
Zarumilla
Tumbes
Perú</description>
                <styleUrl>#3119</styleUrl>
                <Point id="3117">
                    <coordinates>-80.2700431,-3.4996444,0.0</coordinates>
                </Point>
            </Placemark>
            <Placemark id="3123">
                <name>JUVIXA CELESTE SALDARRIAGA AGUILAR</name>
                <description>Jiron miraflores #614 frente al cepro rosa ordinola de noblecilla zarumilla
Zarumilla
Zarumilla
Tumbes
Perú</description>
                <styleUrl>#3124</styleUrl>
                <Point id="3122">
                    <coordinates>-80.2692924,-3.5010229,0.0</coordinates>
                </Point>
            </Placemark>
            <Placemark id="3128">
                <name>VLERIANO DIAZ LEYDI DIANA</name>
                <description>
Zarumilla

Tumbes
Perú</description>
                <styleUrl>#3129</styleUrl>
                <Point id="3127">
                    <coordinates>-80.2667881,-3.5003181,0.0</coordinates>
                </Point>
            </Placemark>
            <Placemark id="3133">
                <name>FAUSTINO VASQUEZ GIL</name>
                <description>San valentin  al fondo zarumilla espaldas de la sra santos santos
Aguas Verdes
Aguas Verdes
Tumbes
Perú</description>
                <styleUrl>#3134</styleUrl>
                <Point id="3132">
                    <coordinates>-80.2628348,-3.5001532,0.0</coordinates>
                </Point>
            </Placemark>
            <Placemark id="3138">
                <name>RODAS BALCAZAR EDIT ARACELY</name>
                <description>AV REP DEL PERU S/N           
Aguas Verdes
Aguas Verdes
Tumbes
Perú</description>
                <styleUrl>#3139</styleUrl>
                <Point id="3137">
                    <coordinates>-80.24369,-3.481498,0.0</coordinates>
                </Point>
            </Placemark>
            <Placemark id="3143">
                <name>GLADYS RAMIREZ VELASQUEZ</name>
                <description>CALLE BOLOGNESI MZ D 11 LT 06 miraflores cerca a la cazona
Zarumilla
Zarumilla
Tumbes
Perú</description>
                <styleUrl>#3144</styleUrl>
                <Point id="3142">
                    <coordinates>-80.2672161,-3.5026526,0.0</coordinates>
                </Point>
            </Placemark>
            <Placemark id="3148">
                <name>MARIA DEL PILAR NONAJULCA LALANGUI</name>
                <description>Las Lomas  _ Ref cerca al canal
Tumbes
Tumbes
Tumbes
Perú</description>
                <styleUrl>#3149</styleUrl>
                <Point id="3147">
                    <coordinates>-80.4137641,-3.5800658,0.0</coordinates>
                </Point>
            </Placemark>
            <Placemark id="3153">
                <name>Luis Enrique Tovar</name>
                <description>Av la Marina 1 cuadra MZ 8 lote 1 campo amor Zarumilla referencia por la entrada del cocodrilo
Zarumilla
Zarumilla
Tumbes
Perú</description>
                <styleUrl>#3154</styleUrl>
                <Point id="3152">
                    <coordinates>-80.2746872,-3.496348,0.0</coordinates>
                </Point>
            </Placemark>
        </Folder>
        <Folder id="3157">
            <Style id="3160">
                <IconStyle id="3161">
                    <color>ff008000</color>
                    <colorMode>normal</colorMode>
                    <scale>1</scale>
                    <heading>0</heading>
                    <Icon id="3162">
                        <href>http://maps.google.com/mapfiles/kml/pushpin/ylw-pushpin.png</href>
                    </Icon>
                </IconStyle>
            </Style>
            <Style id="3165">
                <IconStyle id="3166">
                    <color>ff008000</color>
                    <colorMode>normal</colorMode>
                    <scale>1</scale>
                    <heading>0</heading>
                    <Icon id="3167">
                        <href>http://maps.google.com/mapfiles/kml/pushpin/ylw-pushpin.png</href>
                    </Icon>
                </IconStyle>
            </Style>
            <Style id="3170">
                <IconStyle id="3171">
                    <color>ff008000</color>
                    <colorMode>normal</colorMode>
                    <scale>1</scale>
                    <heading>0</heading>
                    <Icon id="3172">
                        <href>http://maps.google.com/mapfiles/kml/pushpin/ylw-pushpin.png</href>
                    </Icon>
                </IconStyle>
            </Style>
            <Style id="3175">
                <IconStyle id="3176">
                    <color>ff008000</color>
                    <colorMode>normal</colorMode>
                    <scale>1</scale>
                    <heading>0</heading>
                    <Icon id="3177">
                        <href>http://maps.google.com/mapfiles/kml/pushpin/ylw-pushpin.png</href>
                    </Icon>
                </IconStyle>
            </Style>
            <Style id="3180">
                <IconStyle id="3181">
                    <color>ff008000</color>
                    <colorMode>normal</colorMode>
                    <scale>1</scale>
                    <heading>0</heading>
                    <Icon id="3182">
                        <href>http://maps.google.com/mapfiles/kml/pushpin/ylw-pushpin.png</href>
                    </Icon>
                </IconStyle>
            </Style>
            <Style id="3185">
                <IconStyle id="3186">
                    <color>ff008000</color>
                    <colorMode>normal</colorMode>
                    <scale>1</scale>
                    <heading>0</heading>
                    <Icon id="3187">
                        <href>http://maps.google.com/mapfiles/kml/pushpin/ylw-pushpin.png</href>
                    </Icon>
                </IconStyle>
            </Style>
            <Style id="3190">
                <IconStyle id="3191">
                    <color>ff008000</color>
                    <colorMode>normal</colorMode>
                    <scale>1</scale>
                    <heading>0</heading>
                    <Icon id="3192">
                        <href>http://maps.google.com/mapfiles/kml/pushpin/ylw-pushpin.png</href>
                    </Icon>
                </IconStyle>
            </Style>
            <Style id="3195">
                <IconStyle id="3196">
                    <color>ff008000</color>
                    <colorMode>normal</colorMode>
                    <scale>1</scale>
                    <heading>0</heading>
                    <Icon id="3197">
                        <href>http://maps.google.com/mapfiles/kml/pushpin/ylw-pushpin.png</href>
                    </Icon>
                </IconStyle>
            </Style>
            <Style id="3200">
                <IconStyle id="3201">
                    <color>ff008000</color>
                    <colorMode>normal</colorMode>
                    <scale>1</scale>
                    <heading>0</heading>
                    <Icon id="3202">
                        <href>http://maps.google.com/mapfiles/kml/pushpin/ylw-pushpin.png</href>
                    </Icon>
                </IconStyle>
            </Style>
            <Style id="3205">
                <IconStyle id="3206">
                    <color>ff008000</color>
                    <colorMode>normal</colorMode>
                    <scale>1</scale>
                    <heading>0</heading>
                    <Icon id="3207">
                        <href>http://maps.google.com/mapfiles/kml/pushpin/ylw-pushpin.png</href>
                    </Icon>
                </IconStyle>
            </Style>
            <Style id="3210">
                <IconStyle id="3211">
                    <color>ff008000</color>
                    <colorMode>normal</colorMode>
                    <scale>1</scale>
                    <heading>0</heading>
                    <Icon id="3212">
                        <href>http://maps.google.com/mapfiles/kml/pushpin/ylw-pushpin.png</href>
                    </Icon>
                </IconStyle>
            </Style>
            <Style id="3215">
                <IconStyle id="3216">
                    <color>ff008000</color>
                    <colorMode>normal</colorMode>
                    <scale>1</scale>
                    <heading>0</heading>
                    <Icon id="3217">
                        <href>http://maps.google.com/mapfiles/kml/pushpin/ylw-pushpin.png</href>
                    </Icon>
                </IconStyle>
            </Style>
            <Style id="3220">
                <IconStyle id="3221">
                    <color>ff008000</color>
                    <colorMode>normal</colorMode>
                    <scale>1</scale>
                    <heading>0</heading>
                    <Icon id="3222">
                        <href>http://maps.google.com/mapfiles/kml/pushpin/ylw-pushpin.png</href>
                    </Icon>
                </IconStyle>
            </Style>
            <Style id="3225">
                <IconStyle id="3226">
                    <color>ff008000</color>
                    <colorMode>normal</colorMode>
                    <scale>1</scale>
                    <heading>0</heading>
                    <Icon id="3227">
                        <href>http://maps.google.com/mapfiles/kml/pushpin/ylw-pushpin.png</href>
                    </Icon>
                </IconStyle>
            </Style>
            <Style id="3230">
                <IconStyle id="3231">
                    <color>ff008000</color>
                    <colorMode>normal</colorMode>
                    <scale>1</scale>
                    <heading>0</heading>
                    <Icon id="3232">
                        <href>http://maps.google.com/mapfiles/kml/pushpin/ylw-pushpin.png</href>
                    </Icon>
                </IconStyle>
            </Style>
            <Style id="3235">
                <IconStyle id="3236">
                    <color>ff008000</color>
                    <colorMode>normal</colorMode>
                    <scale>1</scale>
                    <heading>0</heading>
                    <Icon id="3237">
                        <href>http://maps.google.com/mapfiles/kml/pushpin/ylw-pushpin.png</href>
                    </Icon>
                </IconStyle>
            </Style>
            <Style id="3240">
                <IconStyle id="3241">
                    <color>ff008000</color>
                    <colorMode>normal</colorMode>
                    <scale>1</scale>
                    <heading>0</heading>
                    <Icon id="3242">
                        <href>http://maps.google.com/mapfiles/kml/pushpin/ylw-pushpin.png</href>
                    </Icon>
                </IconStyle>
            </Style>
            <Style id="3245">
                <IconStyle id="3246">
                    <color>ff008000</color>
                    <colorMode>normal</colorMode>
                    <scale>1</scale>
                    <heading>0</heading>
                    <Icon id="3247">
                        <href>http://maps.google.com/mapfiles/kml/pushpin/ylw-pushpin.png</href>
                    </Icon>
                </IconStyle>
            </Style>
            <Style id="3250">
                <IconStyle id="3251">
                    <color>ff008000</color>
                    <colorMode>normal</colorMode>
                    <scale>1</scale>
                    <heading>0</heading>
                    <Icon id="3252">
                        <href>http://maps.google.com/mapfiles/kml/pushpin/ylw-pushpin.png</href>
                    </Icon>
                </IconStyle>
            </Style>
            <Style id="3255">
                <IconStyle id="3256">
                    <color>ff008000</color>
                    <colorMode>normal</colorMode>
                    <scale>1</scale>
                    <heading>0</heading>
                    <Icon id="3257">
                        <href>http://maps.google.com/mapfiles/kml/pushpin/ylw-pushpin.png</href>
                    </Icon>
                </IconStyle>
            </Style>
            <Style id="3260">
                <IconStyle id="3261">
                    <color>ff008000</color>
                    <colorMode>normal</colorMode>
                    <scale>1</scale>
                    <heading>0</heading>
                    <Icon id="3262">
                        <href>http://maps.google.com/mapfiles/kml/pushpin/ylw-pushpin.png</href>
                    </Icon>
                </IconStyle>
            </Style>
            <Style id="3265">
                <IconStyle id="3266">
                    <color>ff008000</color>
                    <colorMode>normal</colorMode>
                    <scale>1</scale>
                    <heading>0</heading>
                    <Icon id="3267">
                        <href>http://maps.google.com/mapfiles/kml/pushpin/ylw-pushpin.png</href>
                    </Icon>
                </IconStyle>
            </Style>
            <Style id="3270">
                <IconStyle id="3271">
                    <color>ff008000</color>
                    <colorMode>normal</colorMode>
                    <scale>1</scale>
                    <heading>0</heading>
                    <Icon id="3272">
                        <href>http://maps.google.com/mapfiles/kml/pushpin/ylw-pushpin.png</href>
                    </Icon>
                </IconStyle>
            </Style>
            <Style id="3275">
                <IconStyle id="3276">
                    <color>ff008000</color>
                    <colorMode>normal</colorMode>
                    <scale>1</scale>
                    <heading>0</heading>
                    <Icon id="3277">
                        <href>http://maps.google.com/mapfiles/kml/pushpin/ylw-pushpin.png</href>
                    </Icon>
                </IconStyle>
            </Style>
            <Style id="3280">
                <IconStyle id="3281">
                    <color>ff008000</color>
                    <colorMode>normal</colorMode>
                    <scale>1</scale>
                    <heading>0</heading>
                    <Icon id="3282">
                        <href>http://maps.google.com/mapfiles/kml/pushpin/ylw-pushpin.png</href>
                    </Icon>
                </IconStyle>
            </Style>
            <Style id="3285">
                <IconStyle id="3286">
                    <color>ff008000</color>
                    <colorMode>normal</colorMode>
                    <scale>1</scale>
                    <heading>0</heading>
                    <Icon id="3287">
                        <href>http://maps.google.com/mapfiles/kml/pushpin/ylw-pushpin.png</href>
                    </Icon>
                </IconStyle>
            </Style>
            <Style id="3290">
                <IconStyle id="3291">
                    <color>ff008000</color>
                    <colorMode>normal</colorMode>
                    <scale>1</scale>
                    <heading>0</heading>
                    <Icon id="3292">
                        <href>http://maps.google.com/mapfiles/kml/pushpin/ylw-pushpin.png</href>
                    </Icon>
                </IconStyle>
            </Style>
            <Style id="3295">
                <IconStyle id="3296">
                    <color>ff008000</color>
                    <colorMode>normal</colorMode>
                    <scale>1</scale>
                    <heading>0</heading>
                    <Icon id="3297">
                        <href>http://maps.google.com/mapfiles/kml/pushpin/ylw-pushpin.png</href>
                    </Icon>
                </IconStyle>
            </Style>
            <Style id="3300">
                <IconStyle id="3301">
                    <color>ff008000</color>
                    <colorMode>normal</colorMode>
                    <scale>1</scale>
                    <heading>0</heading>
                    <Icon id="3302">
                        <href>http://maps.google.com/mapfiles/kml/pushpin/ylw-pushpin.png</href>
                    </Icon>
                </IconStyle>
            </Style>
            <Style id="3305">
                <IconStyle id="3306">
                    <color>ff008000</color>
                    <colorMode>normal</colorMode>
                    <scale>1</scale>
                    <heading>0</heading>
                    <Icon id="3307">
                        <href>http://maps.google.com/mapfiles/kml/pushpin/ylw-pushpin.png</href>
                    </Icon>
                </IconStyle>
            </Style>
            <Style id="3310">
                <IconStyle id="3311">
                    <color>ff008000</color>
                    <colorMode>normal</colorMode>
                    <scale>1</scale>
                    <heading>0</heading>
                    <Icon id="3312">
                        <href>http://maps.google.com/mapfiles/kml/pushpin/ylw-pushpin.png</href>
                    </Icon>
                </IconStyle>
            </Style>
            <Style id="3315">
                <IconStyle id="3316">
                    <color>ff008000</color>
                    <colorMode>normal</colorMode>
                    <scale>1</scale>
                    <heading>0</heading>
                    <Icon id="3317">
                        <href>http://maps.google.com/mapfiles/kml/pushpin/ylw-pushpin.png</href>
                    </Icon>
                </IconStyle>
            </Style>
            <name>MARY JISSA DEL PILAR PALACIOS ZAPATA</name>
            <Placemark id="3159">
                <name>IRMA HUAMAN PINTADO</name>
                <description>Calle Pucallpa MZ 21 LT 8 ref frente al parque
Zarumilla
Zarumilla
Tumbes
Perú</description>
                <styleUrl>#3160</styleUrl>
                <Point id="3158">
                    <coordinates>-80.2791118,-3.5108671,0.0</coordinates>
                </Point>
            </Placemark>
            <Placemark id="3164">
                <name>MARIA TERESA DEL CARMEN URQUIZO HERRERA</name>
                <description>Av. Ramón Castilla 141 Papayal entrada del pueblo, antes de la muni
Papayal
24200Papayal
Tumbes
Perú</description>
                <styleUrl>#3165</styleUrl>
                <Point id="3163">
                    <coordinates>-80.2350002,-3.5704281,0.0</coordinates>
                </Point>
            </Placemark>
            <Placemark id="3169">
                <name>LORENA DEL PILAR CEDILLO LOPEZ</name>
                <description>Av circunvalación s/n - Miraflores -  zarumilla
Zarumilla
24101Zarumilla
Tumbes
Perú</description>
                <styleUrl>#3170</styleUrl>
                <Point id="3168">
                    <coordinates>-80.269265,-3.5049421,0.0</coordinates>
                </Point>
            </Placemark>
            <Placemark id="3174">
                <name>YUBITZA ELIZABETH SALVATIERRA CRUZ</name>
                <description>Av.principal de papayal
Papayal
Papayal
Tumbes
Perú</description>
                <styleUrl>#3175</styleUrl>
                <Point id="3173">
                    <coordinates>-80.2350965,-3.5695982,0.0</coordinates>
                </Point>
            </Placemark>
            <Placemark id="3179">
                <name>DARIO MARQUEZ GARCIA</name>
                <description>calle el malecón sin número 
Papayal
24200Papayal
Tumbes
Perú</description>
                <styleUrl>#3180</styleUrl>
                <Point id="3178">
                    <coordinates>-80.2139324,-3.5612443,0.0</coordinates>
                </Point>
            </Placemark>
            <Placemark id="3184">
                <name>DORA ISABEL ROMERO PIZARRO</name>
                <description>Calle lima #126 espalda de comisaria y la posta de la palma
Papayal
Papayal
Tumbes
Perú</description>
                <styleUrl>#3185</styleUrl>
                <Point id="3183">
                    <coordinates>-80.2152702,-3.5619925,0.0</coordinates>
                </Point>
            </Placemark>
            <Placemark id="3189">
                <name>CARMEN PIZARRO DE FLORES</name>
                <description>av capitan hoyle número 106 uña de gato, antes de llegar al parque
Papayal
24200Papayal
Tumbes
Perú</description>
                <styleUrl>#3190</styleUrl>
                <Point id="3188">
                    <coordinates>-80.2172174,-3.5631938,0.0</coordinates>
                </Point>
            </Placemark>
            <Placemark id="3194">
                <name>AURI ESTELA PIZARRO MARCHAN</name>
                <description> barrio San José villa uña de gato 
Papayal
24200Papayal
Tumbes
Perú</description>
                <styleUrl>#3195</styleUrl>
                <Point id="3193">
                    <coordinates>-80.2318392,-3.5422243,0.0</coordinates>
                </Point>
            </Placemark>
            <Placemark id="3199">
                <name>MARIA DEL PILAR NONAJULCA LALANGUI</name>
                <description>Las Lomas  _ Ref cerca al canal
Tumbes
Tumbes
Tumbes
Perú</description>
                <styleUrl>#3200</styleUrl>
                <Point id="3198">
                    <coordinates>-80.4137641,-3.5800658,0.0</coordinates>
                </Point>
            </Placemark>
            <Placemark id="3204">
                <name>MARIA EUGENIA RODRIGUEZ TINEO</name>
                <description> jirón las Mercedes  villa uña de gato 
Papayal
24200Papayal
Tumbes
Perú</description>
                <styleUrl>#3205</styleUrl>
                <Point id="3203">
                    <coordinates>-80.2288896,-3.5383805,0.0</coordinates>
                </Point>
            </Placemark>
            <Placemark id="3209">
                <name>YOJANY CERVERA CARRILLO</name>
                <description> barrio las Mercedes   villa uña de gato
Papayal
24200Papayal
Tumbes
Perú</description>
                <styleUrl>#3210</styleUrl>
                <Point id="3208">
                    <coordinates>-80.228699,-3.5387754,0.0</coordinates>
                </Point>
            </Placemark>
            <Placemark id="3214">
                <name>NELLY CARRILLO CARRANZA</name>
                <description>la garita 109 frente a la plataforma  uña de gato
Papayal
24200Papayal
Tumbes
Perú</description>
                <styleUrl>#3215</styleUrl>
                <Point id="3213">
                    <coordinates>-80.2344493,-3.5355641,0.0</coordinates>
                </Point>
            </Placemark>
            <Placemark id="3219">
                <name>SHIRLEY JANNET NOLE CHUQUIHUANCA</name>
                <description>Cuchareta alta ref frente al jardín 063
Zarumilla

Tumbes
Perú</description>
                <styleUrl>#3220</styleUrl>
                <Point id="3218">
                    <coordinates>-80.2376743,-3.5300523,0.0</coordinates>
                </Point>
            </Placemark>
            <Placemark id="3224">
                <name>YARICSA FLORES YACILA</name>
                <description>JR Huascar 116 - Miraflores - zarumilla
Zarumilla
24101Zarumilla
Tumbes
Perú</description>
                <styleUrl>#3225</styleUrl>
                <Point id="3223">
                    <coordinates>-80.2750639,-3.5086222,0.0</coordinates>
                </Point>
            </Placemark>
            <Placemark id="3229">
                <name>BICDIA CATERINE PEÑA CARRILLO</name>
                <description>Calle Huáscar 400 ref colegio Miraflores
Zarumilla
Zarumilla
Tumbes
Perú</description>
                <styleUrl>#3230</styleUrl>
                <Point id="3228">
                    <coordinates>-80.2731022,-3.5057626,0.0</coordinates>
                </Point>
            </Placemark>
            <Placemark id="3234">
                <name>FERNANDEZ ALTAMIRANO FLOR MARINA</name>
                <description>FERNANDEZ ALTAMIRANO FLOR MARINA
Av 28 de julio 345 - centro de zarumilla
Zarumilla
Zarumilla
Tumbes
Perú</description>
                <styleUrl>#3235</styleUrl>
                <Point id="3233">
                    <coordinates>-80.2741934,-3.5024333,0.0</coordinates>
                </Point>
            </Placemark>
            <Placemark id="3239">
                <name>LINDA MARICIELO IZQUIERDO VINCES</name>
                <description>AA.HH santa Victoria calle  San Martín MZ E lote 3 
Zarumilla
24101Zarumilla
Tumbes
Perú</description>
                <styleUrl>#3240</styleUrl>
                <Point id="3238">
                    <coordinates>-80.280964,-3.4980169,0.0</coordinates>
                </Point>
            </Placemark>
            <Placemark id="3244">
                <name>LIDIA LIZANA HUANCAS</name>
                <description>Calle la Industrial Ref.frente al complejo los pinos la Rocana
Zarumilla
Zarumilla
Tumbes
Perú</description>
                <styleUrl>#3245</styleUrl>
                <Point id="3243">
                    <coordinates>-80.2826249,-3.4955325,0.0</coordinates>
                </Point>
            </Placemark>
            <Placemark id="3249">
                <name>Luis ayasta romero</name>
                <description>La Rocana ref ref por el jardín las palmeras
Zarumilla
Zarumilla
Tumbes
Perú</description>
                <styleUrl>#3250</styleUrl>
                <Point id="3248">
                    <coordinates>-80.2819773,-3.4969251,0.0</coordinates>
                </Point>
            </Placemark>
            <Placemark id="3254">
                <name>HERMINIA CIELO NUÑEZ DE LOPEZ</name>
                <description>La Rocana ref más adelante la cebollera
Zarumilla


Perú</description>
                <styleUrl>#3255</styleUrl>
                <Point id="3253">
                    <coordinates>-80.2812384,-3.4964994,0.0</coordinates>
                </Point>
            </Placemark>
            <Placemark id="3259">
                <name>JOSE SANTOS CASTILLO CUTIN</name>
                <description>PJ Benedicto MZ B LT 3
Zarumilla
Zarumilla
Tumbes
Perú</description>
                <styleUrl>#3260</styleUrl>
                <Point id="3258">
                    <coordinates>-80.2797839,-3.4988487,0.0</coordinates>
                </Point>
            </Placemark>
            <Placemark id="3264">
                <name>SARLY ROSSI RUIZ INFANTE</name>
                <description>Calle santa rosa con esquina amazonas s/n - pozo elevado sur - zarumilla
Zarumilla
Zarumilla
Tumbes
Perú</description>
                <styleUrl>#3265</styleUrl>
                <Point id="3263">
                    <coordinates>-80.280213,-3.5089454,0.0</coordinates>
                </Point>
            </Placemark>
            <Placemark id="3269">
                <name>MARITZA BEATRIZ CESPEDES VINCES</name>
                <description>Calle santa rosa s/n - pozo elevado sur - zarumilla
Zarumilla
TumbesZarumilla
Tumbes
Perú</description>
                <styleUrl>#3270</styleUrl>
                <Point id="3268">
                    <coordinates>-80.2794123,-3.5071685,0.0</coordinates>
                </Point>
            </Placemark>
            <Placemark id="3274">
                <name>MARINA HUAMAN SALDAÑA</name>
                <description>Av el deporte MZ L LT 07 con las artes. Andres Araujo - Puyango
Puyango
Tumbes
Tumbes
Perú</description>
                <styleUrl>#3275</styleUrl>
                <Point id="3273">
                    <coordinates>-80.4201488,-3.5660872,0.0</coordinates>
                </Point>
            </Placemark>
            <Placemark id="3279">
                <name>GEORGINA ELIZABETH TUPEZ BURGOS</name>
                <description>Av geranios con gardenias s/ n - zarumilla 
Zarumilla
24101Zarumilla
Tumbes
Perú</description>
                <styleUrl>#3280</styleUrl>
                <Point id="3278">
                    <coordinates>-80.2765289,-3.5074386,0.0</coordinates>
                </Point>
            </Placemark>
            <Placemark id="3284">
                <name>ROSA YELINA MORENO LUJAN</name>
                <description>Calle Lisardo Montero 101 AAHH Pozo elevado
Zarumilla
24101Zarumilla
Tumbes
Perú</description>
                <styleUrl>#3285</styleUrl>
                <Point id="3283">
                    <coordinates>-80.2745514,-3.5071916,0.0</coordinates>
                </Point>
            </Placemark>
            <Placemark id="3289">
                <name>ORLANDO LEON CORNEJO</name>
                <description>Calle Nuevo pósitos atrás del jardín
Zarumilla
Zarumilla
Tumbes
Perú</description>
                <styleUrl>#3290</styleUrl>
                <Point id="3288">
                    <coordinates>-80.2673795,-3.5071413,0.0</coordinates>
                </Point>
            </Placemark>
            <Placemark id="3294">
                <name>LEYDI DIANA VINCES CRUZ</name>
                <description>Av circunvalación 208 - barrio Miraflores - zarumilla
Zarumilla
Zarumilla
Tumbes
Perú</description>
                <styleUrl>#3295</styleUrl>
                <Point id="3293">
                    <coordinates>-80.2692013,-3.5048371,0.0</coordinates>
                </Point>
            </Placemark>
            <Placemark id="3299">
                <name>WILMER ALEXANDER NUNURA SOTO</name>
                <description>Calle Paita MZ 9 LT
Zarumilla
TumbesZarumilla
Tumbes
Perú</description>
                <styleUrl>#3300</styleUrl>
                <Point id="3298">
                    <coordinates>-80.2669841,-3.5039344,0.0</coordinates>
                </Point>
            </Placemark>
            <Placemark id="3304">
                <name>JULIANA MILAGRITOS NOLE APONTE</name>
                <description>Jr Miraflores 319 AA.HH. Miraflores Zarumilla
Zarumilla
Zarumilla
Tumbes
Perú</description>
                <styleUrl>#3305</styleUrl>
                <Point id="3303">
                    <coordinates>-80.2712788,-3.5043497,0.0</coordinates>
                </Point>
            </Placemark>
            <Placemark id="3309">
                <name>MAURA SOCORRO ORELLANA JIMENEZ</name>
                <description>JR Miraflores 430 ref jardín de niños la paz
Zarumilla
Zarumilla
Tumbes
Perú</description>
                <styleUrl>#3310</styleUrl>
                <Point id="3308">
                    <coordinates>-80.2698886,-3.5023662,0.0</coordinates>
                </Point>
            </Placemark>
            <Placemark id="3314">
                <name>JUAN DANIEL OYOLA ALVITES</name>
                <description>mercadito santa rosa - calle Zavala - zarumilla 
Zarumilla
24101Zarumilla
Tumbes
Perú</description>
                <styleUrl>#3315</styleUrl>
                <Point id="3313">
                    <coordinates>-80.2723945,-3.5036005,0.0</coordinates>
                </Point>
            </Placemark>
        </Folder>
    </Document>
</kml>
