<?xml version="1.0" encoding="UTF-8"?>
<kml xmlns="http://www.opengis.net/kml/2.2" xmlns:gx="http://www.google.com/kml/ext/2.2">
    <Document id="2715">
        <Folder id="2716">
            <Style id="2719">
                <IconStyle id="2720">
                    <color>ff0000ff</color>
                    <colorMode>normal</colorMode>
                    <scale>1</scale>
                    <heading>0</heading>
                    <Icon id="2721">
                        <href>http://maps.google.com/mapfiles/kml/pushpin/ylw-pushpin.png</href>
                    </Icon>
                </IconStyle>
            </Style>
            <Style id="2724">
                <IconStyle id="2725">
                    <color>ff0000ff</color>
                    <colorMode>normal</colorMode>
                    <scale>1</scale>
                    <heading>0</heading>
                    <Icon id="2726">
                        <href>http://maps.google.com/mapfiles/kml/pushpin/ylw-pushpin.png</href>
                    </Icon>
                </IconStyle>
            </Style>
            <Style id="2729">
                <IconStyle id="2730">
                    <color>ff0000ff</color>
                    <colorMode>normal</colorMode>
                    <scale>1</scale>
                    <heading>0</heading>
                    <Icon id="2731">
                        <href>http://maps.google.com/mapfiles/kml/pushpin/ylw-pushpin.png</href>
                    </Icon>
                </IconStyle>
            </Style>
            <Style id="2734">
                <IconStyle id="2735">
                    <color>ff0000ff</color>
                    <colorMode>normal</colorMode>
                    <scale>1</scale>
                    <heading>0</heading>
                    <Icon id="2736">
                        <href>http://maps.google.com/mapfiles/kml/pushpin/ylw-pushpin.png</href>
                    </Icon>
                </IconStyle>
            </Style>
            <Style id="2739">
                <IconStyle id="2740">
                    <color>ff0000ff</color>
                    <colorMode>normal</colorMode>
                    <scale>1</scale>
                    <heading>0</heading>
                    <Icon id="2741">
                        <href>http://maps.google.com/mapfiles/kml/pushpin/ylw-pushpin.png</href>
                    </Icon>
                </IconStyle>
            </Style>
            <Style id="2744">
                <IconStyle id="2745">
                    <color>ff0000ff</color>
                    <colorMode>normal</colorMode>
                    <scale>1</scale>
                    <heading>0</heading>
                    <Icon id="2746">
                        <href>http://maps.google.com/mapfiles/kml/pushpin/ylw-pushpin.png</href>
                    </Icon>
                </IconStyle>
            </Style>
            <Style id="2749">
                <IconStyle id="2750">
                    <color>ff0000ff</color>
                    <colorMode>normal</colorMode>
                    <scale>1</scale>
                    <heading>0</heading>
                    <Icon id="2751">
                        <href>http://maps.google.com/mapfiles/kml/pushpin/ylw-pushpin.png</href>
                    </Icon>
                </IconStyle>
            </Style>
            <Style id="2754">
                <IconStyle id="2755">
                    <color>ff0000ff</color>
                    <colorMode>normal</colorMode>
                    <scale>1</scale>
                    <heading>0</heading>
                    <Icon id="2756">
                        <href>http://maps.google.com/mapfiles/kml/pushpin/ylw-pushpin.png</href>
                    </Icon>
                </IconStyle>
            </Style>
            <Style id="2759">
                <IconStyle id="2760">
                    <color>ff0000ff</color>
                    <colorMode>normal</colorMode>
                    <scale>1</scale>
                    <heading>0</heading>
                    <Icon id="2761">
                        <href>http://maps.google.com/mapfiles/kml/pushpin/ylw-pushpin.png</href>
                    </Icon>
                </IconStyle>
            </Style>
            <Style id="2764">
                <IconStyle id="2765">
                    <color>ff0000ff</color>
                    <colorMode>normal</colorMode>
                    <scale>1</scale>
                    <heading>0</heading>
                    <Icon id="2766">
                        <href>http://maps.google.com/mapfiles/kml/pushpin/ylw-pushpin.png</href>
                    </Icon>
                </IconStyle>
            </Style>
            <Style id="2769">
                <IconStyle id="2770">
                    <color>ff0000ff</color>
                    <colorMode>normal</colorMode>
                    <scale>1</scale>
                    <heading>0</heading>
                    <Icon id="2771">
                        <href>http://maps.google.com/mapfiles/kml/pushpin/ylw-pushpin.png</href>
                    </Icon>
                </IconStyle>
            </Style>
            <Style id="2774">
                <IconStyle id="2775">
                    <color>ff0000ff</color>
                    <colorMode>normal</colorMode>
                    <scale>1</scale>
                    <heading>0</heading>
                    <Icon id="2776">
                        <href>http://maps.google.com/mapfiles/kml/pushpin/ylw-pushpin.png</href>
                    </Icon>
                </IconStyle>
            </Style>
            <Style id="2779">
                <IconStyle id="2780">
                    <color>ff0000ff</color>
                    <colorMode>normal</colorMode>
                    <scale>1</scale>
                    <heading>0</heading>
                    <Icon id="2781">
                        <href>http://maps.google.com/mapfiles/kml/pushpin/ylw-pushpin.png</href>
                    </Icon>
                </IconStyle>
            </Style>
            <Style id="2784">
                <IconStyle id="2785">
                    <color>ff0000ff</color>
                    <colorMode>normal</colorMode>
                    <scale>1</scale>
                    <heading>0</heading>
                    <Icon id="2786">
                        <href>http://maps.google.com/mapfiles/kml/pushpin/ylw-pushpin.png</href>
                    </Icon>
                </IconStyle>
            </Style>
            <Style id="2789">
                <IconStyle id="2790">
                    <color>ff0000ff</color>
                    <colorMode>normal</colorMode>
                    <scale>1</scale>
                    <heading>0</heading>
                    <Icon id="2791">
                        <href>http://maps.google.com/mapfiles/kml/pushpin/ylw-pushpin.png</href>
                    </Icon>
                </IconStyle>
            </Style>
            <Style id="2794">
                <IconStyle id="2795">
                    <color>ff0000ff</color>
                    <colorMode>normal</colorMode>
                    <scale>1</scale>
                    <heading>0</heading>
                    <Icon id="2796">
                        <href>http://maps.google.com/mapfiles/kml/pushpin/ylw-pushpin.png</href>
                    </Icon>
                </IconStyle>
            </Style>
            <Style id="2799">
                <IconStyle id="2800">
                    <color>ff0000ff</color>
                    <colorMode>normal</colorMode>
                    <scale>1</scale>
                    <heading>0</heading>
                    <Icon id="2801">
                        <href>http://maps.google.com/mapfiles/kml/pushpin/ylw-pushpin.png</href>
                    </Icon>
                </IconStyle>
            </Style>
            <Style id="2804">
                <IconStyle id="2805">
                    <color>ff0000ff</color>
                    <colorMode>normal</colorMode>
                    <scale>1</scale>
                    <heading>0</heading>
                    <Icon id="2806">
                        <href>http://maps.google.com/mapfiles/kml/pushpin/ylw-pushpin.png</href>
                    </Icon>
                </IconStyle>
            </Style>
            <Style id="2809">
                <IconStyle id="2810">
                    <color>ff0000ff</color>
                    <colorMode>normal</colorMode>
                    <scale>1</scale>
                    <heading>0</heading>
                    <Icon id="2811">
                        <href>http://maps.google.com/mapfiles/kml/pushpin/ylw-pushpin.png</href>
                    </Icon>
                </IconStyle>
            </Style>
            <Style id="2814">
                <IconStyle id="2815">
                    <color>ff0000ff</color>
                    <colorMode>normal</colorMode>
                    <scale>1</scale>
                    <heading>0</heading>
                    <Icon id="2816">
                        <href>http://maps.google.com/mapfiles/kml/pushpin/ylw-pushpin.png</href>
                    </Icon>
                </IconStyle>
            </Style>
            <Style id="2819">
                <IconStyle id="2820">
                    <color>ff0000ff</color>
                    <colorMode>normal</colorMode>
                    <scale>1</scale>
                    <heading>0</heading>
                    <Icon id="2821">
                        <href>http://maps.google.com/mapfiles/kml/pushpin/ylw-pushpin.png</href>
                    </Icon>
                </IconStyle>
            </Style>
            <Style id="2824">
                <IconStyle id="2825">
                    <color>ff0000ff</color>
                    <colorMode>normal</colorMode>
                    <scale>1</scale>
                    <heading>0</heading>
                    <Icon id="2826">
                        <href>http://maps.google.com/mapfiles/kml/pushpin/ylw-pushpin.png</href>
                    </Icon>
                </IconStyle>
            </Style>
            <Style id="2829">
                <IconStyle id="2830">
                    <color>ff0000ff</color>
                    <colorMode>normal</colorMode>
                    <scale>1</scale>
                    <heading>0</heading>
                    <Icon id="2831">
                        <href>http://maps.google.com/mapfiles/kml/pushpin/ylw-pushpin.png</href>
                    </Icon>
                </IconStyle>
            </Style>
            <Style id="2834">
                <IconStyle id="2835">
                    <color>ff0000ff</color>
                    <colorMode>normal</colorMode>
                    <scale>1</scale>
                    <heading>0</heading>
                    <Icon id="2836">
                        <href>http://maps.google.com/mapfiles/kml/pushpin/ylw-pushpin.png</href>
                    </Icon>
                </IconStyle>
            </Style>
            <Style id="2839">
                <IconStyle id="2840">
                    <color>ff0000ff</color>
                    <colorMode>normal</colorMode>
                    <scale>1</scale>
                    <heading>0</heading>
                    <Icon id="2841">
                        <href>http://maps.google.com/mapfiles/kml/pushpin/ylw-pushpin.png</href>
                    </Icon>
                </IconStyle>
            </Style>
            <Style id="2844">
                <IconStyle id="2845">
                    <color>ff0000ff</color>
                    <colorMode>normal</colorMode>
                    <scale>1</scale>
                    <heading>0</heading>
                    <Icon id="2846">
                        <href>http://maps.google.com/mapfiles/kml/pushpin/ylw-pushpin.png</href>
                    </Icon>
                </IconStyle>
            </Style>
            <Style id="2849">
                <IconStyle id="2850">
                    <color>ff0000ff</color>
                    <colorMode>normal</colorMode>
                    <scale>1</scale>
                    <heading>0</heading>
                    <Icon id="2851">
                        <href>http://maps.google.com/mapfiles/kml/pushpin/ylw-pushpin.png</href>
                    </Icon>
                </IconStyle>
            </Style>
            <name>JAIRO JOSUE GONZALES GUERRERO</name>
            <Placemark id="2718">
                <name>YESICCA DEL PILAR ALEMAN TAPIA</name>
                <description>Aahh Santa rosa sn Pto pizarro Entrada frente a la gallera, por la cancha al fondo
Puerto Pizarro
Zarumilla
Tumbes
Perú</description>
                <styleUrl>#2719</styleUrl>
                <Point id="2717">
                    <coordinates>-80.3869006,-3.5046812,0.0</coordinates>
                </Point>
            </Placemark>
            <Placemark id="2723">
                <name>CINTHIA AZUCENA MATOREL SEMINARIO</name>
                <description>Calle rivera del mar norte referencia restaurante caracolito



Perú</description>
                <styleUrl>#2724</styleUrl>
                <Point id="2722">
                    <coordinates>-80.384647,-3.497671,0.0</coordinates>
                </Point>
            </Placemark>
            <Placemark id="2728">
                <name>JOVINO CORTEZ CUNYA</name>
                <description>Rivera del mar Sur (lado izquierdo)- puerto Pizarro  Espaldas de la señora bismarck moscoso
Tumbes
Zarumilla
Tumbes
Perú</description>
                <styleUrl>#2729</styleUrl>
                <Point id="2727">
                    <coordinates>-80.391547,-3.500617,0.0</coordinates>
                </Point>
            </Placemark>
            <Placemark id="2733">
                <name>LESLIE MIRELLY MENA PETRONI</name>
                <description>Psje el pescador 121 - Puerto Pizarro atras del desembarcadero
Puerto Pizarro
Zarumilla
Tumbes
Perú</description>
                <styleUrl>#2734</styleUrl>
                <Point id="2732">
                    <coordinates>-80.3902974,-3.500323,0.0</coordinates>
                </Point>
            </Placemark>
            <Placemark id="2738">
                <name>ROSA LUZ DIOSES TANDAZO</name>
                <description>Av principal s/n - al frente de la molinera entrella ( dónde está el cartel que dice aguas verdes Pizarro ) antes de entrar a Pizarro



Perú</description>
                <styleUrl>#2739</styleUrl>
                <Point id="2737">
                    <coordinates>-80.3806044,-3.53598,0.0</coordinates>
                </Point>
            </Placemark>
            <Placemark id="2743">
                <name>SEGUNDA OLGA ORDINOLA SEMINARIO</name>
                <description>Av primavera ref frente al molino de Otto - entrada de puerto Pizarro al frente del molinera estrella al costado de la señora Dioses Tandazo . Amen
Tumbes
Tumbes
Tumbes
Perú</description>
                <styleUrl>#2744</styleUrl>
                <Point id="2742">
                    <coordinates>-80.3808677,-3.536135,0.0</coordinates>
                </Point>
            </Placemark>
            <Placemark id="2748">
                <name>KAREN ANGELINA QUINCHES MOGOLLON</name>
                <description>Las fragatas mz J lt 04, ref. Modulos blancos entrada a pizarro
Tumbes


Perú</description>
                <styleUrl>#2749</styleUrl>
                <Point id="2747">
                    <coordinates>-80.3841872,-3.522955,0.0</coordinates>
                </Point>
            </Placemark>
            <Placemark id="2753">
                <name>NILTON EDILBERTO HUAMAN FEBRE</name>
                <description>Vía jardín mz E lt 05 pto pizarro ref. Frente a la cancha
Puerto Pizarro
Zarumilla
Tumbes
Perú</description>
                <styleUrl>#2754</styleUrl>
                <Point id="2752">
                    <coordinates>-80.3907417,-3.5058921,0.0</coordinates>
                </Point>
            </Placemark>
            <Placemark id="2758">
                <name>MARIA ESTHER LOPEZ GARCIA</name>
                <description>VIA JARDÍN MZ A LT 20 PTO PIZARRO ANTES DEL PUENTE venta de bidones de agua
Puerto Pizarro
Zarumilla
Tumbes
Perú</description>
                <styleUrl>#2759</styleUrl>
                <Point id="2757">
                    <coordinates>-80.3895067,-3.5044498,0.0</coordinates>
                </Point>
            </Placemark>
            <Placemark id="2763">
                <name>YULIANA CARRASCO CARREÑO</name>
                <description>zoylo  huertas espalda del seguro - puerto Pizarro
Puerto Pizarro
24000Zarumilla
Tumbes
Perú</description>
                <styleUrl>#2764</styleUrl>
                <Point id="2762">
                    <coordinates>-80.3912454,-3.5042079,0.0</coordinates>
                </Point>
            </Placemark>
            <Placemark id="2768">
                <name>ELVA LOPEZ GARCIA</name>
                <description>Calle zoylo huertas mz A lote 22 - puerto Pizarro
Puerto Pizarro
Zarumilla
Tumbes
Perú</description>
                <styleUrl>#2769</styleUrl>
                <Point id="2767">
                    <coordinates>-80.3903413,-3.5037304,0.0</coordinates>
                </Point>
            </Placemark>
            <Placemark id="2773">
                <name>EVELYN YULITZA ADANAQUE SERQUEN</name>
                <description>Calle los manglares alado del colegio 014 Miguel grau Puerto Pizarro
Puerto Pizarro
24000Zarumilla
Tumbes
Perú</description>
                <styleUrl>#2774</styleUrl>
                <Point id="2772">
                    <coordinates>-80.3916204,-3.5036352,0.0</coordinates>
                </Point>
            </Placemark>
            <Placemark id="2778">
                <name>LIDIA RUIZ ROJAS</name>
                <description>calle San  Pedro sur 101 puerto pizarro
Corrales
24000Tumbes
Tumbes
Perú</description>
                <styleUrl>#2779</styleUrl>
                <Point id="2777">
                    <coordinates>-80.3898563,-3.5007345,0.0</coordinates>
                </Point>
            </Placemark>
            <Placemark id="2783">
                <name>RICHARD MARTIN CHAPA LLENQUE</name>
                <description>Aahh Jose Gálvez Mz 6 lote 01 - puerto Pizarro referencia antes de la avícola AVICORP


Tumbes
Perú</description>
                <styleUrl>#2784</styleUrl>
                <Point id="2782">
                    <coordinates>-80.38897,-3.5007336,0.0</coordinates>
                </Point>
            </Placemark>
            <Placemark id="2788">
                <name>URBANO ROJAS ROJAS</name>
                <description>Av principal 118 puerto pizarro, frente al paradero para tumbes
Puerto Pizarro
Zarumilla
Tumbes
Perú</description>
                <styleUrl>#2789</styleUrl>
                <Point id="2787">
                    <coordinates>-80.3892307,-3.5013729,0.0</coordinates>
                </Point>
            </Placemark>
            <Placemark id="2793">
                <name>ERMELITA JULIA GALAN SALDARRIAGA</name>
                <description>calle San Pablo 219 pto pizarro atras de los columpios
Puerto Pizarro
24000Zarumilla
Tumbes
Perú</description>
                <styleUrl>#2794</styleUrl>
                <Point id="2792">
                    <coordinates>-80.3926751,-3.5033183,0.0</coordinates>
                </Point>
            </Placemark>
            <Placemark id="2798">
                <name>CLEMENTINA GARCIA CUEVA</name>
                <description>calle San Pedro sur 165 puerto Pizarro
Puerto Pizarro
24000Zarumilla
Tumbes
Perú</description>
                <styleUrl>#2799</styleUrl>
                <Point id="2797">
                    <coordinates>-80.392053,-3.502129,0.0</coordinates>
                </Point>
            </Placemark>
            <Placemark id="2803">
                <name>JESSICA DEL ROSARIO BISMARCK MOSCOSO</name>
                <description>Psje el calamar 208 - puerto Pizarro antes de llegar a la playa
Puerto Pizarro
Zarumilla
Tumbes
Perú</description>
                <styleUrl>#2804</styleUrl>
                <Point id="2802">
                    <coordinates>-80.391221,-3.5009271,0.0</coordinates>
                </Point>
            </Placemark>
            <Placemark id="2808">
                <name>FIESTAS ZARATE JESSICA PAOLA</name>
                <description>CA.RIVERA DEL MAR SN P.PIZARRO


Tumbes
Perú</description>
                <styleUrl>#2809</styleUrl>
                <Point id="2807">
                    <coordinates>-80.391289,-3.500414,0.0</coordinates>
                </Point>
            </Placemark>
            <Placemark id="2813">
                <name>LIDIA PANTA DE ZAPATA</name>
                <description>Calle San Pedro sur 115 - puerto Pizarro Ref. Por el paradero de motos - puerto Pizarro
Tumbes
Zarumilla
Tumbes
Perú</description>
                <styleUrl>#2814</styleUrl>
                <Point id="2812">
                    <coordinates>-80.3903285,-3.5013237,0.0</coordinates>
                </Point>
            </Placemark>
            <Placemark id="2818">
                <name>PACIFICA INES SALVATIERRA BALCAZAR</name>
                <description>Pasaje las garzas 109- puerto Pizarro, Ref. Frente al restaurante conchas negras
Puerto Pizarro
Zarumilla
Tumbes
Perú</description>
                <styleUrl>#2819</styleUrl>
                <Point id="2817">
                    <coordinates>-80.3879614,-3.4993188,0.0</coordinates>
                </Point>
            </Placemark>
            <Placemark id="2823">
                <name>FELIX DOMINGUEZ CORDOVA</name>
                <description>Calle san pedro 135 puerto pizarro,Frente a la canchita , bodega reyna del cisne
Puerto Pizarro
Zarumilla
Tumbes
Perú</description>
                <styleUrl>#2824</styleUrl>
                <Point id="2822">
                    <coordinates>-80.3880826,-3.5001836,0.0</coordinates>
                </Point>
            </Placemark>
            <Placemark id="2828">
                <name>YESICCA DEL PILAR ALEMAN TAPIA</name>
                <description>Aahh Santa rosa sn Pto pizarro Entrada frente a la gallera, por la cancha al fondo
Puerto Pizarro
Zarumilla
Tumbes
Perú</description>
                <styleUrl>#2829</styleUrl>
                <Point id="2827">
                    <coordinates>-80.3869006,-3.5046812,0.0</coordinates>
                </Point>
            </Placemark>
            <Placemark id="2833">
                <name>ESTEFANI LISSET CHICOMA HUAMAN</name>
                <description>Av principal mz s lote 20 conjunto Residencial la fragata
Tumbes

Tumbes
Perú</description>
                <styleUrl>#2834</styleUrl>
                <Point id="2832">
                    <coordinates>-80.3857058,-3.5242547,0.0</coordinates>
                </Point>
            </Placemark>
            <Placemark id="2838">
                <name>MARGARITA CASTILLO RODRIGUEZ</name>
                <description>AAHH SANTA ROSA CALLE TUMBES 12 - puerto Pizarro ref. frente al pampon
Tumbes
Tumbes
Tumbes
Perú</description>
                <styleUrl>#2839</styleUrl>
                <Point id="2837">
                    <coordinates>-80.388719,-3.50481,0.0</coordinates>
                </Point>
            </Placemark>
            <Placemark id="2843">
                <name>GLADYS SILVA YOVERA</name>
                <description>ENTRADA A PIZARRO REF COSTADO DE BASTARDO
Tumbes
Tumbes
Tumbes
Perú</description>
                <styleUrl>#2844</styleUrl>
                <Point id="2842">
                    <coordinates>-80.3766129,-3.5347142,0.0</coordinates>
                </Point>
            </Placemark>
            <Placemark id="2848">
                <name>PATRICIA NATIVIDAD CAMACHO ZARATE</name>
                <description>LA BOTELLA Puerto Pizarro
Puerto Pizarro
Zarumilla
Tumbes
Perú</description>
                <styleUrl>#2849</styleUrl>
                <Point id="2847">
                    <coordinates>-80.3986515,-3.5481367,0.0</coordinates>
                </Point>
            </Placemark>
        </Folder>
        <Folder id="2852">
            <Style id="2855">
                <IconStyle id="2856">
                    <color>ffff0000</color>
                    <colorMode>normal</colorMode>
                    <scale>1</scale>
                    <heading>0</heading>
                    <Icon id="2857">
                        <href>http://maps.google.com/mapfiles/kml/pushpin/ylw-pushpin.png</href>
                    </Icon>
                </IconStyle>
            </Style>
            <Style id="2860">
                <IconStyle id="2861">
                    <color>ffff0000</color>
                    <colorMode>normal</colorMode>
                    <scale>1</scale>
                    <heading>0</heading>
                    <Icon id="2862">
                        <href>http://maps.google.com/mapfiles/kml/pushpin/ylw-pushpin.png</href>
                    </Icon>
                </IconStyle>
            </Style>
            <Style id="2865">
                <IconStyle id="2866">
                    <color>ffff0000</color>
                    <colorMode>normal</colorMode>
                    <scale>1</scale>
                    <heading>0</heading>
                    <Icon id="2867">
                        <href>http://maps.google.com/mapfiles/kml/pushpin/ylw-pushpin.png</href>
                    </Icon>
                </IconStyle>
            </Style>
            <Style id="2870">
                <IconStyle id="2871">
                    <color>ffff0000</color>
                    <colorMode>normal</colorMode>
                    <scale>1</scale>
                    <heading>0</heading>
                    <Icon id="2872">
                        <href>http://maps.google.com/mapfiles/kml/pushpin/ylw-pushpin.png</href>
                    </Icon>
                </IconStyle>
            </Style>
            <Style id="2875">
                <IconStyle id="2876">
                    <color>ffff0000</color>
                    <colorMode>normal</colorMode>
                    <scale>1</scale>
                    <heading>0</heading>
                    <Icon id="2877">
                        <href>http://maps.google.com/mapfiles/kml/pushpin/ylw-pushpin.png</href>
                    </Icon>
                </IconStyle>
            </Style>
            <Style id="2880">
                <IconStyle id="2881">
                    <color>ffff0000</color>
                    <colorMode>normal</colorMode>
                    <scale>1</scale>
                    <heading>0</heading>
                    <Icon id="2882">
                        <href>http://maps.google.com/mapfiles/kml/pushpin/ylw-pushpin.png</href>
                    </Icon>
                </IconStyle>
            </Style>
            <Style id="2885">
                <IconStyle id="2886">
                    <color>ffff0000</color>
                    <colorMode>normal</colorMode>
                    <scale>1</scale>
                    <heading>0</heading>
                    <Icon id="2887">
                        <href>http://maps.google.com/mapfiles/kml/pushpin/ylw-pushpin.png</href>
                    </Icon>
                </IconStyle>
            </Style>
            <Style id="2890">
                <IconStyle id="2891">
                    <color>ffff0000</color>
                    <colorMode>normal</colorMode>
                    <scale>1</scale>
                    <heading>0</heading>
                    <Icon id="2892">
                        <href>http://maps.google.com/mapfiles/kml/pushpin/ylw-pushpin.png</href>
                    </Icon>
                </IconStyle>
            </Style>
            <Style id="2895">
                <IconStyle id="2896">
                    <color>ffff0000</color>
                    <colorMode>normal</colorMode>
                    <scale>1</scale>
                    <heading>0</heading>
                    <Icon id="2897">
                        <href>http://maps.google.com/mapfiles/kml/pushpin/ylw-pushpin.png</href>
                    </Icon>
                </IconStyle>
            </Style>
            <Style id="2900">
                <IconStyle id="2901">
                    <color>ffff0000</color>
                    <colorMode>normal</colorMode>
                    <scale>1</scale>
                    <heading>0</heading>
                    <Icon id="2902">
                        <href>http://maps.google.com/mapfiles/kml/pushpin/ylw-pushpin.png</href>
                    </Icon>
                </IconStyle>
            </Style>
            <Style id="2905">
                <IconStyle id="2906">
                    <color>ffff0000</color>
                    <colorMode>normal</colorMode>
                    <scale>1</scale>
                    <heading>0</heading>
                    <Icon id="2907">
                        <href>http://maps.google.com/mapfiles/kml/pushpin/ylw-pushpin.png</href>
                    </Icon>
                </IconStyle>
            </Style>
            <Style id="2910">
                <IconStyle id="2911">
                    <color>ffff0000</color>
                    <colorMode>normal</colorMode>
                    <scale>1</scale>
                    <heading>0</heading>
                    <Icon id="2912">
                        <href>http://maps.google.com/mapfiles/kml/pushpin/ylw-pushpin.png</href>
                    </Icon>
                </IconStyle>
            </Style>
            <Style id="2915">
                <IconStyle id="2916">
                    <color>ffff0000</color>
                    <colorMode>normal</colorMode>
                    <scale>1</scale>
                    <heading>0</heading>
                    <Icon id="2917">
                        <href>http://maps.google.com/mapfiles/kml/pushpin/ylw-pushpin.png</href>
                    </Icon>
                </IconStyle>
            </Style>
            <Style id="2920">
                <IconStyle id="2921">
                    <color>ffff0000</color>
                    <colorMode>normal</colorMode>
                    <scale>1</scale>
                    <heading>0</heading>
                    <Icon id="2922">
                        <href>http://maps.google.com/mapfiles/kml/pushpin/ylw-pushpin.png</href>
                    </Icon>
                </IconStyle>
            </Style>
            <Style id="2925">
                <IconStyle id="2926">
                    <color>ffff0000</color>
                    <colorMode>normal</colorMode>
                    <scale>1</scale>
                    <heading>0</heading>
                    <Icon id="2927">
                        <href>http://maps.google.com/mapfiles/kml/pushpin/ylw-pushpin.png</href>
                    </Icon>
                </IconStyle>
            </Style>
            <Style id="2930">
                <IconStyle id="2931">
                    <color>ffff0000</color>
                    <colorMode>normal</colorMode>
                    <scale>1</scale>
                    <heading>0</heading>
                    <Icon id="2932">
                        <href>http://maps.google.com/mapfiles/kml/pushpin/ylw-pushpin.png</href>
                    </Icon>
                </IconStyle>
            </Style>
            <Style id="2935">
                <IconStyle id="2936">
                    <color>ffff0000</color>
                    <colorMode>normal</colorMode>
                    <scale>1</scale>
                    <heading>0</heading>
                    <Icon id="2937">
                        <href>http://maps.google.com/mapfiles/kml/pushpin/ylw-pushpin.png</href>
                    </Icon>
                </IconStyle>
            </Style>
            <Style id="2940">
                <IconStyle id="2941">
                    <color>ffff0000</color>
                    <colorMode>normal</colorMode>
                    <scale>1</scale>
                    <heading>0</heading>
                    <Icon id="2942">
                        <href>http://maps.google.com/mapfiles/kml/pushpin/ylw-pushpin.png</href>
                    </Icon>
                </IconStyle>
            </Style>
            <Style id="2945">
                <IconStyle id="2946">
                    <color>ffff0000</color>
                    <colorMode>normal</colorMode>
                    <scale>1</scale>
                    <heading>0</heading>
                    <Icon id="2947">
                        <href>http://maps.google.com/mapfiles/kml/pushpin/ylw-pushpin.png</href>
                    </Icon>
                </IconStyle>
            </Style>
            <Style id="2950">
                <IconStyle id="2951">
                    <color>ffff0000</color>
                    <colorMode>normal</colorMode>
                    <scale>1</scale>
                    <heading>0</heading>
                    <Icon id="2952">
                        <href>http://maps.google.com/mapfiles/kml/pushpin/ylw-pushpin.png</href>
                    </Icon>
                </IconStyle>
            </Style>
            <Style id="2955">
                <IconStyle id="2956">
                    <color>ffff0000</color>
                    <colorMode>normal</colorMode>
                    <scale>1</scale>
                    <heading>0</heading>
                    <Icon id="2957">
                        <href>http://maps.google.com/mapfiles/kml/pushpin/ylw-pushpin.png</href>
                    </Icon>
                </IconStyle>
            </Style>
            <Style id="2960">
                <IconStyle id="2961">
                    <color>ffff0000</color>
                    <colorMode>normal</colorMode>
                    <scale>1</scale>
                    <heading>0</heading>
                    <Icon id="2962">
                        <href>http://maps.google.com/mapfiles/kml/pushpin/ylw-pushpin.png</href>
                    </Icon>
                </IconStyle>
            </Style>
            <Style id="2965">
                <IconStyle id="2966">
                    <color>ffff0000</color>
                    <colorMode>normal</colorMode>
                    <scale>1</scale>
                    <heading>0</heading>
                    <Icon id="2967">
                        <href>http://maps.google.com/mapfiles/kml/pushpin/ylw-pushpin.png</href>
                    </Icon>
                </IconStyle>
            </Style>
            <Style id="2970">
                <IconStyle id="2971">
                    <color>ffff0000</color>
                    <colorMode>normal</colorMode>
                    <scale>1</scale>
                    <heading>0</heading>
                    <Icon id="2972">
                        <href>http://maps.google.com/mapfiles/kml/pushpin/ylw-pushpin.png</href>
                    </Icon>
                </IconStyle>
            </Style>
            <name>MARIO ALBERTO QUINTANA SANDOVAL</name>
            <Placemark id="2854">
                <name>PATRICIA DEL PILAR PALMA CARRILLO</name>
                <description>Av jeremias mz G lote 21 A - cuarta etapa de ciudadela de Noé - puyango

24520TUMBES
Tumbes
Perú</description>
                <styleUrl>#2855</styleUrl>
                <Point id="2853">
                    <coordinates>-80.4257055,-3.566922,0.0</coordinates>
                </Point>
            </Placemark>
            <Placemark id="2859">
                <name>SANTOS ALBERTINA MERINO GONZALES.</name>
                <description>mercado de puyango
Tumbes
24520Tumbes
Tumbes
Perú</description>
                <styleUrl>#2860</styleUrl>
                <Point id="2858">
                    <coordinates>-80.4268432,-3.5626987,0.0</coordinates>
                </Point>
            </Placemark>
            <Placemark id="2864">
                <name>RAUL MORE VASQUEZ</name>
                <description>Av. Piura 1335  interior D mercado de tumbes
Tumbes
24520Tumbes
Tumbes
Perú</description>
                <styleUrl>#2865</styleUrl>
                <Point id="2863">
                    <coordinates>-80.4546264,-3.5708904,0.0</coordinates>
                </Point>
            </Placemark>
            <Placemark id="2869">
                <name>JOSE HENRY ACOSTA ACOSTA</name>
                <description>Av  Francisco Bolognesi mz H lote 9 - AAHH - ANDRES AVELINO CACERES primera etapa - puyango 
Corrales
24520Tumbes
Tumbes
Perú</description>
                <styleUrl>#2870</styleUrl>
                <Point id="2868">
                    <coordinates>-80.4260146,-3.567079,0.0</coordinates>
                </Point>
            </Placemark>
            <Placemark id="2874">
                <name>FELIX MARIA DELGADO DIOSES</name>
                <description>Calle las artes ref por la cochera municipal de puyango
Puyango
Tumbes
Tumbes
Perú</description>
                <styleUrl>#2875</styleUrl>
                <Point id="2873">
                    <coordinates>-80.4250603,-3.5677611,0.0</coordinates>
                </Point>
            </Placemark>
            <Placemark id="2879">
                <name>MASIAS JIMENEZ CARMEN MARGARI</name>
                <description>A.H.ANDRES A CACERE MZ.LL LT.3


Tumbes
Perú</description>
                <styleUrl>#2880</styleUrl>
                <Point id="2878">
                    <coordinates>-80.424992,-3.569032,0.0</coordinates>
                </Point>
            </Placemark>
            <Placemark id="2884">
                <name>CHOCAN GUERRERO JESUS</name>
                <description>CHOCAN GUERRERO JESUS
Ciudadela de Noe 1 ETAPA MZ z lote 4 puyango Tumbes
Puyango
Tumbes
Tumbes
Perú</description>
                <styleUrl>#2885</styleUrl>
                <Point id="2883">
                    <coordinates>-80.4251395,-3.5711528,0.0</coordinates>
                </Point>
            </Placemark>
            <Placemark id="2889">
                <name>KATHERY SHIRLEY IZQUIERDO GONZALES</name>
                <description>Puesto 46 -  int.  mercado modelo - tumbes
Tumbes
Tumbes
Tumbes
Perú</description>
                <styleUrl>#2890</styleUrl>
                <Point id="2888">
                    <coordinates>-80.4557241,-3.5706388,0.0</coordinates>
                </Point>
            </Placemark>
            <Placemark id="2894">
                <name>LECNI JANNINA SIFUENTES HUAMAN</name>
                <description> 8 de setiembre. puyango
detrás del ex mercado 12 mercado de puyango 
Tumbes
24520Tumbes
Tumbes
Perú</description>
                <styleUrl>#2895</styleUrl>
                <Point id="2893">
                    <coordinates>-80.4269662,-3.562888,0.0</coordinates>
                </Point>
            </Placemark>
            <Placemark id="2899">
                <name>SANTOS ALBERTINA MERINO GONZALES.</name>
                <description>mercado de puyango
Tumbes
24520Tumbes
Tumbes
Perú</description>
                <styleUrl>#2900</styleUrl>
                <Point id="2898">
                    <coordinates>-80.4268432,-3.5626987,0.0</coordinates>
                </Point>
            </Placemark>
            <Placemark id="2904">
                <name>CESPEDES BARBOZA JESSICA</name>
                <description>CESPEDES BARBOZA JESSICA
Mz G lote 11 ciudadela de Noe I etapa Puyango Tumbes espaldas de rst los 7 mares
Tumbes
Tumbes
Tumbes
Perú</description>
                <styleUrl>#2905</styleUrl>
                <Point id="2903">
                    <coordinates>-80.4247414,-3.5712113,0.0</coordinates>
                </Point>
            </Placemark>
            <Placemark id="2909">
                <name>MARKET 'FRUTERIA &amp; VERDULERIA' SR. FRUTA E.I.R.L.</name>
                <description>AV. BELAUNDE TERRY MZA. 25 LOTE. 1 INT. 2 URB.  ANDRES ARAUJO MORAN
Tumbes
240104
Tumbes
Perú</description>
                <styleUrl>#2910</styleUrl>
                <Point id="2908">
                    <coordinates>-80.4264739,-3.5616775,0.0</coordinates>
                </Point>
            </Placemark>
            <Placemark id="2914">
                <name>MARITZA ELEANNE VILLAR CASTILLO</name>
                <description>Esquina del parque el avion costado de iglesia puyango
Tumbes

Tumbes
Perú</description>
                <styleUrl>#2915</styleUrl>
                <Point id="2913">
                    <coordinates>-80.4294,-3.5560797,0.0</coordinates>
                </Point>
            </Placemark>
            <Placemark id="2919">
                <name>ZENEIDA PEÑA JIMENEZ</name>
                <description>Ciudadela Noe ref ferrería alvil
Puyango

Tumbes
Perú</description>
                <styleUrl>#2920</styleUrl>
                <Point id="2918">
                    <coordinates>-80.4216665,-3.5734392,0.0</coordinates>
                </Point>
            </Placemark>
            <Placemark id="2924">
                <name>VERONICA SMITH CARRILLO JIMENEZ</name>
                <description>Noe 3ra etapa por pampon mano derecha
Tumbes

Tumbes
Perú</description>
                <styleUrl>#2925</styleUrl>
                <Point id="2923">
                    <coordinates>-80.4211832,-3.5766132,0.0</coordinates>
                </Point>
            </Placemark>
            <Placemark id="2929">
                <name>JUANA EBEY OGOÑA ALVAREZ</name>
                <description>calle Jeremías mz K lote 41 - cuarta etapa de la ciudadela de Noé - puyango 

24520TUMBES
Tumbes
Perú</description>
                <styleUrl>#2930</styleUrl>
                <Point id="2928">
                    <coordinates>-80.4188513,-3.5768169,0.0</coordinates>
                </Point>
            </Placemark>
            <Placemark id="2934">
                <name>PATRICIA DEL PILAR PALMA CARRILLO</name>
                <description>Av jeremias mz G lote 21 A - cuarta etapa de ciudadela de Noé - puyango

24520TUMBES
Tumbes
Perú</description>
                <styleUrl>#2935</styleUrl>
                <Point id="2933">
                    <coordinates>-80.4257055,-3.566922,0.0</coordinates>
                </Point>
            </Placemark>
            <Placemark id="2939">
                <name>NELIDA CARHUAPOMA ADRIANZEN</name>
                <description>AAHH CIUDADELA NOE 4TA ETAPA MZ H LT 06 A LA VIELTA D ELA SRA SALVADOR
Tumbes

Tumbes
Perú</description>
                <styleUrl>#2940</styleUrl>
                <Point id="2938">
                    <coordinates>-80.4191196,-3.5786976,0.0</coordinates>
                </Point>
            </Placemark>
            <Placemark id="2944">
                <name>YACELI JANETH CORDOVA SALVADOR</name>
                <description>San Gabriel Mz H Lote 1 Ciudadela de Noe IV Etapa Puyango referencia frente al colegio inicial COPITO DE NIEVE . (Malla verde afuera)
Tumbes

Tumbes
Perú</description>
                <styleUrl>#2945</styleUrl>
                <Point id="2943">
                    <coordinates>-80.4181136,-3.5794242,0.0</coordinates>
                </Point>
            </Placemark>
            <Placemark id="2949">
                <name>DELAYDA SILVA RAMIREZ</name>
                <description>Ciudadela de Noé cuarta etapa
Puyango
Tumbes
Tumbes
Perú</description>
                <styleUrl>#2950</styleUrl>
                <Point id="2948">
                    <coordinates>-80.4173863,-3.5773516,0.0</coordinates>
                </Point>
            </Placemark>
            <Placemark id="2954">
                <name>SOCORRO HUAMAN MELENDREZ</name>
                <description>Av ciudadela de Noé Mz A lote 04 - 5ta etapa - puyango 
Tumbes
24520Tumbes
Tumbes
Perú</description>
                <styleUrl>#2955</styleUrl>
                <Point id="2953">
                    <coordinates>-80.4155722,-3.5778266,0.0</coordinates>
                </Point>
            </Placemark>
            <Placemark id="2959">
                <name>COINTA VILLEGAS PINTADO</name>
                <description>AAHH ciudadela de Noé 5ta etapa - mercado de la 5ta etapa de l ciudad de Noé 
Tumbes
24520Tumbes
Tumbes
Perú</description>
                <styleUrl>#2960</styleUrl>
                <Point id="2958">
                    <coordinates>-80.4143081,-3.5789294,0.0</coordinates>
                </Point>
            </Placemark>
            <Placemark id="2964">
                <name>DOLORES ANDINA HERRERA DE RIOS</name>
                <description>avenida Arica 109 barrio San José tumbes
Tumbes
24520Tumbes
Tumbes
Perú</description>
                <styleUrl>#2965</styleUrl>
                <Point id="2963">
                    <coordinates>-80.460168,-3.5674954,0.0</coordinates>
                </Point>
            </Placemark>
            <Placemark id="2969">
                <name>ALAN GABANIEL SAGUMA GUERRERO</name>
                <description>Mercadito ciudadela Noe 5ta etapa
Puyango

Tumbes
Perú</description>
                <styleUrl>#2970</styleUrl>
                <Point id="2968">
                    <coordinates>-80.4137003,-3.5801293,0.0</coordinates>
                </Point>
            </Placemark>
        </Folder>
        <Folder id="2973">
            <Style id="2976">
                <IconStyle id="2977">
                    <color>ff008000</color>
                    <colorMode>normal</colorMode>
                    <scale>1</scale>
                    <heading>0</heading>
                    <Icon id="2978">
                        <href>http://maps.google.com/mapfiles/kml/pushpin/ylw-pushpin.png</href>
                    </Icon>
                </IconStyle>
            </Style>
            <Style id="2981">
                <IconStyle id="2982">
                    <color>ff008000</color>
                    <colorMode>normal</colorMode>
                    <scale>1</scale>
                    <heading>0</heading>
                    <Icon id="2983">
                        <href>http://maps.google.com/mapfiles/kml/pushpin/ylw-pushpin.png</href>
                    </Icon>
                </IconStyle>
            </Style>
            <Style id="2986">
                <IconStyle id="2987">
                    <color>ff008000</color>
                    <colorMode>normal</colorMode>
                    <scale>1</scale>
                    <heading>0</heading>
                    <Icon id="2988">
                        <href>http://maps.google.com/mapfiles/kml/pushpin/ylw-pushpin.png</href>
                    </Icon>
                </IconStyle>
            </Style>
            <Style id="2991">
                <IconStyle id="2992">
                    <color>ff008000</color>
                    <colorMode>normal</colorMode>
                    <scale>1</scale>
                    <heading>0</heading>
                    <Icon id="2993">
                        <href>http://maps.google.com/mapfiles/kml/pushpin/ylw-pushpin.png</href>
                    </Icon>
                </IconStyle>
            </Style>
            <Style id="2996">
                <IconStyle id="2997">
                    <color>ff008000</color>
                    <colorMode>normal</colorMode>
                    <scale>1</scale>
                    <heading>0</heading>
                    <Icon id="2998">
                        <href>http://maps.google.com/mapfiles/kml/pushpin/ylw-pushpin.png</href>
                    </Icon>
                </IconStyle>
            </Style>
            <Style id="3001">
                <IconStyle id="3002">
                    <color>ff008000</color>
                    <colorMode>normal</colorMode>
                    <scale>1</scale>
                    <heading>0</heading>
                    <Icon id="3003">
                        <href>http://maps.google.com/mapfiles/kml/pushpin/ylw-pushpin.png</href>
                    </Icon>
                </IconStyle>
            </Style>
            <Style id="3006">
                <IconStyle id="3007">
                    <color>ff008000</color>
                    <colorMode>normal</colorMode>
                    <scale>1</scale>
                    <heading>0</heading>
                    <Icon id="3008">
                        <href>http://maps.google.com/mapfiles/kml/pushpin/ylw-pushpin.png</href>
                    </Icon>
                </IconStyle>
            </Style>
            <Style id="3011">
                <IconStyle id="3012">
                    <color>ff008000</color>
                    <colorMode>normal</colorMode>
                    <scale>1</scale>
                    <heading>0</heading>
                    <Icon id="3013">
                        <href>http://maps.google.com/mapfiles/kml/pushpin/ylw-pushpin.png</href>
                    </Icon>
                </IconStyle>
            </Style>
            <Style id="3016">
                <IconStyle id="3017">
                    <color>ff008000</color>
                    <colorMode>normal</colorMode>
                    <scale>1</scale>
                    <heading>0</heading>
                    <Icon id="3018">
                        <href>http://maps.google.com/mapfiles/kml/pushpin/ylw-pushpin.png</href>
                    </Icon>
                </IconStyle>
            </Style>
            <Style id="3021">
                <IconStyle id="3022">
                    <color>ff008000</color>
                    <colorMode>normal</colorMode>
                    <scale>1</scale>
                    <heading>0</heading>
                    <Icon id="3023">
                        <href>http://maps.google.com/mapfiles/kml/pushpin/ylw-pushpin.png</href>
                    </Icon>
                </IconStyle>
            </Style>
            <Style id="3026">
                <IconStyle id="3027">
                    <color>ff008000</color>
                    <colorMode>normal</colorMode>
                    <scale>1</scale>
                    <heading>0</heading>
                    <Icon id="3028">
                        <href>http://maps.google.com/mapfiles/kml/pushpin/ylw-pushpin.png</href>
                    </Icon>
                </IconStyle>
            </Style>
            <Style id="3031">
                <IconStyle id="3032">
                    <color>ff008000</color>
                    <colorMode>normal</colorMode>
                    <scale>1</scale>
                    <heading>0</heading>
                    <Icon id="3033">
                        <href>http://maps.google.com/mapfiles/kml/pushpin/ylw-pushpin.png</href>
                    </Icon>
                </IconStyle>
            </Style>
            <Style id="3036">
                <IconStyle id="3037">
                    <color>ff008000</color>
                    <colorMode>normal</colorMode>
                    <scale>1</scale>
                    <heading>0</heading>
                    <Icon id="3038">
                        <href>http://maps.google.com/mapfiles/kml/pushpin/ylw-pushpin.png</href>
                    </Icon>
                </IconStyle>
            </Style>
            <Style id="3041">
                <IconStyle id="3042">
                    <color>ff008000</color>
                    <colorMode>normal</colorMode>
                    <scale>1</scale>
                    <heading>0</heading>
                    <Icon id="3043">
                        <href>http://maps.google.com/mapfiles/kml/pushpin/ylw-pushpin.png</href>
                    </Icon>
                </IconStyle>
            </Style>
            <Style id="3046">
                <IconStyle id="3047">
                    <color>ff008000</color>
                    <colorMode>normal</colorMode>
                    <scale>1</scale>
                    <heading>0</heading>
                    <Icon id="3048">
                        <href>http://maps.google.com/mapfiles/kml/pushpin/ylw-pushpin.png</href>
                    </Icon>
                </IconStyle>
            </Style>
            <Style id="3051">
                <IconStyle id="3052">
                    <color>ff008000</color>
                    <colorMode>normal</colorMode>
                    <scale>1</scale>
                    <heading>0</heading>
                    <Icon id="3053">
                        <href>http://maps.google.com/mapfiles/kml/pushpin/ylw-pushpin.png</href>
                    </Icon>
                </IconStyle>
            </Style>
            <Style id="3056">
                <IconStyle id="3057">
                    <color>ff008000</color>
                    <colorMode>normal</colorMode>
                    <scale>1</scale>
                    <heading>0</heading>
                    <Icon id="3058">
                        <href>http://maps.google.com/mapfiles/kml/pushpin/ylw-pushpin.png</href>
                    </Icon>
                </IconStyle>
            </Style>
            <Style id="3061">
                <IconStyle id="3062">
                    <color>ff008000</color>
                    <colorMode>normal</colorMode>
                    <scale>1</scale>
                    <heading>0</heading>
                    <Icon id="3063">
                        <href>http://maps.google.com/mapfiles/kml/pushpin/ylw-pushpin.png</href>
                    </Icon>
                </IconStyle>
            </Style>
            <Style id="3066">
                <IconStyle id="3067">
                    <color>ff008000</color>
                    <colorMode>normal</colorMode>
                    <scale>1</scale>
                    <heading>0</heading>
                    <Icon id="3068">
                        <href>http://maps.google.com/mapfiles/kml/pushpin/ylw-pushpin.png</href>
                    </Icon>
                </IconStyle>
            </Style>
            <Style id="3071">
                <IconStyle id="3072">
                    <color>ff008000</color>
                    <colorMode>normal</colorMode>
                    <scale>1</scale>
                    <heading>0</heading>
                    <Icon id="3073">
                        <href>http://maps.google.com/mapfiles/kml/pushpin/ylw-pushpin.png</href>
                    </Icon>
                </IconStyle>
            </Style>
            <Style id="3076">
                <IconStyle id="3077">
                    <color>ff008000</color>
                    <colorMode>normal</colorMode>
                    <scale>1</scale>
                    <heading>0</heading>
                    <Icon id="3078">
                        <href>http://maps.google.com/mapfiles/kml/pushpin/ylw-pushpin.png</href>
                    </Icon>
                </IconStyle>
            </Style>
            <Style id="3081">
                <IconStyle id="3082">
                    <color>ff008000</color>
                    <colorMode>normal</colorMode>
                    <scale>1</scale>
                    <heading>0</heading>
                    <Icon id="3083">
                        <href>http://maps.google.com/mapfiles/kml/pushpin/ylw-pushpin.png</href>
                    </Icon>
                </IconStyle>
            </Style>
            <Style id="3086">
                <IconStyle id="3087">
                    <color>ff008000</color>
                    <colorMode>normal</colorMode>
                    <scale>1</scale>
                    <heading>0</heading>
                    <Icon id="3088">
                        <href>http://maps.google.com/mapfiles/kml/pushpin/ylw-pushpin.png</href>
                    </Icon>
                </IconStyle>
            </Style>
            <Style id="3091">
                <IconStyle id="3092">
                    <color>ff008000</color>
                    <colorMode>normal</colorMode>
                    <scale>1</scale>
                    <heading>0</heading>
                    <Icon id="3093">
                        <href>http://maps.google.com/mapfiles/kml/pushpin/ylw-pushpin.png</href>
                    </Icon>
                </IconStyle>
            </Style>
            <Style id="3096">
                <IconStyle id="3097">
                    <color>ff008000</color>
                    <colorMode>normal</colorMode>
                    <scale>1</scale>
                    <heading>0</heading>
                    <Icon id="3098">
                        <href>http://maps.google.com/mapfiles/kml/pushpin/ylw-pushpin.png</href>
                    </Icon>
                </IconStyle>
            </Style>
            <Style id="3101">
                <IconStyle id="3102">
                    <color>ff008000</color>
                    <colorMode>normal</colorMode>
                    <scale>1</scale>
                    <heading>0</heading>
                    <Icon id="3103">
                        <href>http://maps.google.com/mapfiles/kml/pushpin/ylw-pushpin.png</href>
                    </Icon>
                </IconStyle>
            </Style>
            <Style id="3106">
                <IconStyle id="3107">
                    <color>ff008000</color>
                    <colorMode>normal</colorMode>
                    <scale>1</scale>
                    <heading>0</heading>
                    <Icon id="3108">
                        <href>http://maps.google.com/mapfiles/kml/pushpin/ylw-pushpin.png</href>
                    </Icon>
                </IconStyle>
            </Style>
            <Style id="3111">
                <IconStyle id="3112">
                    <color>ff008000</color>
                    <colorMode>normal</colorMode>
                    <scale>1</scale>
                    <heading>0</heading>
                    <Icon id="3113">
                        <href>http://maps.google.com/mapfiles/kml/pushpin/ylw-pushpin.png</href>
                    </Icon>
                </IconStyle>
            </Style>
            <Style id="3116">
                <IconStyle id="3117">
                    <color>ff008000</color>
                    <colorMode>normal</colorMode>
                    <scale>1</scale>
                    <heading>0</heading>
                    <Icon id="3118">
                        <href>http://maps.google.com/mapfiles/kml/pushpin/ylw-pushpin.png</href>
                    </Icon>
                </IconStyle>
            </Style>
            <Style id="3121">
                <IconStyle id="3122">
                    <color>ff008000</color>
                    <colorMode>normal</colorMode>
                    <scale>1</scale>
                    <heading>0</heading>
                    <Icon id="3123">
                        <href>http://maps.google.com/mapfiles/kml/pushpin/ylw-pushpin.png</href>
                    </Icon>
                </IconStyle>
            </Style>
            <Style id="3126">
                <IconStyle id="3127">
                    <color>ff008000</color>
                    <colorMode>normal</colorMode>
                    <scale>1</scale>
                    <heading>0</heading>
                    <Icon id="3128">
                        <href>http://maps.google.com/mapfiles/kml/pushpin/ylw-pushpin.png</href>
                    </Icon>
                </IconStyle>
            </Style>
            <Style id="3131">
                <IconStyle id="3132">
                    <color>ff008000</color>
                    <colorMode>normal</colorMode>
                    <scale>1</scale>
                    <heading>0</heading>
                    <Icon id="3133">
                        <href>http://maps.google.com/mapfiles/kml/pushpin/ylw-pushpin.png</href>
                    </Icon>
                </IconStyle>
            </Style>
            <name>MARY JISSA DEL PILAR PALACIOS ZAPATA</name>
            <Placemark id="2975">
                <name>OSWALDO ANASTACIO SILVA</name>
                <description>Av ciudadela de Noé MZ D lote 6 puyango
Puyango

Tumbes
Perú</description>
                <styleUrl>#2976</styleUrl>
                <Point id="2974">
                    <coordinates>-80.415738,-3.574519,0.0</coordinates>
                </Point>
            </Placemark>
            <Placemark id="2980">
                <name>EMSEMU EMPRESA INDIVIDUAL DE RESPONSABILIDAD LIMITADA</name>
                <description>EMSEMU EMPRESA INDIVIDUAL DE RESPONSABILIDAD LIMITADA
Av panamericana norte mz C lote 10
Tumbes
Tumbes
Tumbes
Perú</description>
                <styleUrl>#2981</styleUrl>
                <Point id="2979">
                    <coordinates>-80.425682,-3.5534793,0.0</coordinates>
                </Point>
            </Placemark>
            <Placemark id="2985">
                <name>SANDOVAL SOCOLA FLORA.</name>
                <description>CIUDADELA NOE E-1 PRONOI


Tumbes
Perú</description>
                <styleUrl>#2986</styleUrl>
                <Point id="2984">
                    <coordinates>-80.422764,-3.570715,0.0</coordinates>
                </Point>
            </Placemark>
            <Placemark id="2990">
                <name>FRANCISCA ODAR CHUNGA</name>
                <description>Calle Piura Mz G Lt 1  AAHH 24 De Julio   puyango
Tumbes
24520Tumbes
Tumbes
Perú</description>
                <styleUrl>#2991</styleUrl>
                <Point id="2989">
                    <coordinates>-80.424381,-3.5581476,0.0</coordinates>
                </Point>
            </Placemark>
            <Placemark id="2995">
                <name>ALCIRA ATOCHE VALLADOLID</name>
                <description>Calla Elias Aguirre mz C lote 24 - puyango espaldas de cenati
Tumbes
Tumbes
Tumbes
Perú</description>
                <styleUrl>#2996</styleUrl>
                <Point id="2994">
                    <coordinates>-80.4261298,-3.5540714,0.0</coordinates>
                </Point>
            </Placemark>
            <Placemark id="3000">
                <name>LORENZO DOMINGUEZ ADANAQUE</name>
                <description>Las lomas
Puyango

Tumbes
Perú</description>
                <styleUrl>#3001</styleUrl>
                <Point id="2999">
                    <coordinates>-80.4171715,-3.5664226,0.0</coordinates>
                </Point>
            </Placemark>
            <Placemark id="3005">
                <name>MERCY LISBETH MONDRAGON YOVERA</name>
                <description>Las lomas
Puyango

Tumbes
Perú</description>
                <styleUrl>#3006</styleUrl>
                <Point id="3004">
                    <coordinates>-80.4162821,-3.5665501,0.0</coordinates>
                </Point>
            </Placemark>
            <Placemark id="3010">
                <name>BRENDA YULIANA CASTRO GHIUT</name>
                <description>Los manglares MZ E LOTE 9
Puyango

Tumbes
Perú</description>
                <styleUrl>#3011</styleUrl>
                <Point id="3009">
                    <coordinates>-80.4189632,-3.5671838,0.0</coordinates>
                </Point>
            </Placemark>
            <Placemark id="3015">
                <name>Elizabeth Panta Benites</name>
                <description>Calle santo domingo Ref frente al canal
Tumbes
Tumbes
Tumbes
Perú</description>
                <styleUrl>#3016</styleUrl>
                <Point id="3014">
                    <coordinates>-80.4181624,-3.5691308,0.0</coordinates>
                </Point>
            </Placemark>
            <Placemark id="3020">
                <name>ARELLANO DE DIAZ MIRYAM ESTHER</name>
                <description>Los manglares
Tumbes
Tumbes
Tumbes
Perú</description>
                <styleUrl>#3021</styleUrl>
                <Point id="3019">
                    <coordinates>-80.4186796,-3.5684848,0.0</coordinates>
                </Point>
            </Placemark>
            <Placemark id="3025">
                <name>YESENIA MILAGROS OYOLA VILELA</name>
                <description>Calle magisterial santo domingo
Puyango
24520Tumbes
Tumbes
Perú</description>
                <styleUrl>#3026</styleUrl>
                <Point id="3024">
                    <coordinates>-80.4198877,-3.5684629,0.0</coordinates>
                </Point>
            </Placemark>
            <Placemark id="3030">
                <name>DIANA LIZBET ALVAREZ RIVERA</name>
                <description>Av las Artes MZ D lot 1
Puyango
Tumbes
Tumbes
Perú</description>
                <styleUrl>#3031</styleUrl>
                <Point id="3029">
                    <coordinates>-80.421363,-3.5682213,0.0</coordinates>
                </Point>
            </Placemark>
            <Placemark id="3035">
                <name>MERCI DEYS ORDINOLA CABRERA</name>
                <description>Av Juan Pablo MZ y lote 1  - AAHH EL TRIUNFO - puyango 
Tumbes
24520Tumbes
Tumbes
Perú</description>
                <styleUrl>#3036</styleUrl>
                <Point id="3034">
                    <coordinates>-80.46007,-3.569772,0.0</coordinates>
                </Point>
            </Placemark>
            <Placemark id="3040">
                <name>MERCY SANJINEZ CAMPAÑA</name>
                <description>urbanización José lishner Tudela Mz V lote 13 - referencia pista de patinaje 
Puyango
24520Tumbes
Tumbes
Perú</description>
                <styleUrl>#3041</styleUrl>
                <Point id="3039">
                    <coordinates>-80.4238616,-3.5687604,0.0</coordinates>
                </Point>
            </Placemark>
            <Placemark id="3045">
                <name>LUCY BEATRIZ BALLADARES VILLAR</name>
                <description>Urb lishner Tudela MZ N LT 03
Puyango
Tumbes
Tumbes
Perú</description>
                <styleUrl>#3046</styleUrl>
                <Point id="3044">
                    <coordinates>-80.4246743,-3.5656048,0.0</coordinates>
                </Point>
            </Placemark>
            <Placemark id="3050">
                <name>MARGARITA COBA AYOSA</name>
                <description>Psj munisipio puyango
Puyango

Tumbes
Perú</description>
                <styleUrl>#3051</styleUrl>
                <Point id="3049">
                    <coordinates>-80.4251607,-3.562061,0.0</coordinates>
                </Point>
            </Placemark>
            <Placemark id="3055">
                <name>BALLADARES MOROCHO VILMA</name>
                <description>MZ.F LT-1 LOS CEDROS PUYANGOII


Tumbes
Perú</description>
                <styleUrl>#3056</styleUrl>
                <Point id="3054">
                    <coordinates>-80.423818,-3.559527,0.0</coordinates>
                </Point>
            </Placemark>
            <Placemark id="3060">
                <name>INVERSIONES AJ PIERO E.I.R.L</name>
                <description>CAL.LOS DIAMANTES MZA. A LOTE. 02 A.H. 24 DE JULIO RF.UNA CUADRA ANTES DEL RST LOS DIAMANTES
Puyango
240104
Tumbes
Perú</description>
                <styleUrl>#3061</styleUrl>
                <Point id="3059">
                    <coordinates>-80.4253253,-3.5596773,0.0</coordinates>
                </Point>
            </Placemark>
            <Placemark id="3065">
                <name>KARIN ELIZABETH IPANAQUE QUINDE</name>
                <description>Santa Clarita M P LT 15 Los Angeles
Puyango
Tumbes
Tumbes
Perú</description>
                <styleUrl>#3066</styleUrl>
                <Point id="3064">
                    <coordinates>-80.422308,-3.5633713,0.0</coordinates>
                </Point>
            </Placemark>
            <Placemark id="3070">
                <name>AURELIA CARRASCO PARDO</name>
                <description>AURELIA CARRASCO PARDO
Calle Sarita Colonia # 7 REF atrás del colegio los avalos Bustamante
Puyango
Tumbes
Tumbes
Perú</description>
                <styleUrl>#3071</styleUrl>
                <Point id="3069">
                    <coordinates>-80.4234651,-3.563591,0.0</coordinates>
                </Point>
            </Placemark>
            <Placemark id="3075">
                <name>MARIA ISABEL TUÑOQUE BALDERA</name>
                <description>Calle las gardenias Avícola Disaves. Andres Araujo - Puyango
Tumbes
Tumbes
Tumbes
Perú</description>
                <styleUrl>#3076</styleUrl>
                <Point id="3074">
                    <coordinates>-80.4233909,-3.563299,0.0</coordinates>
                </Point>
            </Placemark>
            <Placemark id="3080">
                <name>DOMINGA GARCIA CRUZ</name>
                <description>Calle inmaculada concepción REF atrás del salud mental
Puyango

Tumbes
Perú</description>
                <styleUrl>#3081</styleUrl>
                <Point id="3079">
                    <coordinates>-80.42065,-3.5609264,0.0</coordinates>
                </Point>
            </Placemark>
            <Placemark id="3085">
                <name>FELICITA GUERRERO ROMAN</name>
                <description>Virgen del cisne MZ a prima calle virgen del Fátima ref costado de restaurante rico tumbes
Puyango

Tumbes
Perú</description>
                <styleUrl>#3086</styleUrl>
                <Point id="3084">
                    <coordinates>-80.4196215,-3.5589123,0.0</coordinates>
                </Point>
            </Placemark>
            <Placemark id="3090">
                <name>MARIA DEL PILAR NONAJULCA LALANGUI</name>
                <description>Las Lomas  _ Ref cerca al canal
Tumbes
Tumbes
Tumbes
Perú</description>
                <styleUrl>#3091</styleUrl>
                <Point id="3089">
                    <coordinates>-80.4137641,-3.5800658,0.0</coordinates>
                </Point>
            </Placemark>
            <Placemark id="3095">
                <name>TERESA JULIA ALVAREZ ALONZO</name>
                <description>Ampliación Fernando belaunde terry Mz R lt 01. Andres Araujo - Puyango
Tumbes
Tumbes
Tumbes
Perú</description>
                <styleUrl>#3096</styleUrl>
                <Point id="3094">
                    <coordinates>-80.4160328,-3.5594826,0.0</coordinates>
                </Point>
            </Placemark>
            <Placemark id="3100">
                <name>LUZ MILAGROS VELASQUEZ NECIOSUP</name>
                <description>1ra de febrero MZ R LT 12. Andres Araujo - Puyango
Puyango
Tumbes
Tumbes
Perú</description>
                <styleUrl>#3101</styleUrl>
                <Point id="3099">
                    <coordinates>-80.4173183,-3.5608705,0.0</coordinates>
                </Point>
            </Placemark>
            <Placemark id="3105">
                <name>CINTHIA PATRICIA INFANTE CARLIN</name>
                <description>Calle santa Rosa Mz v lote 25. Virgen del cisne
Puyango
Tumbes
Tumbes
Perú</description>
                <styleUrl>#3106</styleUrl>
                <Point id="3104">
                    <coordinates>-80.4183315,-3.5634931,0.0</coordinates>
                </Point>
            </Placemark>
            <Placemark id="3110">
                <name>VENTURA SANTOS INFANTE TAVARA</name>
                <description>Calle Santa Marta MZ T LT 4. Andres Araujo - Puyango
Puyango
Tumbes
Tumbes
Perú</description>
                <styleUrl>#3111</styleUrl>
                <Point id="3109">
                    <coordinates>-80.4187389,-3.5633233,0.0</coordinates>
                </Point>
            </Placemark>
            <Placemark id="3115">
                <name>ALFONSO MERINO YAHUANA</name>
                <description>Las letras MZ C 1LT 3
Tumbes
Tumbes
Tumbes
Perú</description>
                <styleUrl>#3116</styleUrl>
                <Point id="3114">
                    <coordinates>-80.4197405,-3.5631534,0.0</coordinates>
                </Point>
            </Placemark>
            <Placemark id="3120">
                <name>MERCEDES CLAVIJO MIRANDA</name>
                <description>Calle 20 Mz K' Lt 7  Urb José Lishner Tudela 
Puyango
24520Tumbes
Tumbes
Perú</description>
                <styleUrl>#3121</styleUrl>
                <Point id="3119">
                    <coordinates>-80.4244176,-3.56489,0.0</coordinates>
                </Point>
            </Placemark>
            <Placemark id="3125">
                <name>JHAIRA ELSA ORDINOLA ARCELA</name>
                <description>Av Fernando belaúnde Terry 107 - puyango referencia al frente de la ferretería aceros arequipe
Puyango

Tumbes
Perú</description>
                <styleUrl>#3126</styleUrl>
                <Point id="3124">
                    <coordinates>-80.4247264,-3.5666878,0.0</coordinates>
                </Point>
            </Placemark>
            <Placemark id="3130">
                <name>CARMEN GLADYS ESPINOZA CALDERON</name>
                <description>Av ciudadela de Noé 4 está
Tumbes
Tumbes
Tumbes
Perú</description>
                <styleUrl>#3131</styleUrl>
                <Point id="3129">
                    <coordinates>-80.4174509,-3.575981,0.0</coordinates>
                </Point>
            </Placemark>
        </Folder>
    </Document>
</kml>
