<?xml version="1.0" encoding="UTF-8"?>
<kml xmlns="http://www.opengis.net/kml/2.2" xmlns:gx="http://www.google.com/kml/ext/2.2">
    <Document id="3893">
        <Folder id="3894">
            <Style id="3897">
                <IconStyle id="3898">
                    <color>ff0000ff</color>
                    <colorMode>normal</colorMode>
                    <scale>1</scale>
                    <heading>0</heading>
                    <Icon id="3899">
                        <href>http://maps.google.com/mapfiles/kml/pushpin/ylw-pushpin.png</href>
                    </Icon>
                </IconStyle>
            </Style>
            <Style id="3902">
                <IconStyle id="3903">
                    <color>ff0000ff</color>
                    <colorMode>normal</colorMode>
                    <scale>1</scale>
                    <heading>0</heading>
                    <Icon id="3904">
                        <href>http://maps.google.com/mapfiles/kml/pushpin/ylw-pushpin.png</href>
                    </Icon>
                </IconStyle>
            </Style>
            <Style id="3907">
                <IconStyle id="3908">
                    <color>ff0000ff</color>
                    <colorMode>normal</colorMode>
                    <scale>1</scale>
                    <heading>0</heading>
                    <Icon id="3909">
                        <href>http://maps.google.com/mapfiles/kml/pushpin/ylw-pushpin.png</href>
                    </Icon>
                </IconStyle>
            </Style>
            <Style id="3912">
                <IconStyle id="3913">
                    <color>ff0000ff</color>
                    <colorMode>normal</colorMode>
                    <scale>1</scale>
                    <heading>0</heading>
                    <Icon id="3914">
                        <href>http://maps.google.com/mapfiles/kml/pushpin/ylw-pushpin.png</href>
                    </Icon>
                </IconStyle>
            </Style>
            <Style id="3917">
                <IconStyle id="3918">
                    <color>ff0000ff</color>
                    <colorMode>normal</colorMode>
                    <scale>1</scale>
                    <heading>0</heading>
                    <Icon id="3919">
                        <href>http://maps.google.com/mapfiles/kml/pushpin/ylw-pushpin.png</href>
                    </Icon>
                </IconStyle>
            </Style>
            <Style id="3922">
                <IconStyle id="3923">
                    <color>ff0000ff</color>
                    <colorMode>normal</colorMode>
                    <scale>1</scale>
                    <heading>0</heading>
                    <Icon id="3924">
                        <href>http://maps.google.com/mapfiles/kml/pushpin/ylw-pushpin.png</href>
                    </Icon>
                </IconStyle>
            </Style>
            <Style id="3927">
                <IconStyle id="3928">
                    <color>ff0000ff</color>
                    <colorMode>normal</colorMode>
                    <scale>1</scale>
                    <heading>0</heading>
                    <Icon id="3929">
                        <href>http://maps.google.com/mapfiles/kml/pushpin/ylw-pushpin.png</href>
                    </Icon>
                </IconStyle>
            </Style>
            <Style id="3932">
                <IconStyle id="3933">
                    <color>ff0000ff</color>
                    <colorMode>normal</colorMode>
                    <scale>1</scale>
                    <heading>0</heading>
                    <Icon id="3934">
                        <href>http://maps.google.com/mapfiles/kml/pushpin/ylw-pushpin.png</href>
                    </Icon>
                </IconStyle>
            </Style>
            <Style id="3937">
                <IconStyle id="3938">
                    <color>ff0000ff</color>
                    <colorMode>normal</colorMode>
                    <scale>1</scale>
                    <heading>0</heading>
                    <Icon id="3939">
                        <href>http://maps.google.com/mapfiles/kml/pushpin/ylw-pushpin.png</href>
                    </Icon>
                </IconStyle>
            </Style>
            <Style id="3942">
                <IconStyle id="3943">
                    <color>ff0000ff</color>
                    <colorMode>normal</colorMode>
                    <scale>1</scale>
                    <heading>0</heading>
                    <Icon id="3944">
                        <href>http://maps.google.com/mapfiles/kml/pushpin/ylw-pushpin.png</href>
                    </Icon>
                </IconStyle>
            </Style>
            <Style id="3947">
                <IconStyle id="3948">
                    <color>ff0000ff</color>
                    <colorMode>normal</colorMode>
                    <scale>1</scale>
                    <heading>0</heading>
                    <Icon id="3949">
                        <href>http://maps.google.com/mapfiles/kml/pushpin/ylw-pushpin.png</href>
                    </Icon>
                </IconStyle>
            </Style>
            <Style id="3952">
                <IconStyle id="3953">
                    <color>ff0000ff</color>
                    <colorMode>normal</colorMode>
                    <scale>1</scale>
                    <heading>0</heading>
                    <Icon id="3954">
                        <href>http://maps.google.com/mapfiles/kml/pushpin/ylw-pushpin.png</href>
                    </Icon>
                </IconStyle>
            </Style>
            <Style id="3957">
                <IconStyle id="3958">
                    <color>ff0000ff</color>
                    <colorMode>normal</colorMode>
                    <scale>1</scale>
                    <heading>0</heading>
                    <Icon id="3959">
                        <href>http://maps.google.com/mapfiles/kml/pushpin/ylw-pushpin.png</href>
                    </Icon>
                </IconStyle>
            </Style>
            <Style id="3962">
                <IconStyle id="3963">
                    <color>ff0000ff</color>
                    <colorMode>normal</colorMode>
                    <scale>1</scale>
                    <heading>0</heading>
                    <Icon id="3964">
                        <href>http://maps.google.com/mapfiles/kml/pushpin/ylw-pushpin.png</href>
                    </Icon>
                </IconStyle>
            </Style>
            <Style id="3967">
                <IconStyle id="3968">
                    <color>ff0000ff</color>
                    <colorMode>normal</colorMode>
                    <scale>1</scale>
                    <heading>0</heading>
                    <Icon id="3969">
                        <href>http://maps.google.com/mapfiles/kml/pushpin/ylw-pushpin.png</href>
                    </Icon>
                </IconStyle>
            </Style>
            <Style id="3972">
                <IconStyle id="3973">
                    <color>ff0000ff</color>
                    <colorMode>normal</colorMode>
                    <scale>1</scale>
                    <heading>0</heading>
                    <Icon id="3974">
                        <href>http://maps.google.com/mapfiles/kml/pushpin/ylw-pushpin.png</href>
                    </Icon>
                </IconStyle>
            </Style>
            <Style id="3977">
                <IconStyle id="3978">
                    <color>ff0000ff</color>
                    <colorMode>normal</colorMode>
                    <scale>1</scale>
                    <heading>0</heading>
                    <Icon id="3979">
                        <href>http://maps.google.com/mapfiles/kml/pushpin/ylw-pushpin.png</href>
                    </Icon>
                </IconStyle>
            </Style>
            <Style id="3982">
                <IconStyle id="3983">
                    <color>ff0000ff</color>
                    <colorMode>normal</colorMode>
                    <scale>1</scale>
                    <heading>0</heading>
                    <Icon id="3984">
                        <href>http://maps.google.com/mapfiles/kml/pushpin/ylw-pushpin.png</href>
                    </Icon>
                </IconStyle>
            </Style>
            <Style id="3987">
                <IconStyle id="3988">
                    <color>ff0000ff</color>
                    <colorMode>normal</colorMode>
                    <scale>1</scale>
                    <heading>0</heading>
                    <Icon id="3989">
                        <href>http://maps.google.com/mapfiles/kml/pushpin/ylw-pushpin.png</href>
                    </Icon>
                </IconStyle>
            </Style>
            <name>JAIRO JOSUE GONZALES GUERRERO</name>
            <Placemark id="3896">
                <name>TORRES PORTILLA ALEJANDRO DAVID</name>
                <description>TORRES PORTILLA ALEJANDRO DAVID
Av España MZ 33 A lote 4- complejo Zarumilla
Aguas Verdes
Aguas Verdes
Tumbes
Perú</description>
                <styleUrl>#3897</styleUrl>
                <Point id="3895">
                    <coordinates>-80.2609831,-3.4848142,0.0</coordinates>
                </Point>
            </Placemark>
            <Placemark id="3901">
                <name>ISAMAR SANDOVAL TABOADA</name>
                <description>dirección pasaje  frente al parque
Aguas Verdes
24101Aguas Verdes
Tumbes
Perú</description>
                <styleUrl>#3902</styleUrl>
                <Point id="3900">
                    <coordinates>-80.2617783,-3.4850288,0.0</coordinates>
                </Point>
            </Placemark>
            <Placemark id="3906">
                <name>CARMEN DORIS RODRIGUEZ PINTADO DE REYES</name>
                <description>pasaje cuba mz 15 lote 3 - el complejo
Zarumilla
24101Zarumilla
Tumbes
Perú</description>
                <styleUrl>#3907</styleUrl>
                <Point id="3905">
                    <coordinates>-80.2643168,-3.4856032,0.0</coordinates>
                </Point>
            </Placemark>
            <Placemark id="3911">
                <name>ANGELICA MARILU GUTIERREZ ORDINOLA</name>
                <description> Av. estados unidos complejo habitacional Mz 7 lote 8 aguas verdes
Aguas Verdes
24101Aguas Verdes
Tumbes
Perú</description>
                <styleUrl>#3912</styleUrl>
                <Point id="3910">
                    <coordinates>-80.2636454,-3.484692,0.0</coordinates>
                </Point>
            </Placemark>
            <Placemark id="3916">
                <name>TORRES PORTILLA ALEJANDRO DAVID</name>
                <description>TORRES PORTILLA ALEJANDRO DAVID
Av España MZ 33 A lote 4- complejo Zarumilla
Aguas Verdes
Aguas Verdes
Tumbes
Perú</description>
                <styleUrl>#3917</styleUrl>
                <Point id="3915">
                    <coordinates>-80.2609831,-3.4848142,0.0</coordinates>
                </Point>
            </Placemark>
            <Placemark id="3921">
                <name>KATHRIN JAZMIN TABOADA NOLE</name>
                <description>Av República del Perú MZ 36 lote 10 Referencia al frente de la picanteria la antonia
Aguas Verdes
Aguas Verdes
Tumbes
Perú</description>
                <styleUrl>#3922</styleUrl>
                <Point id="3920">
                    <coordinates>-80.265301,-3.485605,0.0</coordinates>
                </Point>
            </Placemark>
            <Placemark id="3926">
                <name>YURI ELIZABETH VALLADOLID CAMPOS</name>
                <description>Av Bogotá MZ o lt14- aahh Alberto Fujimori Zarumilla - completo - alfrente de la camaronera de percy
Aguas Verdes
Aguas Verdes
Tumbes
Perú</description>
                <styleUrl>#3927</styleUrl>
                <Point id="3925">
                    <coordinates>-80.266584,-3.4849163,0.0</coordinates>
                </Point>
            </Placemark>
            <Placemark id="3931">
                <name>SADITH ARASELY BRAVO TORRES</name>
                <description>Calle Montevideo MZ D lote 03 Referencia detrás de la picanteria Texas plánta de mango
Aguas Verdes
Aguas Verdes
Tumbes
Perú</description>
                <styleUrl>#3932</styleUrl>
                <Point id="3930">
                    <coordinates>-80.2658861,-3.4847781,0.0</coordinates>
                </Point>
            </Placemark>
            <Placemark id="3936">
                <name>SANDRA DEL ROSARIO CHAVEZ SIERRA</name>
                <description>Calle panama mz E lot 07 a la vuelta de la fabrica d pelado de camaron complejo fujimori zarumill
Aguas Verdes
Aguas Verdes
Tumbes
Perú</description>
                <styleUrl>#3937</styleUrl>
                <Point id="3935">
                    <coordinates>-80.2658014,-3.4844146,0.0</coordinates>
                </Point>
            </Placemark>
            <Placemark id="3941">
                <name>EUGENIA PEÑA ALBERCA</name>
                <description>Calle Valparaíso Mza lt 10 pasando 2 cuadras de ex corral de vacas mano derecha
Aguas Verdes
Aguas Verdes
Tumbes
Perú</description>
                <styleUrl>#3942</styleUrl>
                <Point id="3940">
                    <coordinates>-80.2657519,-3.4822605,0.0</coordinates>
                </Point>
            </Placemark>
            <Placemark id="3946">
                <name>SUSI GUERRA HUAMAN</name>
                <description>Aahh Alberto Fujimori - calle Panamá s/n - Referencia antes del canal
Aguas Verdes
Aguas Verdes
Tumbes
Perú</description>
                <styleUrl>#3947</styleUrl>
                <Point id="3945">
                    <coordinates>-80.2682724,-3.4817066,0.0</coordinates>
                </Point>
            </Placemark>
            <Placemark id="3951">
                <name>ANA MARIA RAMIREZ ORTIZ</name>
                <description>Jirón buscarán mz B lote - referencia portón negro la cancha - sector 28 de julio ampliación Jose de San Martín
Aguas Verdes
Aguas Verdes
Tumbes
Perú</description>
                <styleUrl>#3952</styleUrl>
                <Point id="3950">
                    <coordinates>-80.2691718,-3.483278,0.0</coordinates>
                </Point>
            </Placemark>
            <Placemark id="3956">
                <name>LUZ IMELDA CASTILLO HERRERA</name>
                <description>Calle primero de junio Mz B lt 03
Zarumilla
Zarumilla
Tumbes
Perú</description>
                <styleUrl>#3957</styleUrl>
                <Point id="3955">
                    <coordinates>-80.269473,-3.486564,0.0</coordinates>
                </Point>
            </Placemark>
            <Placemark id="3961">
                <name>MARIA YSABEL YARLEQUE REYES</name>
                <description>Calle Girón sucre Mz 17 lt 02
Zarumilla
Zarumilla
Tumbes
Perú</description>
                <styleUrl>#3962</styleUrl>
                <Point id="3960">
                    <coordinates>-80.2727353,-3.4895679,0.0</coordinates>
                </Point>
            </Placemark>
            <Placemark id="3966">
                <name>LINDA JAKELIN TINEO YAJAHUANCA</name>
                <description>Calle los jardines Mz f lt 19 -Campo amor referencia jardín de niños mi carrusel
Zarumilla
Zarumilla
Tumbes
Perú</description>
                <styleUrl>#3967</styleUrl>
                <Point id="3965">
                    <coordinates>-80.2711817,-3.4930489,0.0</coordinates>
                </Point>
            </Placemark>
            <Placemark id="3971">
                <name>MIRELLA GALECIO ACARO</name>
                <description>Jr manco inca mz 07 lote 25 - campo amor - zarumilla
Zarumilla
Zarumilla
Tumbes
Perú</description>
                <styleUrl>#3972</styleUrl>
                <Point id="3970">
                    <coordinates>-80.272324,-3.493596,0.0</coordinates>
                </Point>
            </Placemark>
            <Placemark id="3976">
                <name>JOSEFA CASTILLO ESTRADA</name>
                <description>Calle lima mz 13 lote 24 - zarumilla
Zarumilla
Zarumilla
Tumbes
Perú</description>
                <styleUrl>#3977</styleUrl>
                <Point id="3975">
                    <coordinates>-80.2760712,-3.4919811,0.0</coordinates>
                </Point>
            </Placemark>
            <Placemark id="3981">
                <name>Grimanesa tineo huancas</name>
                <description>Calle ilo Mz e - 18 lote 24 - campo amor - ref. Al frente de la canchita
Zarumilla
Contralmirante Villar
Tumbes
Perú</description>
                <styleUrl>#3982</styleUrl>
                <Point id="3980">
                    <coordinates>-80.273384,-3.489612,0.0</coordinates>
                </Point>
            </Placemark>
            <Placemark id="3986">
                <name>FLOR DE MARIA HUAYNA VIVANCO</name>
                <description>Calle el salto s/n - el bendito - zarumilla
Zarumilla

Tumbes
Perú</description>
                <styleUrl>#3987</styleUrl>
                <Point id="3985">
                    <coordinates>-80.316877,-3.452019,0.0</coordinates>
                </Point>
            </Placemark>
        </Folder>
        <Folder id="3990">
            <Style id="3993">
                <IconStyle id="3994">
                    <color>ffff0000</color>
                    <colorMode>normal</colorMode>
                    <scale>1</scale>
                    <heading>0</heading>
                    <Icon id="3995">
                        <href>http://maps.google.com/mapfiles/kml/pushpin/ylw-pushpin.png</href>
                    </Icon>
                </IconStyle>
            </Style>
            <Style id="3998">
                <IconStyle id="3999">
                    <color>ffff0000</color>
                    <colorMode>normal</colorMode>
                    <scale>1</scale>
                    <heading>0</heading>
                    <Icon id="4000">
                        <href>http://maps.google.com/mapfiles/kml/pushpin/ylw-pushpin.png</href>
                    </Icon>
                </IconStyle>
            </Style>
            <Style id="4003">
                <IconStyle id="4004">
                    <color>ffff0000</color>
                    <colorMode>normal</colorMode>
                    <scale>1</scale>
                    <heading>0</heading>
                    <Icon id="4005">
                        <href>http://maps.google.com/mapfiles/kml/pushpin/ylw-pushpin.png</href>
                    </Icon>
                </IconStyle>
            </Style>
            <Style id="4008">
                <IconStyle id="4009">
                    <color>ffff0000</color>
                    <colorMode>normal</colorMode>
                    <scale>1</scale>
                    <heading>0</heading>
                    <Icon id="4010">
                        <href>http://maps.google.com/mapfiles/kml/pushpin/ylw-pushpin.png</href>
                    </Icon>
                </IconStyle>
            </Style>
            <Style id="4013">
                <IconStyle id="4014">
                    <color>ffff0000</color>
                    <colorMode>normal</colorMode>
                    <scale>1</scale>
                    <heading>0</heading>
                    <Icon id="4015">
                        <href>http://maps.google.com/mapfiles/kml/pushpin/ylw-pushpin.png</href>
                    </Icon>
                </IconStyle>
            </Style>
            <Style id="4018">
                <IconStyle id="4019">
                    <color>ffff0000</color>
                    <colorMode>normal</colorMode>
                    <scale>1</scale>
                    <heading>0</heading>
                    <Icon id="4020">
                        <href>http://maps.google.com/mapfiles/kml/pushpin/ylw-pushpin.png</href>
                    </Icon>
                </IconStyle>
            </Style>
            <Style id="4023">
                <IconStyle id="4024">
                    <color>ffff0000</color>
                    <colorMode>normal</colorMode>
                    <scale>1</scale>
                    <heading>0</heading>
                    <Icon id="4025">
                        <href>http://maps.google.com/mapfiles/kml/pushpin/ylw-pushpin.png</href>
                    </Icon>
                </IconStyle>
            </Style>
            <Style id="4028">
                <IconStyle id="4029">
                    <color>ffff0000</color>
                    <colorMode>normal</colorMode>
                    <scale>1</scale>
                    <heading>0</heading>
                    <Icon id="4030">
                        <href>http://maps.google.com/mapfiles/kml/pushpin/ylw-pushpin.png</href>
                    </Icon>
                </IconStyle>
            </Style>
            <Style id="4033">
                <IconStyle id="4034">
                    <color>ffff0000</color>
                    <colorMode>normal</colorMode>
                    <scale>1</scale>
                    <heading>0</heading>
                    <Icon id="4035">
                        <href>http://maps.google.com/mapfiles/kml/pushpin/ylw-pushpin.png</href>
                    </Icon>
                </IconStyle>
            </Style>
            <Style id="4038">
                <IconStyle id="4039">
                    <color>ffff0000</color>
                    <colorMode>normal</colorMode>
                    <scale>1</scale>
                    <heading>0</heading>
                    <Icon id="4040">
                        <href>http://maps.google.com/mapfiles/kml/pushpin/ylw-pushpin.png</href>
                    </Icon>
                </IconStyle>
            </Style>
            <Style id="4043">
                <IconStyle id="4044">
                    <color>ffff0000</color>
                    <colorMode>normal</colorMode>
                    <scale>1</scale>
                    <heading>0</heading>
                    <Icon id="4045">
                        <href>http://maps.google.com/mapfiles/kml/pushpin/ylw-pushpin.png</href>
                    </Icon>
                </IconStyle>
            </Style>
            <Style id="4048">
                <IconStyle id="4049">
                    <color>ffff0000</color>
                    <colorMode>normal</colorMode>
                    <scale>1</scale>
                    <heading>0</heading>
                    <Icon id="4050">
                        <href>http://maps.google.com/mapfiles/kml/pushpin/ylw-pushpin.png</href>
                    </Icon>
                </IconStyle>
            </Style>
            <Style id="4053">
                <IconStyle id="4054">
                    <color>ffff0000</color>
                    <colorMode>normal</colorMode>
                    <scale>1</scale>
                    <heading>0</heading>
                    <Icon id="4055">
                        <href>http://maps.google.com/mapfiles/kml/pushpin/ylw-pushpin.png</href>
                    </Icon>
                </IconStyle>
            </Style>
            <Style id="4058">
                <IconStyle id="4059">
                    <color>ffff0000</color>
                    <colorMode>normal</colorMode>
                    <scale>1</scale>
                    <heading>0</heading>
                    <Icon id="4060">
                        <href>http://maps.google.com/mapfiles/kml/pushpin/ylw-pushpin.png</href>
                    </Icon>
                </IconStyle>
            </Style>
            <Style id="4063">
                <IconStyle id="4064">
                    <color>ffff0000</color>
                    <colorMode>normal</colorMode>
                    <scale>1</scale>
                    <heading>0</heading>
                    <Icon id="4065">
                        <href>http://maps.google.com/mapfiles/kml/pushpin/ylw-pushpin.png</href>
                    </Icon>
                </IconStyle>
            </Style>
            <Style id="4068">
                <IconStyle id="4069">
                    <color>ffff0000</color>
                    <colorMode>normal</colorMode>
                    <scale>1</scale>
                    <heading>0</heading>
                    <Icon id="4070">
                        <href>http://maps.google.com/mapfiles/kml/pushpin/ylw-pushpin.png</href>
                    </Icon>
                </IconStyle>
            </Style>
            <Style id="4073">
                <IconStyle id="4074">
                    <color>ffff0000</color>
                    <colorMode>normal</colorMode>
                    <scale>1</scale>
                    <heading>0</heading>
                    <Icon id="4075">
                        <href>http://maps.google.com/mapfiles/kml/pushpin/ylw-pushpin.png</href>
                    </Icon>
                </IconStyle>
            </Style>
            <Style id="4078">
                <IconStyle id="4079">
                    <color>ffff0000</color>
                    <colorMode>normal</colorMode>
                    <scale>1</scale>
                    <heading>0</heading>
                    <Icon id="4080">
                        <href>http://maps.google.com/mapfiles/kml/pushpin/ylw-pushpin.png</href>
                    </Icon>
                </IconStyle>
            </Style>
            <Style id="4083">
                <IconStyle id="4084">
                    <color>ffff0000</color>
                    <colorMode>normal</colorMode>
                    <scale>1</scale>
                    <heading>0</heading>
                    <Icon id="4085">
                        <href>http://maps.google.com/mapfiles/kml/pushpin/ylw-pushpin.png</href>
                    </Icon>
                </IconStyle>
            </Style>
            <Style id="4088">
                <IconStyle id="4089">
                    <color>ffff0000</color>
                    <colorMode>normal</colorMode>
                    <scale>1</scale>
                    <heading>0</heading>
                    <Icon id="4090">
                        <href>http://maps.google.com/mapfiles/kml/pushpin/ylw-pushpin.png</href>
                    </Icon>
                </IconStyle>
            </Style>
            <Style id="4093">
                <IconStyle id="4094">
                    <color>ffff0000</color>
                    <colorMode>normal</colorMode>
                    <scale>1</scale>
                    <heading>0</heading>
                    <Icon id="4095">
                        <href>http://maps.google.com/mapfiles/kml/pushpin/ylw-pushpin.png</href>
                    </Icon>
                </IconStyle>
            </Style>
            <Style id="4098">
                <IconStyle id="4099">
                    <color>ffff0000</color>
                    <colorMode>normal</colorMode>
                    <scale>1</scale>
                    <heading>0</heading>
                    <Icon id="4100">
                        <href>http://maps.google.com/mapfiles/kml/pushpin/ylw-pushpin.png</href>
                    </Icon>
                </IconStyle>
            </Style>
            <Style id="4103">
                <IconStyle id="4104">
                    <color>ffff0000</color>
                    <colorMode>normal</colorMode>
                    <scale>1</scale>
                    <heading>0</heading>
                    <Icon id="4105">
                        <href>http://maps.google.com/mapfiles/kml/pushpin/ylw-pushpin.png</href>
                    </Icon>
                </IconStyle>
            </Style>
            <Style id="4108">
                <IconStyle id="4109">
                    <color>ffff0000</color>
                    <colorMode>normal</colorMode>
                    <scale>1</scale>
                    <heading>0</heading>
                    <Icon id="4110">
                        <href>http://maps.google.com/mapfiles/kml/pushpin/ylw-pushpin.png</href>
                    </Icon>
                </IconStyle>
            </Style>
            <Style id="4113">
                <IconStyle id="4114">
                    <color>ffff0000</color>
                    <colorMode>normal</colorMode>
                    <scale>1</scale>
                    <heading>0</heading>
                    <Icon id="4115">
                        <href>http://maps.google.com/mapfiles/kml/pushpin/ylw-pushpin.png</href>
                    </Icon>
                </IconStyle>
            </Style>
            <Style id="4118">
                <IconStyle id="4119">
                    <color>ffff0000</color>
                    <colorMode>normal</colorMode>
                    <scale>1</scale>
                    <heading>0</heading>
                    <Icon id="4120">
                        <href>http://maps.google.com/mapfiles/kml/pushpin/ylw-pushpin.png</href>
                    </Icon>
                </IconStyle>
            </Style>
            <Style id="4123">
                <IconStyle id="4124">
                    <color>ffff0000</color>
                    <colorMode>normal</colorMode>
                    <scale>1</scale>
                    <heading>0</heading>
                    <Icon id="4125">
                        <href>http://maps.google.com/mapfiles/kml/pushpin/ylw-pushpin.png</href>
                    </Icon>
                </IconStyle>
            </Style>
            <Style id="4128">
                <IconStyle id="4129">
                    <color>ffff0000</color>
                    <colorMode>normal</colorMode>
                    <scale>1</scale>
                    <heading>0</heading>
                    <Icon id="4130">
                        <href>http://maps.google.com/mapfiles/kml/pushpin/ylw-pushpin.png</href>
                    </Icon>
                </IconStyle>
            </Style>
            <Style id="4133">
                <IconStyle id="4134">
                    <color>ffff0000</color>
                    <colorMode>normal</colorMode>
                    <scale>1</scale>
                    <heading>0</heading>
                    <Icon id="4135">
                        <href>http://maps.google.com/mapfiles/kml/pushpin/ylw-pushpin.png</href>
                    </Icon>
                </IconStyle>
            </Style>
            <Style id="4138">
                <IconStyle id="4139">
                    <color>ffff0000</color>
                    <colorMode>normal</colorMode>
                    <scale>1</scale>
                    <heading>0</heading>
                    <Icon id="4140">
                        <href>http://maps.google.com/mapfiles/kml/pushpin/ylw-pushpin.png</href>
                    </Icon>
                </IconStyle>
            </Style>
            <Style id="4143">
                <IconStyle id="4144">
                    <color>ffff0000</color>
                    <colorMode>normal</colorMode>
                    <scale>1</scale>
                    <heading>0</heading>
                    <Icon id="4145">
                        <href>http://maps.google.com/mapfiles/kml/pushpin/ylw-pushpin.png</href>
                    </Icon>
                </IconStyle>
            </Style>
            <Style id="4148">
                <IconStyle id="4149">
                    <color>ffff0000</color>
                    <colorMode>normal</colorMode>
                    <scale>1</scale>
                    <heading>0</heading>
                    <Icon id="4150">
                        <href>http://maps.google.com/mapfiles/kml/pushpin/ylw-pushpin.png</href>
                    </Icon>
                </IconStyle>
            </Style>
            <Style id="4153">
                <IconStyle id="4154">
                    <color>ffff0000</color>
                    <colorMode>normal</colorMode>
                    <scale>1</scale>
                    <heading>0</heading>
                    <Icon id="4155">
                        <href>http://maps.google.com/mapfiles/kml/pushpin/ylw-pushpin.png</href>
                    </Icon>
                </IconStyle>
            </Style>
            <Style id="4158">
                <IconStyle id="4159">
                    <color>ffff0000</color>
                    <colorMode>normal</colorMode>
                    <scale>1</scale>
                    <heading>0</heading>
                    <Icon id="4160">
                        <href>http://maps.google.com/mapfiles/kml/pushpin/ylw-pushpin.png</href>
                    </Icon>
                </IconStyle>
            </Style>
            <name>MARIO ALBERTO QUINTANA SANDOVAL</name>
            <Placemark id="3992">
                <name>ORO PLAZA S.A.C</name>
                <description>ORO PLAZA S.A.C
JR. TARAPACA Y CALLE TUMBES MZA. C LOTE. 01 C.P.  CERCADO DE ZARUMILLA
Zarumilla
240301Zarumilla
Tumbes
Perú</description>
                <styleUrl>#3993</styleUrl>
                <Point id="3991">
                    <coordinates>-80.2739177,-3.4981659,0.0</coordinates>
                </Point>
            </Placemark>
            <Placemark id="3997">
                <name>JHAN CARLOS ABRAMONTE ORDINOLA</name>
                <description>tomas arisola MZ 22 lote 9 - aguas verdes 
Aguas Verdes
24101Aguas Verdes
Tumbes
Perú</description>
                <styleUrl>#3998</styleUrl>
                <Point id="3996">
                    <coordinates>-80.2456017,-3.4790339,0.0</coordinates>
                </Point>
            </Placemark>
            <Placemark id="4002">
                <name>ANGELITA YAJAIRA ZAVALA CAMACHO</name>
                <description> prolongación tumbes MZ A lote 14 Zarumilla 
Zarumilla
24101Zarumilla
Tumbes
Perú</description>
                <styleUrl>#4003</styleUrl>
                <Point id="4001">
                    <coordinates>-80.2623131,-3.4895977,0.0</coordinates>
                </Point>
            </Placemark>
            <Placemark id="4007">
                <name>YARLEQUE RUGEL YELITZA</name>
                <description>YARLEQUE RUGEL YELITZA
Mercado estánd 204 aguas verdes, frente a Flores mercadillo
Aguas Verdes
Aguas Verdes
Tumbes
Perú</description>
                <styleUrl>#4008</styleUrl>
                <Point id="4006">
                    <coordinates>-80.2464586,-3.4830281,0.0</coordinates>
                </Point>
            </Placemark>
            <Placemark id="4012">
                <name>Crhistian Antony Fernandez Seminario</name>
                <description>Mercado aguas verdes comercial khemlu, ref.cinthia crisoles
Aguas Verdes
Aguas Verdes
Tumbes
Perú</description>
                <styleUrl>#4013</styleUrl>
                <Point id="4011">
                    <coordinates>-80.2449014,-3.4827619,0.0</coordinates>
                </Point>
            </Placemark>
            <Placemark id="4017">
                <name>PANDALLE TU MUNDO SOCIEDAD COMERCIAL DE RESPONSABILIDAD LIMITADA</name>
                <description>PANDALLE TU MUNDO SOCIEDAD COMERCIAL DE RESPONSABILIDAD LIMITADA
JR. LAMBAYEQUE NRO. 212 CENTRO DE AGUAS VERDES
Aguas Verdes
240302Aguas Verdes
Tumbes
Perú</description>
                <styleUrl>#4018</styleUrl>
                <Point id="4016">
                    <coordinates>-80.2452555,-3.4828282,0.0</coordinates>
                </Point>
            </Placemark>
            <Placemark id="4022">
                <name>JHAN CARLOS ABRAMONTE ORDINOLA</name>
                <description>tomas arisola MZ 22 lote 9 - aguas verdes 
Aguas Verdes
24101Aguas Verdes
Tumbes
Perú</description>
                <styleUrl>#4023</styleUrl>
                <Point id="4021">
                    <coordinates>-80.2456017,-3.4790339,0.0</coordinates>
                </Point>
            </Placemark>
            <Placemark id="4027">
                <name>ROSAMELIA SAAVEDRA JAICO</name>
                <description>calle las margaritas mz  G lote 19- villa primavera
Aguas Verdes
24101Aguas Verdes
Tumbes
Perú</description>
                <styleUrl>#4028</styleUrl>
                <Point id="4026">
                    <coordinates>-80.2575831,-3.4823328,0.0</coordinates>
                </Point>
            </Placemark>
            <Placemark id="4032">
                <name>OFELIA ROSALES JUAREZ</name>
                <description>AA.HH villa primavera av los naranjos MZ U lote 1 
Aguas Verdes
24101Aguas Verdes
Tumbes
Perú</description>
                <styleUrl>#4033</styleUrl>
                <Point id="4031">
                    <coordinates>-80.2584815,-3.4822936,0.0</coordinates>
                </Point>
            </Placemark>
            <Placemark id="4037">
                <name>DEYNY ELIZABETH VILCHEZ SULLON</name>
                <description>AA.HH villa primavera 4 etapa calle los pinos MZ D1 lote 30 
Aguas Verdes
24101Aguas Verdes
Tumbes
Perú</description>
                <styleUrl>#4038</styleUrl>
                <Point id="4036">
                    <coordinates>-80.2588509,-3.4794891,0.0</coordinates>
                </Point>
            </Placemark>
            <Placemark id="4042">
                <name>SANTOS TERESA FLORES CHAVEZ</name>
                <description>calle los jardines mz Y lote 10  - AAHH villa primavera
Aguas Verdes
24101Aguas Verdes
Tumbes
Perú</description>
                <styleUrl>#4043</styleUrl>
                <Point id="4041">
                    <coordinates>-80.261631,-3.4796687,0.0</coordinates>
                </Point>
            </Placemark>
            <Placemark id="4047">
                <name>PAQUITA JHAMILEX YOVERA GALLARDO</name>
                <description>Calle jardines mz r lt 13 villa primavera antes de la cancha
Zarumilla
Zarumilla
Tumbes
Perú</description>
                <styleUrl>#4048</styleUrl>
                <Point id="4046">
                    <coordinates>-80.2606942,-3.4811159,0.0</coordinates>
                </Point>
            </Placemark>
            <Placemark id="4052">
                <name>OSVALDO JUARES RAYMUNDO</name>
                <description>Calle mexico mz a lt 1 frente al colegio inicia hermanos barcia la curva zarumilla
Aguas Verdes

Tumbes
Perú</description>
                <styleUrl>#4053</styleUrl>
                <Point id="4051">
                    <coordinates>-80.2594169,-3.4855482,0.0</coordinates>
                </Point>
            </Placemark>
            <Placemark id="4057">
                <name>KARINA JANET CASTILLO BENITES</name>
                <description>Av. Uruguay Mz H lote 5 La curva 
Zarumilla
24101Zarumilla
Tumbes
Perú</description>
                <styleUrl>#4058</styleUrl>
                <Point id="4056">
                    <coordinates>-80.2615762,-3.4889599,0.0</coordinates>
                </Point>
            </Placemark>
            <Placemark id="4062">
                <name>LAURA GALLARDO MAZA</name>
                <description>Calle paraguay mz j lt 10 la curva 4ta etapa entrando por la balanza frente a rs el buen sabor
Aguas Verdes
Aguas Verdes
Tumbes
Perú</description>
                <styleUrl>#4063</styleUrl>
                <Point id="4061">
                    <coordinates>-80.2593508,-3.4899021,0.0</coordinates>
                </Point>
            </Placemark>
            <Placemark id="4067">
                <name>MARY CRUZ GRANDA RIVERA</name>
                <description>Calle jamaica mzD3 lote 16
Aguas Verdes
Aguas Verdes
Tumbes
Perú</description>
                <styleUrl>#4068</styleUrl>
                <Point id="4066">
                    <coordinates>-80.2464415,-3.4790144,0.0</coordinates>
                </Point>
            </Placemark>
            <Placemark id="4072">
                <name>ITAMAR MILOISKA CORDOVA GALLARDO</name>
                <description>Calle uruguay mzc tl 10 por jardin nuevo aguas verdes casa celeste maquina de clicles afuera
Aguas Verdes
Aguas Verdes
Tumbes
Perú</description>
                <styleUrl>#4073</styleUrl>
                <Point id="4071">
                    <coordinates>-80.2653046,-3.4924886,0.0</coordinates>
                </Point>
            </Placemark>
            <Placemark id="4077">
                <name>MARITZA RAQUEL ZAPATA PALACIOS</name>
                <description>Av circunvalación mz A lote 09 - Edmundo romero
Aguas Verdes
Aguas Verdes
Tumbes
Perú</description>
                <styleUrl>#4078</styleUrl>
                <Point id="4076">
                    <coordinates>-80.2650529,-3.4947689,0.0</coordinates>
                </Point>
            </Placemark>
            <Placemark id="4082">
                <name>SILVIA MILI JUAREZ CASTILLO</name>
                <description>Edmundo romero casa amarilla a la vuelta de la sra maritza
Aguas Verdes
240101Aguas Verdes
Tumbes
Perú</description>
                <styleUrl>#4083</styleUrl>
                <Point id="4081">
                    <coordinates>-80.2664595,-3.495596,0.0</coordinates>
                </Point>
            </Placemark>
            <Placemark id="4087">
                <name>ELENA PIZANGO PIÑA</name>
                <description>Calle Leticia 808 - cercado de zarumilla
Zarumilla
Zarumilla
Tumbes
Perú</description>
                <styleUrl>#4088</styleUrl>
                <Point id="4086">
                    <coordinates>-80.267833,-3.49336,0.0</coordinates>
                </Point>
            </Placemark>
            <Placemark id="4092">
                <name>JOHANA STEYSI INFANTE ZAPATA</name>
                <description>Calle Leoncio prado 203 - cercado de zarumillaRef. Más allá del restaurante Paiva o geminis zarumilla
Zarumilla
Zarumilla
Tumbes
Perú</description>
                <styleUrl>#4093</styleUrl>
                <Point id="4091">
                    <coordinates>-80.2708093,-3.4969988,0.0</coordinates>
                </Point>
            </Placemark>
            <Placemark id="4097">
                <name>EMMA VICTORIA SALDARRIAGA RAMIREZ</name>
                <description>Prolongación tumbes sin número Referencia por la cabaña de Christian

  
</description>
                <styleUrl>#4098</styleUrl>
                <Point id="4096">
                    <coordinates>-80.2728663,-3.4963048,0.0</coordinates>
                </Point>
            </Placemark>
            <Placemark id="4102">
                <name>REPRESENTACIONES E INVERSIONES DRMAH EMPRESA INDIVIDUAL DE RESPONSABILIDAD LIMITADA</name>
                <description>REPRESENTACIONES E INVERSIONES DRMAH EMPRESA INDIVIDUAL DE RESPONSABILIDAD LIMITADA
MZA. A LOTE. 09 A.H.  ROBERTO ESPINOZA Referencia al  costado de restaurante el MOSCU ZARUMILLA
Zarumilla
240301Zarumilla
Tumbes
Perú</description>
                <styleUrl>#4103</styleUrl>
                <Point id="4101">
                    <coordinates>-80.2721057,-3.4956803,0.0</coordinates>
                </Point>
            </Placemark>
            <Placemark id="4107">
                <name>ORO PLAZA S.A.C</name>
                <description>ORO PLAZA S.A.C
JR. TARAPACA Y CALLE TUMBES MZA. C LOTE. 01 C.P.  CERCADO DE ZARUMILLA
Zarumilla
240301Zarumilla
Tumbes
Perú</description>
                <styleUrl>#4108</styleUrl>
                <Point id="4106">
                    <coordinates>-80.2739177,-3.4981659,0.0</coordinates>
                </Point>
            </Placemark>
            <Placemark id="4112">
                <name>ORO PLAZA S.A.C</name>
                <description>ORO PLAZA S.A.C
JR. TARAPACA Y CALLE TUMBES MZA. C LOTE. 01 C.P.  CERCADO DE ZARUMILLA
Zarumilla
240301Zarumilla
Tumbes
Perú</description>
                <styleUrl>#4113</styleUrl>
                <Point id="4111">
                    <coordinates>-80.2739177,-3.4981659,0.0</coordinates>
                </Point>
            </Placemark>
            <Placemark id="4117">
                <name>ELIZABETH HUARAC GONZALEZ</name>
                <description>Independencia 509
Zarumilla
Zarumilla
Tumbes
Perú</description>
                <styleUrl>#4118</styleUrl>
                <Point id="4116">
                    <coordinates>-80.272878,-3.499486,0.0</coordinates>
                </Point>
            </Placemark>
            <Placemark id="4122">
                <name>PATRICIA DEL CARMEN IZQUIERDO CORREA</name>
                <description>JR independencia 444 referencia q espalda de plaza de Zarumilla
Zarumilla
Contralmirante Villar
Tumbes
Perú</description>
                <styleUrl>#4123</styleUrl>
                <Point id="4121">
                    <coordinates>-80.2737668,-3.5009248,0.0</coordinates>
                </Point>
            </Placemark>
            <Placemark id="4127">
                <name>JOHANA PAMELA RAMON CORONADO</name>
                <description>Calle atahualpa costado de picanteria el velero zarumillas
Zarumilla

Tumbes
Perú</description>
                <styleUrl>#4128</styleUrl>
                <Point id="4126">
                    <coordinates>-80.2715836,-3.4980832,0.0</coordinates>
                </Point>
            </Placemark>
            <Placemark id="4132">
                <name>JUVIXA CELESTE SALDARRIAGA AGUILAR</name>
                <description>Jiron miraflores #614 frente al cepro rosa ordinola de noblecilla zarumilla
Zarumilla
Zarumilla
Tumbes
Perú</description>
                <styleUrl>#4133</styleUrl>
                <Point id="4131">
                    <coordinates>-80.2692924,-3.5010229,0.0</coordinates>
                </Point>
            </Placemark>
            <Placemark id="4137">
                <name>MARIANELLA MILAGROS PEÑA SILVA</name>
                <description>Av.tarapaca #912 miraflores zarumilla recta de oro plaza al fondo bodega(ima y pao)
Zarumilla
Zarumilla
Tumbes
Perú</description>
                <styleUrl>#4138</styleUrl>
                <Point id="4136">
                    <coordinates>-80.2674699,-3.5017063,0.0</coordinates>
                </Point>
            </Placemark>
            <Placemark id="4142">
                <name>RODAS BALCAZAR EDIT ARACELY</name>
                <description>AV REP DEL PERU S/N           
Aguas Verdes
Aguas Verdes
Tumbes
Perú</description>
                <styleUrl>#4143</styleUrl>
                <Point id="4141">
                    <coordinates>-80.24369,-3.481498,0.0</coordinates>
                </Point>
            </Placemark>
            <Placemark id="4147">
                <name>INFANTE CLAVIJO VERONICA T.</name>
                <description>JR.F.BOLOGNESI 706 ZARUMILLA  
Zarumilla
Zarumilla
Tumbes
Perú</description>
                <styleUrl>#4148</styleUrl>
                <Point id="4146">
                    <coordinates>-80.2689886,-3.5018348,0.0</coordinates>
                </Point>
            </Placemark>
            <Placemark id="4152">
                <name>DE NECIOSUP JULIA ESPINOZA PISFIL</name>
                <description>Calle maximiliano moran 306 - centro de zarumilla rf costadon del agente bcp
Zarumilla
Zarumilla
Tumbes
Perú</description>
                <styleUrl>#4153</styleUrl>
                <Point id="4151">
                    <coordinates>-80.2724806,-3.5003338,0.0</coordinates>
                </Point>
            </Placemark>
            <Placemark id="4157">
                <name>Luis Enrique Tovar</name>
                <description>Av la Marina 1 cuadra MZ 8 lote 1 campo amor Zarumilla referencia por la entrada del cocodrilo
Zarumilla
Zarumilla
Tumbes
Perú</description>
                <styleUrl>#4158</styleUrl>
                <Point id="4156">
                    <coordinates>-80.2746872,-3.496348,0.0</coordinates>
                </Point>
            </Placemark>
        </Folder>
        <Folder id="4161">
            <Style id="4164">
                <IconStyle id="4165">
                    <color>ff008000</color>
                    <colorMode>normal</colorMode>
                    <scale>1</scale>
                    <heading>0</heading>
                    <Icon id="4166">
                        <href>http://maps.google.com/mapfiles/kml/pushpin/ylw-pushpin.png</href>
                    </Icon>
                </IconStyle>
            </Style>
            <Style id="4169">
                <IconStyle id="4170">
                    <color>ff008000</color>
                    <colorMode>normal</colorMode>
                    <scale>1</scale>
                    <heading>0</heading>
                    <Icon id="4171">
                        <href>http://maps.google.com/mapfiles/kml/pushpin/ylw-pushpin.png</href>
                    </Icon>
                </IconStyle>
            </Style>
            <Style id="4174">
                <IconStyle id="4175">
                    <color>ff008000</color>
                    <colorMode>normal</colorMode>
                    <scale>1</scale>
                    <heading>0</heading>
                    <Icon id="4176">
                        <href>http://maps.google.com/mapfiles/kml/pushpin/ylw-pushpin.png</href>
                    </Icon>
                </IconStyle>
            </Style>
            <Style id="4179">
                <IconStyle id="4180">
                    <color>ff008000</color>
                    <colorMode>normal</colorMode>
                    <scale>1</scale>
                    <heading>0</heading>
                    <Icon id="4181">
                        <href>http://maps.google.com/mapfiles/kml/pushpin/ylw-pushpin.png</href>
                    </Icon>
                </IconStyle>
            </Style>
            <Style id="4184">
                <IconStyle id="4185">
                    <color>ff008000</color>
                    <colorMode>normal</colorMode>
                    <scale>1</scale>
                    <heading>0</heading>
                    <Icon id="4186">
                        <href>http://maps.google.com/mapfiles/kml/pushpin/ylw-pushpin.png</href>
                    </Icon>
                </IconStyle>
            </Style>
            <Style id="4189">
                <IconStyle id="4190">
                    <color>ff008000</color>
                    <colorMode>normal</colorMode>
                    <scale>1</scale>
                    <heading>0</heading>
                    <Icon id="4191">
                        <href>http://maps.google.com/mapfiles/kml/pushpin/ylw-pushpin.png</href>
                    </Icon>
                </IconStyle>
            </Style>
            <Style id="4194">
                <IconStyle id="4195">
                    <color>ff008000</color>
                    <colorMode>normal</colorMode>
                    <scale>1</scale>
                    <heading>0</heading>
                    <Icon id="4196">
                        <href>http://maps.google.com/mapfiles/kml/pushpin/ylw-pushpin.png</href>
                    </Icon>
                </IconStyle>
            </Style>
            <Style id="4199">
                <IconStyle id="4200">
                    <color>ff008000</color>
                    <colorMode>normal</colorMode>
                    <scale>1</scale>
                    <heading>0</heading>
                    <Icon id="4201">
                        <href>http://maps.google.com/mapfiles/kml/pushpin/ylw-pushpin.png</href>
                    </Icon>
                </IconStyle>
            </Style>
            <Style id="4204">
                <IconStyle id="4205">
                    <color>ff008000</color>
                    <colorMode>normal</colorMode>
                    <scale>1</scale>
                    <heading>0</heading>
                    <Icon id="4206">
                        <href>http://maps.google.com/mapfiles/kml/pushpin/ylw-pushpin.png</href>
                    </Icon>
                </IconStyle>
            </Style>
            <Style id="4209">
                <IconStyle id="4210">
                    <color>ff008000</color>
                    <colorMode>normal</colorMode>
                    <scale>1</scale>
                    <heading>0</heading>
                    <Icon id="4211">
                        <href>http://maps.google.com/mapfiles/kml/pushpin/ylw-pushpin.png</href>
                    </Icon>
                </IconStyle>
            </Style>
            <Style id="4214">
                <IconStyle id="4215">
                    <color>ff008000</color>
                    <colorMode>normal</colorMode>
                    <scale>1</scale>
                    <heading>0</heading>
                    <Icon id="4216">
                        <href>http://maps.google.com/mapfiles/kml/pushpin/ylw-pushpin.png</href>
                    </Icon>
                </IconStyle>
            </Style>
            <Style id="4219">
                <IconStyle id="4220">
                    <color>ff008000</color>
                    <colorMode>normal</colorMode>
                    <scale>1</scale>
                    <heading>0</heading>
                    <Icon id="4221">
                        <href>http://maps.google.com/mapfiles/kml/pushpin/ylw-pushpin.png</href>
                    </Icon>
                </IconStyle>
            </Style>
            <Style id="4224">
                <IconStyle id="4225">
                    <color>ff008000</color>
                    <colorMode>normal</colorMode>
                    <scale>1</scale>
                    <heading>0</heading>
                    <Icon id="4226">
                        <href>http://maps.google.com/mapfiles/kml/pushpin/ylw-pushpin.png</href>
                    </Icon>
                </IconStyle>
            </Style>
            <Style id="4229">
                <IconStyle id="4230">
                    <color>ff008000</color>
                    <colorMode>normal</colorMode>
                    <scale>1</scale>
                    <heading>0</heading>
                    <Icon id="4231">
                        <href>http://maps.google.com/mapfiles/kml/pushpin/ylw-pushpin.png</href>
                    </Icon>
                </IconStyle>
            </Style>
            <Style id="4234">
                <IconStyle id="4235">
                    <color>ff008000</color>
                    <colorMode>normal</colorMode>
                    <scale>1</scale>
                    <heading>0</heading>
                    <Icon id="4236">
                        <href>http://maps.google.com/mapfiles/kml/pushpin/ylw-pushpin.png</href>
                    </Icon>
                </IconStyle>
            </Style>
            <Style id="4239">
                <IconStyle id="4240">
                    <color>ff008000</color>
                    <colorMode>normal</colorMode>
                    <scale>1</scale>
                    <heading>0</heading>
                    <Icon id="4241">
                        <href>http://maps.google.com/mapfiles/kml/pushpin/ylw-pushpin.png</href>
                    </Icon>
                </IconStyle>
            </Style>
            <Style id="4244">
                <IconStyle id="4245">
                    <color>ff008000</color>
                    <colorMode>normal</colorMode>
                    <scale>1</scale>
                    <heading>0</heading>
                    <Icon id="4246">
                        <href>http://maps.google.com/mapfiles/kml/pushpin/ylw-pushpin.png</href>
                    </Icon>
                </IconStyle>
            </Style>
            <Style id="4249">
                <IconStyle id="4250">
                    <color>ff008000</color>
                    <colorMode>normal</colorMode>
                    <scale>1</scale>
                    <heading>0</heading>
                    <Icon id="4251">
                        <href>http://maps.google.com/mapfiles/kml/pushpin/ylw-pushpin.png</href>
                    </Icon>
                </IconStyle>
            </Style>
            <Style id="4254">
                <IconStyle id="4255">
                    <color>ff008000</color>
                    <colorMode>normal</colorMode>
                    <scale>1</scale>
                    <heading>0</heading>
                    <Icon id="4256">
                        <href>http://maps.google.com/mapfiles/kml/pushpin/ylw-pushpin.png</href>
                    </Icon>
                </IconStyle>
            </Style>
            <Style id="4259">
                <IconStyle id="4260">
                    <color>ff008000</color>
                    <colorMode>normal</colorMode>
                    <scale>1</scale>
                    <heading>0</heading>
                    <Icon id="4261">
                        <href>http://maps.google.com/mapfiles/kml/pushpin/ylw-pushpin.png</href>
                    </Icon>
                </IconStyle>
            </Style>
            <Style id="4264">
                <IconStyle id="4265">
                    <color>ff008000</color>
                    <colorMode>normal</colorMode>
                    <scale>1</scale>
                    <heading>0</heading>
                    <Icon id="4266">
                        <href>http://maps.google.com/mapfiles/kml/pushpin/ylw-pushpin.png</href>
                    </Icon>
                </IconStyle>
            </Style>
            <Style id="4269">
                <IconStyle id="4270">
                    <color>ff008000</color>
                    <colorMode>normal</colorMode>
                    <scale>1</scale>
                    <heading>0</heading>
                    <Icon id="4271">
                        <href>http://maps.google.com/mapfiles/kml/pushpin/ylw-pushpin.png</href>
                    </Icon>
                </IconStyle>
            </Style>
            <Style id="4274">
                <IconStyle id="4275">
                    <color>ff008000</color>
                    <colorMode>normal</colorMode>
                    <scale>1</scale>
                    <heading>0</heading>
                    <Icon id="4276">
                        <href>http://maps.google.com/mapfiles/kml/pushpin/ylw-pushpin.png</href>
                    </Icon>
                </IconStyle>
            </Style>
            <Style id="4279">
                <IconStyle id="4280">
                    <color>ff008000</color>
                    <colorMode>normal</colorMode>
                    <scale>1</scale>
                    <heading>0</heading>
                    <Icon id="4281">
                        <href>http://maps.google.com/mapfiles/kml/pushpin/ylw-pushpin.png</href>
                    </Icon>
                </IconStyle>
            </Style>
            <Style id="4284">
                <IconStyle id="4285">
                    <color>ff008000</color>
                    <colorMode>normal</colorMode>
                    <scale>1</scale>
                    <heading>0</heading>
                    <Icon id="4286">
                        <href>http://maps.google.com/mapfiles/kml/pushpin/ylw-pushpin.png</href>
                    </Icon>
                </IconStyle>
            </Style>
            <Style id="4289">
                <IconStyle id="4290">
                    <color>ff008000</color>
                    <colorMode>normal</colorMode>
                    <scale>1</scale>
                    <heading>0</heading>
                    <Icon id="4291">
                        <href>http://maps.google.com/mapfiles/kml/pushpin/ylw-pushpin.png</href>
                    </Icon>
                </IconStyle>
            </Style>
            <Style id="4294">
                <IconStyle id="4295">
                    <color>ff008000</color>
                    <colorMode>normal</colorMode>
                    <scale>1</scale>
                    <heading>0</heading>
                    <Icon id="4296">
                        <href>http://maps.google.com/mapfiles/kml/pushpin/ylw-pushpin.png</href>
                    </Icon>
                </IconStyle>
            </Style>
            <Style id="4299">
                <IconStyle id="4300">
                    <color>ff008000</color>
                    <colorMode>normal</colorMode>
                    <scale>1</scale>
                    <heading>0</heading>
                    <Icon id="4301">
                        <href>http://maps.google.com/mapfiles/kml/pushpin/ylw-pushpin.png</href>
                    </Icon>
                </IconStyle>
            </Style>
            <Style id="4304">
                <IconStyle id="4305">
                    <color>ff008000</color>
                    <colorMode>normal</colorMode>
                    <scale>1</scale>
                    <heading>0</heading>
                    <Icon id="4306">
                        <href>http://maps.google.com/mapfiles/kml/pushpin/ylw-pushpin.png</href>
                    </Icon>
                </IconStyle>
            </Style>
            <Style id="4309">
                <IconStyle id="4310">
                    <color>ff008000</color>
                    <colorMode>normal</colorMode>
                    <scale>1</scale>
                    <heading>0</heading>
                    <Icon id="4311">
                        <href>http://maps.google.com/mapfiles/kml/pushpin/ylw-pushpin.png</href>
                    </Icon>
                </IconStyle>
            </Style>
            <Style id="4314">
                <IconStyle id="4315">
                    <color>ff008000</color>
                    <colorMode>normal</colorMode>
                    <scale>1</scale>
                    <heading>0</heading>
                    <Icon id="4316">
                        <href>http://maps.google.com/mapfiles/kml/pushpin/ylw-pushpin.png</href>
                    </Icon>
                </IconStyle>
            </Style>
            <Style id="4319">
                <IconStyle id="4320">
                    <color>ff008000</color>
                    <colorMode>normal</colorMode>
                    <scale>1</scale>
                    <heading>0</heading>
                    <Icon id="4321">
                        <href>http://maps.google.com/mapfiles/kml/pushpin/ylw-pushpin.png</href>
                    </Icon>
                </IconStyle>
            </Style>
            <Style id="4324">
                <IconStyle id="4325">
                    <color>ff008000</color>
                    <colorMode>normal</colorMode>
                    <scale>1</scale>
                    <heading>0</heading>
                    <Icon id="4326">
                        <href>http://maps.google.com/mapfiles/kml/pushpin/ylw-pushpin.png</href>
                    </Icon>
                </IconStyle>
            </Style>
            <name>MARY JISSA DEL PILAR PALACIOS ZAPATA</name>
            <Placemark id="4163">
                <name>FERNANDEZ ALTAMIRANO FLOR MARINA</name>
                <description>FERNANDEZ ALTAMIRANO FLOR MARINA
Av 28 de julio 345 - centro de zarumilla
Zarumilla
Zarumilla
Tumbes
Perú</description>
                <styleUrl>#4164</styleUrl>
                <Point id="4162">
                    <coordinates>-80.2741934,-3.5024333,0.0</coordinates>
                </Point>
            </Placemark>
            <Placemark id="4168">
                <name>YANINA DEL PILAR AVILA CORREA</name>
                <description>Calle mollobamba ref costado del colegio niño del milagro
Zarumilla


Perú</description>
                <styleUrl>#4169</styleUrl>
                <Point id="4167">
                    <coordinates>-80.2682765,-3.5066842,0.0</coordinates>
                </Point>
            </Placemark>
            <Placemark id="4173">
                <name>SARLY ROSSI RUIZ INFANTE</name>
                <description>Calle santa rosa con esquina amazonas s/n - pozo elevado sur - zarumilla
Zarumilla
Zarumilla
Tumbes
Perú</description>
                <styleUrl>#4174</styleUrl>
                <Point id="4172">
                    <coordinates>-80.280213,-3.5089454,0.0</coordinates>
                </Point>
            </Placemark>
            <Placemark id="4178">
                <name>MARIA DEL PILAR NONAJULCA LALANGUI</name>
                <description>Las Lomas  _ Ref cerca al canal
Tumbes
Tumbes
Tumbes
Perú</description>
                <styleUrl>#4179</styleUrl>
                <Point id="4177">
                    <coordinates>-80.4137641,-3.5800658,0.0</coordinates>
                </Point>
            </Placemark>
            <Placemark id="4183">
                <name>MARIA TERESA DEL CARMEN URQUIZO HERRERA</name>
                <description>Av. Ramón Castilla 141 Papayal entrada del pueblo, antes de la muni
Papayal
24200Papayal
Tumbes
Perú</description>
                <styleUrl>#4184</styleUrl>
                <Point id="4182">
                    <coordinates>-80.2350002,-3.5704281,0.0</coordinates>
                </Point>
            </Placemark>
            <Placemark id="4188">
                <name>YUBITZA ELIZABETH SALVATIERRA CRUZ</name>
                <description>Av.principal de papayal
Papayal
Papayal
Tumbes
Perú</description>
                <styleUrl>#4189</styleUrl>
                <Point id="4187">
                    <coordinates>-80.2350965,-3.5695982,0.0</coordinates>
                </Point>
            </Placemark>
            <Placemark id="4193">
                <name>LINDA MARICIELO IZQUIERDO VINCES</name>
                <description>AA.HH santa Victoria calle  San Martín MZ E lote 3 
Zarumilla
24101Zarumilla
Tumbes
Perú</description>
                <styleUrl>#4194</styleUrl>
                <Point id="4192">
                    <coordinates>-80.280964,-3.4980169,0.0</coordinates>
                </Point>
            </Placemark>
            <Placemark id="4198">
                <name>SONIA NOEMI AGUIRRE MEDINA</name>
                <description>Av el ejército 205 zarumilla
Zarumilla
Zarumilla
Tumbes
Perú</description>
                <styleUrl>#4199</styleUrl>
                <Point id="4197">
                    <coordinates>-80.2784925,-3.5023869,0.0</coordinates>
                </Point>
            </Placemark>
            <Placemark id="4203">
                <name>LUZ AURORA GIRON LOAYZA</name>
                <description>Av.principal Ramón Castilla 308 Papayal mas adelante de la municipalidad
Zarumilla
Zarumilla
Tumbes
Perú</description>
                <styleUrl>#4204</styleUrl>
                <Point id="4202">
                    <coordinates>-80.2347264,-3.573032,0.0</coordinates>
                </Point>
            </Placemark>
            <Placemark id="4208">
                <name>DORA ISABEL ROMERO PIZARRO</name>
                <description>Calle lima #126 espalda de comisaria y la posta de la palma
Papayal
Papayal
Tumbes
Perú</description>
                <styleUrl>#4209</styleUrl>
                <Point id="4207">
                    <coordinates>-80.2152702,-3.5619925,0.0</coordinates>
                </Point>
            </Placemark>
            <Placemark id="4213">
                <name>AURI ESTELA PIZARRO MARCHAN</name>
                <description> barrio San José villa uña de gato 
Papayal
24200Papayal
Tumbes
Perú</description>
                <styleUrl>#4214</styleUrl>
                <Point id="4212">
                    <coordinates>-80.2318392,-3.5422243,0.0</coordinates>
                </Point>
            </Placemark>
            <Placemark id="4218">
                <name>FABIOLA LISBET MARCHAN SILVA</name>
                <description>la garita  215 uña de gato al frente al gimnasio
Papayal
24200Papayal
Tumbes
Perú</description>
                <styleUrl>#4219</styleUrl>
                <Point id="4217">
                    <coordinates>-80.233196,-3.5366733,0.0</coordinates>
                </Point>
            </Placemark>
            <Placemark id="4223">
                <name>LEYDI LISBETH LOPEZ PINTADO</name>
                <description>Uña de gato 107 ref frente al cemaforo
Zarumilla


Perú</description>
                <styleUrl>#4224</styleUrl>
                <Point id="4222">
                    <coordinates>-80.2346581,-3.5355716,0.0</coordinates>
                </Point>
            </Placemark>
            <Placemark id="4228">
                <name>SHIRLEY JANNET NOLE CHUQUIHUANCA</name>
                <description>Cuchareta alta ref frente al jardín 063
Zarumilla

Tumbes
Perú</description>
                <styleUrl>#4229</styleUrl>
                <Point id="4227">
                    <coordinates>-80.2376743,-3.5300523,0.0</coordinates>
                </Point>
            </Placemark>
            <Placemark id="4233">
                <name>CLARA ARTEMIA ENRIQUEZ NORIEGA</name>
                <description>Calle C 24 de julio atrás del tecnológico
Zarumilla


Perú</description>
                <styleUrl>#4234</styleUrl>
                <Point id="4232">
                    <coordinates>-80.2824966,-3.5076957,0.0</coordinates>
                </Point>
            </Placemark>
            <Placemark id="4238">
                <name>YARICSA FLORES YACILA</name>
                <description>JR Huascar 116 - Miraflores - zarumilla
Zarumilla
24101Zarumilla
Tumbes
Perú</description>
                <styleUrl>#4239</styleUrl>
                <Point id="4237">
                    <coordinates>-80.2750639,-3.5086222,0.0</coordinates>
                </Point>
            </Placemark>
            <Placemark id="4243">
                <name>FERNANDEZ ALTAMIRANO FLOR MARINA</name>
                <description>FERNANDEZ ALTAMIRANO FLOR MARINA
Av 28 de julio 345 - centro de zarumilla
Zarumilla
Zarumilla
Tumbes
Perú</description>
                <styleUrl>#4244</styleUrl>
                <Point id="4242">
                    <coordinates>-80.2741934,-3.5024333,0.0</coordinates>
                </Point>
            </Placemark>
            <Placemark id="4248">
                <name>LIDIA LIZANA HUANCAS</name>
                <description>Calle la Industrial Ref.frente al complejo los pinos la Rocana
Zarumilla
Zarumilla
Tumbes
Perú</description>
                <styleUrl>#4249</styleUrl>
                <Point id="4247">
                    <coordinates>-80.2826249,-3.4955325,0.0</coordinates>
                </Point>
            </Placemark>
            <Placemark id="4253">
                <name>HERMINIA CIELO NUÑEZ DE LOPEZ</name>
                <description>La Rocana ref más adelante la cebollera
Zarumilla


Perú</description>
                <styleUrl>#4254</styleUrl>
                <Point id="4252">
                    <coordinates>-80.2812384,-3.4964994,0.0</coordinates>
                </Point>
            </Placemark>
            <Placemark id="4258">
                <name>SARLY ROSSI RUIZ INFANTE</name>
                <description>Calle santa rosa con esquina amazonas s/n - pozo elevado sur - zarumilla
Zarumilla
Zarumilla
Tumbes
Perú</description>
                <styleUrl>#4259</styleUrl>
                <Point id="4257">
                    <coordinates>-80.280213,-3.5089454,0.0</coordinates>
                </Point>
            </Placemark>
            <Placemark id="4263">
                <name>MARITZA BEATRIZ CESPEDES VINCES</name>
                <description>Calle santa rosa s/n - pozo elevado sur - zarumilla
Zarumilla
TumbesZarumilla
Tumbes
Perú</description>
                <styleUrl>#4264</styleUrl>
                <Point id="4262">
                    <coordinates>-80.2794123,-3.5071685,0.0</coordinates>
                </Point>
            </Placemark>
            <Placemark id="4268">
                <name>MARITZA BEATRIZ CESPEDES VINCES</name>
                <description>Calle santa rosa s/n - pozo elevado sur - zarumilla
Zarumilla
TumbesZarumilla
Tumbes
Perú</description>
                <styleUrl>#4269</styleUrl>
                <Point id="4267">
                    <coordinates>-80.2794123,-3.5071685,0.0</coordinates>
                </Point>
            </Placemark>
            <Placemark id="4273">
                <name>IRMA HUAMAN PINTADO</name>
                <description>Calle Pucallpa MZ 21 LT 8 ref frente al parque
Zarumilla
Zarumilla
Tumbes
Perú</description>
                <styleUrl>#4274</styleUrl>
                <Point id="4272">
                    <coordinates>-80.2791118,-3.5108671,0.0</coordinates>
                </Point>
            </Placemark>
            <Placemark id="4278">
                <name>GEORGINA ELIZABETH TUPEZ BURGOS</name>
                <description>Av geranios con gardenias s/ n - zarumilla 
Zarumilla
24101Zarumilla
Tumbes
Perú</description>
                <styleUrl>#4279</styleUrl>
                <Point id="4277">
                    <coordinates>-80.2765289,-3.5074386,0.0</coordinates>
                </Point>
            </Placemark>
            <Placemark id="4283">
                <name>YESENDA MARILU CERDAN MORAN</name>
                <description>Calle independencia 218 - zarumilla
Zarumilla
24101Zarumilla
Tumbes
Perú</description>
                <styleUrl>#4284</styleUrl>
                <Point id="4282">
                    <coordinates>-80.27556,-3.503847,0.0</coordinates>
                </Point>
            </Placemark>
            <Placemark id="4288">
                <name>ROSA YELINA MORENO LUJAN</name>
                <description>Calle Lisardo Montero 101 AAHH Pozo elevado
Zarumilla
24101Zarumilla
Tumbes
Perú</description>
                <styleUrl>#4289</styleUrl>
                <Point id="4287">
                    <coordinates>-80.2745514,-3.5071916,0.0</coordinates>
                </Point>
            </Placemark>
            <Placemark id="4293">
                <name>KARINA ELIZABETH OBALLE SANDOVAL</name>
                <description>prolongación Zavala 111 - zarumilla
Zarumilla
24101Zarumilla
Tumbes
Perú</description>
                <styleUrl>#4294</styleUrl>
                <Point id="4292">
                    <coordinates>-80.2749755,-3.5076161,0.0</coordinates>
                </Point>
            </Placemark>
            <Placemark id="4298">
                <name>SOFIA ESPERANZA BALLADARES DE ALEMAN</name>
                <description>Calle Tarapacá 118 - AAHH Miraflores - zarumilla
Zarumilla
Zarumilla
Tumbes
Perú</description>
                <styleUrl>#4299</styleUrl>
                <Point id="4297">
                    <coordinates>-80.2724107,-3.5069322,0.0</coordinates>
                </Point>
            </Placemark>
            <Placemark id="4303">
                <name>YANINA DEL PILAR AVILA CORREA</name>
                <description>Calle mollobamba ref costado del colegio niño del milagro
Zarumilla


Perú</description>
                <styleUrl>#4304</styleUrl>
                <Point id="4302">
                    <coordinates>-80.2682765,-3.5066842,0.0</coordinates>
                </Point>
            </Placemark>
            <Placemark id="4308">
                <name>LEYDI DIANA VINCES CRUZ</name>
                <description>Av circunvalación 208 - barrio Miraflores - zarumilla
Zarumilla
Zarumilla
Tumbes
Perú</description>
                <styleUrl>#4309</styleUrl>
                <Point id="4307">
                    <coordinates>-80.2692013,-3.5048371,0.0</coordinates>
                </Point>
            </Placemark>
            <Placemark id="4313">
                <name>Mirian Garcia Rosales</name>
                <description>Av Grau MZ E LOTE 3 ref costado de nunura soto
Zarumilla


Perú</description>
                <styleUrl>#4314</styleUrl>
                <Point id="4312">
                    <coordinates>-80.267014,-3.5039183,0.0</coordinates>
                </Point>
            </Placemark>
            <Placemark id="4318">
                <name>KAREM GABRIELA FLORES QUINCHE</name>
                <description>Calle Grau s/n Miraflores zarumilla
Zarumilla
Zarumilla
Tumbes
Perú</description>
                <styleUrl>#4319</styleUrl>
                <Point id="4317">
                    <coordinates>-80.2692024,-3.5025674,0.0</coordinates>
                </Point>
            </Placemark>
            <Placemark id="4323">
                <name>CARMEN GIULIANA AGUACONDO CARRASCO</name>
                <description>Av el ejército MZ A LT 10  237
Zarumilla
Zarumilla
Tumbes
Perú</description>
                <styleUrl>#4324</styleUrl>
                <Point id="4322">
                    <coordinates>-80.2795583,-3.5027425,0.0</coordinates>
                </Point>
            </Placemark>
        </Folder>
    </Document>
</kml>
