<?xml version="1.0" encoding="UTF-8"?>
<kml xmlns="http://www.opengis.net/kml/2.2" xmlns:gx="http://www.google.com/kml/ext/2.2">
    <Document id="2737">
        <Folder id="2738">
            <Style id="2741">
                <IconStyle id="2742">
                    <color>ff0000ff</color>
                    <colorMode>normal</colorMode>
                    <scale>1</scale>
                    <heading>0</heading>
                    <Icon id="2743">
                        <href>http://maps.google.com/mapfiles/kml/pushpin/ylw-pushpin.png</href>
                    </Icon>
                </IconStyle>
            </Style>
            <Style id="2746">
                <IconStyle id="2747">
                    <color>ff0000ff</color>
                    <colorMode>normal</colorMode>
                    <scale>1</scale>
                    <heading>0</heading>
                    <Icon id="2748">
                        <href>http://maps.google.com/mapfiles/kml/pushpin/ylw-pushpin.png</href>
                    </Icon>
                </IconStyle>
            </Style>
            <Style id="2751">
                <IconStyle id="2752">
                    <color>ff0000ff</color>
                    <colorMode>normal</colorMode>
                    <scale>1</scale>
                    <heading>0</heading>
                    <Icon id="2753">
                        <href>http://maps.google.com/mapfiles/kml/pushpin/ylw-pushpin.png</href>
                    </Icon>
                </IconStyle>
            </Style>
            <Style id="2756">
                <IconStyle id="2757">
                    <color>ff0000ff</color>
                    <colorMode>normal</colorMode>
                    <scale>1</scale>
                    <heading>0</heading>
                    <Icon id="2758">
                        <href>http://maps.google.com/mapfiles/kml/pushpin/ylw-pushpin.png</href>
                    </Icon>
                </IconStyle>
            </Style>
            <Style id="2761">
                <IconStyle id="2762">
                    <color>ff0000ff</color>
                    <colorMode>normal</colorMode>
                    <scale>1</scale>
                    <heading>0</heading>
                    <Icon id="2763">
                        <href>http://maps.google.com/mapfiles/kml/pushpin/ylw-pushpin.png</href>
                    </Icon>
                </IconStyle>
            </Style>
            <Style id="2766">
                <IconStyle id="2767">
                    <color>ff0000ff</color>
                    <colorMode>normal</colorMode>
                    <scale>1</scale>
                    <heading>0</heading>
                    <Icon id="2768">
                        <href>http://maps.google.com/mapfiles/kml/pushpin/ylw-pushpin.png</href>
                    </Icon>
                </IconStyle>
            </Style>
            <Style id="2771">
                <IconStyle id="2772">
                    <color>ff0000ff</color>
                    <colorMode>normal</colorMode>
                    <scale>1</scale>
                    <heading>0</heading>
                    <Icon id="2773">
                        <href>http://maps.google.com/mapfiles/kml/pushpin/ylw-pushpin.png</href>
                    </Icon>
                </IconStyle>
            </Style>
            <Style id="2776">
                <IconStyle id="2777">
                    <color>ff0000ff</color>
                    <colorMode>normal</colorMode>
                    <scale>1</scale>
                    <heading>0</heading>
                    <Icon id="2778">
                        <href>http://maps.google.com/mapfiles/kml/pushpin/ylw-pushpin.png</href>
                    </Icon>
                </IconStyle>
            </Style>
            <Style id="2781">
                <IconStyle id="2782">
                    <color>ff0000ff</color>
                    <colorMode>normal</colorMode>
                    <scale>1</scale>
                    <heading>0</heading>
                    <Icon id="2783">
                        <href>http://maps.google.com/mapfiles/kml/pushpin/ylw-pushpin.png</href>
                    </Icon>
                </IconStyle>
            </Style>
            <Style id="2786">
                <IconStyle id="2787">
                    <color>ff0000ff</color>
                    <colorMode>normal</colorMode>
                    <scale>1</scale>
                    <heading>0</heading>
                    <Icon id="2788">
                        <href>http://maps.google.com/mapfiles/kml/pushpin/ylw-pushpin.png</href>
                    </Icon>
                </IconStyle>
            </Style>
            <Style id="2791">
                <IconStyle id="2792">
                    <color>ff0000ff</color>
                    <colorMode>normal</colorMode>
                    <scale>1</scale>
                    <heading>0</heading>
                    <Icon id="2793">
                        <href>http://maps.google.com/mapfiles/kml/pushpin/ylw-pushpin.png</href>
                    </Icon>
                </IconStyle>
            </Style>
            <Style id="2796">
                <IconStyle id="2797">
                    <color>ff0000ff</color>
                    <colorMode>normal</colorMode>
                    <scale>1</scale>
                    <heading>0</heading>
                    <Icon id="2798">
                        <href>http://maps.google.com/mapfiles/kml/pushpin/ylw-pushpin.png</href>
                    </Icon>
                </IconStyle>
            </Style>
            <Style id="2801">
                <IconStyle id="2802">
                    <color>ff0000ff</color>
                    <colorMode>normal</colorMode>
                    <scale>1</scale>
                    <heading>0</heading>
                    <Icon id="2803">
                        <href>http://maps.google.com/mapfiles/kml/pushpin/ylw-pushpin.png</href>
                    </Icon>
                </IconStyle>
            </Style>
            <Style id="2806">
                <IconStyle id="2807">
                    <color>ff0000ff</color>
                    <colorMode>normal</colorMode>
                    <scale>1</scale>
                    <heading>0</heading>
                    <Icon id="2808">
                        <href>http://maps.google.com/mapfiles/kml/pushpin/ylw-pushpin.png</href>
                    </Icon>
                </IconStyle>
            </Style>
            <Style id="2811">
                <IconStyle id="2812">
                    <color>ff0000ff</color>
                    <colorMode>normal</colorMode>
                    <scale>1</scale>
                    <heading>0</heading>
                    <Icon id="2813">
                        <href>http://maps.google.com/mapfiles/kml/pushpin/ylw-pushpin.png</href>
                    </Icon>
                </IconStyle>
            </Style>
            <Style id="2816">
                <IconStyle id="2817">
                    <color>ff0000ff</color>
                    <colorMode>normal</colorMode>
                    <scale>1</scale>
                    <heading>0</heading>
                    <Icon id="2818">
                        <href>http://maps.google.com/mapfiles/kml/pushpin/ylw-pushpin.png</href>
                    </Icon>
                </IconStyle>
            </Style>
            <Style id="2821">
                <IconStyle id="2822">
                    <color>ff0000ff</color>
                    <colorMode>normal</colorMode>
                    <scale>1</scale>
                    <heading>0</heading>
                    <Icon id="2823">
                        <href>http://maps.google.com/mapfiles/kml/pushpin/ylw-pushpin.png</href>
                    </Icon>
                </IconStyle>
            </Style>
            <Style id="2826">
                <IconStyle id="2827">
                    <color>ff0000ff</color>
                    <colorMode>normal</colorMode>
                    <scale>1</scale>
                    <heading>0</heading>
                    <Icon id="2828">
                        <href>http://maps.google.com/mapfiles/kml/pushpin/ylw-pushpin.png</href>
                    </Icon>
                </IconStyle>
            </Style>
            <Style id="2831">
                <IconStyle id="2832">
                    <color>ff0000ff</color>
                    <colorMode>normal</colorMode>
                    <scale>1</scale>
                    <heading>0</heading>
                    <Icon id="2833">
                        <href>http://maps.google.com/mapfiles/kml/pushpin/ylw-pushpin.png</href>
                    </Icon>
                </IconStyle>
            </Style>
            <Style id="2836">
                <IconStyle id="2837">
                    <color>ff0000ff</color>
                    <colorMode>normal</colorMode>
                    <scale>1</scale>
                    <heading>0</heading>
                    <Icon id="2838">
                        <href>http://maps.google.com/mapfiles/kml/pushpin/ylw-pushpin.png</href>
                    </Icon>
                </IconStyle>
            </Style>
            <Style id="2841">
                <IconStyle id="2842">
                    <color>ff0000ff</color>
                    <colorMode>normal</colorMode>
                    <scale>1</scale>
                    <heading>0</heading>
                    <Icon id="2843">
                        <href>http://maps.google.com/mapfiles/kml/pushpin/ylw-pushpin.png</href>
                    </Icon>
                </IconStyle>
            </Style>
            <Style id="2846">
                <IconStyle id="2847">
                    <color>ff0000ff</color>
                    <colorMode>normal</colorMode>
                    <scale>1</scale>
                    <heading>0</heading>
                    <Icon id="2848">
                        <href>http://maps.google.com/mapfiles/kml/pushpin/ylw-pushpin.png</href>
                    </Icon>
                </IconStyle>
            </Style>
            <Style id="2851">
                <IconStyle id="2852">
                    <color>ff0000ff</color>
                    <colorMode>normal</colorMode>
                    <scale>1</scale>
                    <heading>0</heading>
                    <Icon id="2853">
                        <href>http://maps.google.com/mapfiles/kml/pushpin/ylw-pushpin.png</href>
                    </Icon>
                </IconStyle>
            </Style>
            <Style id="2856">
                <IconStyle id="2857">
                    <color>ff0000ff</color>
                    <colorMode>normal</colorMode>
                    <scale>1</scale>
                    <heading>0</heading>
                    <Icon id="2858">
                        <href>http://maps.google.com/mapfiles/kml/pushpin/ylw-pushpin.png</href>
                    </Icon>
                </IconStyle>
            </Style>
            <Style id="2861">
                <IconStyle id="2862">
                    <color>ff0000ff</color>
                    <colorMode>normal</colorMode>
                    <scale>1</scale>
                    <heading>0</heading>
                    <Icon id="2863">
                        <href>http://maps.google.com/mapfiles/kml/pushpin/ylw-pushpin.png</href>
                    </Icon>
                </IconStyle>
            </Style>
            <Style id="2866">
                <IconStyle id="2867">
                    <color>ff0000ff</color>
                    <colorMode>normal</colorMode>
                    <scale>1</scale>
                    <heading>0</heading>
                    <Icon id="2868">
                        <href>http://maps.google.com/mapfiles/kml/pushpin/ylw-pushpin.png</href>
                    </Icon>
                </IconStyle>
            </Style>
            <Style id="2871">
                <IconStyle id="2872">
                    <color>ff0000ff</color>
                    <colorMode>normal</colorMode>
                    <scale>1</scale>
                    <heading>0</heading>
                    <Icon id="2873">
                        <href>http://maps.google.com/mapfiles/kml/pushpin/ylw-pushpin.png</href>
                    </Icon>
                </IconStyle>
            </Style>
            <Style id="2876">
                <IconStyle id="2877">
                    <color>ff0000ff</color>
                    <colorMode>normal</colorMode>
                    <scale>1</scale>
                    <heading>0</heading>
                    <Icon id="2878">
                        <href>http://maps.google.com/mapfiles/kml/pushpin/ylw-pushpin.png</href>
                    </Icon>
                </IconStyle>
            </Style>
            <Style id="2881">
                <IconStyle id="2882">
                    <color>ff0000ff</color>
                    <colorMode>normal</colorMode>
                    <scale>1</scale>
                    <heading>0</heading>
                    <Icon id="2883">
                        <href>http://maps.google.com/mapfiles/kml/pushpin/ylw-pushpin.png</href>
                    </Icon>
                </IconStyle>
            </Style>
            <Style id="2886">
                <IconStyle id="2887">
                    <color>ff0000ff</color>
                    <colorMode>normal</colorMode>
                    <scale>1</scale>
                    <heading>0</heading>
                    <Icon id="2888">
                        <href>http://maps.google.com/mapfiles/kml/pushpin/ylw-pushpin.png</href>
                    </Icon>
                </IconStyle>
            </Style>
            <Style id="2891">
                <IconStyle id="2892">
                    <color>ff0000ff</color>
                    <colorMode>normal</colorMode>
                    <scale>1</scale>
                    <heading>0</heading>
                    <Icon id="2893">
                        <href>http://maps.google.com/mapfiles/kml/pushpin/ylw-pushpin.png</href>
                    </Icon>
                </IconStyle>
            </Style>
            <name>JAIRO JOSUE GONZALES GUERRERO</name>
            <Placemark id="2740">
                <name>LILIABETH MARBELY INFANTES CAMACHO</name>
                <description>Av.principal #300 frente al parque de cabuyal
Pampas de Hospital
Tumbes
Tumbes
Perú</description>
                <styleUrl>#2741</styleUrl>
                <Point id="2739">
                    <coordinates>-80.4362053,-3.7162413,0.0</coordinates>
                </Point>
            </Placemark>
            <Placemark id="2745">
                <name>JOSSDY MARIA RAMIREZ MARCHAN</name>
                <description>Jirón Piura- referencia del club sport pampas - pampas de hospital



Perú</description>
                <styleUrl>#2746</styleUrl>
                <Point id="2744">
                    <coordinates>-80.4396547,-3.6921368,0.0</coordinates>
                </Point>
            </Placemark>
            <Placemark id="2750">
                <name>MARIA ISABEL BALLADARES OLAYA</name>
                <description>AV principal garvanzal Ref pequeño parque infantil
Pampas de Hospital
Tumbes
Tumbes
Perú</description>
                <styleUrl>#2751</styleUrl>
                <Point id="2749">
                    <coordinates>-80.436493,-3.6079559,0.0</coordinates>
                </Point>
            </Placemark>
            <Placemark id="2755">
                <name>AMABILIA MORAN LUPU</name>
                <description>JR POZO ELEVADO 211 - garbanzal
San Juan de la Virgen
Zarumilla
Tumbes
Perú</description>
                <styleUrl>#2756</styleUrl>
                <Point id="2754">
                    <coordinates>-80.4335687,-3.6108416,0.0</coordinates>
                </Point>
            </Placemark>
            <Placemark id="2760">
                <name>YENNYFER MISHELL SIMBALA BENITES</name>
                <description>Calle andres arqujo San juan
San Juan de la Virgen
Tumbes
Tumbes
Perú</description>
                <styleUrl>#2761</styleUrl>
                <Point id="2759">
                    <coordinates>-80.4322859,-3.6254521,0.0</coordinates>
                </Point>
            </Placemark>
            <Placemark id="2765">
                <name>NELSON HECTOR MANCHEGO FLORES</name>
                <description>Andrés Araujo Moran #132 antes de puente mano izquierda 2da cuadra
Pampas de Hospital
Tumbes
Tumbes
Perú</description>
                <styleUrl>#2766</styleUrl>
                <Point id="2764">
                    <coordinates>-80.4329492,-3.6257356,0.0</coordinates>
                </Point>
            </Placemark>
            <Placemark id="2770">
                <name>MERCY FLOR VILLALTA MORAN</name>
                <description>Urb Andrés Araujo MZ B LT 3 REF frente colegio Coar
Pampas de Hospital
Tumbes
Tumbes
Perú</description>
                <styleUrl>#2771</styleUrl>
                <Point id="2769">
                    <coordinates>-80.4282888,-3.6256987,0.0</coordinates>
                </Point>
            </Placemark>
            <Placemark id="2775">
                <name>ALVARADO TALLEDO MARGALENA</name>
                <description>ALVARADO TALLEDO MARGALENA
JR.HILARIO CARRASC 127


Tumbes
Perú</description>
                <styleUrl>#2776</styleUrl>
                <Point id="2774">
                    <coordinates>-80.425938,-3.652072,0.0</coordinates>
                </Point>
            </Placemark>
            <Placemark id="2780">
                <name>SORALINDA TORRES LLACSAHUANGA</name>
                <description>Calle Hilario carrasco #120 frente a la caseta de cerro Blanco
San Juan de la Virgen
Tumbes
Tumbes
Perú</description>
                <styleUrl>#2781</styleUrl>
                <Point id="2779">
                    <coordinates>-80.4252867,-3.6520108,0.0</coordinates>
                </Point>
            </Placemark>
            <Placemark id="2785">
                <name>ELIZALDE VILELA SALOMON</name>
                <description>ELIZALDE VILELA SALOMON
CA.HILARIO CARRASCO S/N CERRO


Tumbes
Perú</description>
                <styleUrl>#2786</styleUrl>
                <Point id="2784">
                    <coordinates>-80.426324,-3.653552,0.0</coordinates>
                </Point>
            </Placemark>
            <Placemark id="2790">
                <name>JUAN ANGEL DANIEL CEDILLO INFANTE</name>
                <description>Andrés Araujo 217 - 710 cerro blanco



Perú</description>
                <styleUrl>#2791</styleUrl>
                <Point id="2789">
                    <coordinates>-80.4261133,-3.6550789,0.0</coordinates>
                </Point>
            </Placemark>
            <Placemark id="2795">
                <name>MABELY LIZET PRECIADO BALLADARES</name>
                <description>Pasaje antena s/b pampa de hospital - tumbes - cabuyal


Tumbes
Perú</description>
                <styleUrl>#2796</styleUrl>
                <Point id="2794">
                    <coordinates>-80.4367257,-3.7169568,0.0</coordinates>
                </Point>
            </Placemark>
            <Placemark id="2800">
                <name>Maricela García García</name>
                <description>Av.principal s/n espaldas de iglesia carretera a la quebrada portón azul
Pampas de Hospital
Tumbes
Tumbes
Perú</description>
                <styleUrl>#2801</styleUrl>
                <Point id="2799">
                    <coordinates>-80.4343096,-3.7160297,0.0</coordinates>
                </Point>
            </Placemark>
            <Placemark id="2805">
                <name>LILIABETH MARBELY INFANTES CAMACHO</name>
                <description>Av.principal #300 frente al parque de cabuyal
Pampas de Hospital
Tumbes
Tumbes
Perú</description>
                <styleUrl>#2806</styleUrl>
                <Point id="2804">
                    <coordinates>-80.4362053,-3.7162413,0.0</coordinates>
                </Point>
            </Placemark>
            <Placemark id="2810">
                <name>CLARITA PARDO REYES</name>
                <description>Cabuyal referencia al frente colegio 035 Horacio Zevallos



Perú</description>
                <styleUrl>#2811</styleUrl>
                <Point id="2809">
                    <coordinates>-80.440857,-3.7162124,0.0</coordinates>
                </Point>
            </Placemark>
            <Placemark id="2815">
                <name>JOSELITO GELIN RAMIREZ ZAPATA</name>
                <description>Av Alipio Rosales ref frente al colegio Alipio rosales
Pampas de Hospital
Tumbes
Tumbes
Perú</description>
                <styleUrl>#2816</styleUrl>
                <Point id="2814">
                    <coordinates>-80.4362508,-3.6976656,0.0</coordinates>
                </Point>
            </Placemark>
            <Placemark id="2820">
                <name>MILAGRITOS JAQUELINE MOGOLLON PRECIADO</name>
                <description>Calle Alipio rosales #422 frente al parque infantil
Pampas de Hospital
Tumbes
Tumbes
Perú</description>
                <styleUrl>#2821</styleUrl>
                <Point id="2819">
                    <coordinates>-80.4377297,-3.6952198,0.0</coordinates>
                </Point>
            </Placemark>
            <Placemark id="2825">
                <name>YERICKA MELISSA RUJEL MARCHAN</name>
                <description>Av alipio pampas de hospital refe frente al jardín mi dulce hogar
Pampas de Hospital

Tumbes
Perú</description>
                <styleUrl>#2826</styleUrl>
                <Point id="2824">
                    <coordinates>-80.438445,-3.6932545,0.0</coordinates>
                </Point>
            </Placemark>
            <Placemark id="2830">
                <name>FRANCO EMANUEL PEÑA ROSAS</name>
                <description>Av.piura s/n MINIMARKET espaldas de iglesia de pampas
Pampas de Hospital
Tumbes
Tumbes
Perú</description>
                <styleUrl>#2831</styleUrl>
                <Point id="2829">
                    <coordinates>-80.4397045,-3.6929344,0.0</coordinates>
                </Point>
            </Placemark>
            <Placemark id="2835">
                <name>DEMETRIO CORNEJO LUNA</name>
                <description>Calle principal s/ncostado de municipalidad de casa blanqueada cerca al parq
Tumbes
Tumbes
Tumbes
Perú</description>
                <styleUrl>#2836</styleUrl>
                <Point id="2834">
                    <coordinates>-80.4538448,-3.7379462,0.0</coordinates>
                </Point>
            </Placemark>
            <Placemark id="2840">
                <name>PAULA ORTIZ VALENCIA</name>
                <description>Av.principal s/n frente al parque de casa blanqueada
San Jacinto
Tumbes
Tumbes
Perú</description>
                <styleUrl>#2841</styleUrl>
                <Point id="2839">
                    <coordinates>-80.4535971,-3.7370443,0.0</coordinates>
                </Point>
            </Placemark>
            <Placemark id="2845">
                <name>LIBORIA TINEO SANTOS</name>
                <description>Jirón Túpac Amaru #106 saliendo de vaquería venta de gasolina
San Jacinto
Tumbes
Tumbes
Perú</description>
                <styleUrl>#2846</styleUrl>
                <Point id="2844">
                    <coordinates>-80.452551,-3.7066768,0.0</coordinates>
                </Point>
            </Placemark>
            <Placemark id="2850">
                <name>AMABEL BETTY MORALES DELGADO</name>
                <description>Calle principal #145 entrada de la peña casa de rejas blancas
Tumbes
Tumbes
Tumbes
Perú</description>
                <styleUrl>#2851</styleUrl>
                <Point id="2849">
                    <coordinates>-80.4496827,-3.6677448,0.0</coordinates>
                </Point>
            </Placemark>
            <Placemark id="2855">
                <name>IVANA JACKELINE PEÑA SANDOVAL</name>
                <description>Av Miguel Grau 104
San Jacinto
Tumbes
Tumbes
Perú</description>
                <styleUrl>#2856</styleUrl>
                <Point id="2854">
                    <coordinates>-80.4501419,-3.6436271,0.0</coordinates>
                </Point>
            </Placemark>
            <Placemark id="2860">
                <name>MARITZA SERNA CABRERA</name>
                <description>Calle Horacio Patiño #608 antes de plataforma sintética San jacinto
San Jacinto
Tumbes
Tumbes
Perú</description>
                <styleUrl>#2861</styleUrl>
                <Point id="2859">
                    <coordinates>-80.4457388,-3.6413078,0.0</coordinates>
                </Point>
            </Placemark>
            <Placemark id="2865">
                <name>DIOS MORAN CHARITO</name>
                <description>JR.J.A.QUIÑONES SN SAN JACINTO


Tumbes
Perú</description>
                <styleUrl>#2866</styleUrl>
                <Point id="2864">
                    <coordinates>-80.447731,-3.643563,0.0</coordinates>
                </Point>
            </Placemark>
            <Placemark id="2870">
                <name>JULIA REYES CORNEJO</name>
                <description>Calle Francisco Bolognesi #219 costado de canchon casa azul rejas blancas
San Jacinto
Tumbes
Tumbes
Perú</description>
                <styleUrl>#2871</styleUrl>
                <Point id="2869">
                    <coordinates>-80.4480498,-3.6402611,0.0</coordinates>
                </Point>
            </Placemark>
            <Placemark id="2875">
                <name>LADY ENODIA BACA DE LOPEZ</name>
                <description>Av. Jirón la iglesia mz4 lote 5 cristales corrales
Corrales
Tumbes
Tumbes
Perú</description>
                <styleUrl>#2876</styleUrl>
                <Point id="2874">
                    <coordinates>-80.4622523,-3.6319329,0.0</coordinates>
                </Point>
            </Placemark>
            <Placemark id="2880">
                <name>CARMEN CASTILLO RAMIREZ</name>
                <description>Av principal JR plaza de armas ref frente cancha loza deportiva - malval
Tumbes
Tumbes
Tumbes
Perú</description>
                <styleUrl>#2881</styleUrl>
                <Point id="2879">
                    <coordinates>-80.4676283,-3.623638,0.0</coordinates>
                </Point>
            </Placemark>
            <Placemark id="2885">
                <name>TINOCO VINCES ELICIA</name>
                <description>Calle San Pedro sin número frente la parque  San Francisco Corrales
Corrales
Tumbes
Tumbes
Perú</description>
                <styleUrl>#2886</styleUrl>
                <Point id="2884">
                    <coordinates>-80.4710744,-3.6147781,0.0</coordinates>
                </Point>
            </Placemark>
            <Placemark id="2890">
                <name>HERRERA BARRERA CARMEN GLORIA</name>
                <description>HERRERA BARRERA CARMEN GLORIA
San Francisco
San Jacinto
Tumbes
Tumbes
Perú</description>
                <styleUrl>#2891</styleUrl>
                <Point id="2889">
                    <coordinates>-80.4734664,-3.614916,0.0</coordinates>
                </Point>
            </Placemark>
        </Folder>
        <Folder id="2894">
            <Style id="2897">
                <IconStyle id="2898">
                    <color>ffff0000</color>
                    <colorMode>normal</colorMode>
                    <scale>1</scale>
                    <heading>0</heading>
                    <Icon id="2899">
                        <href>http://maps.google.com/mapfiles/kml/pushpin/ylw-pushpin.png</href>
                    </Icon>
                </IconStyle>
            </Style>
            <Style id="2902">
                <IconStyle id="2903">
                    <color>ffff0000</color>
                    <colorMode>normal</colorMode>
                    <scale>1</scale>
                    <heading>0</heading>
                    <Icon id="2904">
                        <href>http://maps.google.com/mapfiles/kml/pushpin/ylw-pushpin.png</href>
                    </Icon>
                </IconStyle>
            </Style>
            <Style id="2907">
                <IconStyle id="2908">
                    <color>ffff0000</color>
                    <colorMode>normal</colorMode>
                    <scale>1</scale>
                    <heading>0</heading>
                    <Icon id="2909">
                        <href>http://maps.google.com/mapfiles/kml/pushpin/ylw-pushpin.png</href>
                    </Icon>
                </IconStyle>
            </Style>
            <Style id="2912">
                <IconStyle id="2913">
                    <color>ffff0000</color>
                    <colorMode>normal</colorMode>
                    <scale>1</scale>
                    <heading>0</heading>
                    <Icon id="2914">
                        <href>http://maps.google.com/mapfiles/kml/pushpin/ylw-pushpin.png</href>
                    </Icon>
                </IconStyle>
            </Style>
            <Style id="2917">
                <IconStyle id="2918">
                    <color>ffff0000</color>
                    <colorMode>normal</colorMode>
                    <scale>1</scale>
                    <heading>0</heading>
                    <Icon id="2919">
                        <href>http://maps.google.com/mapfiles/kml/pushpin/ylw-pushpin.png</href>
                    </Icon>
                </IconStyle>
            </Style>
            <Style id="2922">
                <IconStyle id="2923">
                    <color>ffff0000</color>
                    <colorMode>normal</colorMode>
                    <scale>1</scale>
                    <heading>0</heading>
                    <Icon id="2924">
                        <href>http://maps.google.com/mapfiles/kml/pushpin/ylw-pushpin.png</href>
                    </Icon>
                </IconStyle>
            </Style>
            <Style id="2927">
                <IconStyle id="2928">
                    <color>ffff0000</color>
                    <colorMode>normal</colorMode>
                    <scale>1</scale>
                    <heading>0</heading>
                    <Icon id="2929">
                        <href>http://maps.google.com/mapfiles/kml/pushpin/ylw-pushpin.png</href>
                    </Icon>
                </IconStyle>
            </Style>
            <Style id="2932">
                <IconStyle id="2933">
                    <color>ffff0000</color>
                    <colorMode>normal</colorMode>
                    <scale>1</scale>
                    <heading>0</heading>
                    <Icon id="2934">
                        <href>http://maps.google.com/mapfiles/kml/pushpin/ylw-pushpin.png</href>
                    </Icon>
                </IconStyle>
            </Style>
            <Style id="2937">
                <IconStyle id="2938">
                    <color>ffff0000</color>
                    <colorMode>normal</colorMode>
                    <scale>1</scale>
                    <heading>0</heading>
                    <Icon id="2939">
                        <href>http://maps.google.com/mapfiles/kml/pushpin/ylw-pushpin.png</href>
                    </Icon>
                </IconStyle>
            </Style>
            <Style id="2942">
                <IconStyle id="2943">
                    <color>ffff0000</color>
                    <colorMode>normal</colorMode>
                    <scale>1</scale>
                    <heading>0</heading>
                    <Icon id="2944">
                        <href>http://maps.google.com/mapfiles/kml/pushpin/ylw-pushpin.png</href>
                    </Icon>
                </IconStyle>
            </Style>
            <Style id="2947">
                <IconStyle id="2948">
                    <color>ffff0000</color>
                    <colorMode>normal</colorMode>
                    <scale>1</scale>
                    <heading>0</heading>
                    <Icon id="2949">
                        <href>http://maps.google.com/mapfiles/kml/pushpin/ylw-pushpin.png</href>
                    </Icon>
                </IconStyle>
            </Style>
            <Style id="2952">
                <IconStyle id="2953">
                    <color>ffff0000</color>
                    <colorMode>normal</colorMode>
                    <scale>1</scale>
                    <heading>0</heading>
                    <Icon id="2954">
                        <href>http://maps.google.com/mapfiles/kml/pushpin/ylw-pushpin.png</href>
                    </Icon>
                </IconStyle>
            </Style>
            <Style id="2957">
                <IconStyle id="2958">
                    <color>ffff0000</color>
                    <colorMode>normal</colorMode>
                    <scale>1</scale>
                    <heading>0</heading>
                    <Icon id="2959">
                        <href>http://maps.google.com/mapfiles/kml/pushpin/ylw-pushpin.png</href>
                    </Icon>
                </IconStyle>
            </Style>
            <Style id="2962">
                <IconStyle id="2963">
                    <color>ffff0000</color>
                    <colorMode>normal</colorMode>
                    <scale>1</scale>
                    <heading>0</heading>
                    <Icon id="2964">
                        <href>http://maps.google.com/mapfiles/kml/pushpin/ylw-pushpin.png</href>
                    </Icon>
                </IconStyle>
            </Style>
            <Style id="2967">
                <IconStyle id="2968">
                    <color>ffff0000</color>
                    <colorMode>normal</colorMode>
                    <scale>1</scale>
                    <heading>0</heading>
                    <Icon id="2969">
                        <href>http://maps.google.com/mapfiles/kml/pushpin/ylw-pushpin.png</href>
                    </Icon>
                </IconStyle>
            </Style>
            <Style id="2972">
                <IconStyle id="2973">
                    <color>ffff0000</color>
                    <colorMode>normal</colorMode>
                    <scale>1</scale>
                    <heading>0</heading>
                    <Icon id="2974">
                        <href>http://maps.google.com/mapfiles/kml/pushpin/ylw-pushpin.png</href>
                    </Icon>
                </IconStyle>
            </Style>
            <Style id="2977">
                <IconStyle id="2978">
                    <color>ffff0000</color>
                    <colorMode>normal</colorMode>
                    <scale>1</scale>
                    <heading>0</heading>
                    <Icon id="2979">
                        <href>http://maps.google.com/mapfiles/kml/pushpin/ylw-pushpin.png</href>
                    </Icon>
                </IconStyle>
            </Style>
            <Style id="2982">
                <IconStyle id="2983">
                    <color>ffff0000</color>
                    <colorMode>normal</colorMode>
                    <scale>1</scale>
                    <heading>0</heading>
                    <Icon id="2984">
                        <href>http://maps.google.com/mapfiles/kml/pushpin/ylw-pushpin.png</href>
                    </Icon>
                </IconStyle>
            </Style>
            <Style id="2987">
                <IconStyle id="2988">
                    <color>ffff0000</color>
                    <colorMode>normal</colorMode>
                    <scale>1</scale>
                    <heading>0</heading>
                    <Icon id="2989">
                        <href>http://maps.google.com/mapfiles/kml/pushpin/ylw-pushpin.png</href>
                    </Icon>
                </IconStyle>
            </Style>
            <Style id="2992">
                <IconStyle id="2993">
                    <color>ffff0000</color>
                    <colorMode>normal</colorMode>
                    <scale>1</scale>
                    <heading>0</heading>
                    <Icon id="2994">
                        <href>http://maps.google.com/mapfiles/kml/pushpin/ylw-pushpin.png</href>
                    </Icon>
                </IconStyle>
            </Style>
            <Style id="2997">
                <IconStyle id="2998">
                    <color>ffff0000</color>
                    <colorMode>normal</colorMode>
                    <scale>1</scale>
                    <heading>0</heading>
                    <Icon id="2999">
                        <href>http://maps.google.com/mapfiles/kml/pushpin/ylw-pushpin.png</href>
                    </Icon>
                </IconStyle>
            </Style>
            <Style id="3002">
                <IconStyle id="3003">
                    <color>ffff0000</color>
                    <colorMode>normal</colorMode>
                    <scale>1</scale>
                    <heading>0</heading>
                    <Icon id="3004">
                        <href>http://maps.google.com/mapfiles/kml/pushpin/ylw-pushpin.png</href>
                    </Icon>
                </IconStyle>
            </Style>
            <Style id="3007">
                <IconStyle id="3008">
                    <color>ffff0000</color>
                    <colorMode>normal</colorMode>
                    <scale>1</scale>
                    <heading>0</heading>
                    <Icon id="3009">
                        <href>http://maps.google.com/mapfiles/kml/pushpin/ylw-pushpin.png</href>
                    </Icon>
                </IconStyle>
            </Style>
            <Style id="3012">
                <IconStyle id="3013">
                    <color>ffff0000</color>
                    <colorMode>normal</colorMode>
                    <scale>1</scale>
                    <heading>0</heading>
                    <Icon id="3014">
                        <href>http://maps.google.com/mapfiles/kml/pushpin/ylw-pushpin.png</href>
                    </Icon>
                </IconStyle>
            </Style>
            <Style id="3017">
                <IconStyle id="3018">
                    <color>ffff0000</color>
                    <colorMode>normal</colorMode>
                    <scale>1</scale>
                    <heading>0</heading>
                    <Icon id="3019">
                        <href>http://maps.google.com/mapfiles/kml/pushpin/ylw-pushpin.png</href>
                    </Icon>
                </IconStyle>
            </Style>
            <Style id="3022">
                <IconStyle id="3023">
                    <color>ffff0000</color>
                    <colorMode>normal</colorMode>
                    <scale>1</scale>
                    <heading>0</heading>
                    <Icon id="3024">
                        <href>http://maps.google.com/mapfiles/kml/pushpin/ylw-pushpin.png</href>
                    </Icon>
                </IconStyle>
            </Style>
            <name>MARIO ALBERTO QUINTANA SANDOVAL</name>
            <Placemark id="2896">
                <name>NEGOCIACIONES, INVERSIONES Y SERVICIOS GENERALES K &amp; L EMPRESA INDIVIDUAL DE RESPONSABILIDAD LIMITAD</name>
                <description>NEGOCIACIONES, INVERSIONES Y SERVICIOS GENERALES K &amp; L EMPRESA INDIVIDUAL DE RESPONSABILIDAD LIMITAD
CAL.TACNA NRO. 390 URB. CERCADO
Tumbes
240101Tumbes
Tumbes
Perú</description>
                <styleUrl>#2897</styleUrl>
                <Point id="2895">
                    <coordinates>-80.458881,-3.5669163,0.0</coordinates>
                </Point>
            </Placemark>
            <Placemark id="2901">
                <name>GARCIA AGUIRRE MARCO ANTONIO</name>
                <description>GARCIA AGUIRRE MARCO ANTONIO
Calle Bolognesi 301 - centro de tumbes
Tumbes
Tumbes
Tumbes
Perú</description>
                <styleUrl>#2902</styleUrl>
                <Point id="2900">
                    <coordinates>-80.4579149,-3.569762,0.0</coordinates>
                </Point>
            </Placemark>
            <Placemark id="2906">
                <name>MIRIA MEDINA DIOS</name>
                <description>Av  piura 501 - tumbes 
Tumbes
24520Tumbes
Tumbes
Perú</description>
                <styleUrl>#2907</styleUrl>
                <Point id="2905">
                    <coordinates>-80.4591163,-3.5686254,0.0</coordinates>
                </Point>
            </Placemark>
            <Placemark id="2911">
                <name>KATHERY SHIRLEY IZQUIERDO GONZALES</name>
                <description>Puesto 46 -  int.  mercado modelo - tumbes
Tumbes
Tumbes
Tumbes
Perú</description>
                <styleUrl>#2912</styleUrl>
                <Point id="2910">
                    <coordinates>-80.4557241,-3.5706388,0.0</coordinates>
                </Point>
            </Placemark>
            <Placemark id="2916">
                <name>RAUL MORE VASQUEZ</name>
                <description>Av. Piura 1335  interior D mercado de tumbes
Tumbes
24520Tumbes
Tumbes
Perú</description>
                <styleUrl>#2917</styleUrl>
                <Point id="2915">
                    <coordinates>-80.4546264,-3.5708904,0.0</coordinates>
                </Point>
            </Placemark>
            <Placemark id="2921">
                <name>CESAR AUGUSTO ADRIANZEN CHINGEL</name>
                <description>Exterior del mercado
Tumbes
Tumbes
Tumbes
Perú</description>
                <styleUrl>#2922</styleUrl>
                <Point id="2920">
                    <coordinates>-80.4548359,-3.5706904,0.0</coordinates>
                </Point>
            </Placemark>
            <Placemark id="2926">
                <name>RAUL MORE VASQUEZ</name>
                <description>Av. Piura 1335  interior D mercado de tumbes
Tumbes
24520Tumbes
Tumbes
Perú</description>
                <styleUrl>#2927</styleUrl>
                <Point id="2925">
                    <coordinates>-80.4546264,-3.5708904,0.0</coordinates>
                </Point>
            </Placemark>
            <Placemark id="2931">
                <name>CLAVIJO IMAN VIANNEY</name>
                <description>CLAVIJO IMAN VIANNEY
JR.ALFONSO UGARTE 432


Tumbes
Perú</description>
                <styleUrl>#2932</styleUrl>
                <Point id="2930">
                    <coordinates>-80.455923,-3.572223,0.0</coordinates>
                </Point>
            </Placemark>
            <Placemark id="2936">
                <name>MARIBEL RIVAS FARIAS</name>
                <description>Calle pilar nores s/n barrio san jose rf frente a mecanico primo
Tumbes

Tumbes
Perú</description>
                <styleUrl>#2937</styleUrl>
                <Point id="2935">
                    <coordinates>-80.459544,-3.559482,0.0</coordinates>
                </Point>
            </Placemark>
            <Placemark id="2941">
                <name>MARIBELI MARGOT FERNANDEZ SOSA</name>
                <description>Av. Alfonso Ugarte 430  AAHH El milagro
Tumbes
24520Tumbes
Tumbes
Perú</description>
                <styleUrl>#2942</styleUrl>
                <Point id="2940">
                    <coordinates>-80.4559321,-3.5721884,0.0</coordinates>
                </Point>
            </Placemark>
            <Placemark id="2946">
                <name>KEYLA SARAI PRADO ZARATE</name>
                <description>Francisco Ibáñez 256 buenos aires tumbes( referencia frente a la puerta del nuevo pasaje pescado)
Tumbes
24520Tumbes
Tumbes
Perú</description>
                <styleUrl>#2947</styleUrl>
                <Point id="2945">
                    <coordinates>-80.4552389,-3.5714895,0.0</coordinates>
                </Point>
            </Placemark>
            <Placemark id="2951">
                <name>KAREN VANESSA MARCHAN PRADO</name>
                <description>Calle Fonavi bloque 4 B23
Tumbes
Tumbes
Tumbes
Perú</description>
                <styleUrl>#2952</styleUrl>
                <Point id="2950">
                    <coordinates>-80.4565575,-3.5598924,0.0</coordinates>
                </Point>
            </Placemark>
            <Placemark id="2956">
                <name>MIRIA MEDINA DIOS</name>
                <description>Av  piura 501 - tumbes 
Tumbes
24520Tumbes
Tumbes
Perú</description>
                <styleUrl>#2957</styleUrl>
                <Point id="2955">
                    <coordinates>-80.4591163,-3.5686254,0.0</coordinates>
                </Point>
            </Placemark>
            <Placemark id="2961">
                <name>AYLIN DANEISI NOEL LABRIN</name>
                <description>Calle Jorge herrera 127 - San José
Tumbes
Tumbes
Tumbes
Perú</description>
                <styleUrl>#2962</styleUrl>
                <Point id="2960">
                    <coordinates>-80.4572546,-3.5640607,0.0</coordinates>
                </Point>
            </Placemark>
            <Placemark id="2966">
                <name>ROSA MARIBEL LOPEZ CLAVIJO</name>
                <description>Calle Jorge Herrera 129 - san José
Tumbes
Tumbes
Tumbes
Perú</description>
                <styleUrl>#2967</styleUrl>
                <Point id="2965">
                    <coordinates>-80.4574947,-3.5641927,0.0</coordinates>
                </Point>
            </Placemark>
            <Placemark id="2971">
                <name>MARIA ELENA CELI VALDIVIEZO</name>
                <description>Calle Jorge herrera 109 - san José
Tumbes
Tumbes
Tumbes
Perú</description>
                <styleUrl>#2972</styleUrl>
                <Point id="2970">
                    <coordinates>-80.4575705,-3.5645503,0.0</coordinates>
                </Point>
            </Placemark>
            <Placemark id="2976">
                <name>SEGUNDA ELIZABETH PINZON CANALES</name>
                <description>Prol arica s/n Chopen plaza costado de coliseo alberto terranova barrio san jose tumbes
Tumbes

Tumbes
Perú</description>
                <styleUrl>#2977</styleUrl>
                <Point id="2975">
                    <coordinates>-80.4552639,-3.560092,0.0</coordinates>
                </Point>
            </Placemark>
            <Placemark id="2981">
                <name>IRMA EUFEMIA PINZON LOLLAGA</name>
                <description>Calle  Tarapaca MZ b Lote 18

Tumbes 24 
</description>
                <styleUrl>#2982</styleUrl>
                <Point id="2980">
                    <coordinates>-80.46007,-3.569772,0.0</coordinates>
                </Point>
            </Placemark>
            <Placemark id="2986">
                <name>Oscar davila chavez</name>
                <description>Calle zarumilla #230 recta de la comisaria san jose frente a la sra chavez viguera
Tumbes

Tumbes
Perú</description>
                <styleUrl>#2987</styleUrl>
                <Point id="2985">
                    <coordinates>-80.4601397,-3.5628659,0.0</coordinates>
                </Point>
            </Placemark>
            <Placemark id="2991">
                <name>COLLAZOS VARGAS KAHLIXTO GIBRAN</name>
                <description>COLLAZOS VARGAS KAHLIXTO GIBRAN
Prolongación delicias 613 - barrio San José
Tumbes
Tumbes
Tumbes
Perú</description>
                <styleUrl>#2992</styleUrl>
                <Point id="2990">
                    <coordinates>-80.4576085,-3.5599225,0.0</coordinates>
                </Point>
            </Placemark>
            <Placemark id="2996">
                <name>MARTHA FARIAS MORAN</name>
                <description>La Tarata 373 san José tumbes
Tumbes
Tumbes
Tumbes
Perú</description>
                <styleUrl>#2997</styleUrl>
                <Point id="2995">
                    <coordinates>-80.4585505,-3.5619919,0.0</coordinates>
                </Point>
            </Placemark>
            <Placemark id="3001">
                <name>CLARA BRISAYDA CHAVEZ VIGUERAS</name>
                <description>Calle zarumilla 318 - san José
Tumbes
Tumbes
Tumbes
Perú</description>
                <styleUrl>#3002</styleUrl>
                <Point id="3000">
                    <coordinates>-80.4597343,-3.5625229,0.0</coordinates>
                </Point>
            </Placemark>
            <Placemark id="3006">
                <name>NEYDA JESUS RUEDA OLAYA</name>
                <description>Prol zarumilla mzd lt 13 por rst el rustico zarumilla
Tumbes

Tumbes
Perú</description>
                <styleUrl>#3007</styleUrl>
                <Point id="3005">
                    <coordinates>-80.4625988,-3.5658854,0.0</coordinates>
                </Point>
            </Placemark>
            <Placemark id="3011">
                <name>DOLORES ANDINA HERRERA DE RIOS</name>
                <description>avenida Arica 109 barrio San José tumbes
Tumbes
24520Tumbes
Tumbes
Perú</description>
                <styleUrl>#3012</styleUrl>
                <Point id="3010">
                    <coordinates>-80.460168,-3.5674954,0.0</coordinates>
                </Point>
            </Placemark>
            <Placemark id="3016">
                <name>ALICIA CONSUELO MARCHAN DE RUESTA</name>
                <description>Av Arica 239 - tumbes misma recta de chalon barrio san jose
Tumbes
24520Tumbes
Tumbes
Perú</description>
                <styleUrl>#3017</styleUrl>
                <Point id="3015">
                    <coordinates>-80.4589362,-3.5655692,0.0</coordinates>
                </Point>
            </Placemark>
            <Placemark id="3021">
                <name>SOTO MORETTY YAMILE SOFIA</name>
                <description>SOTO MORETTY YAMILE SOFIA
Abad puell barrio san jose tumbes referencia costado de pasteleria  Pilitas
Tumbes
Tumbes
Tumbes
Perú</description>
                <styleUrl>#3022</styleUrl>
                <Point id="3020">
                    <coordinates>-80.4607676,-3.5653056,0.0</coordinates>
                </Point>
            </Placemark>
        </Folder>
        <Folder id="3025">
            <Style id="3028">
                <IconStyle id="3029">
                    <color>ff008000</color>
                    <colorMode>normal</colorMode>
                    <scale>1</scale>
                    <heading>0</heading>
                    <Icon id="3030">
                        <href>http://maps.google.com/mapfiles/kml/pushpin/ylw-pushpin.png</href>
                    </Icon>
                </IconStyle>
            </Style>
            <Style id="3033">
                <IconStyle id="3034">
                    <color>ff008000</color>
                    <colorMode>normal</colorMode>
                    <scale>1</scale>
                    <heading>0</heading>
                    <Icon id="3035">
                        <href>http://maps.google.com/mapfiles/kml/pushpin/ylw-pushpin.png</href>
                    </Icon>
                </IconStyle>
            </Style>
            <Style id="3038">
                <IconStyle id="3039">
                    <color>ff008000</color>
                    <colorMode>normal</colorMode>
                    <scale>1</scale>
                    <heading>0</heading>
                    <Icon id="3040">
                        <href>http://maps.google.com/mapfiles/kml/pushpin/ylw-pushpin.png</href>
                    </Icon>
                </IconStyle>
            </Style>
            <Style id="3043">
                <IconStyle id="3044">
                    <color>ff008000</color>
                    <colorMode>normal</colorMode>
                    <scale>1</scale>
                    <heading>0</heading>
                    <Icon id="3045">
                        <href>http://maps.google.com/mapfiles/kml/pushpin/ylw-pushpin.png</href>
                    </Icon>
                </IconStyle>
            </Style>
            <Style id="3048">
                <IconStyle id="3049">
                    <color>ff008000</color>
                    <colorMode>normal</colorMode>
                    <scale>1</scale>
                    <heading>0</heading>
                    <Icon id="3050">
                        <href>http://maps.google.com/mapfiles/kml/pushpin/ylw-pushpin.png</href>
                    </Icon>
                </IconStyle>
            </Style>
            <Style id="3053">
                <IconStyle id="3054">
                    <color>ff008000</color>
                    <colorMode>normal</colorMode>
                    <scale>1</scale>
                    <heading>0</heading>
                    <Icon id="3055">
                        <href>http://maps.google.com/mapfiles/kml/pushpin/ylw-pushpin.png</href>
                    </Icon>
                </IconStyle>
            </Style>
            <Style id="3058">
                <IconStyle id="3059">
                    <color>ff008000</color>
                    <colorMode>normal</colorMode>
                    <scale>1</scale>
                    <heading>0</heading>
                    <Icon id="3060">
                        <href>http://maps.google.com/mapfiles/kml/pushpin/ylw-pushpin.png</href>
                    </Icon>
                </IconStyle>
            </Style>
            <Style id="3063">
                <IconStyle id="3064">
                    <color>ff008000</color>
                    <colorMode>normal</colorMode>
                    <scale>1</scale>
                    <heading>0</heading>
                    <Icon id="3065">
                        <href>http://maps.google.com/mapfiles/kml/pushpin/ylw-pushpin.png</href>
                    </Icon>
                </IconStyle>
            </Style>
            <Style id="3068">
                <IconStyle id="3069">
                    <color>ff008000</color>
                    <colorMode>normal</colorMode>
                    <scale>1</scale>
                    <heading>0</heading>
                    <Icon id="3070">
                        <href>http://maps.google.com/mapfiles/kml/pushpin/ylw-pushpin.png</href>
                    </Icon>
                </IconStyle>
            </Style>
            <Style id="3073">
                <IconStyle id="3074">
                    <color>ff008000</color>
                    <colorMode>normal</colorMode>
                    <scale>1</scale>
                    <heading>0</heading>
                    <Icon id="3075">
                        <href>http://maps.google.com/mapfiles/kml/pushpin/ylw-pushpin.png</href>
                    </Icon>
                </IconStyle>
            </Style>
            <Style id="3078">
                <IconStyle id="3079">
                    <color>ff008000</color>
                    <colorMode>normal</colorMode>
                    <scale>1</scale>
                    <heading>0</heading>
                    <Icon id="3080">
                        <href>http://maps.google.com/mapfiles/kml/pushpin/ylw-pushpin.png</href>
                    </Icon>
                </IconStyle>
            </Style>
            <Style id="3083">
                <IconStyle id="3084">
                    <color>ff008000</color>
                    <colorMode>normal</colorMode>
                    <scale>1</scale>
                    <heading>0</heading>
                    <Icon id="3085">
                        <href>http://maps.google.com/mapfiles/kml/pushpin/ylw-pushpin.png</href>
                    </Icon>
                </IconStyle>
            </Style>
            <Style id="3088">
                <IconStyle id="3089">
                    <color>ff008000</color>
                    <colorMode>normal</colorMode>
                    <scale>1</scale>
                    <heading>0</heading>
                    <Icon id="3090">
                        <href>http://maps.google.com/mapfiles/kml/pushpin/ylw-pushpin.png</href>
                    </Icon>
                </IconStyle>
            </Style>
            <Style id="3093">
                <IconStyle id="3094">
                    <color>ff008000</color>
                    <colorMode>normal</colorMode>
                    <scale>1</scale>
                    <heading>0</heading>
                    <Icon id="3095">
                        <href>http://maps.google.com/mapfiles/kml/pushpin/ylw-pushpin.png</href>
                    </Icon>
                </IconStyle>
            </Style>
            <Style id="3098">
                <IconStyle id="3099">
                    <color>ff008000</color>
                    <colorMode>normal</colorMode>
                    <scale>1</scale>
                    <heading>0</heading>
                    <Icon id="3100">
                        <href>http://maps.google.com/mapfiles/kml/pushpin/ylw-pushpin.png</href>
                    </Icon>
                </IconStyle>
            </Style>
            <Style id="3103">
                <IconStyle id="3104">
                    <color>ff008000</color>
                    <colorMode>normal</colorMode>
                    <scale>1</scale>
                    <heading>0</heading>
                    <Icon id="3105">
                        <href>http://maps.google.com/mapfiles/kml/pushpin/ylw-pushpin.png</href>
                    </Icon>
                </IconStyle>
            </Style>
            <Style id="3108">
                <IconStyle id="3109">
                    <color>ff008000</color>
                    <colorMode>normal</colorMode>
                    <scale>1</scale>
                    <heading>0</heading>
                    <Icon id="3110">
                        <href>http://maps.google.com/mapfiles/kml/pushpin/ylw-pushpin.png</href>
                    </Icon>
                </IconStyle>
            </Style>
            <Style id="3113">
                <IconStyle id="3114">
                    <color>ff008000</color>
                    <colorMode>normal</colorMode>
                    <scale>1</scale>
                    <heading>0</heading>
                    <Icon id="3115">
                        <href>http://maps.google.com/mapfiles/kml/pushpin/ylw-pushpin.png</href>
                    </Icon>
                </IconStyle>
            </Style>
            <Style id="3118">
                <IconStyle id="3119">
                    <color>ff008000</color>
                    <colorMode>normal</colorMode>
                    <scale>1</scale>
                    <heading>0</heading>
                    <Icon id="3120">
                        <href>http://maps.google.com/mapfiles/kml/pushpin/ylw-pushpin.png</href>
                    </Icon>
                </IconStyle>
            </Style>
            <Style id="3123">
                <IconStyle id="3124">
                    <color>ff008000</color>
                    <colorMode>normal</colorMode>
                    <scale>1</scale>
                    <heading>0</heading>
                    <Icon id="3125">
                        <href>http://maps.google.com/mapfiles/kml/pushpin/ylw-pushpin.png</href>
                    </Icon>
                </IconStyle>
            </Style>
            <Style id="3128">
                <IconStyle id="3129">
                    <color>ff008000</color>
                    <colorMode>normal</colorMode>
                    <scale>1</scale>
                    <heading>0</heading>
                    <Icon id="3130">
                        <href>http://maps.google.com/mapfiles/kml/pushpin/ylw-pushpin.png</href>
                    </Icon>
                </IconStyle>
            </Style>
            <Style id="3133">
                <IconStyle id="3134">
                    <color>ff008000</color>
                    <colorMode>normal</colorMode>
                    <scale>1</scale>
                    <heading>0</heading>
                    <Icon id="3135">
                        <href>http://maps.google.com/mapfiles/kml/pushpin/ylw-pushpin.png</href>
                    </Icon>
                </IconStyle>
            </Style>
            <Style id="3138">
                <IconStyle id="3139">
                    <color>ff008000</color>
                    <colorMode>normal</colorMode>
                    <scale>1</scale>
                    <heading>0</heading>
                    <Icon id="3140">
                        <href>http://maps.google.com/mapfiles/kml/pushpin/ylw-pushpin.png</href>
                    </Icon>
                </IconStyle>
            </Style>
            <Style id="3143">
                <IconStyle id="3144">
                    <color>ff008000</color>
                    <colorMode>normal</colorMode>
                    <scale>1</scale>
                    <heading>0</heading>
                    <Icon id="3145">
                        <href>http://maps.google.com/mapfiles/kml/pushpin/ylw-pushpin.png</href>
                    </Icon>
                </IconStyle>
            </Style>
            <Style id="3148">
                <IconStyle id="3149">
                    <color>ff008000</color>
                    <colorMode>normal</colorMode>
                    <scale>1</scale>
                    <heading>0</heading>
                    <Icon id="3150">
                        <href>http://maps.google.com/mapfiles/kml/pushpin/ylw-pushpin.png</href>
                    </Icon>
                </IconStyle>
            </Style>
            <Style id="3153">
                <IconStyle id="3154">
                    <color>ff008000</color>
                    <colorMode>normal</colorMode>
                    <scale>1</scale>
                    <heading>0</heading>
                    <Icon id="3155">
                        <href>http://maps.google.com/mapfiles/kml/pushpin/ylw-pushpin.png</href>
                    </Icon>
                </IconStyle>
            </Style>
            <Style id="3158">
                <IconStyle id="3159">
                    <color>ff008000</color>
                    <colorMode>normal</colorMode>
                    <scale>1</scale>
                    <heading>0</heading>
                    <Icon id="3160">
                        <href>http://maps.google.com/mapfiles/kml/pushpin/ylw-pushpin.png</href>
                    </Icon>
                </IconStyle>
            </Style>
            <Style id="3163">
                <IconStyle id="3164">
                    <color>ff008000</color>
                    <colorMode>normal</colorMode>
                    <scale>1</scale>
                    <heading>0</heading>
                    <Icon id="3165">
                        <href>http://maps.google.com/mapfiles/kml/pushpin/ylw-pushpin.png</href>
                    </Icon>
                </IconStyle>
            </Style>
            <Style id="3168">
                <IconStyle id="3169">
                    <color>ff008000</color>
                    <colorMode>normal</colorMode>
                    <scale>1</scale>
                    <heading>0</heading>
                    <Icon id="3170">
                        <href>http://maps.google.com/mapfiles/kml/pushpin/ylw-pushpin.png</href>
                    </Icon>
                </IconStyle>
            </Style>
            <name>MARY JISSA DEL PILAR PALACIOS ZAPATA</name>
            <Placemark id="3027">
                <name>ELKI SMITH PINTADO ALVA</name>
                <description>Calle Miraflores - San Isidro - referencia bodega los gemelos
Corrales
Tumbes
Tumbes
Perú</description>
                <styleUrl>#3028</styleUrl>
                <Point id="3026">
                    <coordinates>-80.5147307,-3.6153008,0.0</coordinates>
                </Point>
            </Placemark>
            <Placemark id="3032">
                <name>KATIA ELIZABETH VELASQUEZ ICOCHEA</name>
                <description>Pueblo nuevo alto san Isidro Mz k lt 02 ref subiendo el cerro
Corrales
Tumbes
Tumbes
Perú</description>
                <styleUrl>#3033</styleUrl>
                <Point id="3031">
                    <coordinates>-80.5169101,-3.6185061,0.0</coordinates>
                </Point>
            </Placemark>
            <Placemark id="3037">
                <name>MARIA HAYDEE YOVERA YOVERA</name>
                <description>Pasaje Tupac amaru s/n - atrás del ex camal - San Isidro
Corrales
Tumbes
Tumbes
Perú</description>
                <styleUrl>#3038</styleUrl>
                <Point id="3036">
                    <coordinates>-80.514353,-3.6163688,0.0</coordinates>
                </Point>
            </Placemark>
            <Placemark id="3042">
                <name>MARIA HAYDEE YOVERA YOVERA</name>
                <description>Pasaje Tupac amaru s/n - atrás del ex camal - San Isidro
Corrales
Tumbes
Tumbes
Perú</description>
                <styleUrl>#3043</styleUrl>
                <Point id="3041">
                    <coordinates>-80.514353,-3.6163688,0.0</coordinates>
                </Point>
            </Placemark>
            <Placemark id="3047">
                <name>LUCY CONCIA BARRIENTOS DE VILCHEZ</name>
                <description>Panamericana Norte 128 pampa la gallina Referencia por el colegio Andrés bello
Corrales
Tumbes
Tumbes
Perú</description>
                <styleUrl>#3048</styleUrl>
                <Point id="3046">
                    <coordinates>-80.503186,-3.60704,0.0</coordinates>
                </Point>
            </Placemark>
            <Placemark id="3052">
                <name>MALU RUIZ SINTI</name>
                <description>Aahh virgen de las Mercedes - San Isidro MZ A2 lt 13
Corrales
Tumbes
Tumbes
Perú</description>
                <styleUrl>#3053</styleUrl>
                <Point id="3051">
                    <coordinates>-80.4138082,-3.5800279,0.0</coordinates>
                </Point>
            </Placemark>
            <Placemark id="3057">
                <name>TRINIDAD ROSILLO DE ROSALES</name>
                <description>Calle pampa San Isidro 215 referencia tienda mi NANCI O  frente al colegio
Corrales
Tumbes
Tumbes
Perú</description>
                <styleUrl>#3058</styleUrl>
                <Point id="3056">
                    <coordinates>-80.5027817,-3.6071765,0.0</coordinates>
                </Point>
            </Placemark>
            <Placemark id="3062">
                <name>LUCY CONCIA BARRIENTOS DE VILCHEZ</name>
                <description>Panamericana Norte 128 pampa la gallina Referencia por el colegio Andrés bello
Corrales
Tumbes
Tumbes
Perú</description>
                <styleUrl>#3063</styleUrl>
                <Point id="3061">
                    <coordinates>-80.503186,-3.60704,0.0</coordinates>
                </Point>
            </Placemark>
            <Placemark id="3067">
                <name>ITALA CAMPOS RIMARACHIN</name>
                <description>Villa militar Cuarter.militar casa 1
Corrales


Perú</description>
                <styleUrl>#3068</styleUrl>
                <Point id="3066">
                    <coordinates>-80.4843252,-3.6094288,0.0</coordinates>
                </Point>
            </Placemark>
            <Placemark id="3072">
                <name>LIDIA RAMIREZ TANDAZO</name>
                <description>Jirón Lambayeque 112 en la entrada del molino mano izquierda
Corrales
Tumbes
Tumbes
Perú</description>
                <styleUrl>#3073</styleUrl>
                <Point id="3071">
                    <coordinates>-80.4809921,-3.6128668,0.0</coordinates>
                </Point>
            </Placemark>
            <Placemark id="3077">
                <name>JOSE LENNIS ROSILLO RODRIGUEZ</name>
                <description>Tablazo alto corrales ref frente la cancha
Corrales


Perú</description>
                <styleUrl>#3078</styleUrl>
                <Point id="3076">
                    <coordinates>-80.4806258,-3.6126015,0.0</coordinates>
                </Point>
            </Placemark>
            <Placemark id="3082">
                <name>ROSALBA AGUIRRE LOPEZ</name>
                <description>AV LORETO TABLAZO ALTO
Corrales
Tumbes
Tumbes
Perú</description>
                <styleUrl>#3083</styleUrl>
                <Point id="3081">
                    <coordinates>-80.4796939,-3.6114526,0.0</coordinates>
                </Point>
            </Placemark>
            <Placemark id="3087">
                <name>RUTH BRADY MELGAR INFANTE</name>
                <description>Av Ica #128   Frente la parque
Corrales
24501Tumbes
Tumbes
Perú</description>
                <styleUrl>#3088</styleUrl>
                <Point id="3086">
                    <coordinates>-80.4785005,-3.6087289,0.0</coordinates>
                </Point>
            </Placemark>
            <Placemark id="3092">
                <name>INVERSIONES GENERALES RT E.I.R.L.</name>
                <description>INVERSIONES GENERALES RT E.I.R.L.
JR. HILARIO CARRASCO NRO. 231
Corrales
240102
Tumbes
Perú</description>
                <styleUrl>#3093</styleUrl>
                <Point id="3091">
                    <coordinates>-80.4803034,-3.6005697,0.0</coordinates>
                </Point>
            </Placemark>
            <Placemark id="3097">
                <name>NANCY TEODEMA MELGAR DE TALLEDO</name>
                <description>Calle Junín # 071 Tablazo Corrales   frente al parque
Corrales

Tumbes
Perú</description>
                <styleUrl>#3098</styleUrl>
                <Point id="3096">
                    <coordinates>-80.477447,-3.606841,0.0</coordinates>
                </Point>
            </Placemark>
            <Placemark id="3102">
                <name>MIGUEL ANGEL YNGA PACHERREZ</name>
                <description>Av Miguel Grau # 129 buena vista alta
Corrales
Tumbes
Tumbes
Perú</description>
                <styleUrl>#3103</styleUrl>
                <Point id="3101">
                    <coordinates>-80.477762,-3.6055422,0.0</coordinates>
                </Point>
            </Placemark>
            <Placemark id="3107">
                <name>LUCY ROQUE VALDEZ</name>
                <description>Calle Huáscar 403
Corrales
Tumbes
Tumbes
Perú</description>
                <styleUrl>#3108</styleUrl>
                <Point id="3106">
                    <coordinates>-80.4802022,-3.6033498,0.0</coordinates>
                </Point>
            </Placemark>
            <Placemark id="3112">
                <name>ROSA ZULMEN QUINCHES MEDINA</name>
                <description>Av. Atahualpa N° 407- espalda de la comisaría corrales
Corrales
24501Tumbes
Tumbes
Perú</description>
                <styleUrl>#3113</styleUrl>
                <Point id="3111">
                    <coordinates>-80.4802594,-3.6030285,0.0</coordinates>
                </Point>
            </Placemark>
            <Placemark id="3117">
                <name>NELLY ROSILLO MORAN</name>
                <description>Pasaje José Olaya 124 Corrales ref. Costado de pasando una tienda teol mercado
Corrales
24501Tumbes
Tumbes
Perú</description>
                <styleUrl>#3118</styleUrl>
                <Point id="3116">
                    <coordinates>-80.4809958,-3.6024067,0.0</coordinates>
                </Point>
            </Placemark>
            <Placemark id="3122">
                <name>ZULEMA NEREYDA SILVA GUERRA</name>
                <description>Av Atahualpa  111 corrales Referencia por jardinen de niños 2 entrada
Corrales
24501Tumbes
Tumbes
Perú</description>
                <styleUrl>#3123</styleUrl>
                <Point id="3121">
                    <coordinates>-80.4869485,-3.5998599,0.0</coordinates>
                </Point>
            </Placemark>
            <Placemark id="3127">
                <name>SARITA VIVIANA ROSILLO GUERRA</name>
                <description>Av inca 224 ref costado salón comunal
Corrales

Tumbes
Perú</description>
                <styleUrl>#3128</styleUrl>
                <Point id="3126">
                    <coordinates>-80.4838228,-3.598385,0.0</coordinates>
                </Point>
            </Placemark>
            <Placemark id="3132">
                <name>YASMELINNE JHUDITH TINEDO MUÑOZ</name>
                <description>Cabeza de vaca sur pasaje el museo ref por el parque infantil
Corrales


Perú</description>
                <styleUrl>#3133</styleUrl>
                <Point id="3131">
                    <coordinates>-80.4890869,-3.6018491,0.0</coordinates>
                </Point>
            </Placemark>
            <Placemark id="3137">
                <name>LUCY ACOSTA RIOJAS</name>
                <description>Calle cabeza de vaca sur
Corrales
24501Tumbes
Tumbes
Perú</description>
                <styleUrl>#3138</styleUrl>
                <Point id="3136">
                    <coordinates>-80.4874216,-3.6018723,0.0</coordinates>
                </Point>
            </Placemark>
            <Placemark id="3142">
                <name>MERCEDES ALBERTINA GARCIA LOPEZ</name>
                <description>San Martín ref subiendo a la izquierda
Corrales

Tumbes
Perú</description>
                <styleUrl>#3143</styleUrl>
                <Point id="3141">
                    <coordinates>-80.4868762,-3.6030184,0.0</coordinates>
                </Point>
            </Placemark>
            <Placemark id="3147">
                <name>MARCELA VENERANDA GARCIA LOPEZ</name>
                <description>Av San Martín 332
Corrales
Tumbes
Tumbes
Perú</description>
                <styleUrl>#3148</styleUrl>
                <Point id="3146">
                    <coordinates>-80.4880273,-3.6052427,0.0</coordinates>
                </Point>
            </Placemark>
            <Placemark id="3152">
                <name>AMPARO YESENNIA TORRES SILVA</name>
                <description>Calle San Martín 504 Urb San Martín
Corrales
24501Tumbes
Tumbes
Perú</description>
                <styleUrl>#3153</styleUrl>
                <Point id="3151">
                    <coordinates>-80.4886634,-3.6063118,0.0</coordinates>
                </Point>
            </Placemark>
            <Placemark id="3157">
                <name>YAQUELINE MARIANA YACILA DUQUE</name>
                <description>Nueva esperanza corrales ref frente al poso de agua
Corrales
Tumbes
Tumbes
Perú</description>
                <styleUrl>#3158</styleUrl>
                <Point id="3156">
                    <coordinates>-80.4877754,-3.6070513,0.0</coordinates>
                </Point>
            </Placemark>
            <Placemark id="3162">
                <name>JOSSARY SAYURI GONZALES PRECIADO</name>
                <description>calle nueva esperanza s/n - corrales
Corrales
Tumbes
Tumbes
Perú</description>
                <styleUrl>#3163</styleUrl>
                <Point id="3161">
                    <coordinates>-80.4857788,-3.6059413,0.0</coordinates>
                </Point>
            </Placemark>
            <Placemark id="3167">
                <name>DEISER MONTOYA NUÑEZ</name>
                <description>JR MEXICO REF .CERCA CASA COMUNAL
Corrales
24501Tumbes
Tumbes
Perú</description>
                <styleUrl>#3168</styleUrl>
                <Point id="3166">
                    <coordinates>-80.4836699,-3.6009786,0.0</coordinates>
                </Point>
            </Placemark>
        </Folder>
    </Document>
</kml>
