<?xml version="1.0" encoding="UTF-8"?>
<kml xmlns="http://www.opengis.net/kml/2.2" xmlns:gx="http://www.google.com/kml/ext/2.2">
    <Document id="699">
        <Folder id="700">
            <Style id="703">
                <IconStyle id="704">
                    <color>ff0000ff</color>
                    <colorMode>normal</colorMode>
                    <scale>1</scale>
                    <heading>0</heading>
                    <Icon id="705">
                        <href>http://maps.google.com/mapfiles/kml/pushpin/ylw-pushpin.png</href>
                    </Icon>
                </IconStyle>
            </Style>
            <Style id="708">
                <IconStyle id="709">
                    <color>ff0000ff</color>
                    <colorMode>normal</colorMode>
                    <scale>1</scale>
                    <heading>0</heading>
                    <Icon id="710">
                        <href>http://maps.google.com/mapfiles/kml/pushpin/ylw-pushpin.png</href>
                    </Icon>
                </IconStyle>
            </Style>
            <Style id="713">
                <IconStyle id="714">
                    <color>ff0000ff</color>
                    <colorMode>normal</colorMode>
                    <scale>1</scale>
                    <heading>0</heading>
                    <Icon id="715">
                        <href>http://maps.google.com/mapfiles/kml/pushpin/ylw-pushpin.png</href>
                    </Icon>
                </IconStyle>
            </Style>
            <Style id="718">
                <IconStyle id="719">
                    <color>ff0000ff</color>
                    <colorMode>normal</colorMode>
                    <scale>1</scale>
                    <heading>0</heading>
                    <Icon id="720">
                        <href>http://maps.google.com/mapfiles/kml/pushpin/ylw-pushpin.png</href>
                    </Icon>
                </IconStyle>
            </Style>
            <Style id="723">
                <IconStyle id="724">
                    <color>ff0000ff</color>
                    <colorMode>normal</colorMode>
                    <scale>1</scale>
                    <heading>0</heading>
                    <Icon id="725">
                        <href>http://maps.google.com/mapfiles/kml/pushpin/ylw-pushpin.png</href>
                    </Icon>
                </IconStyle>
            </Style>
            <Style id="728">
                <IconStyle id="729">
                    <color>ff0000ff</color>
                    <colorMode>normal</colorMode>
                    <scale>1</scale>
                    <heading>0</heading>
                    <Icon id="730">
                        <href>http://maps.google.com/mapfiles/kml/pushpin/ylw-pushpin.png</href>
                    </Icon>
                </IconStyle>
            </Style>
            <Style id="733">
                <IconStyle id="734">
                    <color>ff0000ff</color>
                    <colorMode>normal</colorMode>
                    <scale>1</scale>
                    <heading>0</heading>
                    <Icon id="735">
                        <href>http://maps.google.com/mapfiles/kml/pushpin/ylw-pushpin.png</href>
                    </Icon>
                </IconStyle>
            </Style>
            <Style id="738">
                <IconStyle id="739">
                    <color>ff0000ff</color>
                    <colorMode>normal</colorMode>
                    <scale>1</scale>
                    <heading>0</heading>
                    <Icon id="740">
                        <href>http://maps.google.com/mapfiles/kml/pushpin/ylw-pushpin.png</href>
                    </Icon>
                </IconStyle>
            </Style>
            <Style id="743">
                <IconStyle id="744">
                    <color>ff0000ff</color>
                    <colorMode>normal</colorMode>
                    <scale>1</scale>
                    <heading>0</heading>
                    <Icon id="745">
                        <href>http://maps.google.com/mapfiles/kml/pushpin/ylw-pushpin.png</href>
                    </Icon>
                </IconStyle>
            </Style>
            <Style id="748">
                <IconStyle id="749">
                    <color>ff0000ff</color>
                    <colorMode>normal</colorMode>
                    <scale>1</scale>
                    <heading>0</heading>
                    <Icon id="750">
                        <href>http://maps.google.com/mapfiles/kml/pushpin/ylw-pushpin.png</href>
                    </Icon>
                </IconStyle>
            </Style>
            <Style id="753">
                <IconStyle id="754">
                    <color>ff0000ff</color>
                    <colorMode>normal</colorMode>
                    <scale>1</scale>
                    <heading>0</heading>
                    <Icon id="755">
                        <href>http://maps.google.com/mapfiles/kml/pushpin/ylw-pushpin.png</href>
                    </Icon>
                </IconStyle>
            </Style>
            <Style id="758">
                <IconStyle id="759">
                    <color>ff0000ff</color>
                    <colorMode>normal</colorMode>
                    <scale>1</scale>
                    <heading>0</heading>
                    <Icon id="760">
                        <href>http://maps.google.com/mapfiles/kml/pushpin/ylw-pushpin.png</href>
                    </Icon>
                </IconStyle>
            </Style>
            <Style id="763">
                <IconStyle id="764">
                    <color>ff0000ff</color>
                    <colorMode>normal</colorMode>
                    <scale>1</scale>
                    <heading>0</heading>
                    <Icon id="765">
                        <href>http://maps.google.com/mapfiles/kml/pushpin/ylw-pushpin.png</href>
                    </Icon>
                </IconStyle>
            </Style>
            <Style id="768">
                <IconStyle id="769">
                    <color>ff0000ff</color>
                    <colorMode>normal</colorMode>
                    <scale>1</scale>
                    <heading>0</heading>
                    <Icon id="770">
                        <href>http://maps.google.com/mapfiles/kml/pushpin/ylw-pushpin.png</href>
                    </Icon>
                </IconStyle>
            </Style>
            <Style id="773">
                <IconStyle id="774">
                    <color>ff0000ff</color>
                    <colorMode>normal</colorMode>
                    <scale>1</scale>
                    <heading>0</heading>
                    <Icon id="775">
                        <href>http://maps.google.com/mapfiles/kml/pushpin/ylw-pushpin.png</href>
                    </Icon>
                </IconStyle>
            </Style>
            <Style id="778">
                <IconStyle id="779">
                    <color>ff0000ff</color>
                    <colorMode>normal</colorMode>
                    <scale>1</scale>
                    <heading>0</heading>
                    <Icon id="780">
                        <href>http://maps.google.com/mapfiles/kml/pushpin/ylw-pushpin.png</href>
                    </Icon>
                </IconStyle>
            </Style>
            <Style id="783">
                <IconStyle id="784">
                    <color>ff0000ff</color>
                    <colorMode>normal</colorMode>
                    <scale>1</scale>
                    <heading>0</heading>
                    <Icon id="785">
                        <href>http://maps.google.com/mapfiles/kml/pushpin/ylw-pushpin.png</href>
                    </Icon>
                </IconStyle>
            </Style>
            <Style id="788">
                <IconStyle id="789">
                    <color>ff0000ff</color>
                    <colorMode>normal</colorMode>
                    <scale>1</scale>
                    <heading>0</heading>
                    <Icon id="790">
                        <href>http://maps.google.com/mapfiles/kml/pushpin/ylw-pushpin.png</href>
                    </Icon>
                </IconStyle>
            </Style>
            <Style id="793">
                <IconStyle id="794">
                    <color>ff0000ff</color>
                    <colorMode>normal</colorMode>
                    <scale>1</scale>
                    <heading>0</heading>
                    <Icon id="795">
                        <href>http://maps.google.com/mapfiles/kml/pushpin/ylw-pushpin.png</href>
                    </Icon>
                </IconStyle>
            </Style>
            <Style id="798">
                <IconStyle id="799">
                    <color>ff0000ff</color>
                    <colorMode>normal</colorMode>
                    <scale>1</scale>
                    <heading>0</heading>
                    <Icon id="800">
                        <href>http://maps.google.com/mapfiles/kml/pushpin/ylw-pushpin.png</href>
                    </Icon>
                </IconStyle>
            </Style>
            <Style id="803">
                <IconStyle id="804">
                    <color>ff0000ff</color>
                    <colorMode>normal</colorMode>
                    <scale>1</scale>
                    <heading>0</heading>
                    <Icon id="805">
                        <href>http://maps.google.com/mapfiles/kml/pushpin/ylw-pushpin.png</href>
                    </Icon>
                </IconStyle>
            </Style>
            <Style id="808">
                <IconStyle id="809">
                    <color>ff0000ff</color>
                    <colorMode>normal</colorMode>
                    <scale>1</scale>
                    <heading>0</heading>
                    <Icon id="810">
                        <href>http://maps.google.com/mapfiles/kml/pushpin/ylw-pushpin.png</href>
                    </Icon>
                </IconStyle>
            </Style>
            <Style id="813">
                <IconStyle id="814">
                    <color>ff0000ff</color>
                    <colorMode>normal</colorMode>
                    <scale>1</scale>
                    <heading>0</heading>
                    <Icon id="815">
                        <href>http://maps.google.com/mapfiles/kml/pushpin/ylw-pushpin.png</href>
                    </Icon>
                </IconStyle>
            </Style>
            <Style id="818">
                <IconStyle id="819">
                    <color>ff0000ff</color>
                    <colorMode>normal</colorMode>
                    <scale>1</scale>
                    <heading>0</heading>
                    <Icon id="820">
                        <href>http://maps.google.com/mapfiles/kml/pushpin/ylw-pushpin.png</href>
                    </Icon>
                </IconStyle>
            </Style>
            <Style id="823">
                <IconStyle id="824">
                    <color>ff0000ff</color>
                    <colorMode>normal</colorMode>
                    <scale>1</scale>
                    <heading>0</heading>
                    <Icon id="825">
                        <href>http://maps.google.com/mapfiles/kml/pushpin/ylw-pushpin.png</href>
                    </Icon>
                </IconStyle>
            </Style>
            <Style id="828">
                <IconStyle id="829">
                    <color>ff0000ff</color>
                    <colorMode>normal</colorMode>
                    <scale>1</scale>
                    <heading>0</heading>
                    <Icon id="830">
                        <href>http://maps.google.com/mapfiles/kml/pushpin/ylw-pushpin.png</href>
                    </Icon>
                </IconStyle>
            </Style>
            <Style id="833">
                <IconStyle id="834">
                    <color>ff0000ff</color>
                    <colorMode>normal</colorMode>
                    <scale>1</scale>
                    <heading>0</heading>
                    <Icon id="835">
                        <href>http://maps.google.com/mapfiles/kml/pushpin/ylw-pushpin.png</href>
                    </Icon>
                </IconStyle>
            </Style>
            <Style id="838">
                <IconStyle id="839">
                    <color>ff0000ff</color>
                    <colorMode>normal</colorMode>
                    <scale>1</scale>
                    <heading>0</heading>
                    <Icon id="840">
                        <href>http://maps.google.com/mapfiles/kml/pushpin/ylw-pushpin.png</href>
                    </Icon>
                </IconStyle>
            </Style>
            <Style id="843">
                <IconStyle id="844">
                    <color>ff0000ff</color>
                    <colorMode>normal</colorMode>
                    <scale>1</scale>
                    <heading>0</heading>
                    <Icon id="845">
                        <href>http://maps.google.com/mapfiles/kml/pushpin/ylw-pushpin.png</href>
                    </Icon>
                </IconStyle>
            </Style>
            <Style id="848">
                <IconStyle id="849">
                    <color>ff0000ff</color>
                    <colorMode>normal</colorMode>
                    <scale>1</scale>
                    <heading>0</heading>
                    <Icon id="850">
                        <href>http://maps.google.com/mapfiles/kml/pushpin/ylw-pushpin.png</href>
                    </Icon>
                </IconStyle>
            </Style>
            <Style id="853">
                <IconStyle id="854">
                    <color>ff0000ff</color>
                    <colorMode>normal</colorMode>
                    <scale>1</scale>
                    <heading>0</heading>
                    <Icon id="855">
                        <href>http://maps.google.com/mapfiles/kml/pushpin/ylw-pushpin.png</href>
                    </Icon>
                </IconStyle>
            </Style>
            <Style id="858">
                <IconStyle id="859">
                    <color>ff0000ff</color>
                    <colorMode>normal</colorMode>
                    <scale>1</scale>
                    <heading>0</heading>
                    <Icon id="860">
                        <href>http://maps.google.com/mapfiles/kml/pushpin/ylw-pushpin.png</href>
                    </Icon>
                </IconStyle>
            </Style>
            <Style id="863">
                <IconStyle id="864">
                    <color>ff0000ff</color>
                    <colorMode>normal</colorMode>
                    <scale>1</scale>
                    <heading>0</heading>
                    <Icon id="865">
                        <href>http://maps.google.com/mapfiles/kml/pushpin/ylw-pushpin.png</href>
                    </Icon>
                </IconStyle>
            </Style>
            <Style id="868">
                <IconStyle id="869">
                    <color>ff0000ff</color>
                    <colorMode>normal</colorMode>
                    <scale>1</scale>
                    <heading>0</heading>
                    <Icon id="870">
                        <href>http://maps.google.com/mapfiles/kml/pushpin/ylw-pushpin.png</href>
                    </Icon>
                </IconStyle>
            </Style>
            <Style id="873">
                <IconStyle id="874">
                    <color>ff0000ff</color>
                    <colorMode>normal</colorMode>
                    <scale>1</scale>
                    <heading>0</heading>
                    <Icon id="875">
                        <href>http://maps.google.com/mapfiles/kml/pushpin/ylw-pushpin.png</href>
                    </Icon>
                </IconStyle>
            </Style>
            <Style id="878">
                <IconStyle id="879">
                    <color>ff0000ff</color>
                    <colorMode>normal</colorMode>
                    <scale>1</scale>
                    <heading>0</heading>
                    <Icon id="880">
                        <href>http://maps.google.com/mapfiles/kml/pushpin/ylw-pushpin.png</href>
                    </Icon>
                </IconStyle>
            </Style>
            <Style id="883">
                <IconStyle id="884">
                    <color>ff0000ff</color>
                    <colorMode>normal</colorMode>
                    <scale>1</scale>
                    <heading>0</heading>
                    <Icon id="885">
                        <href>http://maps.google.com/mapfiles/kml/pushpin/ylw-pushpin.png</href>
                    </Icon>
                </IconStyle>
            </Style>
            <Style id="888">
                <IconStyle id="889">
                    <color>ff0000ff</color>
                    <colorMode>normal</colorMode>
                    <scale>1</scale>
                    <heading>0</heading>
                    <Icon id="890">
                        <href>http://maps.google.com/mapfiles/kml/pushpin/ylw-pushpin.png</href>
                    </Icon>
                </IconStyle>
            </Style>
            <name>KATHERINE REBECA DE JESUS CARDOZA LEE</name>
            <Placemark id="702">
                <name>CORDOVA CASTILLO MELVA MAGALY</name>
                <description>MERCADO CAPULLANAS PUESTO 137 Y PUESTO 138
Veintiséis de Octubre
Veintiséis de Octubre
Piura
Perú</description>
                <styleUrl>#703</styleUrl>
                <Point id="701">
                    <coordinates>-80.6698587,-5.1750302,0.0</coordinates>
                </Point>
            </Placemark>
            <Placemark id="707">
                <name>MARIBEL LOPEZ VILELA</name>
                <description>MZ F LT 47 AA. HH NVO. PORVENIR
Piura
Piura
Piura
Perú</description>
                <styleUrl>#708</styleUrl>
                <Point id="706">
                    <coordinates>-80.6441883,-5.2076012,0.0</coordinates>
                </Point>
            </Placemark>
            <Placemark id="712">
                <name>JOSE ALEX CUNYA CANGO</name>
                <description>MERCADO CAPULLANAS PUESTO 179
Veintiséis de Octubre
Veintiséis de Octubre
Piura
Perú</description>
                <styleUrl>#713</styleUrl>
                <Point id="711">
                    <coordinates>-80.6700528,-5.1753173,0.0</coordinates>
                </Point>
            </Placemark>
            <Placemark id="717">
                <name>DENNER CHINCHAY SANTOS</name>
                <description>PUESTO N 72 / MERCADO CAPULLANAS
Veintiséis de Octubre
Veintiséis de Octubre
Piura
Perú</description>
                <styleUrl>#718</styleUrl>
                <Point id="716">
                    <coordinates>-80.6699588,-5.1753257,0.0</coordinates>
                </Point>
            </Placemark>
            <Placemark id="722">
                <name>DENNER CHINCHAY SANTOS</name>
                <description>PUESTO N 72 / MERCADO CAPULLANAS
Veintiséis de Octubre
Veintiséis de Octubre
Piura
Perú</description>
                <styleUrl>#723</styleUrl>
                <Point id="721">
                    <coordinates>-80.6699588,-5.1753257,0.0</coordinates>
                </Point>
            </Placemark>
            <Placemark id="727">
                <name>JAZMIN ESTELA GARCIA HUAMAN</name>
                <description>MERCADO CAPULLANAS PUESTO 13
Veintiséis de Octubre
Veintiséis de Octubre
Piura
Perú</description>
                <styleUrl>#728</styleUrl>
                <Point id="726">
                    <coordinates>-80.6710676,-5.1757973,0.0</coordinates>
                </Point>
            </Placemark>
            <Placemark id="732">
                <name>DALILA HERNANDEZ GARCIA</name>
                <description>PUESTO 59 / MCDO CAPULLANAS
Veintiséis de Octubre
Veintiséis de Octubre
Piura
Perú</description>
                <styleUrl>#733</styleUrl>
                <Point id="731">
                    <coordinates>-80.6698921,-5.1756272,0.0</coordinates>
                </Point>
            </Placemark>
            <Placemark id="737">
                <name>MARIA MERCEDES CASTRO YARLEQUE</name>
                <description>PUESTO 33 / MCDO CAPULLANAS
Veintiséis de Octubre
Veintiséis de Octubre
Piura
Perú</description>
                <styleUrl>#738</styleUrl>
                <Point id="736">
                    <coordinates>-80.6699976,-5.1756049,0.0</coordinates>
                </Point>
            </Placemark>
            <Placemark id="742">
                <name>SANTOS SILVA YNGA</name>
                <description>MERCADO CAPULLANAS PUESTO 44
Veintiséis de Octubre
Veintiséis de Octubre
Piura
Perú</description>
                <styleUrl>#743</styleUrl>
                <Point id="741">
                    <coordinates>-80.6705743,-5.1754491,0.0</coordinates>
                </Point>
            </Placemark>
            <Placemark id="747">
                <name>DINO MARCHENA CHINININ</name>
                <description>CAPULLANAS MAYORISTA PUESTO 12
Veintiséis de Octubre
Veintiséis de Octubre
Piura
Perú</description>
                <styleUrl>#748</styleUrl>
                <Point id="746">
                    <coordinates>-80.671115,-5.1758526,0.0</coordinates>
                </Point>
            </Placemark>
            <Placemark id="752">
                <name>ROSA SEMINARIO RAMOS</name>
                <description>PUESTO 133 / INTERIOR CAPULLANAS
Veintiséis de Octubre
Veintiséis de Octubre
Piura
Perú</description>
                <styleUrl>#753</styleUrl>
                <Point id="751">
                    <coordinates>-80.6717536,-5.1760761,0.0</coordinates>
                </Point>
            </Placemark>
            <Placemark id="757">
                <name>YUNIOR REYES ABAD</name>
                <description>PUESTO A- 105 / C -125 MCDO CAPULLANAS
Veintiséis de Octubre
Veintiséis de Octubre
Piura
Perú</description>
                <styleUrl>#758</styleUrl>
                <Point id="756">
                    <coordinates>-80.6714863,-5.1758542,0.0</coordinates>
                </Point>
            </Placemark>
            <Placemark id="762">
                <name>LUZ MARIA DIOSES ARISMENDIZ</name>
                <description>A.H.ROMULO LEON MZ.B LT.38 PIU
Piura
Piura
Piura
Perú</description>
                <styleUrl>#763</styleUrl>
                <Point id="761">
                    <coordinates>-80.636301,-5.2011756,0.0</coordinates>
                </Point>
            </Placemark>
            <Placemark id="767">
                <name>PETRONILA LEJABO PEÑA</name>
                <description>Mz B LTE 5 AA.HH VICTOR RAUL
Piura
Piura
Piura
Perú</description>
                <styleUrl>#768</styleUrl>
                <Point id="766">
                    <coordinates>-80.6378935,-5.2011621,0.0</coordinates>
                </Point>
            </Placemark>
            <Placemark id="772">
                <name>ROSA ACOSTA VIDAURRE</name>
                <description>Mz J LTE.26-B AA.HH VICTOR RAUL
Piura
Piura
Piura
Perú</description>
                <styleUrl>#773</styleUrl>
                <Point id="771">
                    <coordinates>-80.6388034,-5.2026794,0.0</coordinates>
                </Point>
            </Placemark>
            <Placemark id="777">
                <name>MARIA NOLE ROMERO</name>
                <description>Mz K LTE 15 AA.HH VICTOR RAUL
Piura
Piura
Piura
Perú</description>
                <styleUrl>#778</styleUrl>
                <Point id="776">
                    <coordinates>-80.6402611,-5.2025236,0.0</coordinates>
                </Point>
            </Placemark>
            <Placemark id="782">
                <name>ORFELINDA HUAMAN VELASCO</name>
                <description>MZ C LT 20 LAGUNA AZUL        
Piura
Piura
Piura
Perú</description>
                <styleUrl>#783</styleUrl>
                <Point id="781">
                    <coordinates>-80.6404869,-5.2036186,0.0</coordinates>
                </Point>
            </Placemark>
            <Placemark id="787">
                <name>DOLORES ECA VITE</name>
                <description>MZ E 17 LAGUNA AZUL           
Piura
Piura
Piura
Perú</description>
                <styleUrl>#788</styleUrl>
                <Point id="786">
                    <coordinates>-80.6386305,-5.2055969,0.0</coordinates>
                </Point>
            </Placemark>
            <Placemark id="792">
                <name>ORFELINDA GONZA CHANTA</name>
                <description>MZ B lote 5 CHAVIN DE HUÁNTAR
Piura
Piura
Piura
Perú</description>
                <styleUrl>#793</styleUrl>
                <Point id="791">
                    <coordinates>-80.6409423,-5.2039512,0.0</coordinates>
                </Point>
            </Placemark>
            <Placemark id="797">
                <name>ELMER HUAMAN JIMENEZ</name>
                <description>A.H.MANUEL ESCORZA MZ A LOTE 23
Piura
Piura
Piura
Perú</description>
                <styleUrl>#798</styleUrl>
                <Point id="796">
                    <coordinates>-80.6430734,-5.2039388,0.0</coordinates>
                </Point>
            </Placemark>
            <Placemark id="802">
                <name>ALFREDO RAMIREZ LOPEZ</name>
                <description>MZ B LTE 59 M.SCORZA
Piura
Piura
Piura
Perú</description>
                <styleUrl>#803</styleUrl>
                <Point id="801">
                    <coordinates>-80.643447,-5.204284,0.0</coordinates>
                </Point>
            </Placemark>
            <Placemark id="807">
                <name>HERLINDA GUERRERO VILLEGAS</name>
                <description>MZ.P LT.2 UP.LA VICTORIA      
Veintiséis de Octubre
Piura
Piura
Perú</description>
                <styleUrl>#808</styleUrl>
                <Point id="806">
                    <coordinates>-80.64424,-5.206651,0.0</coordinates>
                </Point>
            </Placemark>
            <Placemark id="812">
                <name>NIDIA EVELYN REQUENA PINEDA</name>
                <description>J-03 UPIS LA VICTORIA PIURA   
Piura
Piura
Piura
Perú</description>
                <styleUrl>#813</styleUrl>
                <Point id="811">
                    <coordinates>-80.6430673,-5.2069659,0.0</coordinates>
                </Point>
            </Placemark>
            <Placemark id="817">
                <name>FELICITA VILELA DOMINGUEZ</name>
                <description>H-12 AH LA VICTORIA  Piura    
Piura
Piura
Piura
Perú</description>
                <styleUrl>#818</styleUrl>
                <Point id="816">
                    <coordinates>-80.6435558,-5.2069047,0.0</coordinates>
                </Point>
            </Placemark>
            <Placemark id="822">
                <name>FLORESMILA AGUST CHINCHAY RIMAYCUNA</name>
                <description>MZ F LT 43 AA. HH NVO. PORVENIR
Piura
Piura
Piura
Perú</description>
                <styleUrl>#823</styleUrl>
                <Point id="821">
                    <coordinates>-80.6446031,-5.2078531,0.0</coordinates>
                </Point>
            </Placemark>
            <Placemark id="827">
                <name>MARIBEL LOPEZ VILELA</name>
                <description>MZ F LT 47 AA. HH NVO. PORVENIR
Piura
Piura
Piura
Perú</description>
                <styleUrl>#828</styleUrl>
                <Point id="826">
                    <coordinates>-80.6441883,-5.2076012,0.0</coordinates>
                </Point>
            </Placemark>
            <Placemark id="832">
                <name>YENNY PAOLA CAMPOVERDE CARHUACHINCHAY</name>
                <description>A-02 ET 1 UPIS JUAN BOSCOPiura
Piura
Piura
Piura
Perú</description>
                <styleUrl>#833</styleUrl>
                <Point id="831">
                    <coordinates>-80.6448488,-5.2084429,0.0</coordinates>
                </Point>
            </Placemark>
            <Placemark id="837">
                <name>JOSE GARCIA TORRES</name>
                <description>A-54 ET 1 UPIS JUAN BOSCOPiura
Piura
Piura
Piura
Perú</description>
                <styleUrl>#838</styleUrl>
                <Point id="836">
                    <coordinates>-80.6444195,-5.2088417,0.0</coordinates>
                </Point>
            </Placemark>
            <Placemark id="842">
                <name>LEYSI MARIELA REYES CALLE</name>
                <description>JUAN BOSCO MZ C LT 30 Piura-Piura
Piura
Piura
Piura
Perú</description>
                <styleUrl>#843</styleUrl>
                <Point id="841">
                    <coordinates>-80.6438971,-5.2084633,0.0</coordinates>
                </Point>
            </Placemark>
            <Placemark id="847">
                <name>LUZMILA MAZA SANTOS</name>
                <description>B-43 ET 1 UPIS JUAN BOSCOPiura
Piura
Piura
Piura
Perú</description>
                <styleUrl>#848</styleUrl>
                <Point id="846">
                    <coordinates>-80.6435376,-5.2088288,0.0</coordinates>
                </Point>
            </Placemark>
            <Placemark id="852">
                <name>TERESA MAGDALENA JIMENEZ VITE</name>
                <description>JUAN BOSCO MZ C LOTE 47 / PRIMERA ETAPA
Piura
Piura
Piura
Perú</description>
                <styleUrl>#853</styleUrl>
                <Point id="851">
                    <coordinates>-80.643212,-5.2091858,0.0</coordinates>
                </Point>
            </Placemark>
            <Placemark id="857">
                <name>MERCEDES TACURE UMBO</name>
                <description>A.H.ANDRES AVELINO CACERES B-1
Piura
Piura
Piura
Perú</description>
                <styleUrl>#858</styleUrl>
                <Point id="856">
                    <coordinates>-80.64235,-5.209565,0.0</coordinates>
                </Point>
            </Placemark>
            <Placemark id="862">
                <name>HUERTAS BENITES VILMA AMONICA</name>
                <description>UP.LA VICTORIA MZ.S LT.24     
Piura
Piura
Piura
Perú</description>
                <styleUrl>#863</styleUrl>
                <Point id="861">
                    <coordinates>-80.64167,-5.209828,0.0</coordinates>
                </Point>
            </Placemark>
            <Placemark id="867">
                <name>YOLANDA DEL SOCORRO SILUPU DE VILCHEZ</name>
                <description>MZ T LTE 11 ASOC. LA VICTORIA
Piura
Piura
Piura
Perú</description>
                <styleUrl>#868</styleUrl>
                <Point id="866">
                    <coordinates>-80.6410413,-5.2093677,0.0</coordinates>
                </Point>
            </Placemark>
            <Placemark id="872">
                <name>ROSA ELVIRA DELGADO HERRERA</name>
                <description>Mz E LTE 13 ASOC. AVELINO CACERES (REF. Frente a San Juan Bosco)
Piura
Piura
Piura
Perú</description>
                <styleUrl>#873</styleUrl>
                <Point id="871">
                    <coordinates>-80.6423676,-5.211036,0.0</coordinates>
                </Point>
            </Placemark>
            <Placemark id="877">
                <name>CURAY CAMPOS GENNY</name>
                <description>MZ D LT 8 APV ANDRES A CACERES
Piura
Piura
Piura
Perú</description>
                <styleUrl>#878</styleUrl>
                <Point id="876">
                    <coordinates>-80.642353,-5.210914,0.0</coordinates>
                </Point>
            </Placemark>
            <Placemark id="882">
                <name>LEIVA EDITA ZURITA JULCA</name>
                <description>Mz F lote 5 Héroes del senepa
Veintiséis de Octubre
Veintiséis de Octubre
Piura
Perú</description>
                <styleUrl>#883</styleUrl>
                <Point id="881">
                    <coordinates>-80.638416,-5.206666,0.0</coordinates>
                </Point>
            </Placemark>
            <Placemark id="887">
                <name>KAREN FAVIOLA HOLGUIN CORDOVA</name>
                <description>MZ F LT 13 AH HEROES DE CENEPA
Piura
Piura
Piura
Perú</description>
                <styleUrl>#888</styleUrl>
                <Point id="886">
                    <coordinates>-80.6386238,-5.2066229,0.0</coordinates>
                </Point>
            </Placemark>
        </Folder>
        <Folder id="891">
            <Style id="894">
                <IconStyle id="895">
                    <color>ffff0000</color>
                    <colorMode>normal</colorMode>
                    <scale>1</scale>
                    <heading>0</heading>
                    <Icon id="896">
                        <href>http://maps.google.com/mapfiles/kml/pushpin/ylw-pushpin.png</href>
                    </Icon>
                </IconStyle>
            </Style>
            <Style id="899">
                <IconStyle id="900">
                    <color>ffff0000</color>
                    <colorMode>normal</colorMode>
                    <scale>1</scale>
                    <heading>0</heading>
                    <Icon id="901">
                        <href>http://maps.google.com/mapfiles/kml/pushpin/ylw-pushpin.png</href>
                    </Icon>
                </IconStyle>
            </Style>
            <Style id="904">
                <IconStyle id="905">
                    <color>ffff0000</color>
                    <colorMode>normal</colorMode>
                    <scale>1</scale>
                    <heading>0</heading>
                    <Icon id="906">
                        <href>http://maps.google.com/mapfiles/kml/pushpin/ylw-pushpin.png</href>
                    </Icon>
                </IconStyle>
            </Style>
            <Style id="909">
                <IconStyle id="910">
                    <color>ffff0000</color>
                    <colorMode>normal</colorMode>
                    <scale>1</scale>
                    <heading>0</heading>
                    <Icon id="911">
                        <href>http://maps.google.com/mapfiles/kml/pushpin/ylw-pushpin.png</href>
                    </Icon>
                </IconStyle>
            </Style>
            <Style id="914">
                <IconStyle id="915">
                    <color>ffff0000</color>
                    <colorMode>normal</colorMode>
                    <scale>1</scale>
                    <heading>0</heading>
                    <Icon id="916">
                        <href>http://maps.google.com/mapfiles/kml/pushpin/ylw-pushpin.png</href>
                    </Icon>
                </IconStyle>
            </Style>
            <Style id="919">
                <IconStyle id="920">
                    <color>ffff0000</color>
                    <colorMode>normal</colorMode>
                    <scale>1</scale>
                    <heading>0</heading>
                    <Icon id="921">
                        <href>http://maps.google.com/mapfiles/kml/pushpin/ylw-pushpin.png</href>
                    </Icon>
                </IconStyle>
            </Style>
            <Style id="924">
                <IconStyle id="925">
                    <color>ffff0000</color>
                    <colorMode>normal</colorMode>
                    <scale>1</scale>
                    <heading>0</heading>
                    <Icon id="926">
                        <href>http://maps.google.com/mapfiles/kml/pushpin/ylw-pushpin.png</href>
                    </Icon>
                </IconStyle>
            </Style>
            <Style id="929">
                <IconStyle id="930">
                    <color>ffff0000</color>
                    <colorMode>normal</colorMode>
                    <scale>1</scale>
                    <heading>0</heading>
                    <Icon id="931">
                        <href>http://maps.google.com/mapfiles/kml/pushpin/ylw-pushpin.png</href>
                    </Icon>
                </IconStyle>
            </Style>
            <Style id="934">
                <IconStyle id="935">
                    <color>ffff0000</color>
                    <colorMode>normal</colorMode>
                    <scale>1</scale>
                    <heading>0</heading>
                    <Icon id="936">
                        <href>http://maps.google.com/mapfiles/kml/pushpin/ylw-pushpin.png</href>
                    </Icon>
                </IconStyle>
            </Style>
            <Style id="939">
                <IconStyle id="940">
                    <color>ffff0000</color>
                    <colorMode>normal</colorMode>
                    <scale>1</scale>
                    <heading>0</heading>
                    <Icon id="941">
                        <href>http://maps.google.com/mapfiles/kml/pushpin/ylw-pushpin.png</href>
                    </Icon>
                </IconStyle>
            </Style>
            <Style id="944">
                <IconStyle id="945">
                    <color>ffff0000</color>
                    <colorMode>normal</colorMode>
                    <scale>1</scale>
                    <heading>0</heading>
                    <Icon id="946">
                        <href>http://maps.google.com/mapfiles/kml/pushpin/ylw-pushpin.png</href>
                    </Icon>
                </IconStyle>
            </Style>
            <Style id="949">
                <IconStyle id="950">
                    <color>ffff0000</color>
                    <colorMode>normal</colorMode>
                    <scale>1</scale>
                    <heading>0</heading>
                    <Icon id="951">
                        <href>http://maps.google.com/mapfiles/kml/pushpin/ylw-pushpin.png</href>
                    </Icon>
                </IconStyle>
            </Style>
            <Style id="954">
                <IconStyle id="955">
                    <color>ffff0000</color>
                    <colorMode>normal</colorMode>
                    <scale>1</scale>
                    <heading>0</heading>
                    <Icon id="956">
                        <href>http://maps.google.com/mapfiles/kml/pushpin/ylw-pushpin.png</href>
                    </Icon>
                </IconStyle>
            </Style>
            <Style id="959">
                <IconStyle id="960">
                    <color>ffff0000</color>
                    <colorMode>normal</colorMode>
                    <scale>1</scale>
                    <heading>0</heading>
                    <Icon id="961">
                        <href>http://maps.google.com/mapfiles/kml/pushpin/ylw-pushpin.png</href>
                    </Icon>
                </IconStyle>
            </Style>
            <Style id="964">
                <IconStyle id="965">
                    <color>ffff0000</color>
                    <colorMode>normal</colorMode>
                    <scale>1</scale>
                    <heading>0</heading>
                    <Icon id="966">
                        <href>http://maps.google.com/mapfiles/kml/pushpin/ylw-pushpin.png</href>
                    </Icon>
                </IconStyle>
            </Style>
            <Style id="969">
                <IconStyle id="970">
                    <color>ffff0000</color>
                    <colorMode>normal</colorMode>
                    <scale>1</scale>
                    <heading>0</heading>
                    <Icon id="971">
                        <href>http://maps.google.com/mapfiles/kml/pushpin/ylw-pushpin.png</href>
                    </Icon>
                </IconStyle>
            </Style>
            <Style id="974">
                <IconStyle id="975">
                    <color>ffff0000</color>
                    <colorMode>normal</colorMode>
                    <scale>1</scale>
                    <heading>0</heading>
                    <Icon id="976">
                        <href>http://maps.google.com/mapfiles/kml/pushpin/ylw-pushpin.png</href>
                    </Icon>
                </IconStyle>
            </Style>
            <Style id="979">
                <IconStyle id="980">
                    <color>ffff0000</color>
                    <colorMode>normal</colorMode>
                    <scale>1</scale>
                    <heading>0</heading>
                    <Icon id="981">
                        <href>http://maps.google.com/mapfiles/kml/pushpin/ylw-pushpin.png</href>
                    </Icon>
                </IconStyle>
            </Style>
            <Style id="984">
                <IconStyle id="985">
                    <color>ffff0000</color>
                    <colorMode>normal</colorMode>
                    <scale>1</scale>
                    <heading>0</heading>
                    <Icon id="986">
                        <href>http://maps.google.com/mapfiles/kml/pushpin/ylw-pushpin.png</href>
                    </Icon>
                </IconStyle>
            </Style>
            <Style id="989">
                <IconStyle id="990">
                    <color>ffff0000</color>
                    <colorMode>normal</colorMode>
                    <scale>1</scale>
                    <heading>0</heading>
                    <Icon id="991">
                        <href>http://maps.google.com/mapfiles/kml/pushpin/ylw-pushpin.png</href>
                    </Icon>
                </IconStyle>
            </Style>
            <Style id="994">
                <IconStyle id="995">
                    <color>ffff0000</color>
                    <colorMode>normal</colorMode>
                    <scale>1</scale>
                    <heading>0</heading>
                    <Icon id="996">
                        <href>http://maps.google.com/mapfiles/kml/pushpin/ylw-pushpin.png</href>
                    </Icon>
                </IconStyle>
            </Style>
            <Style id="999">
                <IconStyle id="1000">
                    <color>ffff0000</color>
                    <colorMode>normal</colorMode>
                    <scale>1</scale>
                    <heading>0</heading>
                    <Icon id="1001">
                        <href>http://maps.google.com/mapfiles/kml/pushpin/ylw-pushpin.png</href>
                    </Icon>
                </IconStyle>
            </Style>
            <Style id="1004">
                <IconStyle id="1005">
                    <color>ffff0000</color>
                    <colorMode>normal</colorMode>
                    <scale>1</scale>
                    <heading>0</heading>
                    <Icon id="1006">
                        <href>http://maps.google.com/mapfiles/kml/pushpin/ylw-pushpin.png</href>
                    </Icon>
                </IconStyle>
            </Style>
            <Style id="1009">
                <IconStyle id="1010">
                    <color>ffff0000</color>
                    <colorMode>normal</colorMode>
                    <scale>1</scale>
                    <heading>0</heading>
                    <Icon id="1011">
                        <href>http://maps.google.com/mapfiles/kml/pushpin/ylw-pushpin.png</href>
                    </Icon>
                </IconStyle>
            </Style>
            <Style id="1014">
                <IconStyle id="1015">
                    <color>ffff0000</color>
                    <colorMode>normal</colorMode>
                    <scale>1</scale>
                    <heading>0</heading>
                    <Icon id="1016">
                        <href>http://maps.google.com/mapfiles/kml/pushpin/ylw-pushpin.png</href>
                    </Icon>
                </IconStyle>
            </Style>
            <Style id="1019">
                <IconStyle id="1020">
                    <color>ffff0000</color>
                    <colorMode>normal</colorMode>
                    <scale>1</scale>
                    <heading>0</heading>
                    <Icon id="1021">
                        <href>http://maps.google.com/mapfiles/kml/pushpin/ylw-pushpin.png</href>
                    </Icon>
                </IconStyle>
            </Style>
            <Style id="1024">
                <IconStyle id="1025">
                    <color>ffff0000</color>
                    <colorMode>normal</colorMode>
                    <scale>1</scale>
                    <heading>0</heading>
                    <Icon id="1026">
                        <href>http://maps.google.com/mapfiles/kml/pushpin/ylw-pushpin.png</href>
                    </Icon>
                </IconStyle>
            </Style>
            <Style id="1029">
                <IconStyle id="1030">
                    <color>ffff0000</color>
                    <colorMode>normal</colorMode>
                    <scale>1</scale>
                    <heading>0</heading>
                    <Icon id="1031">
                        <href>http://maps.google.com/mapfiles/kml/pushpin/ylw-pushpin.png</href>
                    </Icon>
                </IconStyle>
            </Style>
            <Style id="1034">
                <IconStyle id="1035">
                    <color>ffff0000</color>
                    <colorMode>normal</colorMode>
                    <scale>1</scale>
                    <heading>0</heading>
                    <Icon id="1036">
                        <href>http://maps.google.com/mapfiles/kml/pushpin/ylw-pushpin.png</href>
                    </Icon>
                </IconStyle>
            </Style>
            <Style id="1039">
                <IconStyle id="1040">
                    <color>ffff0000</color>
                    <colorMode>normal</colorMode>
                    <scale>1</scale>
                    <heading>0</heading>
                    <Icon id="1041">
                        <href>http://maps.google.com/mapfiles/kml/pushpin/ylw-pushpin.png</href>
                    </Icon>
                </IconStyle>
            </Style>
            <Style id="1044">
                <IconStyle id="1045">
                    <color>ffff0000</color>
                    <colorMode>normal</colorMode>
                    <scale>1</scale>
                    <heading>0</heading>
                    <Icon id="1046">
                        <href>http://maps.google.com/mapfiles/kml/pushpin/ylw-pushpin.png</href>
                    </Icon>
                </IconStyle>
            </Style>
            <name>ZOILA ALBERTINA DE JESUS MORANTE CARRASCO</name>
            <Placemark id="893">
                <name>NELLY ELIZABETH AVILA RAMIREZ</name>
                <description>AAHH NVA ESPERANZA MZ D1LOTE 4
Veintiséis de Octubre
Veintiséis de Octubre
Piura
Perú</description>
                <styleUrl>#894</styleUrl>
                <Point id="892">
                    <coordinates>-80.6621417,-5.1916999,0.0</coordinates>
                </Point>
            </Placemark>
            <Placemark id="898">
                <name>GUERRERO DELFINA CARRASCO DE</name>
                <description>AV. CIRCUNVALACION 200 S. MARTIN
Veintiséis de Octubre
Piura
Piura
Perú</description>
                <styleUrl>#899</styleUrl>
                <Point id="897">
                    <coordinates>-80.6674176,-5.18871,0.0</coordinates>
                </Point>
            </Placemark>
            <Placemark id="903">
                <name>GILBERTO ALBERTO LLACSAHUANGA CUNYA</name>
                <description>GILBERTO ALBERTO LLACSAHUANGA CUNYA
AV.SAN MARTIN MZ B9 LTE.4 (112) AA.HH SAN MARTIN
Veintiséis de Octubre
Piura
Piura
Perú</description>
                <styleUrl>#904</styleUrl>
                <Point id="902">
                    <coordinates>-80.6658393,-5.1861207,0.0</coordinates>
                </Point>
            </Placemark>
            <Placemark id="908">
                <name>JENY DEL ROCIO DOMINGUEZ YMAN</name>
                <description>B8-2 AVCHULUC 504 AHSAN MARTIN
Veintiséis de Octubre
Piura
Piura
Perú</description>
                <styleUrl>#909</styleUrl>
                <Point id="907">
                    <coordinates>-80.665882,-5.187487,0.0</coordinates>
                </Point>
            </Placemark>
            <Placemark id="913">
                <name>PAULA YESENIA AGUILERA LOZADA</name>
                <description>AV. JOSE CARLOS MARIATEGUI MZ V1 LT8 AA. HHSAN MARTIN
Veintiséis de Octubre
Piura
Piura
Perú</description>
                <styleUrl>#914</styleUrl>
                <Point id="912">
                    <coordinates>-80.6677298,-5.1835318,0.0</coordinates>
                </Point>
            </Placemark>
            <Placemark id="918">
                <name>MARIA DEL SOCORRO CASTRO YOVERA</name>
                <description>Calle Marticorena 136 aahh San Martín
Veintiséis de Octubre
Veintiséis de Octubre
Piura
Perú</description>
                <styleUrl>#919</styleUrl>
                <Point id="917">
                    <coordinates>-80.666963,-5.184965,0.0</coordinates>
                </Point>
            </Placemark>
            <Placemark id="923">
                <name>MILUSKA LISSET QUEZADA MERINO</name>
                <description>MZ B9 LT 9 A.H SN MARTIN      
Veintiséis de Octubre
Veintiséis de Octubre
Piura
Perú</description>
                <styleUrl>#924</styleUrl>
                <Point id="922">
                    <coordinates>-80.665838,-5.186146,0.0</coordinates>
                </Point>
            </Placemark>
            <Placemark id="928">
                <name>DIGNA MILAGROS SANCHEZ YOVERA</name>
                <description>AV. CIRCUNVALACIÓN MZN. B10 LOTE 7 SAN MARTIN
Veintiséis de Octubre
Veintiséis de Octubre
Piura
Perú</description>
                <styleUrl>#929</styleUrl>
                <Point id="927">
                    <coordinates>-80.6697717,-5.1876753,0.0</coordinates>
                </Point>
            </Placemark>
            <Placemark id="933">
                <name>VANESSA FIORELLA ALVARADO BURNEO</name>
                <description>MZ D10 lote 28 AAHH San Martin , calle Vicente García
Veintiséis de Octubre
Veintiséis de Octubre
Piura
Perú</description>
                <styleUrl>#934</styleUrl>
                <Point id="932">
                    <coordinates>-80.6716653,-5.1867478,0.0</coordinates>
                </Point>
            </Placemark>
            <Placemark id="938">
                <name>RAQUEL DEL PILAR MORE SOSA</name>
                <description>CA.V.GARCIA H10 20            
Veintiséis de Octubre
Veintiséis de Octubre
Piura
Perú</description>
                <styleUrl>#939</styleUrl>
                <Point id="937">
                    <coordinates>-80.6714403,-5.1864133,0.0</coordinates>
                </Point>
            </Placemark>
            <Placemark id="943">
                <name>MILAGROS DEL SERNAQUE CHUQUIHUANGA</name>
                <description>INT MCDO SAN MARTIN PSTO 35-36 26 DE OCTUBRE
Veintiséis de Octubre
Piura
Piura
Perú</description>
                <styleUrl>#944</styleUrl>
                <Point id="942">
                    <coordinates>-80.6715639,-5.1847583,0.0</coordinates>
                </Point>
            </Placemark>
            <Placemark id="948">
                <name>ORALIA ROBLEDO ABAD</name>
                <description>MZ A13 LT 24 AAHH SAN MARTIN  
Veintiséis de Octubre
Veintiséis de Octubre
Piura
Perú</description>
                <styleUrl>#949</styleUrl>
                <Point id="947">
                    <coordinates>-80.6731635,-5.1833678,0.0</coordinates>
                </Point>
            </Placemark>
            <Placemark id="953">
                <name>FRANKLIN ANTONIO HUACCHILLO CAMPOS</name>
                <description>CALLE JOSÉ MARTI. MZN D12 LOTE 22 ASENTAMIENTO HUMANO SAN MARTIN
Veintiséis de Octubre
Veintiséis de Octubre
Piura
Perú</description>
                <styleUrl>#954</styleUrl>
                <Point id="952">
                    <coordinates>-80.6736198,-5.1858841,0.0</coordinates>
                </Point>
            </Placemark>
            <Placemark id="958">
                <name>MARIA HAYDEE CERVANTES VALLADOLID</name>
                <description>Mz E12 LTE 20 AA.HH SAN MARTIN
Veintiséis de Octubre
Veintiséis de Octubre
Piura
Perú</description>
                <styleUrl>#959</styleUrl>
                <Point id="957">
                    <coordinates>-80.6750101,-5.1847457,0.0</coordinates>
                </Point>
            </Placemark>
            <Placemark id="963">
                <name>ELIZABETH CAMPOVERDE SAAVEDRA</name>
                <description>MZN.C15 LOTE  19 CA.24 SET
Veintiséis de Octubre
Veintiséis de Octubre
Piura
Perú</description>
                <styleUrl>#964</styleUrl>
                <Point id="962">
                    <coordinates>-80.675408,-5.184273,0.0</coordinates>
                </Point>
            </Placemark>
            <Placemark id="968">
                <name>JOSE DANIEL CAMPOS ZAPATA</name>
                <description>MATEO PUMACAHUA  MZN. V3 LOTE 32.AA.HH SAN MARTIN
Veintiséis de Octubre
Veintiséis de Octubre
Piura
Perú</description>
                <styleUrl>#969</styleUrl>
                <Point id="967">
                    <coordinates>-80.6746497,-5.1832569,0.0</coordinates>
                </Point>
            </Placemark>
            <Placemark id="973">
                <name>LUZ MARIA RIOFRIO LOPEZ</name>
                <description>MZA L15  02  01 DE DICIEMBRE  
Veintiséis de Octubre
Piura
Piura
Perú</description>
                <styleUrl>#974</styleUrl>
                <Point id="972">
                    <coordinates>-80.6756348,-5.1828792,0.0</coordinates>
                </Point>
            </Placemark>
            <Placemark id="978">
                <name>DOLLY ARMANDA ANGELDONIS FARFAN DE TIMOTEO</name>
                <description>AV. TIMOTEO PUMACAHUA B13 LOTE 19  ASENTAMIENTO HUMANO SAN MARTIN
Veintiséis de Octubre

Piura
Perú</description>
                <styleUrl>#979</styleUrl>
                <Point id="977">
                    <coordinates>-80.6742295,-5.1819763,0.0</coordinates>
                </Point>
            </Placemark>
            <Placemark id="983">
                <name>MARIELENA ROMAN HOLGUIN</name>
                <description>URB.PARQUES DE PIURA 2DA ETAPA LOCAL 01 AL COSTADO DE LA SRA. Noriega
Veintiséis de Octubre

Piura
Perú</description>
                <styleUrl>#984</styleUrl>
                <Point id="982">
                    <coordinates>-80.676621,-5.1815207,0.0</coordinates>
                </Point>
            </Placemark>
            <Placemark id="988">
                <name>BALBINA MADRID DE SERRATO</name>
                <description>CA.MIGUEL CORREA MZ E3 LTE.3 MICAELA BASTIDAS
Veintiséis de Octubre
Piura
Piura
Perú</description>
                <styleUrl>#989</styleUrl>
                <Point id="987">
                    <coordinates>-80.674767,-5.178183,0.0</coordinates>
                </Point>
            </Placemark>
            <Placemark id="993">
                <name>MARIA IRENE SOTO CASTILLO</name>
                <description>E3 LOTE 2 A.H MICAELA BASTIDAS
Veintiséis de Octubre
Veintiséis de Octubre
Piura
Perú</description>
                <styleUrl>#994</styleUrl>
                <Point id="992">
                    <coordinates>-80.6747976,-5.17816,0.0</coordinates>
                </Point>
            </Placemark>
            <Placemark id="998">
                <name>MARGOTH SUSANA GARCIA GALINDO</name>
                <description>MICAELA BASTIDAS MZ C-3 L-27 PIURA
Veintiséis de Octubre
Piura
Piura
Perú</description>
                <styleUrl>#999</styleUrl>
                <Point id="997">
                    <coordinates>-80.6743532,-5.1765374,0.0</coordinates>
                </Point>
            </Placemark>
            <Placemark id="1003">
                <name>BERTHA GIRON VALLE</name>
                <description>Aahh Micaela bastidas MZ D3 lote 5 tercer sector
Veintiséis de Octubre
Veintiséis de Octubre
Piura
Perú</description>
                <styleUrl>#1004</styleUrl>
                <Point id="1002">
                    <coordinates>-80.6742538,-5.1770022,0.0</coordinates>
                </Point>
            </Placemark>
            <Placemark id="1008">
                <name>MONICA BRANDA BENITES CHUYES</name>
                <description>CALLE ERNESTO CHE GUEVARA D11-21 AH SAN MARTIN
Veintiséis de Octubre
Veintiséis de Octubre
Piura
Perú</description>
                <styleUrl>#1009</styleUrl>
                <Point id="1007">
                    <coordinates>-80.6709542,-5.1832213,0.0</coordinates>
                </Point>
            </Placemark>
            <Placemark id="1013">
                <name>GLADYS MARIA CESPEDES DE MONTOYA</name>
                <description>Mz H3 lote 27
Veintiséis de Octubre
Veintiséis de Octubre
Piura
Perú</description>
                <styleUrl>#1014</styleUrl>
                <Point id="1012">
                    <coordinates>-80.6736496,-5.1772757,0.0</coordinates>
                </Point>
            </Placemark>
            <Placemark id="1018">
                <name>FABIAN MORE VIRGINIA AMELIA</name>
                <description>MZ A3 LOTE 6 AA.HH MICAELA BASTIDAS
Veintiséis de Octubre
Veintiséis de Octubre
Piura
Perú</description>
                <styleUrl>#1019</styleUrl>
                <Point id="1017">
                    <coordinates>-80.6728434,-5.1772315,0.0</coordinates>
                </Point>
            </Placemark>
            <Placemark id="1023">
                <name>DOLARISA SILUPU ARRIOLA</name>
                <description>AA. HH MICAELA BASTIDAS MZ A3 LT 9 PIURA
Veintiséis de Octubre
Piura
Piura
Perú</description>
                <styleUrl>#1024</styleUrl>
                <Point id="1022">
                    <coordinates>-80.672808,-5.1773104,0.0</coordinates>
                </Point>
            </Placemark>
            <Placemark id="1028">
                <name>DILMA GUERRERO ALVERCA</name>
                <description>DILMA GUERRERO ALVERCA
CA.B. HUAMAN MZ11-16 S. MARTIN PI
Veintiséis de Octubre
Piura
Piura
Perú</description>
                <styleUrl>#1029</styleUrl>
                <Point id="1027">
                    <coordinates>-80.6693793,-5.1842269,0.0</coordinates>
                </Point>
            </Placemark>
            <Placemark id="1033">
                <name>GUERRERO DE TRONCOS NERIDA</name>
                <description>GUERRERO DE TRONCOS NERIDA
BENJAMIN HUAMAN 132 MZ A11 LT 09 AA. HHSAN MARTIN - PIURA
Veintiséis de Octubre

Piura
Perú</description>
                <styleUrl>#1034</styleUrl>
                <Point id="1032">
                    <coordinates>-80.668643,-5.184407,0.0</coordinates>
                </Point>
            </Placemark>
            <Placemark id="1038">
                <name>SILVIA ISABEL LESCANO MARQUEZ</name>
                <description>SILVIA ISABEL LESCANO MARQUEZ
CA.JOSE C. MARIATEGUI 521 SAN MARTIN - PIURA
Veintiséis de Octubre
Piura
Piura
Perú</description>
                <styleUrl>#1039</styleUrl>
                <Point id="1037">
                    <coordinates>-80.6689214,-5.1870892,0.0</coordinates>
                </Point>
            </Placemark>
            <Placemark id="1043">
                <name>CIRO LEONARDI BRUNO DIOSES</name>
                <description>AV EX CIRCUNVALACION MZ B8 LT6 SAN MARTIN 26 DE OCTUBRE-Piura
Veintiséis de Octubre
Veintiséis de Octubre
Piura
Perú</description>
                <styleUrl>#1044</styleUrl>
                <Point id="1042">
                    <coordinates>-80.6657401,-5.1879038,0.0</coordinates>
                </Point>
            </Placemark>
        </Folder>
    </Document>
</kml>
